{
  "type": "FeatureCollection",
  "features": [
    {
      "geometry": {
        "coordinates": [
          [
            [
              [
                -69.46837885499986,
                -17.464798859999974
              ],
              [
                -69.46829297899984,
                -17.504169859999877
              ],
              [
                -69.52776372899996,
                -17.554773484999885
              ],
              [
                -69.55136135399988,
                -17.57508985999982
              ],
              [
                -69.56858785400004,
                -17.587607484999978
              ],
              [
                -69.59798435499994,
                -17.60848835999991
              ],
              [
                -69.61801173000003,
                -17.62290623499996
              ],
              [
                -69.66541210399993,
                -17.659900359999938
              ],
              [
                -69.75232622999982,
                -17.6496874849999
              ],
              [
                -69.78439260399978,
                -17.64680273499988
              ],
              [
                -69.79598822999986,
                -17.64624223499999
              ],
              [
                -69.8101269799999,
                -17.669173859999944
              ],
              [
                -69.82119722999988,
                -17.686355484999922
              ],
              [
                -69.82504297999992,
                -17.704412109999907
              ],
              [
                -69.82266210499984,
                -17.725222609999946
              ],
              [
                -69.82167773000003,
                -17.743812484999978
              ],
              [
                -69.81167572899989,
                -17.753187485999888
              ],
              [
                -69.80004885399984,
                -17.76233198499989
              ],
              [
                -69.79991210499992,
                -17.78439848499994
              ],
              [
                -69.79880660399982,
                -17.8062363599999
              ],
              [
                -69.7972637289999,
                -17.83044923499989
              ],
              [
                -69.79571485499991,
                -17.862257859999943
              ],
              [
                -69.79204497900002,
                -17.869456984999943
              ],
              [
                -69.78653697899983,
                -17.883804734999956
              ],
              [
                -69.77671872899987,
                -17.908160109999926
              ],
              [
                -69.77467385499989,
                -17.910423859999923
              ],
              [
                -69.76322660499989,
                -17.924599609999916
              ],
              [
                -69.74760347999995,
                -17.943124984999884
              ],
              [
                -69.74717772899999,
                -17.94393748499988
              ],
              [
                -69.75150385400002,
                -17.98558985999989
              ],
              [
                -69.7532051039999,
                -17.989558609999904
              ],
              [
                -69.75940035400004,
                -18.001964860999976
              ],
              [
                -69.76565622999982,
                -18.015656359999923
              ],
              [
                -69.77745897899985,
                -18.040390610999907
              ],
              [
                -69.81308010499998,
                -18.11447848599994
              ],
              [
                -69.8227012299999,
                -18.126242235999825
              ],
              [
                -69.85430872899985,
                -18.16534761099996
              ],
              [
                -69.90074998,
                -18.201910109999915
              ],
              [
                -69.9605488549999,
                -18.262884735999876
              ],
              [
                -69.97086322999996,
                -18.266900359999966
              ],
              [
                -69.98023260499997,
                -18.27026361099996
              ],
              [
                -69.9984061049999,
                -18.26979098599992
              ],
              [
                -70.0152734799999,
                -18.269886735999933
              ],
              [
                -70.03431635499999,
                -18.26958010999988
              ],
              [
                -70.05070697999997,
                -18.268802735999884
              ],
              [
                -70.07474610499992,
                -18.282497860999968
              ],
              [
                -70.09011723000003,
                -18.290324234999957
              ],
              [
                -70.11080072999988,
                -18.30038673599978
              ],
              [
                -70.14965235499989,
                -18.318367235999972
              ],
              [
                -70.18617572999983,
                -18.32144135999988
              ],
              [
                -70.19716798000002,
                -18.322187484999972
              ],
              [
                -70.24894722999977,
                -18.313142609999943
              ],
              [
                -70.26891410499991,
                -18.310046860999876
              ],
              [
                -70.28680473000003,
                -18.30810548599993
              ],
              [
                -70.29532223000001,
                -18.30805273599998
              ],
              [
                -70.3174512299999,
                -18.30970311099992
              ],
              [
                -70.32117385499998,
                -18.311101610000037
              ],
              [
                -70.335150355,
                -18.31557223599998
              ],
              [
                -70.34539847999997,
                -18.320789109999964
              ],
              [
                -70.35387697999982,
                -18.326193360999923
              ],
              [
                -70.36030860499989,
                -18.33159761099995
              ],
              [
                -70.37083398099998,
                -18.341099610999947
              ],
              [
                -70.37618160499994,
                -18.34931636099992
              ],
              [
                -70.37671110499997,
                -18.350927735999903
              ],
              [
                -70.38274410499992,
                -18.3461621109999
              ],
              [
                -70.38572848000001,
                -18.342785109999966
              ],
              [
                -70.39595697999988,
                -18.333615235999957
              ],
              [
                -70.40051173099988,
                -18.330484359999957
              ],
              [
                -70.40567572999987,
                -18.326111359999913
              ],
              [
                -70.42217972999993,
                -18.314595735999944
              ],
              [
                -70.42528122999994,
                -18.31185736099991
              ],
              [
                -70.42918560599986,
                -18.309591859999955
              ],
              [
                -70.43902347999995,
                -18.302365235999787
              ],
              [
                -70.44590623099992,
                -18.298175735999962
              ],
              [
                -70.45306635500003,
                -18.29338861099984
              ],
              [
                -70.45757222999998,
                -18.289369109999882
              ],
              [
                -70.46319147999998,
                -18.28616411099989
              ],
              [
                -70.48128910499997,
                -18.27341211099997
              ],
              [
                -70.49032035499982,
                -18.268265610999947
              ],
              [
                -70.49831447999992,
                -18.262738235999905
              ],
              [
                -70.50585548000004,
                -18.259251985999924
              ],
              [
                -70.50762698100004,
                -18.257540985999867
              ],
              [
                -70.51180660499983,
                -18.255478610999944
              ],
              [
                -70.51586323099986,
                -18.2524003609999
              ],
              [
                -70.52349410499983,
                -18.248003860999916
              ],
              [
                -70.52473435499985,
                -18.246664110999916
              ],
              [
                -70.53090435499985,
                -18.243113235999886
              ],
              [
                -70.53626947999993,
                -18.240583985999876
              ],
              [
                -70.54226560500001,
                -18.236119110999937
              ],
              [
                -70.54416010499989,
                -18.23561910999996
              ],
              [
                -70.5528808549999,
                -18.23017385999998
              ],
              [
                -70.55921872999983,
                -18.226978484999847
              ],
              [
                -70.56295297999998,
                -18.224205110999947
              ],
              [
                -70.56560747999987,
                -18.223371110999892
              ],
              [
                -70.56790235599988,
                -18.221580109999934
              ],
              [
                -70.58029885499997,
                -18.214900359999888
              ],
              [
                -70.58108985599989,
                -18.21391598599996
              ],
              [
                -70.58659572999989,
                -18.21111723599995
              ],
              [
                -70.59789447999987,
                -18.203910110999857
              ],
              [
                -70.60464847999992,
                -18.20110935999992
              ],
              [
                -70.60960347999992,
                -18.19761323599994
              ],
              [
                -70.61150385499985,
                -18.197023485999978
              ],
              [
                -70.63349023099994,
                -18.18543561099989
              ],
              [
                -70.63469722999997,
                -18.184417984999982
              ],
              [
                -70.64311135499992,
                -18.18031448499994
              ],
              [
                -70.64545697999995,
                -18.180972485999916
              ],
              [
                -70.64871485600003,
                -18.177103485999908
              ],
              [
                -70.6544628549999,
                -18.173968735999892
              ],
              [
                -70.65685160499993,
                -18.173517609999976
              ],
              [
                -70.65927935499991,
                -18.171509735999905
              ],
              [
                -70.66303335599991,
                -18.17004886099994
              ],
              [
                -70.6683906049999,
                -18.166574234999928
              ],
              [
                -70.67857423099997,
                -18.16184760999994
              ],
              [
                -70.68058398099981,
                -18.159325985999885
              ],
              [
                -70.68258398,
                -18.158824235999873
              ],
              [
                -70.68486323099984,
                -18.15652148599986
              ],
              [
                -70.68817185499995,
                -18.1518944849999
              ],
              [
                -70.69290622999989,
                -18.15042773599987
              ],
              [
                -70.69427360499986,
                -18.14690035999996
              ],
              [
                -70.69836722999992,
                -18.14460160999994
              ],
              [
                -70.70044922999989,
                -18.142066360999934
              ],
              [
                -70.70094722999988,
                -18.14006448599997
              ],
              [
                -70.704373105,
                -18.139322235999828
              ],
              [
                -70.70546485599994,
                -18.137349609999944
              ],
              [
                -70.70921873099991,
                -18.137568359999932
              ],
              [
                -70.70843160599998,
                -18.135064484999873
              ],
              [
                -70.71126173100004,
                -18.12905273599995
              ],
              [
                -70.71530072999991,
                -18.127117235999947
              ],
              [
                -70.7153144799999,
                -18.12541598499996
              ],
              [
                -70.72344922999991,
                -18.120531234999874
              ],
              [
                -70.725167855,
                -18.118693359999952
              ],
              [
                -70.7267519809999,
                -18.119345609999925
              ],
              [
                -70.72993948099992,
                -18.114654359999918
              ],
              [
                -70.72883010499987,
                -18.113173859999904
              ],
              [
                -70.72842785599988,
                -18.10941985999989
              ],
              [
                -70.73135348099993,
                -18.10593748599996
              ],
              [
                -70.740955106,
                -18.098388609999915
              ],
              [
                -70.74276560500005,
                -18.09917573599995
              ],
              [
                -70.74457810599984,
                -18.09586136099989
              ],
              [
                -70.7479804799998,
                -18.094591735999927
              ],
              [
                -70.75027735499992,
                -18.09209573599992
              ],
              [
                -70.75250973099998,
                -18.092673859999877
              ],
              [
                -70.75250385499987,
                -18.088505985999973
              ],
              [
                -70.75724610600003,
                -18.083755859999883
              ],
              [
                -70.75949997999999,
                -18.082247984999924
              ],
              [
                -70.75945697999998,
                -18.08041798599993
              ],
              [
                -70.76118360499993,
                -18.078675735999923
              ],
              [
                -70.76269723099995,
                -18.079714859999854
              ],
              [
                -70.76786722999987,
                -18.076130859999978
              ],
              [
                -70.77224610499997,
                -18.074181609999982
              ],
              [
                -70.77355073099983,
                -18.07213085999996
              ],
              [
                -70.77729298099985,
                -18.070919859999947
              ],
              [
                -70.77942573099983,
                -18.065738110999973
              ],
              [
                -70.78909760599993,
                -18.05892186099993
              ],
              [
                -70.79485348000003,
                -18.05653123499991
              ],
              [
                -70.79611723100004,
                -18.054578110999955
              ],
              [
                -70.79991798100002,
                -18.05213673499992
              ],
              [
                -70.80473635599998,
                -18.050386734999904
              ],
              [
                -70.81024410599997,
                -18.05083985999994
              ],
              [
                -70.81259960599982,
                -18.048814485999856
              ],
              [
                -70.8105019809999,
                -18.04455273499991
              ],
              [
                -70.81315622999995,
                -18.040488234999884
              ],
              [
                -70.82099410599983,
                -18.03660348599982
              ],
              [
                -70.82301372999996,
                -18.035011734999898
              ],
              [
                -70.82740623099994,
                -18.034619110999927
              ],
              [
                -70.83514260500004,
                -18.03258786099991
              ],
              [
                -70.83778910599989,
                -18.033763610999927
              ],
              [
                -70.84283785499991,
                -18.031253860999925
              ],
              [
                -70.84487110500004,
                -18.028736359999925
              ],
              [
                -70.84838872999984,
                -18.026781235999977
              ],
              [
                -70.85525585499994,
                -18.02708011099992
              ],
              [
                -70.8589726049999,
                -18.023378859999923
              ],
              [
                -70.8637558559999,
                -18.020738235999943
              ],
              [
                -70.86444923099998,
                -18.01882811099989
              ],
              [
                -70.86711323099996,
                -18.019853484999828
              ],
              [
                -70.87003710499994,
                -18.019914110999935
              ],
              [
                -70.87177148,
                -18.01679485999989
              ],
              [
                -70.87424410499995,
                -18.014421860999903
              ],
              [
                -70.8777012299999,
                -18.015232360999903
              ],
              [
                -70.88620898099987,
                -18.007720735999953
              ],
              [
                -70.88921285599992,
                -18.00398436099988
              ],
              [
                -70.88666598099985,
                -18.00099798499997
              ],
              [
                -70.884054731,
                -17.995300734999944
              ],
              [
                -70.88256448000004,
                -17.993968734999953
              ],
              [
                -70.88427148099987,
                -17.987972610999975
              ],
              [
                -70.88872660599992,
                -17.98314848499996
              ],
              [
                -70.88990235499983,
                -17.979900234999945
              ],
              [
                -70.88947260599991,
                -17.97651560999998
              ],
              [
                -70.87927998099997,
                -17.972700110999938
              ],
              [
                -70.87353998099985,
                -17.97289998499997
              ],
              [
                -70.86655997999992,
                -17.96725998599993
              ],
              [
                -70.86333998099985,
                -17.9667999859999
              ],
              [
                -70.86141998099998,
                -17.964309984999943
              ],
              [
                -70.8550599809999,
                -17.953939984999977
              ],
              [
                -70.85306998099992,
                -17.952129984999942
              ],
              [
                -70.84920510599989,
                -17.943027359999974
              ],
              [
                -70.84992935499986,
                -17.94025373499983
              ],
              [
                -70.848959605,
                -17.936198109999907
              ],
              [
                -70.84869510599987,
                -17.931436984999948
              ],
              [
                -70.84712697999998,
                -17.92973835999993
              ],
              [
                -70.84403910499992,
                -17.92852735999992
              ],
              [
                -70.84149472999991,
                -17.925941234999982
              ],
              [
                -70.83868560499991,
                -17.915902359999905
              ],
              [
                -70.83929497999998,
                -17.91151761099991
              ],
              [
                -70.8368806059998,
                -17.909483234999982
              ],
              [
                -70.82873972999988,
                -17.905927109999936
              ],
              [
                -70.82747585599986,
                -17.90331148499996
              ],
              [
                -70.82365548099995,
                -17.89875610999991
              ],
              [
                -70.82286185599992,
                -17.893936359999884
              ],
              [
                -70.81001372999992,
                -17.89166410999991
              ],
              [
                -70.8068457299999,
                -17.88956635999989
              ],
              [
                -70.80588472999989,
                -17.88510548499994
              ],
              [
                -70.80146097999989,
                -17.877509735999922
              ],
              [
                -70.80105860599997,
                -17.87412885999987
              ],
              [
                -70.799195355,
                -17.871359360999975
              ],
              [
                -70.79664648099987,
                -17.87034373499995
              ],
              [
                -70.7947929799999,
                -17.868468735999897
              ],
              [
                -70.79454098099984,
                -17.864855485999897
              ],
              [
                -70.79049610499999,
                -17.85776948599988
              ],
              [
                -70.77816798099985,
                -17.84524998599983
              ],
              [
                -70.77575785499994,
                -17.84005260999993
              ],
              [
                -70.77189648,
                -17.83605473499989
              ],
              [
                -70.76423635499992,
                -17.829001984999877
              ],
              [
                -70.76128323,
                -17.82335735999993
              ],
              [
                -70.76006247999999,
                -17.818234359999906
              ],
              [
                -70.75843748099999,
                -17.81648823499995
              ],
              [
                -70.74994723099996,
                -17.810091859999943
              ],
              [
                -70.74583398099992,
                -17.80381635999987
              ],
              [
                -70.73634372999993,
                -17.79685348499993
              ],
              [
                -70.73208598099995,
                -17.792255859999898
              ],
              [
                -70.72931635599986,
                -17.785091859999852
              ],
              [
                -70.69741210599994,
                -17.767781234999916
              ],
              [
                -70.69763997999996,
                -17.762839984999914
              ],
              [
                -70.69702997999985,
                -17.760030109999946
              ],
              [
                -70.69739997999983,
                -17.756849984999974
              ],
              [
                -70.69265997999986,
                -17.744579985999962
              ],
              [
                -70.6897599809999,
                -17.74038998599991
              ],
              [
                -70.68805997999993,
                -17.736349984999947
              ],
              [
                -70.6879124809999,
                -17.733297984999865
              ],
              [
                -70.68362397999988,
                -17.72956873499993
              ],
              [
                -70.6830646049998,
                -17.72782860999996
              ],
              [
                -70.68381048099985,
                -17.72391298499997
              ],
              [
                -70.6830646049998,
                -17.719624610999972
              ],
              [
                -70.68088935499992,
                -17.715646734999893
              ],
              [
                -70.67607810599992,
                -17.711523484999816
              ],
              [
                -70.66852110599984,
                -17.708375109999906
              ],
              [
                -70.65752035600002,
                -17.70197348499994
              ],
              [
                -70.65546935499987,
                -17.70017110999993
              ],
              [
                -70.64984185499992,
                -17.691033234999963
              ],
              [
                -70.64223435500003,
                -17.68424998499995
              ],
              [
                -70.6309914799998,
                -17.674592984999947
              ],
              [
                -70.62626372999995,
                -17.670836234999967
              ],
              [
                -70.61769822999992,
                -17.66469110999992
              ],
              [
                -70.6084179799999,
                -17.656283234999876
              ],
              [
                -70.57258785499994,
                -17.619923859999915
              ],
              [
                -70.51461522999989,
                -17.55641985999995
              ],
              [
                -70.51142185499998,
                -17.552769359999957
              ],
              [
                -70.50974998000004,
                -17.549925734999874
              ],
              [
                -70.50889647999992,
                -17.545339859999956
              ],
              [
                -70.50377435499979,
                -17.54172535999993
              ],
              [
                -70.49913710499987,
                -17.540271359999906
              ],
              [
                -70.48039235499988,
                -17.53076148499997
              ],
              [
                -70.47489847999987,
                -17.528742359999967
              ],
              [
                -70.46593110499998,
                -17.524788359999945
              ],
              [
                -70.4603116049999,
                -17.522705609999946
              ],
              [
                -70.45842535499986,
                -17.52062285999989
              ],
              [
                -70.45480997999988,
                -17.519640359999983
              ],
              [
                -70.44683260499983,
                -17.51590723499993
              ],
              [
                -70.44459572999995,
                -17.51289260999988
              ],
              [
                -70.44437497999996,
                -17.509037109999895
              ],
              [
                -70.44030935499984,
                -17.50592573499995
              ],
              [
                -70.43413972999997,
                -17.50003110999984
              ],
              [
                -70.43272497999999,
                -17.49181810999994
              ],
              [
                -70.42976372999976,
                -17.487113234999924
              ],
              [
                -70.42828322999992,
                -17.483341734999897
              ],
              [
                -70.4237519809999,
                -17.48408010999998
              ],
              [
                -70.42097510499991,
                -17.483683609999957
              ],
              [
                -70.41677035499998,
                -17.47892860999997
              ],
              [
                -70.41303710499983,
                -17.47841773499988
              ],
              [
                -70.4053349799999,
                -17.478378484999837
              ],
              [
                -70.40274135499999,
                -17.47684585999997
              ],
              [
                -70.4006192299999,
                -17.473702109999977
              ],
              [
                -70.39224898000003,
                -17.46431010999993
              ],
              [
                -70.38545310499995,
                -17.461414109999964
              ],
              [
                -70.38030260499994,
                -17.46014460999993
              ],
              [
                -70.37346497999988,
                -17.459555109999883
              ],
              [
                -70.36780660499988,
                -17.461087859999964
              ],
              [
                -70.36100772999998,
                -17.461755734999883
              ],
              [
                -70.35369135500002,
                -17.460681609999938
              ],
              [
                -70.34578710499989,
                -17.46074023499989
              ],
              [
                -70.34491797999982,
                -17.464527359999977
              ],
              [
                -70.34165872999989,
                -17.4686558599999
              ],
              [
                -70.34058997999983,
                -17.471899984999823
              ],
              [
                -70.34181997999991,
                -17.47608998499993
              ],
              [
                -70.34163997999985,
                -17.482789984999897
              ],
              [
                -70.34059997999987,
                -17.486289984999928
              ],
              [
                -70.3386798549999,
                -17.488119984999912
              ],
              [
                -70.33675997999984,
                -17.493309984999883
              ],
              [
                -70.33320997999976,
                -17.497009984999977
              ],
              [
                -70.33431998000003,
                -17.49821998499982
              ],
              [
                -70.33354010499988,
                -17.502939984999898
              ],
              [
                -70.33228997999993,
                -17.505399984999883
              ],
              [
                -70.33179522999984,
                -17.5093163599999
              ],
              [
                -70.32974997999992,
                -17.51006448499993
              ],
              [
                -70.32138010499989,
                -17.516234359999885
              ],
              [
                -70.3178259799999,
                -17.518109359999926
              ],
              [
                -70.31287260499994,
                -17.51956460899993
              ],
              [
                -70.30959848000003,
                -17.52678473499992
              ],
              [
                -70.30593223,
                -17.52899560999998
              ],
              [
                -70.30470098,
                -17.537810984999908
              ],
              [
                -70.30041922999993,
                -17.539881859999923
              ],
              [
                -70.2962109799999,
                -17.54002935999995
              ],
              [
                -70.28997072999988,
                -17.53719535999994
              ],
              [
                -70.28760197999992,
                -17.537559109999847
              ],
              [
                -70.28583897999988,
                -17.54060948499989
              ],
              [
                -70.284019855,
                -17.549312859999873
              ],
              [
                -70.28144522999986,
                -17.555161734999956
              ],
              [
                -70.28124935499983,
                -17.560730734999936
              ],
              [
                -70.27822697999994,
                -17.563921109999967
              ],
              [
                -70.27467285499995,
                -17.565320359999816
              ],
              [
                -70.2718743549998,
                -17.568790484999965
              ],
              [
                -70.26582960499985,
                -17.57086135999998
              ],
              [
                -70.26177173000002,
                -17.57430360999996
              ],
              [
                -70.26093560499993,
                -17.577251985000032
              ],
              [
                -70.25306835499987,
                -17.58062823499995
              ],
              [
                -70.24749935499995,
                -17.58429423499996
              ],
              [
                -70.24092272999991,
                -17.587316609999903
              ],
              [
                -70.23745260499993,
                -17.589667359999908
              ],
              [
                -70.23439847999992,
                -17.589982359999965
              ],
              [
                -70.22571485499998,
                -17.59181048499994
              ],
              [
                -70.21678910499998,
                -17.588994109999874
              ],
              [
                -70.20661297999982,
                -17.588408109999875
              ],
              [
                -70.20429022999991,
                -17.588967734999926
              ],
              [
                -70.19133310499979,
                -17.58938760999996
              ],
              [
                -70.18072672999989,
                -17.589275609999902
              ],
              [
                -70.177592355,
                -17.588603984999963
              ],
              [
                -70.17475972999983,
                -17.587115234999942
              ],
              [
                -70.17143160399996,
                -17.587447234999956
              ],
              [
                -70.1677851049999,
                -17.589624984999944
              ],
              [
                -70.16567722999991,
                -17.59172298499982
              ],
              [
                -70.16124810499991,
                -17.597999984999944
              ],
              [
                -70.16079885499988,
                -17.599466734999965
              ],
              [
                -70.15532622999984,
                -17.595271484999955
              ],
              [
                -70.15075385499989,
                -17.59683785999988
              ],
              [
                -70.15002735500002,
                -17.59927348499997
              ],
              [
                -70.15148435500004,
                -17.606074234999937
              ],
              [
                -70.15106247899996,
                -17.610298859999887
              ],
              [
                -70.15214447999995,
                -17.614205109999887
              ],
              [
                -70.1502441049999,
                -17.61995298499994
              ],
              [
                -70.15183010500004,
                -17.62413860999993
              ],
              [
                -70.14338672999997,
                -17.631712859999936
              ],
              [
                -70.14328122999996,
                -17.637337859999946
              ],
              [
                -70.14557035500002,
                -17.648482484999874
              ],
              [
                -70.14885160499989,
                -17.653277234999848
              ],
              [
                -70.15161322999995,
                -17.65931835999993
              ],
              [
                -70.15246097999983,
                -17.663814484999932
              ],
              [
                -70.15182422999999,
                -17.66945310999995
              ],
              [
                -70.15333785500002,
                -17.679333859999815
              ],
              [
                -70.15232810500004,
                -17.68349223499996
              ],
              [
                -70.15372260500004,
                -17.693400359999885
              ],
              [
                -70.15610547999995,
                -17.697767609999914
              ],
              [
                -70.16069135500004,
                -17.70205860999988
              ],
              [
                -70.16386135499988,
                -17.70604098499996
              ],
              [
                -70.16545885499988,
                -17.70953323499998
              ],
              [
                -70.17134960500005,
                -17.716623109999944
              ],
              [
                -70.17633785499993,
                -17.721701110999902
              ],
              [
                -70.17864648,
                -17.722810484999968
              ],
              [
                -70.18156448000002,
                -17.72721873499995
              ],
              [
                -70.18370898,
                -17.732414110999912
              ],
              [
                -70.18958397999984,
                -17.737269484999842
              ],
              [
                -70.18869723,
                -17.7409277349999
              ],
              [
                -70.19121685499982,
                -17.745259734999877
              ],
              [
                -70.19319535499994,
                -17.74675585999995
              ],
              [
                -70.19310748000004,
                -17.750708985999836
              ],
              [
                -70.19523435499997,
                -17.75421873499988
              ],
              [
                -70.20104098000002,
                -17.757974609999962
              ],
              [
                -70.20137510499984,
                -17.762937484999895
              ],
              [
                -70.19752723,
                -17.767367234999938
              ],
              [
                -70.19676172999988,
                -17.771072234999906
              ],
              [
                -70.19528123000003,
                -17.773943359999976
              ],
              [
                -70.19330273000003,
                -17.77563673499992
              ],
              [
                -70.18926372999988,
                -17.775902359999975
              ],
              [
                -70.18074810499996,
                -17.778212984999925
              ],
              [
                -70.17208397999985,
                -17.77602735999983
              ],
              [
                -70.16849610499992,
                -17.77443560999984
              ],
              [
                -70.16208197999998,
                -17.77316985999994
              ],
              [
                -70.15354497999982,
                -17.773919984999964
              ],
              [
                -70.15007810400004,
                -17.773070359999963
              ],
              [
                -70.14297460499989,
                -17.77310923499988
              ],
              [
                -70.13761122999995,
                -17.77266598599988
              ],
              [
                -70.133767605,
                -17.770445359999826
              ],
              [
                -70.13105472999996,
                -17.770162109999944
              ],
              [
                -70.12634960499997,
                -17.767119109999953
              ],
              [
                -70.12174997999989,
                -17.766744109999934
              ],
              [
                -70.1167284789999,
                -17.764915984999902
              ],
              [
                -70.11245897899994,
                -17.76245898499991
              ],
              [
                -70.10899810499996,
                -17.75929498499994
              ],
              [
                -70.0997656039998,
                -17.74402735999996
              ],
              [
                -70.10038285499996,
                -17.74115435999994
              ],
              [
                -70.09884572999988,
                -17.736484359999963
              ],
              [
                -70.09691010499995,
                -17.728648484999837
              ],
              [
                -70.09471872999984,
                -17.724964859999943
              ],
              [
                -70.09105472999988,
                -17.723679734999962
              ],
              [
                -70.0886074799999,
                -17.71892573499997
              ],
              [
                -70.08562497999986,
                -17.71739848499982
              ],
              [
                -70.08219923000001,
                -17.71863286099989
              ],
              [
                -70.07754297899987,
                -17.71575386
              ],
              [
                -70.07498247999985,
                -17.7113378599999
              ],
              [
                -70.07226760499992,
                -17.7108086099999
              ],
              [
                -70.06952347999982,
                -17.705783234999956
              ],
              [
                -70.06519722899998,
                -17.700664109999877
              ],
              [
                -70.06281447999999,
                -17.700867234999976
              ],
              [
                -70.0598496049999,
                -17.69957810999989
              ],
              [
                -70.059187479,
                -17.695191359999853
              ],
              [
                -70.05466485499983,
                -17.69398373499996
              ],
              [
                -70.05322472999984,
                -17.68861435999986
              ],
              [
                -70.04966585499983,
                -17.682195734999823
              ],
              [
                -70.04749222999993,
                -17.67926560999996
              ],
              [
                -70.04866210499989,
                -17.673273484999925
              ],
              [
                -70.04472460499989,
                -17.67115823499995
              ],
              [
                -70.04280272999995,
                -17.666947235
              ],
              [
                -70.04105860499988,
                -17.665540984999893
              ],
              [
                -70.03564260500002,
                -17.664794859999972
              ],
              [
                -70.02935547899995,
                -17.66491798499993
              ],
              [
                -70.02030660499997,
                -17.66158398499988
              ],
              [
                -70.01731447899994,
                -17.657349609999926
              ],
              [
                -70.01502535499998,
                -17.655138734999923
              ],
              [
                -70.01526560499997,
                -17.64966998499989
              ],
              [
                -70.01297060499996,
                -17.646738234999873
              ],
              [
                -70.00972072899992,
                -17.644996109999965
              ],
              [
                -70.00730272999988,
                -17.642058609999935
              ],
              [
                -70.00954685499994,
                -17.639023484999882
              ],
              [
                -70.01110160399986,
                -17.63302135999993
              ],
              [
                -70.01313472999988,
                -17.628398484999877
              ],
              [
                -70.01466010499996,
                -17.626410109999938
              ],
              [
                -70.01313472999988,
                -17.62405073499997
              ],
              [
                -70.01119335499999,
                -17.622986360000027
              ],
              [
                -70.00663660499993,
                -17.622228484999937
              ],
              [
                -70.00342385399983,
                -17.616607359999875
              ],
              [
                -69.99851760499996,
                -17.617390609999916
              ],
              [
                -69.99200785399984,
                -17.611218734999966
              ],
              [
                -69.98958197900004,
                -17.60713623499987
              ],
              [
                -69.98754710399999,
                -17.6022054849999
              ],
              [
                -69.98562947899995,
                -17.599270484999977
              ],
              [
                -69.98322460499992,
                -17.597140609999883
              ],
              [
                -69.97932222999998,
                -17.597685484999943
              ],
              [
                -69.97248047999983,
                -17.59565035999998
              ],
              [
                -69.97162310399995,
                -17.59292385999987
              ],
              [
                -69.97008597899986,
                -17.591455109999856
              ],
              [
                -69.9688906049999,
                -17.588335984999958
              ],
              [
                -69.96714447999983,
                -17.58621873499993
              ],
              [
                -69.96408785499989,
                -17.58611723499996
              ],
              [
                -69.95764847999999,
                -17.590749984999945
              ],
              [
                -69.95462885500001,
                -17.588527359999887
              ],
              [
                -69.95415235500002,
                -17.58520898499995
              ],
              [
                -69.94913285500002,
                -17.583494109999833
              ],
              [
                -69.94551935499999,
                -17.578833984999903
              ],
              [
                -69.94149222899983,
                -17.578089859999977
              ],
              [
                -69.94033010499987,
                -17.581751984999926
              ],
              [
                -69.93476560399989,
                -17.583814484999948
              ],
              [
                -69.93244335499986,
                -17.586136734999968
              ],
              [
                -69.93170897899995,
                -17.58907035999988
              ],
              [
                -69.92988285399986,
                -17.590314609999893
              ],
              [
                -69.92845310400003,
                -17.589160109999966
              ],
              [
                -69.91980760499996,
                -17.589252484999975
              ],
              [
                -69.90818510399993,
                -17.586943609999878
              ],
              [
                -69.90224810499979,
                -17.58474610999997
              ],
              [
                -69.89406835499994,
                -17.58277348499996
              ],
              [
                -69.88761910499994,
                -17.583265609999955
              ],
              [
                -69.88334372999998,
                -17.58234960999988
              ],
              [
                -69.87574810399997,
                -17.584839859999875
              ],
              [
                -69.87205472999983,
                -17.578119109999818
              ],
              [
                -69.87174022900001,
                -17.572464859999968
              ],
              [
                -69.87216597899999,
                -17.567689485000017
              ],
              [
                -69.87532810499988,
                -17.56256635999995
              ],
              [
                -69.87439847899986,
                -17.557156234999866
              ],
              [
                -69.87070122900002,
                -17.555208984999865
              ],
              [
                -69.87243560499991,
                -17.548728484999856
              ],
              [
                -69.87210735399992,
                -17.54637110999994
              ],
              [
                -69.86862885499988,
                -17.54204685999997
              ],
              [
                -69.86733985399991,
                -17.538740234999977
              ],
              [
                -69.86103910399993,
                -17.534494109999912
              ],
              [
                -69.85982622899985,
                -17.532876984999973
              ],
              [
                -69.86011522999996,
                -17.527515610000023
              ],
              [
                -69.85658985500004,
                -17.52096685999993
              ],
              [
                -69.85623635399992,
                -17.51793160999989
              ],
              [
                -69.85384372899983,
                -17.514564484999937
              ],
              [
                -69.85104685399989,
                -17.51291210999989
              ],
              [
                -69.85010347899998,
                -17.509785109999882
              ],
              [
                -69.84661722999977,
                -17.506458984999938
              ],
              [
                -69.84649610400004,
                -17.501015609999854
              ],
              [
                -69.84906060500003,
                -17.497386734999964
              ],
              [
                -69.84857035399989,
                -17.492869109999845
              ],
              [
                -69.84979885500002,
                -17.489417984999932
              ],
              [
                -69.84507810499986,
                -17.486648484999932
              ],
              [
                -69.84327873,
                -17.484499984999957
              ],
              [
                -69.83961722999993,
                -17.47707810999998
              ],
              [
                -69.83875597999997,
                -17.47381248499994
              ],
              [
                -69.83668747999991,
                -17.4713847349999
              ],
              [
                -69.83783785499998,
                -17.465855484999906
              ],
              [
                -69.83752147999991,
                -17.46366998499991
              ],
              [
                -69.83825785499988,
                -17.460076234999917
              ],
              [
                -69.82874222899977,
                -17.457179734999897
              ],
              [
                -69.82716997899996,
                -17.455552734999912
              ],
              [
                -69.81955472999988,
                -17.45465035999996
              ],
              [
                -69.81695122999992,
                -17.458857359999968
              ],
              [
                -69.81304885499998,
                -17.457372984999893
              ],
              [
                -69.81009760399985,
                -17.45817385999993
              ],
              [
                -69.80832972899987,
                -17.460038609999913
              ],
              [
                -69.80298347999991,
                -17.461272359999953
              ],
              [
                -69.795169729,
                -17.461203608999938
              ],
              [
                -69.79011735499978,
                -17.458732359999942
              ],
              [
                -69.77941410499994,
                -17.458253859999957
              ],
              [
                -69.77440235499989,
                -17.456056609999962
              ],
              [
                -69.77285935500004,
                -17.45603510999996
              ],
              [
                -69.769052729,
                -17.458453109999937
              ],
              [
                -69.75661910500003,
                -17.459136734999902
              ],
              [
                -69.74697660399988,
                -17.45847460999994
              ],
              [
                -69.73933397899998,
                -17.460701109999945
              ],
              [
                -69.73555072999989,
                -17.46248823499991
              ],
              [
                -69.73110935499983,
                -17.461371234999945
              ],
              [
                -69.72833985399984,
                -17.45995898399991
              ],
              [
                -69.72316010399982,
                -17.461046859999954
              ],
              [
                -69.72084760399986,
                -17.463556609999955
              ],
              [
                -69.71413472899991,
                -17.46759185999997
              ],
              [
                -69.71289847899993,
                -17.47082610999996
              ],
              [
                -69.7075019799999,
                -17.474220734999903
              ],
              [
                -69.70342972899988,
                -17.474103484999887
              ],
              [
                -69.69922660499992,
                -17.472568484999954
              ],
              [
                -69.69557910399982,
                -17.46579610999987
              ],
              [
                -69.68934185499995,
                -17.46565898499989
              ],
              [
                -69.68573047999985,
                -17.463956984999868
              ],
              [
                -69.67988310499993,
                -17.457571109999947
              ],
              [
                -69.68101560399992,
                -17.454324234999888
              ],
              [
                -69.68523635499992,
                -17.45020310999996
              ],
              [
                -69.68875972900003,
                -17.44780860999998
              ],
              [
                -69.69047072900003,
                -17.443634734999875
              ],
              [
                -69.68152147999984,
                -17.438431609999952
              ],
              [
                -69.6804902299998,
                -17.436505859999954
              ],
              [
                -69.67396872899985,
                -17.433105484999828
              ],
              [
                -69.67162885399989,
                -17.43255073499995
              ],
              [
                -69.66411848000001,
                -17.427686984999923
              ],
              [
                -69.66363872999983,
                -17.42419136
              ],
              [
                -69.66021622999989,
                -17.418494109999926
              ],
              [
                -69.65418997899991,
                -17.412299984999947
              ],
              [
                -69.649089979,
                -17.410289859999978
              ],
              [
                -69.64634010399993,
                -17.410299984999824
              ],
              [
                -69.63924997999993,
                -17.413139984999873
              ],
              [
                -69.63388997999982,
                -17.41415998499997
              ],
              [
                -69.62506997999986,
                -17.41645998499996
              ],
              [
                -69.62144998000002,
                -17.418849984999895
              ],
              [
                -69.61542997899994,
                -17.418299983999873
              ],
              [
                -69.61362997899994,
                -17.417599984999868
              ],
              [
                -69.61014997899997,
                -17.414119984999957
              ],
              [
                -69.60905997899982,
                -17.410229984999887
              ],
              [
                -69.60639997999982,
                -17.40400998499996
              ],
              [
                -69.60436997900001,
                -17.402529983999955
              ],
              [
                -69.604399979,
                -17.39937998499994
              ],
              [
                -69.60320998000003,
                -17.39665998499993
              ],
              [
                -69.59848997999995,
                -17.393039984999916
              ],
              [
                -69.59307997899987,
                -17.396069985
              ],
              [
                -69.58935997899982,
                -17.400939984999866
              ],
              [
                -69.587199979,
                -17.401959984999962
              ],
              [
                -69.58481997899997,
                -17.400559984999973
              ],
              [
                -69.58090010499984,
                -17.400949984999897
              ],
              [
                -69.57677997999991,
                -17.400189984999884
              ],
              [
                -69.5717699789999,
                -17.401359984999885
              ],
              [
                -69.56951997899989,
                -17.40295998499994
              ],
              [
                -69.56687997899985,
                -17.402609983999923
              ],
              [
                -69.56561997899996,
                -17.403839984999934
              ],
              [
                -69.56003997899995,
                -17.40246998399988
              ],
              [
                -69.55709997900004,
                -17.403259984999977
              ],
              [
                -69.55500997899986,
                -17.40277998499994
              ],
              [
                -69.54757997899992,
                -17.40615998499993
              ],
              [
                -69.5425699789999,
                -17.407289984999977
              ],
              [
                -69.53879997899998,
                -17.405969984999956
              ],
              [
                -69.53335997900001,
                -17.407979984999884
              ],
              [
                -69.53038997899984,
                -17.40993998499988
              ],
              [
                -69.52748997899988,
                -17.409629983999878
              ],
              [
                -69.5237899789999,
                -17.41298998499991
              ],
              [
                -69.52281997900002,
                -17.417389984999886
              ],
              [
                -69.52304997899995,
                -17.419929984999897
              ],
              [
                -69.51914997899985,
                -17.42387998499987
              ],
              [
                -69.51218997899986,
                -17.426829984999927
              ],
              [
                -69.50966998000001,
                -17.429049984999892
              ],
              [
                -69.50599997899991,
                -17.429139983999903
              ],
              [
                -69.49913997899995,
                -17.431889984999884
              ],
              [
                -69.49439997999991,
                -17.43244998499995
              ],
              [
                -69.48804998000003,
                -17.437509984999906
              ],
              [
                -69.48756997999976,
                -17.44091998499988
              ],
              [
                -69.48533997899989,
                -17.442339984999876
              ],
              [
                -69.48348997899996,
                -17.44486998499997
              ],
              [
                -69.48061997899981,
                -17.446629984999902
              ],
              [
                -69.47656997899998,
                -17.452029984999967
              ],
              [
                -69.47601997899994,
                -17.45912998499989
              ],
              [
                -69.47236010400002,
                -17.462039984999876
              ],
              [
                -69.47147997899992,
                -17.46364998499996
              ],
              [
                -69.46837885499986,
                -17.464798859999974
              ]
            ]
          ]
        ],
        "type": "MultiPolygon"
      },
      "type": "Feature",
      "properties": {
        "PROVINCIA": "TACNA",
        "name": "TACNA",
        "ID": "220100",
        "DEPARTAMEN": "TACNA"
      }
    }
  ]
}
