{
  "type": "FeatureCollection",
  "features": [
    {
      "geometry": {
        "coordinates": [
          [
            [
              [
                -74.54761310899988,
                -11.348321353999893
              ],
              [
                -74.5412253589999,
                -11.348400603999949
              ],
              [
                -74.53664685899997,
                -11.348841728999957
              ],
              [
                -74.53576185899993,
                -11.348416978999978
              ],
              [
                -74.53359335899995,
                -11.347986978999927
              ],
              [
                -74.52987810899992,
                -11.34915222899997
              ],
              [
                -74.52872998399988,
                -11.350819979999926
              ],
              [
                -74.53367998399989,
                -11.35114985399997
              ],
              [
                -74.53449910899991,
                -11.35180472999997
              ],
              [
                -74.53586998399999,
                -11.353319978999934
              ],
              [
                -74.53604010899994,
                -11.353829978999954
              ],
              [
                -74.53594998399996,
                -11.35600997899985
              ],
              [
                -74.53563998399989,
                -11.35675997899989
              ],
              [
                -74.53572998399989,
                -11.357829978999973
              ],
              [
                -74.53593998399992,
                -11.358019978999891
              ],
              [
                -74.53672998399992,
                -11.357989978999967
              ],
              [
                -74.53897998399992,
                -11.35757997899998
              ],
              [
                -74.53993998399994,
                -11.358139978999873
              ],
              [
                -74.54039998399992,
                -11.361769978999916
              ],
              [
                -74.54142998399988,
                -11.36223997899998
              ],
              [
                -74.54385998399994,
                -11.362669979999964
              ],
              [
                -74.54513998399989,
                -11.363099978999912
              ],
              [
                -74.54585435899992,
                -11.363992353999947
              ],
              [
                -74.54614998399995,
                -11.365769979999868
              ],
              [
                -74.54545998399982,
                -11.36769997999994
              ],
              [
                -74.54535998399996,
                -11.36980997899991
              ],
              [
                -74.54477723399998,
                -11.37201072899984
              ],
              [
                -74.54116885899992,
                -11.374407603999828
              ],
              [
                -74.53964123399993,
                -11.376488478999875
              ],
              [
                -74.53821985899992,
                -11.37971147899998
              ],
              [
                -74.53655423399994,
                -11.37980672999987
              ],
              [
                -74.53438885899993,
                -11.380306353999913
              ],
              [
                -74.53374648399989,
                -11.381472354999858
              ],
              [
                -74.53450785899992,
                -11.390109729999892
              ],
              [
                -74.53396060899996,
                -11.392084728999976
              ],
              [
                -74.53498373399998,
                -11.395249353999873
              ],
              [
                -74.53417448399995,
                -11.398596229999953
              ],
              [
                -74.53133698399995,
                -11.400005853999971
              ],
              [
                -74.53120023399998,
                -11.405195603999857
              ],
              [
                -74.53222360899991,
                -11.40935960399986
              ],
              [
                -74.53355610899996,
                -11.412095978999957
              ],
              [
                -74.53655423399994,
                -11.414356478999935
              ],
              [
                -74.53796210899992,
                -11.415676728999927
              ],
              [
                -74.53907635899992,
                -11.416497978999928
              ],
              [
                -74.5413368589999,
                -11.418401603999882
              ],
              [
                -74.54506698399996,
                -11.420975103999922
              ],
              [
                -74.54476335899989,
                -11.42480235399995
              ],
              [
                -74.54493535899991,
                -11.426558978999878
              ],
              [
                -74.54533035899993,
                -11.427638853999895
              ],
              [
                -74.54923910899993,
                -11.428874478999887
              ],
              [
                -74.5507596089999,
                -11.430203729999846
              ],
              [
                -74.5516399839999,
                -11.43056060399988
              ],
              [
                -74.55454285899992,
                -11.429727853999907
              ],
              [
                -74.55699373399995,
                -11.428014603999884
              ],
              [
                -74.56168173399988,
                -11.427142228999912
              ],
              [
                -74.56365310899992,
                -11.428536353999903
              ],
              [
                -74.56396210899999,
                -11.42897985399992
              ],
              [
                -74.56806973399995,
                -11.4329107289999
              ],
              [
                -74.56843698399996,
                -11.433218853999904
              ],
              [
                -74.57335010899999,
                -11.435402603999933
              ],
              [
                -74.57662135899983,
                -11.435026728999844
              ],
              [
                -74.57994010899995,
                -11.435454353999944
              ],
              [
                -74.58284198399991,
                -11.437123854999982
              ],
              [
                -74.58605398399993,
                -11.441317978999905
              ],
              [
                -74.59232660899988,
                -11.448590103999948
              ],
              [
                -74.592762984,
                -11.45285660399992
              ],
              [
                -74.59038535899992,
                -11.45735610399987
              ],
              [
                -74.59057785899995,
                -11.45930122999988
              ],
              [
                -74.59092035899988,
                -11.46022647899997
              ],
              [
                -74.59229610899985,
                -11.461524229999952
              ],
              [
                -74.59382698399992,
                -11.46189072899989
              ],
              [
                -74.59510348399994,
                -11.462016603999928
              ],
              [
                -74.59908160899994,
                -11.461603229999923
              ],
              [
                -74.60004173399989,
                -11.462474603999908
              ],
              [
                -74.60162948399989,
                -11.46515385399988
              ],
              [
                -74.6024022339999,
                -11.465656228999876
              ],
              [
                -74.60777523399992,
                -11.465823229999955
              ],
              [
                -74.60973948399999,
                -11.466946604999976
              ],
              [
                -74.61457323399998,
                -11.469527104999884
              ],
              [
                -74.61524735899991,
                -11.469758228999922
              ],
              [
                -74.61613310899992,
                -11.47054785399996
              ],
              [
                -74.6161523589999,
                -11.474668978999887
              ],
              [
                -74.61563235899996,
                -11.475978603999977
              ],
              [
                -74.61522798399989,
                -11.477230228999815
              ],
              [
                -74.61559385899989,
                -11.479579729999955
              ],
              [
                -74.61680698399988,
                -11.481024103999914
              ],
              [
                -74.61788560899998,
                -11.485742353999967
              ],
              [
                -74.61690348399998,
                -11.48965160399996
              ],
              [
                -74.61513173399993,
                -11.492655853999906
              ],
              [
                -74.61451548399992,
                -11.49427360399983
              ],
              [
                -74.61299410899989,
                -11.497200729999975
              ],
              [
                -74.6128784839999,
                -11.500955978999912
              ],
              [
                -74.61457323399998,
                -11.502130728999873
              ],
              [
                -74.6148428589999,
                -11.502496604999862
              ],
              [
                -74.61551685899991,
                -11.503671353999891
              ],
              [
                -74.61674060899992,
                -11.504424104999828
              ],
              [
                -74.61698873399985,
                -11.50501960399987
              ],
              [
                -74.62076923399991,
                -11.504211728999906
              ],
              [
                -74.62101073399998,
                -11.50458497999989
              ],
              [
                -74.62099985899988,
                -11.507812729999955
              ],
              [
                -74.62322848399998,
                -11.511007478999886
              ],
              [
                -74.62406823399994,
                -11.51253297999989
              ],
              [
                -74.62385098399989,
                -11.5172722289999
              ],
              [
                -74.6256298589999,
                -11.521288354999854
              ],
              [
                -74.62791573399994,
                -11.52279472899994
              ],
              [
                -74.63105348399995,
                -11.521589603999928
              ],
              [
                -74.63390035899988,
                -11.523750729999904
              ],
              [
                -74.63440435899992,
                -11.524851603999878
              ],
              [
                -74.63469910899988,
                -11.524993603999917
              ],
              [
                -74.63586798399996,
                -11.525201479999964
              ],
              [
                -74.6375388589999,
                -11.525800728999968
              ],
              [
                -74.63879998399989,
                -11.525753103999875
              ],
              [
                -74.64060835899988,
                -11.525919729999885
              ],
              [
                -74.6436541089999,
                -11.5272521039999
              ],
              [
                -74.64608110899991,
                -11.529917229999967
              ],
              [
                -74.64865098399997,
                -11.529988603999925
              ],
              [
                -74.6515301089999,
                -11.529750603999958
              ],
              [
                -74.6554922339999,
                -11.531652103999818
              ],
              [
                -74.65539460899993,
                -11.53219122999991
              ],
              [
                -74.65439985899997,
                -11.534497478999981
              ],
              [
                -74.65462348399996,
                -11.538863979999917
              ],
              [
                -74.65464723399998,
                -11.542266603999906
              ],
              [
                -74.65400535899988,
                -11.547376228999894
              ],
              [
                -74.65238160899992,
                -11.549464104999913
              ],
              [
                -74.65121348399992,
                -11.550115603999927
              ],
              [
                -74.64615635899992,
                -11.549509728999965
              ],
              [
                -74.64496798399989,
                -11.554256603999875
              ],
              [
                -74.64710435899991,
                -11.557994854999833
              ],
              [
                -74.64853198399999,
                -11.55992222899988
              ],
              [
                -74.65031798399997,
                -11.56325872899987
              ],
              [
                -74.6553473589999,
                -11.567031478999922
              ],
              [
                -74.66024773399994,
                -11.569000603999882
              ],
              [
                -74.66604235899996,
                -11.573030478999897
              ],
              [
                -74.66752810899993,
                -11.571652103999895
              ],
              [
                -74.6675963589999,
                -11.571555603999911
              ],
              [
                -74.6712203589999,
                -11.5667249789999
              ],
              [
                -74.67141548399997,
                -11.566551104999974
              ],
              [
                -74.67383873399984,
                -11.565023478999876
              ],
              [
                -74.67715748399996,
                -11.563390479999953
              ],
              [
                -74.6800214839999,
                -11.56171285399995
              ],
              [
                -74.68558598399994,
                -11.565892603999941
              ],
              [
                -74.6883514839999,
                -11.565286853999908
              ],
              [
                -74.69398348399994,
                -11.565569728999947
              ],
              [
                -74.69496260899996,
                -11.567077979999965
              ],
              [
                -74.69469923399993,
                -11.56818410399984
              ],
              [
                -74.69037960899993,
                -11.571134103999952
              ],
              [
                -74.68864973399997,
                -11.573532728999965
              ],
              [
                -74.68879010899997,
                -11.574727478999876
              ],
              [
                -74.69232335899989,
                -11.576912228999902
              ],
              [
                -74.69458598399996,
                -11.579335978999893
              ],
              [
                -74.69881010899996,
                -11.579195853999863
              ],
              [
                -74.70242673399991,
                -11.580766354999867
              ],
              [
                -74.70554385899999,
                -11.58397860399998
              ],
              [
                -74.70778060899994,
                -11.585120729999971
              ],
              [
                -74.70994585899996,
                -11.5858346039999
              ],
              [
                -74.71387198399992,
                -11.585382478999975
              ],
              [
                -74.71608835899997,
                -11.5843049799999
              ],
              [
                -74.71795948399989,
                -11.582575978999955
              ],
              [
                -74.72034648399995,
                -11.582373853999911
              ],
              [
                -74.72313798399983,
                -11.582710979999888
              ],
              [
                -74.72363810899998,
                -11.583138603999942
              ],
              [
                -74.72394710899988,
                -11.587484978999953
              ],
              [
                -74.7228424839999,
                -11.58983210499997
              ],
              [
                -74.72165460899993,
                -11.592703853999922
              ],
              [
                -74.72219398399989,
                -11.593850104999888
              ],
              [
                -74.72390660899993,
                -11.596533728999816
              ],
              [
                -74.72712910899992,
                -11.604596479999884
              ],
              [
                -74.72800210899993,
                -11.607436228999859
              ],
              [
                -74.72925385899987,
                -11.609488228999908
              ],
              [
                -74.72972598399991,
                -11.61102072899996
              ],
              [
                -74.73562810899995,
                -11.60678822899996
              ],
              [
                -74.74247848399995,
                -11.606201228999907
              ],
              [
                -74.74757585899988,
                -11.605186978999939
              ],
              [
                -74.74991598399998,
                -11.605560854999965
              ],
              [
                -74.75262260899984,
                -11.608267354999953
              ],
              [
                -74.75749760899998,
                -11.608053479999967
              ],
              [
                -74.76115123399995,
                -11.611855103999972
              ],
              [
                -74.7625046089999,
                -11.611162729999819
              ],
              [
                -74.76349373399995,
                -11.606286728999976
              ],
              [
                -74.76349385899994,
                -11.602556854999818
              ],
              [
                -74.76600948399994,
                -11.598400478999906
              ],
              [
                -74.76489260899996,
                -11.594218354999896
              ],
              [
                -74.76190973399997,
                -11.592259978999948
              ],
              [
                -74.75861173399994,
                -11.588579354999979
              ],
              [
                -74.75535023399993,
                -11.588196728999947
              ],
              [
                -74.7538869839999,
                -11.584654729999954
              ],
              [
                -74.75343523399994,
                -11.580890228999976
              ],
              [
                -74.75182910899991,
                -11.577259728999877
              ],
              [
                -74.75115973399994,
                -11.572591854999928
              ],
              [
                -74.75383673399995,
                -11.56891122899998
              ],
              [
                -74.75269910899993,
                -11.56589972899991
              ],
              [
                -74.74722823399998,
                -11.564611478999893
              ],
              [
                -74.74599010899993,
                -11.561549728999978
              ],
              [
                -74.74373148399997,
                -11.560077478999915
              ],
              [
                -74.73995323399998,
                -11.555803479999952
              ],
              [
                -74.73802985899982,
                -11.549636229999862
              ],
              [
                -74.7394736089999,
                -11.542379228999891
              ],
              [
                -74.73786748399988,
                -11.537917728999957
              ],
              [
                -74.73827860899996,
                -11.529139853999936
              ],
              [
                -74.73951598399992,
                -11.525427853999872
              ],
              [
                -74.73925110899995,
                -11.52364810399996
              ],
              [
                -74.73647023399991,
                -11.521977479999919
              ],
              [
                -74.73199685899988,
                -11.520978228999923
              ],
              [
                -74.72890348399994,
                -11.515315103999967
              ],
              [
                -74.72516173399993,
                -11.516012729999886
              ],
              [
                -74.72347435899997,
                -11.514250354999888
              ],
              [
                -74.72089748399998,
                -11.508556979999923
              ],
              [
                -74.7205142339999,
                -11.503707479999946
              ],
              [
                -74.71479798399997,
                -11.49804110499997
              ],
              [
                -74.71599785899997,
                -11.492024853999908
              ],
              [
                -74.71324810899989,
                -11.483825478999904
              ],
              [
                -74.7125911089999,
                -11.479675603999908
              ],
              [
                -74.70779848399991,
                -11.468509853999933
              ],
              [
                -74.70773173399994,
                -11.46546010499992
              ],
              [
                -74.70921098399998,
                -11.458330103999913
              ],
              [
                -74.70079898499995,
                -11.452660979999962
              ],
              [
                -74.69681585899991,
                -11.451794478999943
              ],
              [
                -74.69396010899999,
                -11.444364604999919
              ],
              [
                -74.6957853589999,
                -11.44291710399989
              ],
              [
                -74.69719910899994,
                -11.43971197899998
              ],
              [
                -74.69726585899991,
                -11.433995478999975
              ],
              [
                -74.68686660899988,
                -11.430579353999917
              ],
              [
                -74.6825336089999,
                -11.424262978999934
              ],
              [
                -74.6844667339999,
                -11.420813228999918
              ],
              [
                -74.6849661089999,
                -11.41669622899991
              ],
              [
                -74.68378498399989,
                -11.411078103999955
              ],
              [
                -74.69001135999991,
                -11.405825229999891
              ],
              [
                -74.69125348399996,
                -11.399486728999932
              ],
              [
                -74.69100185899998,
                -11.397661353999979
              ],
              [
                -74.68842260899993,
                -11.395023853999874
              ],
              [
                -74.68731960899999,
                -11.391335604999881
              ],
              [
                -74.68743298399994,
                -11.388598854999941
              ],
              [
                -74.68538423399997,
                -11.384222603999945
              ],
              [
                -74.68305585899998,
                -11.381846978999931
              ],
              [
                -74.67402560899995,
                -11.383907603999887
              ],
              [
                -74.67185735899994,
                -11.382025979999923
              ],
              [
                -74.67131660899997,
                -11.379376478999973
              ],
              [
                -74.67246560899991,
                -11.375965353999845
              ],
              [
                -74.6706407339999,
                -11.370157478999886
              ],
              [
                -74.66849848399994,
                -11.367344228999912
              ],
              [
                -74.66355873399988,
                -11.364490603999968
              ],
              [
                -74.66333848399995,
                -11.360241978999966
              ],
              [
                -74.66212310899994,
                -11.358165978999978
              ],
              [
                -74.66019685899988,
                -11.36130572899998
              ],
              [
                -74.65789948399998,
                -11.363219228999924
              ],
              [
                -74.65388285899996,
                -11.365138104999971
              ],
              [
                -74.64931473399992,
                -11.36612635399996
              ],
              [
                -74.64763460899991,
                -11.367564853999966
              ],
              [
                -74.64033398399994,
                -11.36837885499989
              ],
              [
                -74.63805848399994,
                -11.371747103999951
              ],
              [
                -74.63300360899996,
                -11.37522410399987
              ],
              [
                -74.62833985899988,
                -11.369537228999889
              ],
              [
                -74.62572235899995,
                -11.367657478999888
              ],
              [
                -74.62184385899991,
                -11.366991228999836
              ],
              [
                -74.61586873399989,
                -11.360432728999967
              ],
              [
                -74.61509423399997,
                -11.358770478999816
              ],
              [
                -74.61210110899998,
                -11.357548103999932
              ],
              [
                -74.60999685899998,
                -11.359402479999972
              ],
              [
                -74.60737248399982,
                -11.35981322899994
              ],
              [
                -74.60213473399995,
                -11.360515603999943
              ],
              [
                -74.59826785899992,
                -11.360623479999902
              ],
              [
                -74.59592573399993,
                -11.360485354999867
              ],
              [
                -74.5938941089999,
                -11.360760978999906
              ],
              [
                -74.59150835899993,
                -11.36240597899996
              ],
              [
                -74.58661948399998,
                -11.363941728999919
              ],
              [
                -74.58013423399996,
                -11.368264479999937
              ],
              [
                -74.57731335899996,
                -11.368024353999942
              ],
              [
                -74.57518748399991,
                -11.365380853999909
              ],
              [
                -74.57550910899988,
                -11.362191228999961
              ],
              [
                -74.57451873399992,
                -11.36023322899996
              ],
              [
                -74.57364098399995,
                -11.357959978999816
              ],
              [
                -74.57269573399998,
                -11.353616103999912
              ],
              [
                -74.5707814839999,
                -11.353066104999812
              ],
              [
                -74.56850948399995,
                -11.352648354999872
              ],
              [
                -74.5671363589999,
                -11.348821978999922
              ],
              [
                -74.56445823399991,
                -11.346503978999976
              ],
              [
                -74.56384760899994,
                -11.345865228999969
              ],
              [
                -74.55757110899992,
                -11.345243603999961
              ],
              [
                -74.5521614839999,
                -11.344659603999958
              ],
              [
                -74.54934760899994,
                -11.347222853999938
              ],
              [
                -74.54761310899988,
                -11.348321353999893
              ]
            ]
          ]
        ],
        "type": "MultiPolygon"
      },
      "type": "Feature",
      "properties": {
        "PROVINCIA": "SATIPO",
        "DISTRITO": "LLAYLLA",
        "name": "LLAYLLA",
        "ID": "110703",
        "DEPARTAMEN": "JUNIN"
      }
    }
  ]
}
