{
  "type": "FeatureCollection",
  "features": [
    {
      "geometry": {
        "coordinates": [
          [
            [
              [
                -73.49791398995438,
                -12.825762383029144
              ],
              [
                -73.49895498299992,
                -12.827338480999742
              ],
              [
                -73.49908648299987,
                -12.829838105999897
              ],
              [
                -73.49790235799986,
                -12.831110105999812
              ],
              [
                -73.49623585799992,
                -12.83317135599981
              ],
              [
                -73.4945693579997,
                -12.835671105999893
              ],
              [
                -73.4884733579998,
                -12.83803935599991
              ],
              [
                -73.4868944829999,
                -12.836504354999818
              ],
              [
                -73.48476335799978,
                -12.836441730999866
              ],
              [
                -73.48353948299996,
                -12.836540979999825
              ],
              [
                -73.47986810799966,
                -12.83879010599992
              ],
              [
                -73.47861123299987,
                -12.839253230999873
              ],
              [
                -73.47675910799967,
                -12.83961698099995
              ],
              [
                -73.47351760799967,
                -12.842395354999894
              ],
              [
                -73.47083848299997,
                -12.841535355999781
              ],
              [
                -73.46432260799986,
                -12.841039229999865
              ],
              [
                -73.46240423299986,
                -12.840840855999886
              ],
              [
                -73.45802123299967,
                -12.841761480999935
              ],
              [
                -73.45508423299975,
                -12.842544604999887
              ],
              [
                -73.44581723299967,
                -12.844045604999735
              ],
              [
                -73.4402948579999,
                -12.845443605999947
              ],
              [
                -73.43670285799988,
                -12.847155979999968
              ],
              [
                -73.43511573299992,
                -12.849327979999828
              ],
              [
                -73.43311085799968,
                -12.852418730999943
              ],
              [
                -73.43265148199987,
                -12.8535882299999
              ],
              [
                -73.43511573299992,
                -12.856553604999931
              ],
              [
                -73.44067673299998,
                -12.860141229999954
              ],
              [
                -73.44230010799981,
                -12.862354855999968
              ],
              [
                -73.44340710799975,
                -12.865896980999935
              ],
              [
                -73.44222635699992,
                -12.870472230999951
              ],
              [
                -73.44008635799997,
                -12.871874230999879
              ],
              [
                -73.43425673299981,
                -12.878589480999949
              ],
              [
                -73.43086223299997,
                -12.881762605999938
              ],
              [
                -73.42990285799982,
                -12.886337730999855
              ],
              [
                -73.42938623299989,
                -12.890101230999846
              ],
              [
                -73.42702498299991,
                -12.89541435599989
              ],
              [
                -73.42761523299998,
                -12.898587480999822
              ],
              [
                -73.42934185799976,
                -12.899859480999908
              ],
              [
                -73.43100973299983,
                -12.902498480999839
              ],
              [
                -73.43123110799985,
                -12.905450230999918
              ],
              [
                -73.43056698299972,
                -12.911427480999862
              ],
              [
                -73.42486210799984,
                -12.918339480999862
              ],
              [
                -73.42348710799985,
                -12.91929435599991
              ],
              [
                -73.41982048299968,
                -12.920822105999832
              ],
              [
                -73.41817823299988,
                -12.922388105999914
              ],
              [
                -73.41554273299977,
                -12.927162479999879
              ],
              [
                -73.41466423299983,
                -12.929071980999765
              ],
              [
                -73.4135293569999,
                -12.935412105999887
              ],
              [
                -73.41500798199985,
                -12.938315230999933
              ],
              [
                -73.41466423299983,
                -12.941637979999882
              ],
              [
                -73.41405310799973,
                -12.944273480999982
              ],
              [
                -73.41424410799988,
                -12.948818605999804
              ],
              [
                -73.41466423299983,
                -12.952141480999956
              ],
              [
                -73.41306010799997,
                -12.953936604999967
              ],
              [
                -73.41008085799984,
                -12.954853355999887
              ],
              [
                -73.40534473299994,
                -12.955349855999941
              ],
              [
                -73.40309135799993,
                -12.95561722999986
              ],
              [
                -73.39942460799966,
                -12.95508247999993
              ],
              [
                -73.39583435799989,
                -12.955540855999914
              ],
              [
                -73.39304623299967,
                -12.956228355999883
              ],
              [
                -73.3893031079997,
                -12.956457480999916
              ],
              [
                -73.38785173299993,
                -12.954776980999952
              ],
              [
                -73.3857128569997,
                -12.953783855999859
              ],
              [
                -73.38208448299997,
                -12.951874230999863
              ],
              [
                -73.37907398299984,
                -12.952785480999864
              ],
              [
                -73.37476610799973,
                -12.955843605999917
              ],
              [
                -73.37128323299987,
                -12.956995980999977
              ],
              [
                -73.3743844829998,
                -12.961919604999878
              ],
              [
                -73.37543610699993,
                -12.96280960599995
              ],
              [
                -73.37742098299987,
                -12.964235854999856
              ],
              [
                -73.37841885799992,
                -12.965264980999905
              ],
              [
                -73.37887098299984,
                -12.965483105999908
              ],
              [
                -73.38232810799997,
                -12.964539105999961
              ],
              [
                -73.38382035799998,
                -12.964996104999955
              ],
              [
                -73.38547460799998,
                -12.964921855999933
              ],
              [
                -73.39071160799995,
                -12.967541105999942
              ],
              [
                -73.39239848299991,
                -12.968162105999909
              ],
              [
                -73.39697460799982,
                -12.970841854999833
              ],
              [
                -73.39896098299994,
                -12.97085935499996
              ],
              [
                -73.39978123299989,
                -12.97112885599995
              ],
              [
                -73.40199023299994,
                -12.972773479999887
              ],
              [
                -73.40627935799984,
                -12.975251980999872
              ],
              [
                -73.40910748299996,
                -12.976861355999972
              ],
              [
                -73.41252148299992,
                -12.97839648099989
              ],
              [
                -73.41463873299995,
                -12.979048855999963
              ],
              [
                -73.41542985799987,
                -12.979943355999978
              ],
              [
                -73.41624023299994,
                -12.981412105999937
              ],
              [
                -73.41619923299993,
                -12.983341855999981
              ],
              [
                -73.41491210799984,
                -12.986074229999929
              ],
              [
                -73.41463673299995,
                -12.986919980999915
              ],
              [
                -73.41482223299994,
                -12.987941354999975
              ],
              [
                -73.41512110799988,
                -12.988259729999925
              ],
              [
                -73.41590823299993,
                -12.98851760599996
              ],
              [
                -73.41621285799988,
                -12.988484355999958
              ],
              [
                -73.41870123299998,
                -12.987624980999897
              ],
              [
                -73.42113873299996,
                -12.988324230999865
              ],
              [
                -73.42247460799985,
                -12.988755855999955
              ],
              [
                -73.42491410799988,
                -12.990906230999883
              ],
              [
                -73.42515810799983,
                -12.99145510499983
              ],
              [
                -73.42586523299997,
                -12.992300730999887
              ],
              [
                -73.42815823299998,
                -12.992380855999954
              ],
              [
                -73.42872660799986,
                -12.992435605999844
              ],
              [
                -73.43189448199985,
                -12.992554730999927
              ],
              [
                -73.43451948299997,
                -12.991072230999862
              ],
              [
                -73.43663873299982,
                -12.989333979999913
              ],
              [
                -73.43831835799989,
                -12.986917980999863
              ],
              [
                -73.44001760799989,
                -12.9865429809999
              ],
              [
                -73.44102148299999,
                -12.986793104999833
              ],
              [
                -73.44356060799993,
                -12.98673823099989
              ],
              [
                -73.4458476079999,
                -12.98777348099992
              ],
              [
                -73.44779310799993,
                -12.988050605999945
              ],
              [
                -73.45070898299986,
                -12.989081980999856
              ],
              [
                -73.4520918579999,
                -12.988873105999971
              ],
              [
                -73.45493160799992,
                -12.987103479999917
              ],
              [
                -73.45635773299989,
                -12.986978855999837
              ],
              [
                -73.45840623299983,
                -12.986621105999973
              ],
              [
                -73.46229098299983,
                -12.984080105999965
              ],
              [
                -73.46313873299988,
                -12.983199229999911
              ],
              [
                -73.46706635799995,
                -12.978699230999894
              ],
              [
                -73.47042973299989,
                -12.979244105999953
              ],
              [
                -73.47146873299988,
                -12.979730480999876
              ],
              [
                -73.47559573299986,
                -12.980083980999893
              ],
              [
                -73.4780117329999,
                -12.979730480999876
              ],
              [
                -73.4802734829999,
                -12.979728479999892
              ],
              [
                -73.48089260799998,
                -12.979949229999932
              ],
              [
                -73.4827734829999,
                -12.981339855999977
              ],
              [
                -73.48548048299989,
                -12.980630855999948
              ],
              [
                -73.48796098299988,
                -12.979259730999843
              ],
              [
                -73.49007048299995,
                -12.97778123099988
              ],
              [
                -73.49078323299989,
                -12.977445355999976
              ],
              [
                -73.49310548299991,
                -12.976443355999947
              ],
              [
                -73.4944159829999,
                -12.976037105999922
              ],
              [
                -73.4975332329999,
                -12.978732479999906
              ],
              [
                -73.49875385799999,
                -12.9797929799999
              ],
              [
                -73.4999999829999,
                -12.981374980999874
              ],
              [
                -73.50270698299994,
                -12.981677730999877
              ],
              [
                -73.50470510799983,
                -12.982253855999943
              ],
              [
                -73.50829098299994,
                -12.982761730999869
              ],
              [
                -73.50867385799984,
                -12.982982479999919
              ],
              [
                -73.50938673299993,
                -12.983949230999883
              ],
              [
                -73.51040623299991,
                -12.989523480999878
              ],
              [
                -73.51179885799985,
                -12.991318355999965
              ],
              [
                -73.51234573299996,
                -12.992839855999819
              ],
              [
                -73.51229498299995,
                -12.99355660499998
              ],
              [
                -73.51176948299991,
                -12.99487698099989
              ],
              [
                -73.51276948299994,
                -12.997115230999896
              ],
              [
                -73.51463673299992,
                -13.000824104999822
              ],
              [
                -73.51569723299991,
                -13.000849730999903
              ],
              [
                -73.51633598299998,
                -13.00034373099993
              ],
              [
                -73.51658985799986,
                -12.999513604999834
              ],
              [
                -73.51837123299998,
                -12.998927729999934
              ],
              [
                -73.52013085799985,
                -12.998248104999846
              ],
              [
                -73.52181085799992,
                -12.998254105999877
              ],
              [
                -73.52133435799993,
                -12.994977355999936
              ],
              [
                -73.52103635799989,
                -12.992147479999915
              ],
              [
                -73.52166198299994,
                -12.990687730999923
              ],
              [
                -73.52222785799995,
                -12.990181355999937
              ],
              [
                -73.52821548299988,
                -12.986904604999893
              ],
              [
                -73.52970485799983,
                -12.985861980999971
              ],
              [
                -73.52988373299996,
                -12.984580980999851
              ],
              [
                -73.52857298299995,
                -12.98276385499986
              ],
              [
                -73.52448185799994,
                -12.980540854999958
              ],
              [
                -73.5170811079999,
                -12.978150480999886
              ],
              [
                -73.51304610799991,
                -12.976066105999905
              ],
              [
                -73.51138248299986,
                -12.975243730999978
              ],
              [
                -73.51078960799993,
                -12.974823105999917
              ],
              [
                -73.50843748299991,
                -12.972375355999816
              ],
              [
                -73.50803585799997,
                -12.971897354999953
              ],
              [
                -73.50719448299998,
                -12.969908355999962
              ],
              [
                -73.5068693579999,
                -12.96799610599993
              ],
              [
                -73.50715623299993,
                -12.965471855999965
              ],
              [
                -73.51001223299988,
                -12.960318230999974
              ],
              [
                -73.51057248299998,
                -12.958114604999821
              ],
              [
                -73.50986285799996,
                -12.950569980999944
              ],
              [
                -73.50597848299992,
                -12.948926605999873
              ],
              [
                -73.50089885799991,
                -12.94657347999987
              ],
              [
                -73.4969771079999,
                -12.940149355999893
              ],
              [
                -73.49574460799988,
                -12.936937229999955
              ],
              [
                -73.49593135799995,
                -12.933463605999975
              ],
              [
                -73.49772410799989,
                -12.93148410599997
              ],
              [
                -73.4996663579999,
                -12.930475604999913
              ],
              [
                -73.50422298299998,
                -12.931110480999962
              ],
              [
                -73.50721098299994,
                -12.931969730999981
              ],
              [
                -73.51120748299985,
                -12.933463604999872
              ],
              [
                -73.51595098299993,
                -12.936974604999932
              ],
              [
                -73.51890160799991,
                -12.93895410599987
              ],
              [
                -73.52226573299998,
                -12.938942105999843
              ],
              [
                -73.52535410799999,
                -12.936816355999895
              ],
              [
                -73.52984610799996,
                -12.931963355999812
              ],
              [
                -73.53301460799986,
                -12.925746854999886
              ],
              [
                -73.53329535799998,
                -12.919329479999874
              ],
              [
                -73.53257335799992,
                -12.917484605999903
              ],
              [
                -73.52242623299986,
                -12.907537980999905
              ],
              [
                -73.52162410799991,
                -12.904650230999891
              ],
              [
                -73.52367648299992,
                -12.89947810599989
              ],
              [
                -73.52585460799992,
                -12.897599105999916
              ],
              [
                -73.52886348299984,
                -12.896194980999837
              ],
              [
                -73.53216351299994,
                -12.89289175399989
              ],
              [
                -73.53593423299992,
                -12.890377979999926
              ],
              [
                -73.54304148299991,
                -12.884716855999955
              ],
              [
                -73.55198535799991,
                -12.876294230999918
              ],
              [
                -73.55792123299989,
                -12.871280855999885
              ],
              [
                -73.56064860799978,
                -12.868874354999832
              ],
              [
                -73.56602298299993,
                -12.86590648099991
              ],
              [
                -73.57332248299991,
                -12.862176480999949
              ],
              [
                -73.5765540083055,
                -12.861238319821155
              ],
              [
                -73.57586897548248,
                -12.853883247938143
              ],
              [
                -73.56585003773506,
                -12.853460019032013
              ],
              [
                -73.55910003772874,
                -12.85254001903121
              ],
              [
                -73.55410003772403,
                -12.850920019029672
              ],
              [
                -73.55039003772066,
                -12.848730019027698
              ],
              [
                -73.5388200377098,
                -12.843670019022852
              ],
              [
                -73.53833003770939,
                -12.84208001902141
              ],
              [
                -73.53461003770587,
                -12.839680019019283
              ],
              [
                -73.53361003770505,
                -12.836260019016095
              ],
              [
                -73.52944003770108,
                -12.832520019012463
              ],
              [
                -73.518570037691,
                -12.819610019000493
              ],
              [
                -73.51234003768525,
                -12.819310019000284
              ],
              [
                -73.50179003767539,
                -12.824440019004896
              ],
              [
                -73.49791398995438,
                -12.825762383029144
              ]
            ]
          ]
        ],
        "type": "MultiPolygon"
      },
      "type": "Feature",
      "properties": {
        "PROVINCIA": "LA CONVENCION",
        "DISTRITO": "VILLA KINTIARINA",
        "name": "VILLA KINTIARINA",
        "ID": "070913",
        "DEPARTAMEN": "CUSCO"
      }
    }
  ]
}
