{
  "type": "FeatureCollection",
  "features": [
    {
      "geometry": {
        "coordinates": [
          [
            [
              [
                -76.40739448599993,
                -6.436972598999944
              ],
              [
                -76.40757598599993,
                -6.439216598999963
              ],
              [
                -76.40966823599996,
                -6.445382849999817
              ],
              [
                -76.40758173599988,
                -6.450964473999875
              ],
              [
                -76.40599086099996,
                -6.453463724999892
              ],
              [
                -76.40204335999994,
                -6.45563134899993
              ],
              [
                -76.40085123599988,
                -6.460078598999928
              ],
              [
                -76.39895698499998,
                -6.46438672499994
              ],
              [
                -76.39525948599999,
                -6.468073599999911
              ],
              [
                -76.39525948599999,
                -6.470857474999946
              ],
              [
                -76.3963793609999,
                -6.475840724999955
              ],
              [
                -76.39819336099998,
                -6.48014647499997
              ],
              [
                -76.40128211099994,
                -6.484669849999875
              ],
              [
                -76.40719535999989,
                -6.491968724999936
              ],
              [
                -76.4092031109999,
                -6.493236349999904
              ],
              [
                -76.41256835999991,
                -6.492570348999948
              ],
              [
                -76.42330123499994,
                -6.491542224999876
              ],
              [
                -76.43623398599993,
                -6.49114222399993
              ],
              [
                -76.44038111099997,
                -6.491263973999935
              ],
              [
                -76.44451310999989,
                -6.492530224999939
              ],
              [
                -76.45184373599989,
                -6.500009724999813
              ],
              [
                -76.45556811099993,
                -6.509463974999903
              ],
              [
                -76.45624548599994,
                -6.51612697499985
              ],
              [
                -76.45920785999994,
                -6.513969474999953
              ],
              [
                -76.46262936099998,
                -6.513032598999871
              ],
              [
                -76.4661323609999,
                -6.5105274739999
              ],
              [
                -76.47195711099994,
                -6.508877849999919
              ],
              [
                -76.47428023599991,
                -6.502413848999936
              ],
              [
                -76.47517385999998,
                -6.498101598999938
              ],
              [
                -76.47844723599991,
                -6.49441209999992
              ],
              [
                -76.48235348599991,
                -6.492501974999811
              ],
              [
                -76.49156261099989,
                -6.487156224999978
              ],
              [
                -76.4840793599999,
                -6.485963599999877
              ],
              [
                -76.47825585999988,
                -6.483931599999892
              ],
              [
                -76.47248048599988,
                -6.477101599999912
              ],
              [
                -76.46999323599988,
                -6.474873599999967
              ],
              [
                -76.46749761099989,
                -6.470974724999962
              ],
              [
                -76.46288323499994,
                -6.465367349999894
              ],
              [
                -76.4591367349999,
                -6.461675723999974
              ],
              [
                -76.45945698599996,
                -6.459785098999873
              ],
              [
                -76.45791473599996,
                -6.456955724999887
              ],
              [
                -76.4542301109999,
                -6.446595723999963
              ],
              [
                -76.45226960999997,
                -6.4388360989999
              ],
              [
                -76.45114298599992,
                -6.42731834999995
              ],
              [
                -76.44880698599991,
                -6.41622659899997
              ],
              [
                -76.44764873499992,
                -6.413009848999934
              ],
              [
                -76.44444098599996,
                -6.407446974999971
              ],
              [
                -76.44361173499993,
                -6.40412047399991
              ],
              [
                -76.44031448499999,
                -6.409119099999941
              ],
              [
                -76.43900386099989,
                -6.414988099999903
              ],
              [
                -76.43849361099996,
                -6.424316474999898
              ],
              [
                -76.43633173499995,
                -6.43015459999998
              ],
              [
                -76.43347848599996,
                -6.433119098999953
              ],
              [
                -76.43021036,
                -6.435107474999882
              ],
              [
                -76.42204198599995,
                -6.437651349999953
              ],
              [
                -76.41751173599994,
                -6.437822223999945
              ],
              [
                -76.40739448599993,
                -6.436972598999944
              ]
            ]
          ]
        ],
        "type": "MultiPolygon"
      },
      "type": "Feature",
      "properties": {
        "PROVINCIA": "SAN MARTIN",
        "DISTRITO": "CACATACHI",
        "name": "CACATACHI",
        "ID": "210604",
        "DEPARTAMEN": "SAN MARTIN"
      }
    }
  ]
}
