{
  "type": "FeatureCollection",
  "features": [
    {
      "geometry": {
        "coordinates": [
          [
            [
              [
                -75.50930473499994,
                -6.582978474999948
              ],
              [
                -75.50852123499993,
                -6.589343724999935
              ],
              [
                -75.50755523499998,
                -6.60278059999996
              ],
              [
                -75.50422535999996,
                -6.616114349999975
              ],
              [
                -75.50391410999998,
                -6.62090822499988
              ],
              [
                -75.50182935999987,
                -6.632223099999919
              ],
              [
                -75.50182935999987,
                -6.63792884999998
              ],
              [
                -75.50022848499992,
                -6.64032222499992
              ],
              [
                -75.50009960999995,
                -6.648806599999944
              ],
              [
                -75.50181448399996,
                -6.668217224999978
              ],
              [
                -75.50212885999997,
                -6.674111348999929
              ],
              [
                -75.50419035999982,
                -6.680845474999956
              ],
              [
                -75.50497748499993,
                -6.681534099999908
              ],
              [
                -75.50596110999999,
                -6.689969849999954
              ],
              [
                -75.50620710999988,
                -6.697052974999906
              ],
              [
                -75.50499998499993,
                -6.725327224999887
              ],
              [
                -75.50395460999994,
                -6.733472974999927
              ],
              [
                -75.50269010999995,
                -6.737878974999944
              ],
              [
                -75.50174023499994,
                -6.743650349999939
              ],
              [
                -75.50106048499993,
                -6.753140599999881
              ],
              [
                -75.50038085999995,
                -6.757285099999876
              ],
              [
                -75.50123285899997,
                -6.767045724999946
              ],
              [
                -75.50234760899986,
                -6.769566474999976
              ],
              [
                -75.5069694849999,
                -6.773860099999979
              ],
              [
                -75.50704310999998,
                -6.778606724999975
              ],
              [
                -75.51180235999993,
                -6.785569599999974
              ],
              [
                -75.51410173399995,
                -6.787312974999907
              ],
              [
                -75.51980635999996,
                -6.790214974999969
              ],
              [
                -75.52384048499994,
                -6.79047447499994
              ],
              [
                -75.5266694849999,
                -6.79305222499994
              ],
              [
                -75.53121398499997,
                -6.794064974999912
              ],
              [
                -75.5354739849999,
                -6.793797099999949
              ],
              [
                -75.53754823499992,
                -6.795734599999946
              ],
              [
                -75.53964460999993,
                -6.796156474999862
              ],
              [
                -75.54404148499992,
                -6.799643599999968
              ],
              [
                -75.55300923499993,
                -6.800262474999954
              ],
              [
                -75.56184023499992,
                -6.801614099999938
              ],
              [
                -75.56356160999997,
                -6.803379099999972
              ],
              [
                -75.5721014849999,
                -6.807212224999944
              ],
              [
                -75.57416735999988,
                -6.808825974999934
              ],
              [
                -75.57170098499984,
                -6.812219474999949
              ],
              [
                -75.57433948499994,
                -6.818683724999914
              ],
              [
                -75.57678623499993,
                -6.820988849999878
              ],
              [
                -75.58017148499994,
                -6.82173097499998
              ],
              [
                -75.58435660999999,
                -6.820467849999943
              ],
              [
                -75.58589260999997,
                -6.82246484999996
              ],
              [
                -75.5923636099999,
                -6.827241724999965
              ],
              [
                -75.59257160999988,
                -6.830316474999904
              ],
              [
                -75.59543873499996,
                -6.83278034999995
              ],
              [
                -75.59910160999988,
                -6.833503099999973
              ],
              [
                -75.60862298499995,
                -6.838441349999925
              ],
              [
                -75.61688835999996,
                -6.841188724999938
              ],
              [
                -75.62068760999989,
                -6.839418974999944
              ],
              [
                -75.62619535999988,
                -6.842361099999948
              ],
              [
                -75.62967373499998,
                -6.843413849999934
              ],
              [
                -75.63344223499996,
                -6.843062349999968
              ],
              [
                -75.63598810999991,
                -6.838612724999962
              ],
              [
                -75.64067960999989,
                -6.834841849999975
              ],
              [
                -75.64002035999988,
                -6.832053849999966
              ],
              [
                -75.6418808599999,
                -6.828461349999884
              ],
              [
                -75.64016835999996,
                -6.824706849999927
              ],
              [
                -75.6415008599999,
                -6.822779474999948
              ],
              [
                -75.64217260999999,
                -6.81596334999989
              ],
              [
                -75.64383985999996,
                -6.815713724999966
              ],
              [
                -75.64774623499989,
                -6.819217349999917
              ],
              [
                -75.64952435999993,
                -6.819421599999941
              ],
              [
                -75.65513673499999,
                -6.817943974999935
              ],
              [
                -75.65967198499999,
                -6.81933209999994
              ],
              [
                -75.66515235999998,
                -6.824957974999904
              ],
              [
                -75.66809735999993,
                -6.826417349999872
              ],
              [
                -75.66891035999998,
                -6.830194099999972
              ],
              [
                -75.67076548499989,
                -6.834813849999875
              ],
              [
                -75.67302098499994,
                -6.83729609999989
              ],
              [
                -75.67214060999999,
                -6.839033099999938
              ],
              [
                -75.67291523499995,
                -6.844396974999825
              ],
              [
                -75.67574173499997,
                -6.846155099999976
              ],
              [
                -75.67937748499997,
                -6.845592349999947
              ],
              [
                -75.68281748499993,
                -6.846082599999932
              ],
              [
                -75.68425685999995,
                -6.845299349999948
              ],
              [
                -75.68706210999994,
                -6.8466918499999
              ],
              [
                -75.68769148499996,
                -6.851934099999937
              ],
              [
                -75.68961948499998,
                -6.853976099999954
              ],
              [
                -75.69036210999997,
                -6.860001724999904
              ],
              [
                -75.68998635999998,
                -6.861267599999906
              ],
              [
                -75.69251348499989,
                -6.865024474999927
              ],
              [
                -75.69769873499996,
                -6.86860272499996
              ],
              [
                -75.70155285999988,
                -6.868543724999938
              ],
              [
                -75.70157260999991,
                -6.865023849999943
              ],
              [
                -75.70544635999988,
                -6.865141849999929
              ],
              [
                -75.70717685999989,
                -6.862329849999981
              ],
              [
                -75.70701810999998,
                -6.860259849999863
              ],
              [
                -75.71645835999993,
                -6.857708724999895
              ],
              [
                -75.71997823499993,
                -6.855073724999841
              ],
              [
                -75.72210198499988,
                -6.851612849999924
              ],
              [
                -75.72479585999992,
                -6.850874474999955
              ],
              [
                -75.73132310999989,
                -6.851794099999893
              ],
              [
                -75.73553310999989,
                -6.850052349999942
              ],
              [
                -75.73972923499997,
                -6.850777224999945
              ],
              [
                -75.74049898499999,
                -6.854308224999897
              ],
              [
                -75.7435637349999,
                -6.856207849999976
              ],
              [
                -75.74605660999993,
                -6.856546849999972
              ],
              [
                -75.74765260999999,
                -6.852514599999949
              ],
              [
                -75.75094335999995,
                -6.852973599999871
              ],
              [
                -75.75347861099993,
                -6.854887349999956
              ],
              [
                -75.75561585999992,
                -6.852771099999927
              ],
              [
                -75.75848810999992,
                -6.852688224999895
              ],
              [
                -75.76267535999989,
                -6.851042849999942
              ],
              [
                -75.76456323499997,
                -6.852945474999956
              ],
              [
                -75.76842948499996,
                -6.853817849999928
              ],
              [
                -75.77831186099996,
                -6.848034599999949
              ],
              [
                -75.78053910999995,
                -6.848412099999962
              ],
              [
                -75.7827929849999,
                -6.843915224999932
              ],
              [
                -75.78260985999992,
                -6.838749974999928
              ],
              [
                -75.78344460999989,
                -6.837049349999916
              ],
              [
                -75.79179323499994,
                -6.832497349999869
              ],
              [
                -75.79456035999993,
                -6.828936849999877
              ],
              [
                -75.79185935999999,
                -6.826131974999896
              ],
              [
                -75.79211435999997,
                -6.823591599999929
              ],
              [
                -75.79418335999998,
                -6.821401599999945
              ],
              [
                -75.79702523499992,
                -6.820710974999884
              ],
              [
                -75.79954685999996,
                -6.823349599999972
              ],
              [
                -75.80536873499989,
                -6.823212974999933
              ],
              [
                -75.80735473599998,
                -6.824485849999917
              ],
              [
                -75.81397185999992,
                -6.825477974999956
              ],
              [
                -75.81486710999985,
                -6.821189849999882
              ],
              [
                -75.8137514849999,
                -6.817465099999822
              ],
              [
                -75.81785360999993,
                -6.815260724999973
              ],
              [
                -75.82232960999994,
                -6.810823099999936
              ],
              [
                -75.82630723499994,
                -6.810813474999975
              ],
              [
                -75.82995035999994,
                -6.806548599999928
              ],
              [
                -75.83113673499997,
                -6.803488349999952
              ],
              [
                -75.83723473499992,
                -6.799752224999907
              ],
              [
                -75.84136573499995,
                -6.800188724999884
              ],
              [
                -75.84387535999997,
                -6.797261724999828
              ],
              [
                -75.84920898499996,
                -6.797414599999968
              ],
              [
                -75.85516798599997,
                -6.799218474999975
              ],
              [
                -75.85975360999993,
                -6.801555974999928
              ],
              [
                -75.86220748499994,
                -6.801152099999911
              ],
              [
                -75.86386573499993,
                -6.798597974999893
              ],
              [
                -75.86881623499988,
                -6.797787349999965
              ],
              [
                -75.87333935999993,
                -6.798419099999933
              ],
              [
                -75.87576761099996,
                -6.801843474999941
              ],
              [
                -75.87888698499995,
                -6.801912724999966
              ],
              [
                -75.88024485999995,
                -6.799320474999888
              ],
              [
                -75.88372023499994,
                -6.797273724999911
              ],
              [
                -75.88890773599996,
                -6.797902474999887
              ],
              [
                -75.89064648499993,
                -6.795026974999928
              ],
              [
                -75.90202298599996,
                -6.794675349999977
              ],
              [
                -75.90683198499994,
                -6.792472224999926
              ],
              [
                -75.91121035999993,
                -6.794880224999929
              ],
              [
                -75.91380198599995,
                -6.79115859999996
              ],
              [
                -75.91811148499994,
                -6.791829724999957
              ],
              [
                -75.92247960999993,
                -6.791621974999941
              ],
              [
                -75.92510611099993,
                -6.793575724999926
              ],
              [
                -75.93013048599988,
                -6.793343724999943
              ],
              [
                -75.93761098499994,
                -6.791380474999926
              ],
              [
                -75.93934598499987,
                -6.791984474999879
              ],
              [
                -75.94105948599997,
                -6.79447722499998
              ],
              [
                -75.94369211099996,
                -6.794862599999931
              ],
              [
                -75.94898185999983,
                -6.79226347499997
              ],
              [
                -75.95171423599993,
                -6.792596724999953
              ],
              [
                -75.95782873499996,
                -6.790930599999911
              ],
              [
                -75.96365160999983,
                -6.788423224999917
              ],
              [
                -75.9668087359999,
                -6.788823099999888
              ],
              [
                -75.97241510999999,
                -6.793429724999953
              ],
              [
                -75.97575548499998,
                -6.797794849999946
              ],
              [
                -75.9809976109999,
                -6.799705974999938
              ],
              [
                -75.98206710999995,
                -6.794730599999923
              ],
              [
                -75.9868532349999,
                -6.796930349999855
              ],
              [
                -75.98930885999988,
                -6.79543034999989
              ],
              [
                -75.99532785999997,
                -6.798439849999966
              ],
              [
                -75.9996916099999,
                -6.794984224999951
              ],
              [
                -76.00229798499998,
                -6.795675349999954
              ],
              [
                -76.00994335999991,
                -6.799859349999906
              ],
              [
                -76.01059573499998,
                -6.791252599999893
              ],
              [
                -76.00823223499992,
                -6.781235349999918
              ],
              [
                -76.00533198499994,
                -6.774917099999925
              ],
              [
                -76.00057035999998,
                -6.761509599999954
              ],
              [
                -76.00114148499995,
                -6.754847099999949
              ],
              [
                -76.00035623499991,
                -6.750730724999926
              ],
              [
                -76.00104498499996,
                -6.74686909899998
              ],
              [
                -76.00173648499998,
                -6.736798724999915
              ],
              [
                -76.00022098599999,
                -6.726146224999979
              ],
              [
                -75.99942935999997,
                -6.72444347499993
              ],
              [
                -76.00030735999997,
                -6.719759974999931
              ],
              [
                -75.99969748499996,
                -6.716485599999942
              ],
              [
                -75.99720460999993,
                -6.711947349999946
              ],
              [
                -75.98935373599994,
                -6.711757099999943
              ],
              [
                -75.98445823499998,
                -6.71307209999992
              ],
              [
                -75.9835897349999,
                -6.71509997499993
              ],
              [
                -75.97867498499994,
                -6.718030099999908
              ],
              [
                -75.97309723499995,
                -6.716542724999954
              ],
              [
                -75.96899135999996,
                -6.719468099999972
              ],
              [
                -75.96607698499997,
                -6.717681474999949
              ],
              [
                -75.96025448499995,
                -6.715211099999976
              ],
              [
                -75.95595523599985,
                -6.712209599999881
              ],
              [
                -75.95359386099994,
                -6.712953474999949
              ],
              [
                -75.95248898499995,
                -6.715307474999975
              ],
              [
                -75.95304886099996,
                -6.717685599999925
              ],
              [
                -75.94948086099998,
                -6.718139849999943
              ],
              [
                -75.94541223599998,
                -6.720589724999968
              ],
              [
                -75.94281835999993,
                -6.720589724999968
              ],
              [
                -75.93893423499998,
                -6.722044224999934
              ],
              [
                -75.93166910999997,
                -6.728163724999945
              ],
              [
                -75.92957210999987,
                -6.726314474999924
              ],
              [
                -75.92655873499996,
                -6.725232974999926
              ],
              [
                -75.92494060999996,
                -6.726875849999942
              ],
              [
                -75.92152273499988,
                -6.726083349999897
              ],
              [
                -75.91698210999982,
                -6.730128599999944
              ],
              [
                -75.91361960999996,
                -6.730697599999871
              ],
              [
                -75.91094786099995,
                -6.730232974999979
              ],
              [
                -75.90719461099991,
                -6.734613474999946
              ],
              [
                -75.90401586099989,
                -6.734517349999976
              ],
              [
                -75.90049273499989,
                -6.735389974999975
              ],
              [
                -75.90034860999998,
                -6.731490724999958
              ],
              [
                -75.89680160999995,
                -6.728352099999881
              ],
              [
                -75.89364685999993,
                -6.728440099999943
              ],
              [
                -75.89192535999996,
                -6.725973974999931
              ],
              [
                -75.88886673599995,
                -6.725149349999981
              ],
              [
                -75.88530361099998,
                -6.727535349999869
              ],
              [
                -75.87965873499996,
                -6.725197349999974
              ],
              [
                -75.87617360999997,
                -6.724352849999889
              ],
              [
                -75.87573535999996,
                -6.726134099999967
              ],
              [
                -75.87247648499988,
                -6.725493599999879
              ],
              [
                -75.87049848499998,
                -6.72266747499998
              ],
              [
                -75.86619110999993,
                -6.723828099999935
              ],
              [
                -75.86229973499985,
                -6.721874474999936
              ],
              [
                -75.86380860999998,
                -6.718455474999928
              ],
              [
                -75.86257998499997,
                -6.716822099999945
              ],
              [
                -75.86016185999995,
                -6.717622724999956
              ],
              [
                -75.85759960999997,
                -6.720401224999875
              ],
              [
                -75.85542973499986,
                -6.718079224999883
              ],
              [
                -75.85340398599993,
                -6.718623599999887
              ],
              [
                -75.85283560999989,
                -6.720937599999957
              ],
              [
                -75.84969923499989,
                -6.72139059999995
              ],
              [
                -75.84837923499992,
                -6.724027974999956
              ],
              [
                -75.84403098499996,
                -6.723917224999923
              ],
              [
                -75.84317535999998,
                -6.721137724999892
              ],
              [
                -75.84636360999997,
                -6.716839474999972
              ],
              [
                -75.84227473499993,
                -6.712086849999935
              ],
              [
                -75.83979373499994,
                -6.712224849999927
              ],
              [
                -75.83780886099993,
                -6.710663224999905
              ],
              [
                -75.83935273499998,
                -6.708885474999931
              ],
              [
                -75.83886010999998,
                -6.706672599999877
              ],
              [
                -75.84030423499996,
                -6.70488759999995
              ],
              [
                -75.83943623499994,
                -6.703059849999931
              ],
              [
                -75.83654023499997,
                -6.702826099999925
              ],
              [
                -75.83325173499998,
                -6.699212224999883
              ],
              [
                -75.83310986099997,
                -6.696958724999945
              ],
              [
                -75.82864460999991,
                -6.69669172499988
              ],
              [
                -75.82538498499997,
                -6.695770349999918
              ],
              [
                -75.82358386099997,
                -6.693501974999947
              ],
              [
                -75.82014898499989,
                -6.69233359999987
              ],
              [
                -75.81978573499993,
                -6.688182974999904
              ],
              [
                -75.81325773499998,
                -6.682890224999937
              ],
              [
                -75.81509498499997,
                -6.67981772499985
              ],
              [
                -75.81583410999991,
                -6.674652349999917
              ],
              [
                -75.81422885999996,
                -6.672181599999874
              ],
              [
                -75.81585010999999,
                -6.667679224999858
              ],
              [
                -75.81610823499994,
                -6.663309849999905
              ],
              [
                -75.81368335999997,
                -6.661683849999918
              ],
              [
                -75.80962473499994,
                -6.66201609999996
              ],
              [
                -75.80978248599996,
                -6.659085973999936
              ],
              [
                -75.80743460999986,
                -6.657487349999883
              ],
              [
                -75.79663935999997,
                -6.658611348999898
              ],
              [
                -75.79489548599992,
                -6.656618474999959
              ],
              [
                -75.79376098499995,
                -6.650462099999856
              ],
              [
                -75.78940661099989,
                -6.645179849999977
              ],
              [
                -75.79200086099996,
                -6.641984724999929
              ],
              [
                -75.79470848499983,
                -6.637062724999964
              ],
              [
                -75.80007323499996,
                -6.634586599999921
              ],
              [
                -75.80465548499996,
                -6.637782724999965
              ],
              [
                -75.80960498499991,
                -6.63789797499993
              ],
              [
                -75.81095323499994,
                -6.637026349999928
              ],
              [
                -75.81685198499986,
                -6.637636348999933
              ],
              [
                -75.81815398499992,
                -6.635943598999916
              ],
              [
                -75.81722435999995,
                -6.63274459999991
              ],
              [
                -75.81825098499996,
                -6.625900349999938
              ],
              [
                -75.81801735999989,
                -6.62151734999992
              ],
              [
                -75.81695260999999,
                -6.618844599999932
              ],
              [
                -75.81691010999998,
                -6.609499974999835
              ],
              [
                -75.82002248499998,
                -6.609193098999924
              ],
              [
                -75.82218848499997,
                -6.607002849999901
              ],
              [
                -75.82062636099994,
                -6.602324599999974
              ],
              [
                -75.82276823599989,
                -6.598717224999916
              ],
              [
                -75.82321311099992,
                -6.595587849999902
              ],
              [
                -75.82066660999999,
                -6.592017849999934
              ],
              [
                -75.82073860999998,
                -6.589970973999925
              ],
              [
                -75.82266361099994,
                -6.588917724999931
              ],
              [
                -75.82271998499988,
                -6.586719474999938
              ],
              [
                -75.82624673499993,
                -6.58482722499997
              ],
              [
                -75.8268828599999,
                -6.581944349999901
              ],
              [
                -75.83069961099994,
                -6.578949099999875
              ],
              [
                -75.83276911099995,
                -6.579488599999934
              ],
              [
                -75.83578448499992,
                -6.577942224999958
              ],
              [
                -75.83557923499984,
                -6.574802223999939
              ],
              [
                -75.83878260999995,
                -6.572599599999876
              ],
              [
                -75.84184385999993,
                -6.567740474999937
              ],
              [
                -75.83983211099991,
                -6.561463724999896
              ],
              [
                -75.83811573499992,
                -6.559422599999948
              ],
              [
                -75.83974223499996,
                -6.557546474999981
              ],
              [
                -75.84086410999993,
                -6.553330474999939
              ],
              [
                -75.8435106099999,
                -6.552384974999939
              ],
              [
                -75.84611423499996,
                -6.548630974999924
              ],
              [
                -75.85015373499994,
                -6.544848223999907
              ],
              [
                -75.85428448499994,
                -6.544340849999969
              ],
              [
                -75.85574998499999,
                -6.54149847399998
              ],
              [
                -75.85909160999995,
                -6.539276098999949
              ],
              [
                -75.86426998499996,
                -6.537139973999956
              ],
              [
                -75.86369998599997,
                -6.535429974999943
              ],
              [
                -75.86839998499994,
                -6.529479849999973
              ],
              [
                -75.86938998499994,
                -6.525339973999962
              ],
              [
                -75.86798998499995,
                -6.521429974999933
              ],
              [
                -75.86865998499997,
                -6.518599973999926
              ],
              [
                -75.87072998499997,
                -6.517139974999907
              ],
              [
                -75.87058998499992,
                -6.515169973999889
              ],
              [
                -75.87225998499991,
                -6.513569974999939
              ],
              [
                -75.87242998499994,
                -6.510399974999928
              ],
              [
                -75.87575998499995,
                -6.510429974999909
              ],
              [
                -75.87681998499988,
                -6.508059973999934
              ],
              [
                -75.8797399849999,
                -6.506199974999959
              ],
              [
                -75.88354998499995,
                -6.505079974999944
              ],
              [
                -75.88506998499997,
                -6.50252997399997
              ],
              [
                -75.88853998499991,
                -6.501980099999969
              ],
              [
                -75.89027998499989,
                -6.499017974999902
              ],
              [
                -75.89320786099995,
                -6.497930474999976
              ],
              [
                -75.89633985999984,
                -6.494838349999952
              ],
              [
                -75.8963677349999,
                -6.492637349999882
              ],
              [
                -75.90026873499994,
                -6.484333723999953
              ],
              [
                -75.90100523499996,
                -6.480445724999981
              ],
              [
                -75.90013098499998,
                -6.478968724999959
              ],
              [
                -75.89543735999996,
                -6.476801223999928
              ],
              [
                -75.89378485999998,
                -6.472969849999913
              ],
              [
                -75.8941014859999,
                -6.464438223999935
              ],
              [
                -75.89467261099998,
                -6.460013348999951
              ],
              [
                -75.89471073499993,
                -6.45420697499992
              ],
              [
                -75.89396473499994,
                -6.448556598999971
              ],
              [
                -75.89166135999989,
                -6.445377474999816
              ],
              [
                -75.88732860999994,
                -6.437424723999925
              ],
              [
                -75.88494323499992,
                -6.435900099999913
              ],
              [
                -75.88050448499996,
                -6.435792099999958
              ],
              [
                -75.86926760999995,
                -6.439507849999927
              ],
              [
                -75.86512711099994,
                -6.44058122399997
              ],
              [
                -75.8571017349999,
                -6.441245724999874
              ],
              [
                -75.85510823499999,
                -6.44001897499993
              ],
              [
                -75.85408585999994,
                -6.436849723999956
              ],
              [
                -75.85730623499995,
                -6.433424848999948
              ],
              [
                -75.85739735999994,
                -6.429923849999966
              ],
              [
                -75.85435248499988,
                -6.42635797399987
              ],
              [
                -75.85174610999997,
                -6.424775349999948
              ],
              [
                -75.84808623499993,
                -6.423933349999913
              ],
              [
                -75.84444285999996,
                -6.424061223999956
              ],
              [
                -75.8411191109999,
                -6.425361099999918
              ],
              [
                -75.83860648599995,
                -6.427359849999903
              ],
              [
                -75.83557973499995,
                -6.431585598999959
              ],
              [
                -75.83575110999993,
                -6.434155598999894
              ],
              [
                -75.83832735999994,
                -6.441708473999881
              ],
              [
                -75.8385106099999,
                -6.445555723999973
              ],
              [
                -75.83571010999992,
                -6.44817297499992
              ],
              [
                -75.83215085999996,
                -6.448460848999957
              ],
              [
                -75.8280679849999,
                -6.446131474999959
              ],
              [
                -75.82518623499993,
                -6.440722849999872
              ],
              [
                -75.82361885999995,
                -6.435270224999954
              ],
              [
                -75.82089698499988,
                -6.431553849999943
              ],
              [
                -75.81738035999996,
                -6.431355848999885
              ],
              [
                -75.81451098499997,
                -6.429093723999927
              ],
              [
                -75.81090548499998,
                -6.42779022499991
              ],
              [
                -75.80218073599991,
                -6.42737509899996
              ],
              [
                -75.79964360999998,
                -6.426186224999981
              ],
              [
                -75.79764585999993,
                -6.418977223999946
              ],
              [
                -75.79625623499999,
                -6.416024099999902
              ],
              [
                -75.79267785999997,
                -6.41166409899995
              ],
              [
                -75.7882571099999,
                -6.409721724999883
              ],
              [
                -75.78527910999998,
                -6.409561349999933
              ],
              [
                -75.7791528599999,
                -6.410485473999927
              ],
              [
                -75.77035923499989,
                -6.409857224999939
              ],
              [
                -75.76392085999998,
                -6.410982724999883
              ],
              [
                -75.75941598499998,
                -6.411050348999879
              ],
              [
                -75.75531548499998,
                -6.407637099999931
              ],
              [
                -75.75465110999988,
                -6.403971849999948
              ],
              [
                -75.75593848499989,
                -6.398708224999893
              ],
              [
                -75.75881735999997,
                -6.396719098999938
              ],
              [
                -75.75968110999997,
                -6.394337474999929
              ],
              [
                -75.75897448499995,
                -6.39004534999998
              ],
              [
                -75.75630485999994,
                -6.383999598999878
              ],
              [
                -75.75428960999989,
                -6.381932098999812
              ],
              [
                -75.75290261099997,
                -6.378843849999896
              ],
              [
                -75.75339985999989,
                -6.373740348999945
              ],
              [
                -75.75459623499995,
                -6.369019099999946
              ],
              [
                -75.75442485999997,
                -6.366392098999938
              ],
              [
                -75.75088435999999,
                -6.362737348999872
              ],
              [
                -75.74625385999991,
                -6.362470724999923
              ],
              [
                -75.7400351099999,
                -6.370548848999931
              ],
              [
                -75.73632198499996,
                -6.372730974999854
              ],
              [
                -75.73237973499994,
                -6.370980848999977
              ],
              [
                -75.73120410999991,
                -6.368547223999883
              ],
              [
                -75.73190535999993,
                -6.363535599999921
              ],
              [
                -75.73522348499995,
                -6.356283724999969
              ],
              [
                -75.73600873499998,
                -6.353300099999899
              ],
              [
                -75.73609198499997,
                -6.345984723999948
              ],
              [
                -75.73442135999994,
                -6.343179849999956
              ],
              [
                -75.73198785999995,
                -6.341282474999957
              ],
              [
                -75.72332110999997,
                -6.337460098999884
              ],
              [
                -75.71849973499991,
                -6.335686474999875
              ],
              [
                -75.71221848499994,
                -6.330452099999945
              ],
              [
                -75.70876385999992,
                -6.329117348999887
              ],
              [
                -75.70249223499997,
                -6.329703098999971
              ],
              [
                -75.7047594849999,
                -6.332676724999885
              ],
              [
                -75.70863298499995,
                -6.332755223999925
              ],
              [
                -75.71051735999998,
                -6.337570848999917
              ],
              [
                -75.71134710999996,
                -6.342136348999929
              ],
              [
                -75.7101761099999,
                -6.344288598999924
              ],
              [
                -75.70669223499993,
                -6.348089098999878
              ],
              [
                -75.70545135999993,
                -6.350894224999877
              ],
              [
                -75.70545648499996,
                -6.353575974999899
              ],
              [
                -75.70424610999999,
                -6.355320349999829
              ],
              [
                -75.69834173499993,
                -6.360210974999916
              ],
              [
                -75.69340435999999,
                -6.363144474999956
              ],
              [
                -75.68968960999985,
                -6.36613772499993
              ],
              [
                -75.68460148499992,
                -6.371515598999906
              ],
              [
                -75.67849798499992,
                -6.378790973999969
              ],
              [
                -75.66769360999996,
                -6.394227599999908
              ],
              [
                -75.66492435999999,
                -6.398897473999966
              ],
              [
                -75.66064285999994,
                -6.408628348999969
              ],
              [
                -75.65873048499998,
                -6.412017599999956
              ],
              [
                -75.65604485999995,
                -6.423394474999895
              ],
              [
                -75.65358985999995,
                -6.429463599999906
              ],
              [
                -75.64780473499997,
                -6.441441349999934
              ],
              [
                -75.64202048499999,
                -6.454947348999895
              ],
              [
                -75.63841210999993,
                -6.464890599999876
              ],
              [
                -75.63578123499997,
                -6.470064598999954
              ],
              [
                -75.63262110999989,
                -6.474949223999943
              ],
              [
                -75.62522848499998,
                -6.484611349999909
              ],
              [
                -75.62057723499998,
                -6.489004599999873
              ],
              [
                -75.61635648499998,
                -6.4939867249999
              ],
              [
                -75.60829748499987,
                -6.504648474999954
              ],
              [
                -75.60445710999988,
                -6.514583099999925
              ],
              [
                -75.60109698499997,
                -6.526357974999939
              ],
              [
                -75.59923635999996,
                -6.529005849999976
              ],
              [
                -75.59111935999988,
                -6.534228724999934
              ],
              [
                -75.58441735999992,
                -6.53684184899987
              ],
              [
                -75.58264660999998,
                -6.538153849999901
              ],
              [
                -75.57671548499997,
                -6.540460224999947
              ],
              [
                -75.57552160999995,
                -6.542832849999968
              ],
              [
                -75.57030323499998,
                -6.544750474999944
              ],
              [
                -75.5688594849999,
                -6.546389599999941
              ],
              [
                -75.56003560999989,
                -6.553636473999916
              ],
              [
                -75.55193360999994,
                -6.557242223999936
              ],
              [
                -75.54316335899995,
                -6.564403474999949
              ],
              [
                -75.53710160999992,
                -6.568244098999912
              ],
              [
                -75.53153510899995,
                -6.572507849999909
              ],
              [
                -75.52159098499999,
                -6.575604474999977
              ],
              [
                -75.51495435899994,
                -6.581494099999873
              ],
              [
                -75.50930473499994,
                -6.582978474999948
              ]
            ]
          ]
        ],
        "type": "MultiPolygon"
      },
      "type": "Feature",
      "properties": {
        "PROVINCIA": "SAN MARTIN",
        "DISTRITO": "HUIMBAYOC",
        "name": "HUIMBAYOC",
        "ID": "210609",
        "DEPARTAMEN": "SAN MARTIN"
      }
    }
  ]
}
