{
  "type": "FeatureCollection",
  "features": [
    {
      "geometry": {
        "coordinates": [
          [
            [
              [
                -76.29288811099991,
                -6.640837224999927
              ],
              [
                -76.29420661099994,
                -6.644314473999941
              ],
              [
                -76.29409098599996,
                -6.652150349999943
              ],
              [
                -76.29358498499994,
                -6.654333473999884
              ],
              [
                -76.29125723599998,
                -6.657456349999904
              ],
              [
                -76.28982586099994,
                -6.661215224999978
              ],
              [
                -76.2887561099999,
                -6.666390974999956
              ],
              [
                -76.28516498599993,
                -6.675707349999925
              ],
              [
                -76.27886810999996,
                -6.681077848999905
              ],
              [
                -76.27537898499992,
                -6.687936099999945
              ],
              [
                -76.27504960999994,
                -6.692069099999856
              ],
              [
                -76.28401748499994,
                -6.689367099999913
              ],
              [
                -76.28951348599986,
                -6.689305224999941
              ],
              [
                -76.29079848499987,
                -6.687782349999907
              ],
              [
                -76.29505773499994,
                -6.686544974999947
              ],
              [
                -76.30026873599996,
                -6.68611672499992
              ],
              [
                -76.30543885999998,
                -6.682598724999934
              ],
              [
                -76.31149648599995,
                -6.684579974999963
              ],
              [
                -76.31608885999992,
                -6.684556224999938
              ],
              [
                -76.31808760999996,
                -6.683866099999875
              ],
              [
                -76.32175198499982,
                -6.680844224999873
              ],
              [
                -76.32524973499994,
                -6.6807490999999
              ],
              [
                -76.32948148499997,
                -6.682313223999927
              ],
              [
                -76.33573523599995,
                -6.682364099999972
              ],
              [
                -76.33928861099997,
                -6.683532974999935
              ],
              [
                -76.34497548599995,
                -6.686578724999947
              ],
              [
                -76.35105273499988,
                -6.68922259999988
              ],
              [
                -76.35732036099995,
                -6.685184224999944
              ],
              [
                -76.3650809849999,
                -6.682104224999932
              ],
              [
                -76.37155861099995,
                -6.681154349999929
              ],
              [
                -76.37790723499995,
                -6.678298224999878
              ],
              [
                -76.38327998499989,
                -6.678202349999935
              ],
              [
                -76.38792473499996,
                -6.679583099999888
              ],
              [
                -76.39151648499995,
                -6.682326849999981
              ],
              [
                -76.39796610999991,
                -6.682676473999948
              ],
              [
                -76.40302798499994,
                -6.684846974999971
              ],
              [
                -76.40881636099988,
                -6.689921849999905
              ],
              [
                -76.41243261099999,
                -6.688308224999957
              ],
              [
                -76.41512498599997,
                -6.684998349999944
              ],
              [
                -76.41582811099988,
                -6.681739974999914
              ],
              [
                -76.41873786099995,
                -6.68080109999994
              ],
              [
                -76.42376835999988,
                -6.681191224999964
              ],
              [
                -76.43037023599999,
                -6.678978974999893
              ],
              [
                -76.43506636099988,
                -6.67870897499995
              ],
              [
                -76.43600035999998,
                -6.679802474999917
              ],
              [
                -76.44900748599997,
                -6.679348973999879
              ],
              [
                -76.45311173599993,
                -6.681215599999973
              ],
              [
                -76.45631798599999,
                -6.680006349999928
              ],
              [
                -76.45476686099994,
                -6.680089099999918
              ],
              [
                -76.44471998599988,
                -6.67465997499994
              ],
              [
                -76.44285998599997,
                -6.674249974999952
              ],
              [
                -76.43511998599996,
                -6.668849974999887
              ],
              [
                -76.43281998499998,
                -6.668379974999937
              ],
              [
                -76.4275741109999,
                -6.663694224999915
              ],
              [
                -76.42361161099996,
                -6.658331849999968
              ],
              [
                -76.41917448599992,
                -6.654416724999919
              ],
              [
                -76.41772710999999,
                -6.651332099999877
              ],
              [
                -76.41651698599998,
                -6.645969724999929
              ],
              [
                -76.41342811099992,
                -6.64094872499993
              ],
              [
                -76.40792761099988,
                -6.635648099999912
              ],
              [
                -76.40171098599996,
                -6.632919474999937
              ],
              [
                -76.39559773599996,
                -6.631477224999969
              ],
              [
                -76.38699998599992,
                -6.628359974999967
              ],
              [
                -76.38479998599996,
                -6.626999973999943
              ],
              [
                -76.38155998599996,
                -6.621829974999969
              ],
              [
                -76.37811011099996,
                -6.619809974999953
              ],
              [
                -76.37396998599996,
                -6.61869997499997
              ],
              [
                -76.37541910999988,
                -6.615645599999937
              ],
              [
                -76.37890198499997,
                -6.615136349999887
              ],
              [
                -76.38457186099993,
                -6.609119348999968
              ],
              [
                -76.38830936099998,
                -6.605902599999979
              ],
              [
                -76.39147986099988,
                -6.604525599999931
              ],
              [
                -76.39394448499996,
                -6.602234598999814
              ],
              [
                -76.39738110999991,
                -6.60063772399991
              ],
              [
                -76.40129223499997,
                -6.599908724999921
              ],
              [
                -76.40420811099989,
                -6.594273598999962
              ],
              [
                -76.40673061099989,
                -6.592364349999912
              ],
              [
                -76.40695048599997,
                -6.589957599999821
              ],
              [
                -76.4091258599999,
                -6.587030099999879
              ],
              [
                -76.4094961099999,
                -6.584993598999972
              ],
              [
                -76.41162523499997,
                -6.582204849999869
              ],
              [
                -76.41620736099992,
                -6.580862599999932
              ],
              [
                -76.41648498599989,
                -6.5784210999999
              ],
              [
                -76.42584860999995,
                -6.572157974999925
              ],
              [
                -76.42559161099985,
                -6.568851724999945
              ],
              [
                -76.42017386099991,
                -6.565914099999873
              ],
              [
                -76.41839373599998,
                -6.561830224999937
              ],
              [
                -76.41130123599999,
                -6.560017724999966
              ],
              [
                -76.4071418609999,
                -6.557765974999938
              ],
              [
                -76.40342761099998,
                -6.554263724999942
              ],
              [
                -76.39918773499994,
                -6.551697599999898
              ],
              [
                -76.39383298599995,
                -6.549676974999954
              ],
              [
                -76.38403298599985,
                -6.547656348999908
              ],
              [
                -76.38039648599988,
                -6.54735347399992
              ],
              [
                -76.36779336099988,
                -6.552877099999876
              ],
              [
                -76.35982660999991,
                -6.558506223999871
              ],
              [
                -76.35763760999998,
                -6.560647724999967
              ],
              [
                -76.35330685999998,
                -6.566548724999961
              ],
              [
                -76.35101523499998,
                -6.568334849999871
              ],
              [
                -76.34757223599996,
                -6.568761724999945
              ],
              [
                -76.3411867349999,
                -6.564670473999911
              ],
              [
                -76.3349799859999,
                -6.561559974999966
              ],
              [
                -76.32925048499993,
                -6.557768599999974
              ],
              [
                -76.32672836099988,
                -6.555293974999927
              ],
              [
                -76.32115623499999,
                -6.555449723999914
              ],
              [
                -76.31694873599986,
                -6.556673974999967
              ],
              [
                -76.31092723599988,
                -6.55412309999997
              ],
              [
                -76.30282685999998,
                -6.551806098999975
              ],
              [
                -76.29766485999983,
                -6.547734473999981
              ],
              [
                -76.29156460999991,
                -6.546313598999916
              ],
              [
                -76.2851989859999,
                -6.548700724999946
              ],
              [
                -76.28384373499995,
                -6.550027349999823
              ],
              [
                -76.28471098499995,
                -6.556766223999887
              ],
              [
                -76.29113048599999,
                -6.562392974999966
              ],
              [
                -76.29067736099995,
                -6.565791349999927
              ],
              [
                -76.29313198499995,
                -6.569454349999944
              ],
              [
                -76.29286760999992,
                -6.575043099999903
              ],
              [
                -76.29396273499992,
                -6.582822098999884
              ],
              [
                -76.29115498499988,
                -6.582617223999875
              ],
              [
                -76.29013423499998,
                -6.578782348999937
              ],
              [
                -76.28475023499993,
                -6.579769848999945
              ],
              [
                -76.28239661099997,
                -6.581595974999971
              ],
              [
                -76.27961010999996,
                -6.586451974999932
              ],
              [
                -76.28091186099994,
                -6.591146974999901
              ],
              [
                -76.28497161099995,
                -6.596826224999973
              ],
              [
                -76.28656236099994,
                -6.597824599999967
              ],
              [
                -76.28833323499998,
                -6.603820099999894
              ],
              [
                -76.28904086099999,
                -6.608065974999931
              ],
              [
                -76.29071535999998,
                -6.613029599999948
              ],
              [
                -76.29200086099996,
                -6.618830349999939
              ],
              [
                -76.29527023499992,
                -6.622458224999946
              ],
              [
                -76.29583835999995,
                -6.624102724999943
              ],
              [
                -76.29536986099998,
                -6.629195849999917
              ],
              [
                -76.2934761109999,
                -6.634986599999877
              ],
              [
                -76.29288811099991,
                -6.640837224999927
              ]
            ]
          ]
        ],
        "type": "MultiPolygon"
      },
      "type": "Feature",
      "properties": {
        "PROVINCIA": "SAN MARTIN",
        "DISTRITO": "JUAN GUERRA",
        "name": "JUAN GUERRA",
        "ID": "210610",
        "DEPARTAMEN": "SAN MARTIN"
      }
    }
  ]
}
