{
  "type": "FeatureCollection",
  "features": [
    {
      "geometry": {
        "coordinates": [
          [
            [
              [
                -70.77249222999984,
                -17.16366210999996
              ],
              [
                -70.77704685599991,
                -17.16315423499998
              ],
              [
                -70.77955860599991,
                -17.15987698499987
              ],
              [
                -70.78337710599993,
                -17.157279734999975
              ],
              [
                -70.78692035599983,
                -17.15636748499992
              ],
              [
                -70.78914848099998,
                -17.15751423499995
              ],
              [
                -70.7939687299999,
                -17.156539109999926
              ],
              [
                -70.79717610599982,
                -17.15787473499995
              ],
              [
                -70.80137010499993,
                -17.160921858999814
              ],
              [
                -70.80657985499994,
                -17.163051609999968
              ],
              [
                -70.81224810499998,
                -17.162388609999937
              ],
              [
                -70.81657335499989,
                -17.162822234999908
              ],
              [
                -70.82089848099992,
                -17.16570573499996
              ],
              [
                -70.82217635599994,
                -17.168163109999966
              ],
              [
                -70.82728773099984,
                -17.172586484999954
              ],
              [
                -70.82964685499991,
                -17.175895858999922
              ],
              [
                -70.83349610599998,
                -17.178771484999913
              ],
              [
                -70.83951460599997,
                -17.181898733999958
              ],
              [
                -70.84392598099998,
                -17.182865609999908
              ],
              [
                -70.85166998099999,
                -17.19088085899989
              ],
              [
                -70.8549847299999,
                -17.19513298499993
              ],
              [
                -70.85783398099994,
                -17.196515608999903
              ],
              [
                -70.86259898099985,
                -17.196039483999982
              ],
              [
                -70.86507660599995,
                -17.193622233999974
              ],
              [
                -70.86912547999992,
                -17.18776035899998
              ],
              [
                -70.87263035599995,
                -17.185524609999902
              ],
              [
                -70.87510798099993,
                -17.18564560999988
              ],
              [
                -70.88667047999996,
                -17.19016035999988
              ],
              [
                -70.89316598099998,
                -17.193671858999892
              ],
              [
                -70.89856473099991,
                -17.195005484999854
              ],
              [
                -70.90130072999989,
                -17.195024609999905
              ],
              [
                -70.90359972999994,
                -17.193675484999915
              ],
              [
                -70.90872985599998,
                -17.18683535899993
              ],
              [
                -70.90970698099989,
                -17.182763733999934
              ],
              [
                -70.9122929809999,
                -17.17892973499994
              ],
              [
                -70.90734997999994,
                -17.17653998399993
              ],
              [
                -70.90270985499996,
                -17.175509983999973
              ],
              [
                -70.90076998099994,
                -17.174239983999882
              ],
              [
                -70.89696997999994,
                -17.174039983999933
              ],
              [
                -70.89302997999982,
                -17.17221998499997
              ],
              [
                -70.88766997999988,
                -17.167510109999853
              ],
              [
                -70.89186135599994,
                -17.163341734999904
              ],
              [
                -70.89417210499988,
                -17.1586313599999
              ],
              [
                -70.89625960599994,
                -17.156033609999838
              ],
              [
                -70.89723373099991,
                -17.152832608999915
              ],
              [
                -70.9000312309999,
                -17.146943359999966
              ],
              [
                -70.89582823099988,
                -17.144894484999952
              ],
              [
                -70.89174610599997,
                -17.14141210999992
              ],
              [
                -70.88626172999989,
                -17.137570359999927
              ],
              [
                -70.88363673099997,
                -17.133142609999936
              ],
              [
                -70.8810117299999,
                -17.13004885999993
              ],
              [
                -70.8770976059999,
                -17.12748823499993
              ],
              [
                -70.87561723099998,
                -17.1245038589999
              ],
              [
                -70.87050385599991,
                -17.118441359999906
              ],
              [
                -70.86600585499991,
                -17.116619109999874
              ],
              [
                -70.86292985599994,
                -17.11442573499994
              ],
              [
                -70.85658985499992,
                -17.11120685999998
              ],
              [
                -70.85434760599998,
                -17.118697234999956
              ],
              [
                -70.85211135599991,
                -17.12148823399997
              ],
              [
                -70.8478086049999,
                -17.12306448499993
              ],
              [
                -70.84497848099994,
                -17.125710984999955
              ],
              [
                -70.84288872999997,
                -17.129046859999903
              ],
              [
                -70.83996685599988,
                -17.130253859999925
              ],
              [
                -70.83337485499999,
                -17.128497983999978
              ],
              [
                -70.83024622999994,
                -17.129513733999886
              ],
              [
                -70.82579685499996,
                -17.13216210999991
              ],
              [
                -70.82038085499988,
                -17.136253858999964
              ],
              [
                -70.81861910599997,
                -17.139142609999908
              ],
              [
                -70.81652148099988,
                -17.13990235999995
              ],
              [
                -70.81045510599995,
                -17.14043948499983
              ],
              [
                -70.80274222999992,
                -17.13715823499996
              ],
              [
                -70.79674610599994,
                -17.138156234999826
              ],
              [
                -70.79149610599995,
                -17.141281233999905
              ],
              [
                -70.78926173099984,
                -17.14425585999993
              ],
              [
                -70.78620897999986,
                -17.14683010999994
              ],
              [
                -70.78442385599993,
                -17.149552734999872
              ],
              [
                -70.77567385499992,
                -17.15399998399988
              ],
              [
                -70.77344535499992,
                -17.155541108999955
              ],
              [
                -70.77188098099998,
                -17.159748109999953
              ],
              [
                -70.77249222999984,
                -17.16366210999996
              ]
            ]
          ]
        ],
        "type": "MultiPolygon"
      },
      "type": "Feature",
      "properties": {
        "PROVINCIA": "MARISCAL NIETO",
        "DISTRITO": "SAMEGUA",
        "name": "SAMEGUA",
        "ID": "170106",
        "DEPARTAMEN": "MOQUEGUA"
      }
    }
  ]
}
