{
  "type": "FeatureCollection",
  "features": [
    {
      "geometry": {
        "coordinates": [
          [
            [
              [
                -75.55458235899988,
                -13.749571230999948
              ],
              [
                -75.54871510999999,
                -13.756913356999974
              ],
              [
                -75.54230273499996,
                -13.759029481999846
              ],
              [
                -75.53758973399982,
                -13.762395855999955
              ],
              [
                -75.53752560999993,
                -13.76582648099992
              ],
              [
                -75.53948135999991,
                -13.771950231999881
              ],
              [
                -75.53819885999997,
                -13.776759481999932
              ],
              [
                -75.53884010999997,
                -13.779516855999873
              ],
              [
                -75.54153323499997,
                -13.781440605999876
              ],
              [
                -75.54028285999988,
                -13.787211606999904
              ],
              [
                -75.53835910999999,
                -13.792822481999906
              ],
              [
                -75.53627510999996,
                -13.794521730999975
              ],
              [
                -75.53265223499994,
                -13.79455373099995
              ],
              [
                -75.52752235999998,
                -13.79695835699988
              ],
              [
                -75.52617573499998,
                -13.800549356999909
              ],
              [
                -75.52486123499995,
                -13.81311748099995
              ],
              [
                -75.52487848499993,
                -13.817899230999956
              ],
              [
                -75.52792773499993,
                -13.820984356999872
              ],
              [
                -75.53059373399998,
                -13.82082423099996
              ],
              [
                -75.53497660999994,
                -13.823970730999974
              ],
              [
                -75.53594135999992,
                -13.828851606999876
              ],
              [
                -75.54190035999994,
                -13.832744106999883
              ],
              [
                -75.54422848499996,
                -13.835615231999952
              ],
              [
                -75.55121673499997,
                -13.836548855999922
              ],
              [
                -75.55207423499996,
                -13.838716855999905
              ],
              [
                -75.55866598499989,
                -13.840455106999912
              ],
              [
                -75.56337698499988,
                -13.840869231999932
              ],
              [
                -75.56482835999998,
                -13.843486981999945
              ],
              [
                -75.56430410999997,
                -13.845467730999871
              ],
              [
                -75.56618548499989,
                -13.854054730999849
              ],
              [
                -75.56331360999997,
                -13.857440105999899
              ],
              [
                -75.5629639849999,
                -13.85927523099997
              ],
              [
                -75.55949773499998,
                -13.863265980999927
              ],
              [
                -75.56008023499987,
                -13.870927105999897
              ],
              [
                -75.55669535999994,
                -13.876087106999933
              ],
              [
                -75.55550223499989,
                -13.879051355999934
              ],
              [
                -75.55196673499995,
                -13.879775355999982
              ],
              [
                -75.54999023499988,
                -13.88137110599996
              ],
              [
                -75.55025985999993,
                -13.88590023099988
              ],
              [
                -75.54725973499995,
                -13.888945231999855
              ],
              [
                -75.54550210999997,
                -13.889482480999959
              ],
              [
                -75.53926760999991,
                -13.887443355999949
              ],
              [
                -75.53753123499996,
                -13.88841410599997
              ],
              [
                -75.52928710999993,
                -13.885249981999891
              ],
              [
                -75.52206010999998,
                -13.885114730999817
              ],
              [
                -75.51785348499993,
                -13.887452356999972
              ],
              [
                -75.51415385899998,
                -13.890681105999931
              ],
              [
                -75.5110596099999,
                -13.892194605999919
              ],
              [
                -75.50674760999993,
                -13.896878606999962
              ],
              [
                -75.50394823399995,
                -13.89724010599997
              ],
              [
                -75.50224023499993,
                -13.901410106999947
              ],
              [
                -75.49926535999998,
                -13.90059060699997
              ],
              [
                -75.49691410899999,
                -13.905607481999937
              ],
              [
                -75.49747073499992,
                -13.910759730999928
              ],
              [
                -75.5029238589999,
                -13.91324410599998
              ],
              [
                -75.50610160999997,
                -13.912619105999852
              ],
              [
                -75.50805273499992,
                -13.910992356999884
              ],
              [
                -75.51012298499995,
                -13.911468731999946
              ],
              [
                -75.51617573499993,
                -13.915449231999958
              ],
              [
                -75.5210488599999,
                -13.916701230999934
              ],
              [
                -75.52274410899992,
                -13.920298855999874
              ],
              [
                -75.52573823399996,
                -13.923222606999843
              ],
              [
                -75.5288711099999,
                -13.929257856999868
              ],
              [
                -75.53205073499998,
                -13.931554730999949
              ],
              [
                -75.54109573499994,
                -13.934406230999969
              ],
              [
                -75.54402535899993,
                -13.937425731999951
              ],
              [
                -75.54875973499998,
                -13.939560480999944
              ],
              [
                -75.55159173499999,
                -13.94554885599996
              ],
              [
                -75.55296098499997,
                -13.946779356999912
              ],
              [
                -75.55410160899999,
                -13.950923856999907
              ],
              [
                -75.55355273499998,
                -13.953775356999927
              ],
              [
                -75.55430073399998,
                -13.957828106999898
              ],
              [
                -75.55741598399999,
                -13.960540856999899
              ],
              [
                -75.56333398499999,
                -13.967851606999943
              ],
              [
                -75.57384760999997,
                -13.971611355999926
              ],
              [
                -75.57860548499991,
                -13.970822231999875
              ],
              [
                -75.58480073499993,
                -13.973003856999924
              ],
              [
                -75.59259960999998,
                -13.972005855999953
              ],
              [
                -75.59660548499994,
                -13.972890606999954
              ],
              [
                -75.60017773499993,
                -13.969617231999848
              ],
              [
                -75.60278510999996,
                -13.969513731999882
              ],
              [
                -75.60393360999984,
                -13.972589855999956
              ],
              [
                -75.60886135999988,
                -13.976083980999931
              ],
              [
                -75.61159760999988,
                -13.978816355999982
              ],
              [
                -75.61612110999988,
                -13.976324230999921
              ],
              [
                -75.62083010999987,
                -13.976601606999964
              ],
              [
                -75.62246098499998,
                -13.975062480999895
              ],
              [
                -75.62703123499995,
                -13.975134731999844
              ],
              [
                -75.63314848499994,
                -13.9770194809999
              ],
              [
                -75.64253510999993,
                -13.976134731999878
              ],
              [
                -75.64724410999992,
                -13.978814481999905
              ],
              [
                -75.65049798499996,
                -13.976394480999886
              ],
              [
                -75.65398823499999,
                -13.975794981999911
              ],
              [
                -75.66378498499995,
                -13.978749981999897
              ],
              [
                -75.66522260999994,
                -13.976300730999924
              ],
              [
                -75.66888473499989,
                -13.976503856999955
              ],
              [
                -75.67111723499988,
                -13.978738231999898
              ],
              [
                -75.67025785999994,
                -13.98248248199991
              ],
              [
                -75.67253510999996,
                -13.98659960599997
              ],
              [
                -75.67796098499991,
                -13.992318355999828
              ],
              [
                -75.68253510999995,
                -13.995783230999962
              ],
              [
                -75.69321485999996,
                -13.98759185599988
              ],
              [
                -75.69313085999983,
                -13.98574410699996
              ],
              [
                -75.69850585999995,
                -13.983046855999817
              ],
              [
                -75.70215235999984,
                -13.98211523099991
              ],
              [
                -75.71317185999999,
                -13.977757855999812
              ],
              [
                -75.71134760999985,
                -13.975242231999857
              ],
              [
                -75.71475198499996,
                -13.973540980999871
              ],
              [
                -75.72252335999991,
                -13.970712856999967
              ],
              [
                -75.71961323499994,
                -13.96530473099989
              ],
              [
                -75.71639848499996,
                -13.961869105999938
              ],
              [
                -75.71072660999988,
                -13.953513731999976
              ],
              [
                -75.70791210999988,
                -13.950800731999948
              ],
              [
                -75.70298435999996,
                -13.943781230999832
              ],
              [
                -75.70644348499997,
                -13.939577231999976
              ],
              [
                -75.7082891099999,
                -13.934595731999934
              ],
              [
                -75.70796673499996,
                -13.932164105999902
              ],
              [
                -75.71321285999989,
                -13.929974605999917
              ],
              [
                -75.71356523499992,
                -13.924469105999947
              ],
              [
                -75.71092973499998,
                -13.92014648199995
              ],
              [
                -75.70841710999991,
                -13.918044606999956
              ],
              [
                -75.70656048499995,
                -13.913281231999918
              ],
              [
                -75.70545510999989,
                -13.907060606999835
              ],
              [
                -75.70707610999989,
                -13.901464855999848
              ],
              [
                -75.70433260999994,
                -13.899366730999873
              ],
              [
                -75.70032810999999,
                -13.894037106999974
              ],
              [
                -75.69913285999996,
                -13.888550731999885
              ],
              [
                -75.69755860999999,
                -13.886847606999936
              ],
              [
                -75.69348323499992,
                -13.884688231999974
              ],
              [
                -75.69186135999996,
                -13.881630856999948
              ],
              [
                -75.68927110999994,
                -13.882050231999926
              ],
              [
                -75.68771673499992,
                -13.879771481999853
              ],
              [
                -75.68625035999992,
                -13.872945231999836
              ],
              [
                -75.67903910999996,
                -13.87032810699992
              ],
              [
                -75.67713285999997,
                -13.86655660699995
              ],
              [
                -75.67478510999996,
                -13.864992230999917
              ],
              [
                -75.67390235999994,
                -13.862712856999906
              ],
              [
                -75.67475198499989,
                -13.859003855999958
              ],
              [
                -75.67240423499999,
                -13.855705106999949
              ],
              [
                -75.67407235999997,
                -13.853085981999982
              ],
              [
                -75.67391185999992,
                -13.850523231999944
              ],
              [
                -75.66865035999996,
                -13.846511731999954
              ],
              [
                -75.66952960999998,
                -13.843460480999909
              ],
              [
                -75.67144135999996,
                -13.840660106999906
              ],
              [
                -75.67186960999999,
                -13.835334105999948
              ],
              [
                -75.67395435999998,
                -13.82720773099993
              ],
              [
                -75.67348635999997,
                -13.82499535699992
              ],
              [
                -75.6756562349999,
                -13.820740731999877
              ],
              [
                -75.67466010999993,
                -13.813939480999977
              ],
              [
                -75.67282810999995,
                -13.814240230999928
              ],
              [
                -75.66858198499989,
                -13.812220605999869
              ],
              [
                -75.66235935999998,
                -13.812400355999898
              ],
              [
                -75.65901948499999,
                -13.809296856999822
              ],
              [
                -75.65440235999995,
                -13.809017606999873
              ],
              [
                -75.64799610999995,
                -13.80743948199995
              ],
              [
                -75.64323823499996,
                -13.802681481999912
              ],
              [
                -75.64138285999991,
                -13.799224606999928
              ],
              [
                -75.63537110999994,
                -13.79810935699993
              ],
              [
                -75.63089260999993,
                -13.79581260599997
              ],
              [
                -75.62949998499994,
                -13.79351560699996
              ],
              [
                -75.62475385999988,
                -13.79026560699998
              ],
              [
                -75.61543548499998,
                -13.78613473099989
              ],
              [
                -75.60846098499997,
                -13.78595510599996
              ],
              [
                -75.60415035999984,
                -13.780523481999865
              ],
              [
                -75.60274998499995,
                -13.776828106999972
              ],
              [
                -75.59793948499993,
                -13.77430060599994
              ],
              [
                -75.59715235999988,
                -13.770001981999883
              ],
              [
                -75.59442773499995,
                -13.767027355999971
              ],
              [
                -75.59313860999998,
                -13.764197231999958
              ],
              [
                -75.5930409849999,
                -13.761488231999977
              ],
              [
                -75.59074623499993,
                -13.757781231999957
              ],
              [
                -75.58863085999997,
                -13.756968730999972
              ],
              [
                -75.58166010999997,
                -13.752474606999897
              ],
              [
                -75.5765839849999,
                -13.753470731999812
              ],
              [
                -75.57498048499991,
                -13.751953106999906
              ],
              [
                -75.57224410999999,
                -13.74551373199995
              ],
              [
                -75.57046673499985,
                -13.7429316059999
              ],
              [
                -75.56811523499988,
                -13.742187480999974
              ],
              [
                -75.56320698499997,
                -13.747581980999826
              ],
              [
                -75.55458235899988,
                -13.749571230999948
              ]
            ]
          ]
        ],
        "type": "MultiPolygon"
      },
      "type": "Feature",
      "properties": {
        "PROVINCIA": "ICA",
        "DISTRITO": "SAN JOSE DE LOS MOLINOS",
        "name": "SAN JOSE DE LOS MOLINOS",
        "ID": "100107",
        "DEPARTAMEN": "ICA"
      }
    }
  ]
}
