{
  "type": "FeatureCollection",
  "features": [
    {
      "geometry": {
        "coordinates": [
          [
            [
              [
                -75.69015423499991,
                -14.137357480999981
              ],
              [
                -75.69245698499992,
                -14.14339848099985
              ],
              [
                -75.69384373499992,
                -14.143513731999974
              ],
              [
                -75.69465235999996,
                -14.147441355999945
              ],
              [
                -75.69457223499995,
                -14.153310606999923
              ],
              [
                -75.69321485999996,
                -14.157076231999838
              ],
              [
                -75.6912221099999,
                -14.160271480999882
              ],
              [
                -75.69863673499992,
                -14.160435480999979
              ],
              [
                -75.69777148499992,
                -14.166556481999976
              ],
              [
                -75.69921485999998,
                -14.168578106999973
              ],
              [
                -75.70158198499996,
                -14.168460981999885
              ],
              [
                -75.70654885999988,
                -14.16557423199987
              ],
              [
                -75.71099023499994,
                -14.165456981999967
              ],
              [
                -75.71202735999998,
                -14.163706981999837
              ],
              [
                -75.71509573499998,
                -14.148294981999982
              ],
              [
                -75.71186135999989,
                -14.146978481999952
              ],
              [
                -75.71186135999989,
                -14.137333981999973
              ],
              [
                -75.70805473499996,
                -14.137462856999889
              ],
              [
                -75.7068378599999,
                -14.138951231999954
              ],
              [
                -75.70418548499993,
                -14.139003980999973
              ],
              [
                -75.69966410999984,
                -14.137705106999931
              ],
              [
                -75.69015423499991,
                -14.137357480999981
              ]
            ]
          ]
        ],
        "type": "MultiPolygon"
      },
      "type": "Feature",
      "properties": {
        "PROVINCIA": "ICA",
        "DISTRITO": "TATE",
        "name": "TATE",
        "ID": "100112",
        "DEPARTAMEN": "ICA"
      }
    }
  ]
}
