{
  "type": "FeatureCollection",
  "features": [
    {
      "geometry": {
        "coordinates": [
          [
            [
              [
                -75.1899489839999,
                -10.78040197799993
              ],
              [
                -75.18821823499997,
                -10.78404235399995
              ],
              [
                -75.18866598499989,
                -10.785310478999975
              ],
              [
                -75.18370473499994,
                -10.786793228999898
              ],
              [
                -75.18102073399996,
                -10.788392228999953
              ],
              [
                -75.17787973399999,
                -10.79176160399993
              ],
              [
                -75.17536710899998,
                -10.797929102999888
              ],
              [
                -75.1736538589999,
                -10.80341135399982
              ],
              [
                -75.17263760899993,
                -10.810472603999926
              ],
              [
                -75.17079848499998,
                -10.819972477999897
              ],
              [
                -75.16754335899998,
                -10.823341853999978
              ],
              [
                -75.16451310999997,
                -10.828525977999902
              ],
              [
                -75.16213610999995,
                -10.831192228999896
              ],
              [
                -75.16114023499995,
                -10.835014853999894
              ],
              [
                -75.1617506099999,
                -10.837552478999896
              ],
              [
                -75.16666535899998,
                -10.84468372899994
              ],
              [
                -75.1673399849999,
                -10.850337353999976
              ],
              [
                -75.16997398499996,
                -10.856472728999961
              ],
              [
                -75.17333173499998,
                -10.859780477999891
              ],
              [
                -75.17887485899996,
                -10.860460853999882
              ],
              [
                -75.18265798399989,
                -10.86204410299996
              ],
              [
                -75.18536848499997,
                -10.86621772899997
              ],
              [
                -75.18633435899989,
                -10.870490727999936
              ],
              [
                -75.18794473399998,
                -10.87447097899991
              ],
              [
                -75.19019310999994,
                -10.875108978999947
              ],
              [
                -75.19134760899988,
                -10.871402227999965
              ],
              [
                -75.19551360899999,
                -10.865740603999939
              ],
              [
                -75.1982284849999,
                -10.861169853999911
              ],
              [
                -75.2049943589999,
                -10.856221478999942
              ],
              [
                -75.20848198499988,
                -10.85412485399985
              ],
              [
                -75.21743285899993,
                -10.845657727999935
              ],
              [
                -75.22094110999996,
                -10.843510103999904
              ],
              [
                -75.22410548399995,
                -10.845415853999953
              ],
              [
                -75.22662298499995,
                -10.845819228999915
              ],
              [
                -75.23057285999994,
                -10.84976910399996
              ],
              [
                -75.2367407349999,
                -10.85092372899993
              ],
              [
                -75.23822948499998,
                -10.852837853999858
              ],
              [
                -75.2435466099999,
                -10.85642310399993
              ],
              [
                -75.24523998499996,
                -10.860249853999903
              ],
              [
                -75.2474699839999,
                -10.86114997899989
              ],
              [
                -75.2506699839999,
                -10.864929978999896
              ],
              [
                -75.25997998499992,
                -10.863639978999856
              ],
              [
                -75.26235998399994,
                -10.86249997899995
              ],
              [
                -75.26549998499996,
                -10.86345997799998
              ],
              [
                -75.26804010899997,
                -10.86270997899993
              ],
              [
                -75.2757953599999,
                -10.871694853999827
              ],
              [
                -75.27556910999994,
                -10.875502978999975
              ],
              [
                -75.27396935999991,
                -10.877922103999936
              ],
              [
                -75.27414873499993,
                -10.880294478999929
              ],
              [
                -75.27641185999994,
                -10.883860728999935
              ],
              [
                -75.2781051099999,
                -10.884469353999862
              ],
              [
                -75.2835961099999,
                -10.883891728999856
              ],
              [
                -75.28581523499997,
                -10.885952103999955
              ],
              [
                -75.28554998499993,
                -10.890134853999939
              ],
              [
                -75.2810003599999,
                -10.895316478999916
              ],
              [
                -75.27886223399992,
                -10.900498228999936
              ],
              [
                -75.27899485999995,
                -10.904306352999981
              ],
              [
                -75.28183535999989,
                -10.90534422899998
              ],
              [
                -75.28417648399989,
                -10.911688603999949
              ],
              [
                -75.28590998499999,
                -10.911589978999928
              ],
              [
                -75.28892998399994,
                -10.909029978999968
              ],
              [
                -75.29114998499995,
                -10.909039978999886
              ],
              [
                -75.2939599849999,
                -10.912459978999891
              ],
              [
                -75.29730998499997,
                -10.912959978999936
              ],
              [
                -75.30043998499997,
                -10.915519978999953
              ],
              [
                -75.30645998399996,
                -10.918509978999964
              ],
              [
                -75.31478998399996,
                -10.921099978999962
              ],
              [
                -75.31953998499995,
                -10.923069978999877
              ],
              [
                -75.32476273499998,
                -10.92307972899988
              ],
              [
                -75.32968860999989,
                -10.917568478999954
              ],
              [
                -75.33057998499999,
                -10.915569977999894
              ],
              [
                -75.32879998399989,
                -10.912739977999877
              ],
              [
                -75.32952998399998,
                -10.91064997899997
              ],
              [
                -75.33222998499991,
                -10.909979978999957
              ],
              [
                -75.33484998499989,
                -10.907029977999855
              ],
              [
                -75.33928998499994,
                -10.904619977999914
              ],
              [
                -75.34598998399997,
                -10.90549997799991
              ],
              [
                -75.34746998499986,
                -10.90507997799989
              ],
              [
                -75.35159010899997,
                -10.901569978999817
              ],
              [
                -75.35740998399996,
                -10.90138997899993
              ],
              [
                -75.36017998499989,
                -10.902029978999963
              ],
              [
                -75.36382998399989,
                -10.899879978999877
              ],
              [
                -75.36903998499997,
                -10.89591997899987
              ],
              [
                -75.37228685999992,
                -10.886140728999862
              ],
              [
                -75.37517848499988,
                -10.879906353999957
              ],
              [
                -75.37700873499989,
                -10.87729547899994
              ],
              [
                -75.38195923499995,
                -10.872275103999868
              ],
              [
                -75.38442848499989,
                -10.868299228999888
              ],
              [
                -75.38572735999998,
                -10.86493685399995
              ],
              [
                -75.38143910999992,
                -10.861708603999944
              ],
              [
                -75.37897073499988,
                -10.856117228999949
              ],
              [
                -75.36792960899999,
                -10.850153477999982
              ],
              [
                -75.36273773499994,
                -10.850112477999971
              ],
              [
                -75.3603863599999,
                -10.84306397899985
              ],
              [
                -75.35807748499991,
                -10.838501102999942
              ],
              [
                -75.35648323499998,
                -10.836796977999938
              ],
              [
                -75.35633798499998,
                -10.830756853999958
              ],
              [
                -75.35472848499995,
                -10.828539853999928
              ],
              [
                -75.35626323499997,
                -10.824207853999951
              ],
              [
                -75.35526435999986,
                -10.820267103999925
              ],
              [
                -75.36188635999991,
                -10.81917410299991
              ],
              [
                -75.36001998499995,
                -10.816779978999875
              ],
              [
                -75.35915998499996,
                -10.813629977999938
              ],
              [
                -75.35691998499988,
                -10.81145997799996
              ],
              [
                -75.35658998399992,
                -10.809629978999908
              ],
              [
                -75.35339998399996,
                -10.804109978999975
              ],
              [
                -75.34851998499994,
                -10.800639978999925
              ],
              [
                -75.34541998499998,
                -10.799489978999816
              ],
              [
                -75.33878998499995,
                -10.800659977999885
              ],
              [
                -75.33393160999992,
                -10.80848210399995
              ],
              [
                -75.33393160999992,
                -10.810997103999966
              ],
              [
                -75.33013673399995,
                -10.81246760299996
              ],
              [
                -75.3282911099999,
                -10.816990603999898
              ],
              [
                -75.32646560899991,
                -10.819363603999875
              ],
              [
                -75.32216573499994,
                -10.822000353999897
              ],
              [
                -75.31989410899996,
                -10.821655478999958
              ],
              [
                -75.31774423499996,
                -10.824474728999917
              ],
              [
                -75.31354573499993,
                -10.827273728999955
              ],
              [
                -75.31047335999995,
                -10.827749477999873
              ],
              [
                -75.30794573499998,
                -10.834828977999962
              ],
              [
                -75.30427460999988,
                -10.83823635399989
              ],
              [
                -75.29948798499998,
                -10.838540602999956
              ],
              [
                -75.29459998399994,
                -10.83996035299998
              ],
              [
                -75.29129385899995,
                -10.838195853999935
              ],
              [
                -75.28750998499993,
                -10.841629978999947
              ],
              [
                -75.28307998399993,
                -10.841029978999927
              ],
              [
                -75.27913998399998,
                -10.83599997899995
              ],
              [
                -75.27605998499996,
                -10.834039978999954
              ],
              [
                -75.27048998399988,
                -10.829509978999965
              ],
              [
                -75.26630010999997,
                -10.829539977999957
              ],
              [
                -75.26235998399994,
                -10.825289978999933
              ],
              [
                -75.26053998499998,
                -10.819509977999928
              ],
              [
                -75.26061998499995,
                -10.816599978999932
              ],
              [
                -75.25853998499997,
                -10.813729978999959
              ],
              [
                -75.25751998499993,
                -10.809909978999883
              ],
              [
                -75.25421985899999,
                -10.808879978999926
              ],
              [
                -75.24978998499995,
                -10.805369977999874
              ],
              [
                -75.2474699849999,
                -10.80195997899989
              ],
              [
                -75.24659998499988,
                -10.795149978999973
              ],
              [
                -75.24346998399989,
                -10.790560102999905
              ],
              [
                -75.24303998499994,
                -10.786399977999963
              ],
              [
                -75.24387985899995,
                -10.779089978999878
              ],
              [
                -75.24532998499996,
                -10.77551997799992
              ],
              [
                -75.24453998399997,
                -10.773129977999872
              ],
              [
                -75.24418998499993,
                -10.764159978999942
              ],
              [
                -75.24134998499989,
                -10.763109977999932
              ],
              [
                -75.23778998399996,
                -10.760719978999873
              ],
              [
                -75.2297299839999,
                -10.7594299779999
              ],
              [
                -75.22402060999991,
                -10.761304228999904
              ],
              [
                -75.22051835999997,
                -10.763821477999898
              ],
              [
                -75.21088710999993,
                -10.765572602999953
              ],
              [
                -75.20418398399988,
                -10.764676228999917
              ],
              [
                -75.19523648499995,
                -10.775258477999955
              ],
              [
                -75.1899489839999,
                -10.78040197799993
              ]
            ]
          ]
        ],
        "type": "MultiPolygon"
      },
      "type": "Feature",
      "properties": {
        "PROVINCIA": "CHANCHAMAYO",
        "DISTRITO": "SAN LUIS DE SHUARO",
        "name": "SAN LUIS DE SHUARO",
        "ID": "110804",
        "DEPARTAMEN": "JUNIN"
      }
    }
  ]
}
