{
  "type": "FeatureCollection",
  "features": [
    {
      "geometry": {
        "coordinates": [
          [
            [
              [
                -78.6390886129999,
                -8.143001226999957
              ],
              [
                -78.63726573799988,
                -8.149305350999953
              ],
              [
                -78.63679523799993,
                -8.155526475999977
              ],
              [
                -78.64274023699988,
                -8.168310850999944
              ],
              [
                -78.64708786299997,
                -8.173033225999973
              ],
              [
                -78.65070611299996,
                -8.175607975999924
              ],
              [
                -78.65338998699997,
                -8.182465101999924
              ],
              [
                -78.65246661299994,
                -8.18465597699992
              ],
              [
                -78.64375386299997,
                -8.19010747599998
              ],
              [
                -78.63953686199994,
                -8.188911350999945
              ],
              [
                -78.63459373699999,
                -8.189794975999973
              ],
              [
                -78.63155973799991,
                -8.191088476999937
              ],
              [
                -78.62822548799994,
                -8.18974160099998
              ],
              [
                -78.6266913629999,
                -8.188130850999926
              ],
              [
                -78.62152448799998,
                -8.188594350999892
              ],
              [
                -78.61580711199997,
                -8.19356585099996
              ],
              [
                -78.60697036299996,
                -8.19539122699996
              ],
              [
                -78.60523211299994,
                -8.197945226999934
              ],
              [
                -78.60460561199994,
                -8.202815851999958
              ],
              [
                -78.60114348799993,
                -8.20845722599995
              ],
              [
                -78.60308136199995,
                -8.215158350999957
              ],
              [
                -78.60477723799994,
                -8.218549975999963
              ],
              [
                -78.60469248799996,
                -8.222065600999883
              ],
              [
                -78.60016261299995,
                -8.228920726999888
              ],
              [
                -78.59602148799996,
                -8.231654350999975
              ],
              [
                -78.59566173699994,
                -8.235922475999871
              ],
              [
                -78.58830311299994,
                -8.241114351999954
              ],
              [
                -78.58206773799998,
                -8.241893725999944
              ],
              [
                -78.57538298699995,
                -8.243690475999927
              ],
              [
                -78.56614261299995,
                -8.249533225999926
              ],
              [
                -78.5657792369999,
                -8.25102735199988
              ],
              [
                -78.56491598799988,
                -8.254824225999926
              ],
              [
                -78.56679298799992,
                -8.260365225999976
              ],
              [
                -78.57136911299995,
                -8.261884725999948
              ],
              [
                -78.57243748799993,
                -8.266626975999941
              ],
              [
                -78.57199798799991,
                -8.268685601999891
              ],
              [
                -78.57379486199989,
                -8.273070350999944
              ],
              [
                -78.57655473799991,
                -8.275708976999965
              ],
              [
                -78.58320111299997,
                -8.279308600999912
              ],
              [
                -78.58380136299996,
                -8.283121851999965
              ],
              [
                -78.5837491129999,
                -8.2908127259999
              ],
              [
                -78.58451973799998,
                -8.29563560199989
              ],
              [
                -78.58645048799997,
                -8.30005885199995
              ],
              [
                -78.59054773799994,
                -8.302540350999834
              ],
              [
                -78.58829686299998,
                -8.307498100999965
              ],
              [
                -78.58302398799998,
                -8.30776822699994
              ],
              [
                -78.58062073799988,
                -8.308720101999825
              ],
              [
                -78.57823798699991,
                -8.312234101999934
              ],
              [
                -78.57605223799999,
                -8.314168975999905
              ],
              [
                -78.5745054869999,
                -8.31697672599995
              ],
              [
                -78.57114473799993,
                -8.319891600999938
              ],
              [
                -78.56636773799994,
                -8.319736975999888
              ],
              [
                -78.55771698799992,
                -8.320727600999874
              ],
              [
                -78.55037786199995,
                -8.32421035099992
              ],
              [
                -78.55136448799993,
                -8.326776475999964
              ],
              [
                -78.55376698799995,
                -8.328228225999908
              ],
              [
                -78.55641048799993,
                -8.335810976999937
              ],
              [
                -78.56322461299999,
                -8.347206601999915
              ],
              [
                -78.56413323799995,
                -8.35175185199995
              ],
              [
                -78.56383886299994,
                -8.354294850999906
              ],
              [
                -78.56646436299991,
                -8.35753247699995
              ],
              [
                -78.56927298699998,
                -8.35831022699989
              ],
              [
                -78.57136861299989,
                -8.361531476999971
              ],
              [
                -78.57977961299991,
                -8.366461350999941
              ],
              [
                -78.58004748699989,
                -8.368335225999886
              ],
              [
                -78.58260386299992,
                -8.371052225999904
              ],
              [
                -78.58536111299998,
                -8.372578100999931
              ],
              [
                -78.58888123799994,
                -8.37288585199991
              ],
              [
                -78.59020623799995,
                -8.374251101999903
              ],
              [
                -78.59082186199998,
                -8.377302850999968
              ],
              [
                -78.59978948799989,
                -8.382040851999875
              ],
              [
                -78.60306873799988,
                -8.3878497259999
              ],
              [
                -78.60773986299995,
                -8.391249476999917
              ],
              [
                -78.61095098799996,
                -8.399055850999957
              ],
              [
                -78.61196486299991,
                -8.405361226999958
              ],
              [
                -78.61471486199991,
                -8.41087272599998
              ],
              [
                -78.61680623799992,
                -8.412127475999966
              ],
              [
                -78.61887298799996,
                -8.416945350999981
              ],
              [
                -78.62151248799995,
                -8.41895697699988
              ],
              [
                -78.62662823799991,
                -8.41901147699997
              ],
              [
                -78.6283969879999,
                -8.419719100999885
              ],
              [
                -78.63289136299989,
                -8.42737297699989
              ],
              [
                -78.63688186299993,
                -8.427913350999916
              ],
              [
                -78.64217186199994,
                -8.432018101999915
              ],
              [
                -78.64615036299995,
                -8.437376976999929
              ],
              [
                -78.64765598799994,
                -8.440306351999936
              ],
              [
                -78.65278861199994,
                -8.446723351999935
              ],
              [
                -78.65543361199997,
                -8.448357476999945
              ],
              [
                -78.65616011299994,
                -8.450402226999927
              ],
              [
                -78.65595311299995,
                -8.454560601999901
              ],
              [
                -78.65678548799997,
                -8.458173726999917
              ],
              [
                -78.65902998799999,
                -8.462802850999935
              ],
              [
                -78.6656663629999,
                -8.469598226999892
              ],
              [
                -78.66719186299991,
                -8.472557475999963
              ],
              [
                -78.67009611299989,
                -8.474193476999972
              ],
              [
                -78.67318411299993,
                -8.477704101999905
              ],
              [
                -78.67226948799993,
                -8.48078322699996
              ],
              [
                -78.6730332379999,
                -8.483449225999891
              ],
              [
                -78.67327598799989,
                -8.49016635099997
              ],
              [
                -78.67626173799994,
                -8.491185601999916
              ],
              [
                -78.68370111299998,
                -8.491382850999969
              ],
              [
                -78.68711686299997,
                -8.493106600999965
              ],
              [
                -78.691984113,
                -8.490746475999913
              ],
              [
                -78.69620698799997,
                -8.490517601999954
              ],
              [
                -78.69779873799996,
                -8.494880850999948
              ],
              [
                -78.7031792379999,
                -8.498644475999981
              ],
              [
                -78.70618811299994,
                -8.499431975999926
              ],
              [
                -78.70841823799998,
                -8.501059976999954
              ],
              [
                -78.71402123799993,
                -8.500893100999917
              ],
              [
                -78.71737536299997,
                -8.49884635099994
              ],
              [
                -78.72080073799998,
                -8.49799997699995
              ],
              [
                -78.72201361299989,
                -8.498968726999976
              ],
              [
                -78.7256571129999,
                -8.507434351999905
              ],
              [
                -78.73302086299998,
                -8.505121101999976
              ],
              [
                -78.73893648799998,
                -8.50517147599993
              ],
              [
                -78.74724611299996,
                -8.504048851999926
              ],
              [
                -78.7547382379999,
                -8.504816350999931
              ],
              [
                -78.75561648799993,
                -8.506922976999874
              ],
              [
                -78.75448611299993,
                -8.508653725999977
              ],
              [
                -78.75478273799996,
                -8.51323797699996
              ],
              [
                -78.75366173799995,
                -8.517642600999977
              ],
              [
                -78.75178336299996,
                -8.520905101999972
              ],
              [
                -78.75044111299991,
                -8.525750351999875
              ],
              [
                -78.75167048799995,
                -8.529137601999935
              ],
              [
                -78.75054111299994,
                -8.53371122599998
              ],
              [
                -78.74631523799997,
                -8.536402101999954
              ],
              [
                -78.74602436199996,
                -8.540444100999935
              ],
              [
                -78.74232423799998,
                -8.544249226999966
              ],
              [
                -78.7397354879999,
                -8.55061335199997
              ],
              [
                -78.73853711299995,
                -8.555641726999966
              ],
              [
                -78.73598711299991,
                -8.558864975999938
              ],
              [
                -78.73500373699989,
                -8.562487851999947
              ],
              [
                -78.73515473799995,
                -8.56537022599997
              ],
              [
                -78.73278911199998,
                -8.568388350999896
              ],
              [
                -78.73462448799995,
                -8.57430072599982
              ],
              [
                -78.73834448799994,
                -8.579181476999963
              ],
              [
                -78.74167573799997,
                -8.586994101999892
              ],
              [
                -78.74197461299997,
                -8.591035101999921
              ],
              [
                -78.7405547379999,
                -8.594201226999871
              ],
              [
                -78.7408144879999,
                -8.596400350999943
              ],
              [
                -78.74334761299997,
                -8.599201351999966
              ],
              [
                -78.74456836299998,
                -8.601771475999897
              ],
              [
                -78.74592573799998,
                -8.608230476999893
              ],
              [
                -78.74647461299998,
                -8.61399222699987
              ],
              [
                -78.74854298799988,
                -8.621466851999969
              ],
              [
                -78.7523164879999,
                -8.61443747699991
              ],
              [
                -78.75570911299997,
                -8.605716851999944
              ],
              [
                -78.76108598799993,
                -8.594847476999973
              ],
              [
                -78.76602923799993,
                -8.586480600999948
              ],
              [
                -78.77800786299997,
                -8.569412100999898
              ],
              [
                -78.78615423699995,
                -8.55979685099993
              ],
              [
                -78.79558398799998,
                -8.549746100999869
              ],
              [
                -78.8018808629999,
                -8.544284976999904
              ],
              [
                -78.80494923799995,
                -8.540994101999956
              ],
              [
                -78.81844923799997,
                -8.5287402269999
              ],
              [
                -78.82825586299992,
                -8.520706975999929
              ],
              [
                -78.83190623799999,
                -8.51740822599993
              ],
              [
                -78.85430073799989,
                -8.50024210099997
              ],
              [
                -78.85669723799992,
                -8.499042975999885
              ],
              [
                -78.86227348799991,
                -8.49407622699988
              ],
              [
                -78.88038673799997,
                -8.482468726999969
              ],
              [
                -78.88397073799996,
                -8.479650351999908
              ],
              [
                -78.88847661299991,
                -8.47746872599987
              ],
              [
                -78.90153323799996,
                -8.469123101999912
              ],
              [
                -78.90638673799998,
                -8.466636725999933
              ],
              [
                -78.91509173799994,
                -8.460083975999964
              ],
              [
                -78.92232036299993,
                -8.451290976999928
              ],
              [
                -78.92623823799983,
                -8.446945351999886
              ],
              [
                -78.92871873799999,
                -8.445113226999922
              ],
              [
                -78.92937298799995,
                -8.441492226999912
              ],
              [
                -78.93217973799989,
                -8.437863226999923
              ],
              [
                -78.93488473799988,
                -8.436324225999954
              ],
              [
                -78.93471098799989,
                -8.43135935099997
              ],
              [
                -78.93547261299994,
                -8.429628850999961
              ],
              [
                -78.93407611299995,
                -8.427732476999893
              ],
              [
                -78.93028323799984,
                -8.429246100999876
              ],
              [
                -78.92325198799983,
                -8.430097600999943
              ],
              [
                -78.91686723799995,
                -8.429972601999964
              ],
              [
                -78.91259961299994,
                -8.428820350999956
              ],
              [
                -78.90826561299991,
                -8.424531226999875
              ],
              [
                -78.90522661299991,
                -8.420718726999894
              ],
              [
                -78.90083986299987,
                -8.414230476999876
              ],
              [
                -78.89948823799995,
                -8.410634726999888
              ],
              [
                -78.89779886299988,
                -8.402427726999974
              ],
              [
                -78.89540623799996,
                -8.396872975999884
              ],
              [
                -78.89509573799995,
                -8.385464850999938
              ],
              [
                -78.89636523799999,
                -8.378925726999967
              ],
              [
                -78.90052748799997,
                -8.37145310099993
              ],
              [
                -78.89619536299989,
                -8.368185600999936
              ],
              [
                -78.89270898799998,
                -8.36650385099989
              ],
              [
                -78.89161911299988,
                -8.360052725999935
              ],
              [
                -78.88949998799995,
                -8.354220726999927
              ],
              [
                -78.88506248799996,
                -8.348990226999945
              ],
              [
                -78.88308198799996,
                -8.343953100999897
              ],
              [
                -78.88137498799995,
                -8.342660101999968
              ],
              [
                -78.87514048799989,
                -8.340656225999965
              ],
              [
                -78.87327148799994,
                -8.340665975999968
              ],
              [
                -78.87035936299998,
                -8.338679726999942
              ],
              [
                -78.86781048799992,
                -8.338439475999962
              ],
              [
                -78.86039648799994,
                -8.33308385099997
              ],
              [
                -78.85936911299996,
                -8.331705100999955
              ],
              [
                -78.85601361299996,
                -8.330337850999967
              ],
              [
                -78.85182811299995,
                -8.330171850999875
              ],
              [
                -78.8490409879999,
                -8.32849410199998
              ],
              [
                -78.84814448799989,
                -8.326419975999954
              ],
              [
                -78.84406061299995,
                -8.321308600999942
              ],
              [
                -78.84002361299997,
                -8.318005851999942
              ],
              [
                -78.83284936299992,
                -8.31748060099983
              ],
              [
                -78.8307106129999,
                -8.316747476999922
              ],
              [
                -78.82737048799993,
                -8.312538850999942
              ],
              [
                -78.82331361299993,
                -8.3100244769999
              ],
              [
                -78.81935173799997,
                -8.310706600999936
              ],
              [
                -78.81675811299993,
                -8.309992725999962
              ],
              [
                -78.81452136299987,
                -8.302616475999912
              ],
              [
                -78.81523598799993,
                -8.299471226999913
              ],
              [
                -78.81353048799997,
                -8.292795100999967
              ],
              [
                -78.80985761299996,
                -8.290861975999974
              ],
              [
                -78.80835473799988,
                -8.285736725999925
              ],
              [
                -78.81234298799984,
                -8.28090572699989
              ],
              [
                -78.81402986299997,
                -8.27550622699988
              ],
              [
                -78.81461873799992,
                -8.27182547599989
              ],
              [
                -78.80914573799998,
                -8.269751351999957
              ],
              [
                -78.80817961299988,
                -8.266717725999968
              ],
              [
                -78.80813923799991,
                -8.263312226999915
              ],
              [
                -78.80623298799992,
                -8.260620475999872
              ],
              [
                -78.80249636299993,
                -8.257551600999875
              ],
              [
                -78.80335911299983,
                -8.249947851999934
              ],
              [
                -78.80718023799989,
                -8.246301975999927
              ],
              [
                -78.80885961299992,
                -8.245525850999968
              ],
              [
                -78.80907423799994,
                -8.242087975999937
              ],
              [
                -78.81443761299994,
                -8.238449725999885
              ],
              [
                -78.81603198699997,
                -8.232960851999962
              ],
              [
                -78.8235637379999,
                -8.233320350999975
              ],
              [
                -78.82694486299988,
                -8.232157975999883
              ],
              [
                -78.83245398799994,
                -8.23163960099987
              ],
              [
                -78.83746636299998,
                -8.229314475999956
              ],
              [
                -78.83814598799995,
                -8.227406101999975
              ],
              [
                -78.83794423799998,
                -8.222391225999957
              ],
              [
                -78.83904073799994,
                -8.216117726999926
              ],
              [
                -78.83793961299995,
                -8.213397975999953
              ],
              [
                -78.83831523799995,
                -8.209096226999975
              ],
              [
                -78.84013111299998,
                -8.207241100999966
              ],
              [
                -78.84285661299998,
                -8.199703975999967
              ],
              [
                -78.84222748799988,
                -8.196531850999918
              ],
              [
                -78.84265586299989,
                -8.193105350999929
              ],
              [
                -78.84083361299992,
                -8.191103225999939
              ],
              [
                -78.84073848799989,
                -8.193006726999954
              ],
              [
                -78.83814111299989,
                -8.198236225999835
              ],
              [
                -78.83147273799989,
                -8.203593725999895
              ],
              [
                -78.82700986299994,
                -8.203470850999963
              ],
              [
                -78.8247636129999,
                -8.202509850999945
              ],
              [
                -78.81538861299993,
                -8.204736350999951
              ],
              [
                -78.81299023799994,
                -8.203955100999963
              ],
              [
                -78.80983786299993,
                -8.206333976999872
              ],
              [
                -78.80222661199991,
                -8.20442185099995
              ],
              [
                -78.79980861299987,
                -8.201994100999968
              ],
              [
                -78.79670111299998,
                -8.201201226999956
              ],
              [
                -78.79528348799982,
                -8.20332097599993
              ],
              [
                -78.7927749879999,
                -8.204439976999936
              ],
              [
                -78.78984173799995,
                -8.202767100999893
              ],
              [
                -78.78719461299994,
                -8.20324497699994
              ],
              [
                -78.78401298799997,
                -8.207889225999963
              ],
              [
                -78.78111561299994,
                -8.207907600999874
              ],
              [
                -78.78150548799988,
                -8.204477350999923
              ],
              [
                -78.77979536299995,
                -8.201623225999924
              ],
              [
                -78.77976223799999,
                -8.193649100999892
              ],
              [
                -78.77725898799997,
                -8.186736100999894
              ],
              [
                -78.77742461299994,
                -8.182724226999937
              ],
              [
                -78.77281598799988,
                -8.176656601999923
              ],
              [
                -78.76387498799988,
                -8.173830100999908
              ],
              [
                -78.75654298799992,
                -8.174205100999927
              ],
              [
                -78.75450786299996,
                -8.173425725999948
              ],
              [
                -78.75008598799991,
                -8.17391585199988
              ],
              [
                -78.74629686299994,
                -8.173507850999897
              ],
              [
                -78.7424257379999,
                -8.171271475999959
              ],
              [
                -78.73480136299997,
                -8.172200101999977
              ],
              [
                -78.73165361299993,
                -8.172110101999976
              ],
              [
                -78.72802486299997,
                -8.170937975999891
              ],
              [
                -78.72417648699997,
                -8.16737585099986
              ],
              [
                -78.71594011299999,
                -8.165774226999929
              ],
              [
                -78.71022036299996,
                -8.163028850999979
              ],
              [
                -78.70776611299993,
                -8.15841147599997
              ],
              [
                -78.7011728629999,
                -8.155229225999904
              ],
              [
                -78.69982811299991,
                -8.153884725999944
              ],
              [
                -78.69294086299993,
                -8.15220035099992
              ],
              [
                -78.68097161299994,
                -8.151812100999962
              ],
              [
                -78.67914936199998,
                -8.14728672599989
              ],
              [
                -78.67146286199988,
                -8.14400197599997
              ],
              [
                -78.66982086299993,
                -8.141087100999869
              ],
              [
                -78.66824423799994,
                -8.140845351999928
              ],
              [
                -78.65935411299989,
                -8.146901850999939
              ],
              [
                -78.64726298799991,
                -8.148111100999813
              ],
              [
                -78.64270348699995,
                -8.147542100999885
              ],
              [
                -78.63956398799996,
                -8.14520485099996
              ],
              [
                -78.6390886129999,
                -8.143001226999957
              ]
            ]
          ]
        ],
        "type": "MultiPolygon"
      },
      "type": "Feature",
      "properties": {
        "PROVINCIA": "VIRU",
        "DISTRITO": "VIRU",
        "name": "VIRU",
        "ID": "121201",
        "DEPARTAMEN": "LA LIBERTAD"
      }
    }
  ]
}
