{
  "type": "FeatureCollection",
  "features": [
    {
      "geometry": {
        "coordinates": [
          [
            [
              [
                -70.47792590899991,
                -3.424217816999885
              ],
              [
                -70.48001491699989,
                -3.423174775999939
              ],
              [
                -70.48557396099994,
                -3.422224169999879
              ],
              [
                -70.48920288899996,
                -3.420972707999965
              ],
              [
                -70.49277307699992,
                -3.41878916099995
              ],
              [
                -70.49770962299988,
                -3.414366182999913
              ],
              [
                -70.50327600199995,
                -3.408497142999977
              ],
              [
                -70.50754721399994,
                -3.404765777999899
              ],
              [
                -70.51446517099998,
                -3.399968532999878
              ],
              [
                -70.51778518199995,
                -3.398479209999948
              ],
              [
                -70.52507545899994,
                -3.396373737999909
              ],
              [
                -70.52955790199991,
                -3.395665725999947
              ],
              [
                -70.53978520499993,
                -3.396434987999896
              ],
              [
                -70.54754092299993,
                -3.398237700999971
              ],
              [
                -70.55349009199995,
                -3.400933751999901
              ],
              [
                -70.56195026599988,
                -3.406742141999928
              ],
              [
                -70.57151517499994,
                -3.412069395999879
              ],
              [
                -70.5824223059999,
                -3.416367801999911
              ],
              [
                -70.58921140799998,
                -3.418213416999947
              ],
              [
                -70.59612839699992,
                -3.419492963999915
              ],
              [
                -70.6070322519999,
                -3.420339119999937
              ],
              [
                -70.61250229999996,
                -3.420235886999933
              ],
              [
                -70.6241357369999,
                -3.418835841999908
              ],
              [
                -70.63098607799998,
                -3.417233197999906
              ],
              [
                -70.6369474569999,
                -3.415338458999827
              ],
              [
                -70.64507741299997,
                -3.411938470999871
              ],
              [
                -70.65444723099995,
                -3.406691346999878
              ],
              [
                -70.65825620899989,
                -3.403056056999901
              ],
              [
                -70.66195910199997,
                -3.397416127999918
              ],
              [
                -70.66788714199998,
                -3.38479822499994
              ],
              [
                -70.67135128699988,
                -3.378483037999956
              ],
              [
                -70.67540356399991,
                -3.37341508499992
              ],
              [
                -70.67985474899996,
                -3.370378248999941
              ],
              [
                -70.68490652199995,
                -3.368076204999966
              ],
              [
                -70.68907158999997,
                -3.366847041999961
              ],
              [
                -70.69709718899992,
                -3.365640080999924
              ],
              [
                -70.70574237899996,
                -3.365999346999899
              ],
              [
                -70.71462447999994,
                -3.363954096999976
              ],
              [
                -70.71917497999993,
                -3.364567721999947
              ],
              [
                -70.72304710499992,
                -3.365905096999938
              ],
              [
                -70.7276766999999,
                -3.369274512999937
              ],
              [
                -70.74924270699995,
                -3.371987557999944
              ],
              [
                -70.77566261699997,
                -3.374732878999907
              ],
              [
                -70.79294244199991,
                -3.375331546999973
              ],
              [
                -70.79834716399989,
                -3.375299543999972
              ],
              [
                -70.80366652699996,
                -3.374447920999955
              ],
              [
                -70.81538878199996,
                -3.371887734999973
              ],
              [
                -70.84688817999995,
                -3.362551214999883
              ],
              [
                -70.87053469099999,
                -3.355406882999944
              ],
              [
                -70.89576712399997,
                -3.34621070299994
              ],
              [
                -70.90572460399989,
                -3.341934488999811
              ],
              [
                -70.91228919199995,
                -3.338442821999934
              ],
              [
                -70.92185291799996,
                -3.332805494999945
              ],
              [
                -70.9457836979999,
                -3.316474039999946
              ],
              [
                -70.96037984199995,
                -3.305769851999969
              ],
              [
                -70.96899563399995,
                -3.298843435999856
              ],
              [
                -70.97588460599991,
                -3.280792096999903
              ],
              [
                -70.97830273099999,
                -3.278109346999827
              ],
              [
                -70.98114848099988,
                -3.276324221999914
              ],
              [
                -70.99010548099989,
                -3.272863220999966
              ],
              [
                -70.99657110499993,
                -3.270001846999946
              ],
              [
                -71.00771285599996,
                -3.262218721999886
              ],
              [
                -71.0096368209999,
                -3.260288642999967
              ],
              [
                -71.01334741699998,
                -3.258177306999812
              ],
              [
                -71.01735728799991,
                -3.257538020999959
              ],
              [
                -71.02601310599994,
                -3.257080891999863
              ],
              [
                -71.03505234599993,
                -3.255759482999963
              ],
              [
                -71.04442333899993,
                -3.25245771799996
              ],
              [
                -71.0518130559999,
                -3.24888791099994
              ],
              [
                -71.05588635199996,
                -3.245997596999871
              ],
              [
                -71.05916313399985,
                -3.24094536299998
              ],
              [
                -71.05995235599994,
                -3.236449596999876
              ],
              [
                -71.05930110499997,
                -3.227883845999941
              ],
              [
                -71.05961523099995,
                -3.223591846999909
              ],
              [
                -71.0626934799999,
                -3.216917346999935
              ],
              [
                -71.06811873399994,
                -3.212497300999871
              ],
              [
                -71.07093201299989,
                -3.212193063999905
              ],
              [
                -71.07815709199997,
                -3.214263759999938
              ],
              [
                -71.08921273099998,
                -3.214303470999937
              ],
              [
                -71.11048635499998,
                -3.212285096999892
              ],
              [
                -71.11991548099996,
                -3.212482470999873
              ],
              [
                -71.13395698099993,
                -3.212255845999948
              ],
              [
                -71.14607845099994,
                -3.210799261999966
              ],
              [
                -71.15423877999984,
                -3.210810666999919
              ],
              [
                -71.15742641699995,
                -3.211402139999961
              ],
              [
                -71.17211836899986,
                -3.215532767999946
              ],
              [
                -71.18249529299993,
                -3.217643779999889
              ],
              [
                -71.19205542499992,
                -3.218629656999951
              ],
              [
                -71.20702434499998,
                -3.218945894999877
              ],
              [
                -71.22226020999994,
                -3.217038898999931
              ],
              [
                -71.22766488699983,
                -3.217439079999906
              ],
              [
                -71.23433606899988,
                -3.219789704999926
              ],
              [
                -71.23937931599988,
                -3.224042787999906
              ],
              [
                -71.24240228299993,
                -3.224085417999959
              ],
              [
                -71.24458643399998,
                -3.221411530999887
              ],
              [
                -71.24848155399985,
                -3.213110420999953
              ],
              [
                -71.25275495999995,
                -3.209794011999918
              ],
              [
                -71.26223683299986,
                -3.206316910999931
              ],
              [
                -71.26581226599984,
                -3.204436645999863
              ],
              [
                -71.27364092699992,
                -3.199452217999919
              ],
              [
                -71.28023864799997,
                -3.198095526999907
              ],
              [
                -71.28501909499988,
                -3.198868272999903
              ],
              [
                -71.29115407899991,
                -3.201369689999922
              ],
              [
                -71.29492969799992,
                -3.20158815699989
              ],
              [
                -71.2971440419999,
                -3.200161311999977
              ],
              [
                -71.29949731199991,
                -3.195973375999927
              ],
              [
                -71.30147059599994,
                -3.191094935999956
              ],
              [
                -71.30374531899997,
                -3.187112170999967
              ],
              [
                -71.30690666599997,
                -3.183883537999975
              ],
              [
                -71.31074223099989,
                -3.181568345999892
              ],
              [
                -71.31634308599996,
                -3.179343416999927
              ],
              [
                -71.33039848099997,
                -3.175457096999878
              ],
              [
                -71.33511135599986,
                -3.17461159599992
              ],
              [
                -71.35403648399995,
                -3.172025721999944
              ],
              [
                -71.36600023299997,
                -3.176212709999959
              ],
              [
                -71.37197012699983,
                -3.179708134999828
              ],
              [
                -71.37441187199988,
                -3.182066885999859
              ],
              [
                -71.37547878899994,
                -3.18443676499993
              ],
              [
                -71.37682687699993,
                -3.19177861999998
              ],
              [
                -71.37942899099994,
                -3.193357912999886
              ],
              [
                -71.3895864459999,
                -3.195817474999899
              ],
              [
                -71.40065846199985,
                -3.197690680999926
              ],
              [
                -71.40824567699997,
                -3.198645317999933
              ],
              [
                -71.4223730839999,
                -3.201301059999935
              ],
              [
                -71.42792813699998,
                -3.201765844999954
              ],
              [
                -71.43306899299984,
                -3.201431412999966
              ],
              [
                -71.43840831299991,
                -3.199982023999951
              ],
              [
                -71.4438861349999,
                -3.196205645999953
              ],
              [
                -71.44605930699998,
                -3.191411925999887
              ],
              [
                -71.4466671909999,
                -3.182786217999933
              ],
              [
                -71.44424171299994,
                -3.175196977999974
              ],
              [
                -71.44389002499997,
                -3.168161903999874
              ],
              [
                -71.44442581899989,
                -3.165834287999871
              ],
              [
                -71.4547860099999,
                -3.160750466999957
              ],
              [
                -71.47097881799982,
                -3.154534963999936
              ],
              [
                -71.4770183409999,
                -3.150999879999915
              ],
              [
                -71.48126279699994,
                -3.14554524499988
              ],
              [
                -71.48531786399997,
                -3.138740950999932
              ],
              [
                -71.49459002599997,
                -3.120889529999943
              ],
              [
                -71.50018947299998,
                -3.112171411999952
              ],
              [
                -71.50682436099999,
                -3.105792983999947
              ],
              [
                -71.51394573999988,
                -3.101663238999947
              ],
              [
                -71.52081859399993,
                -3.09928486299998
              ],
              [
                -71.53151858399991,
                -3.098015215999908
              ],
              [
                -71.54058019399997,
                -3.096351929999969
              ],
              [
                -71.5491572279999,
                -3.094032491999883
              ],
              [
                -71.56514610899995,
                -3.088558614999954
              ],
              [
                -71.57248415499998,
                -3.085332619999917
              ],
              [
                -71.57937143999999,
                -3.081010941999921
              ],
              [
                -71.58492889099989,
                -3.076374236999811
              ],
              [
                -71.5932257749999,
                -3.070858876999978
              ],
              [
                -71.59974459499989,
                -3.067696801999944
              ],
              [
                -71.6035178439999,
                -3.066696140999909
              ],
              [
                -71.60889669799997,
                -3.066520585999967
              ],
              [
                -71.61509683099996,
                -3.066996306999954
              ],
              [
                -71.62516663099996,
                -3.065496476999954
              ],
              [
                -71.63246342199989,
                -3.062681651999924
              ],
              [
                -71.64129941999994,
                -3.057728259999976
              ],
              [
                -71.64667541199992,
                -3.053934368999933
              ],
              [
                -71.65099858699995,
                -3.049806113999978
              ],
              [
                -71.65565668099998,
                -3.044607785999915
              ],
              [
                -71.66023085999984,
                -3.041515884999967
              ],
              [
                -71.66250058399999,
                -3.041332241999953
              ],
              [
                -71.66910013499995,
                -3.043073392999872
              ],
              [
                -71.68013498899995,
                -3.04495416899988
              ],
              [
                -71.69094490499998,
                -3.045912266999949
              ],
              [
                -71.7057396049999,
                -3.045836810999901
              ],
              [
                -71.71653957199999,
                -3.044768458999954
              ],
              [
                -71.72335561599994,
                -3.04364523299995
              ],
              [
                -71.7320220339999,
                -3.041699573999892
              ],
              [
                -71.73960703499989,
                -3.039502505999906
              ],
              [
                -71.74749130399988,
                -3.035722083999929
              ],
              [
                -71.75762061899991,
                -3.028938196999889
              ],
              [
                -71.76191053799994,
                -3.025405107999859
              ],
              [
                -71.76676399699988,
                -3.020662630999936
              ],
              [
                -71.77128808899994,
                -3.015538804999949
              ],
              [
                -71.77575172999997,
                -3.008880028999897
              ],
              [
                -71.77840176099994,
                -3.003766366999912
              ],
              [
                -71.78543170099982,
                -2.987490340999898
              ],
              [
                -71.78747496799997,
                -2.980857088999869
              ],
              [
                -71.78884580799996,
                -2.974265719999948
              ],
              [
                -71.78988909599997,
                -2.965284415999974
              ],
              [
                -71.78984715099995,
                -2.95793017099993
              ],
              [
                -71.78807937599987,
                -2.949901253999883
              ],
              [
                -71.78535760599982,
                -2.941122571999927
              ],
              [
                -71.78522445099998,
                -2.935715738999932
              ],
              [
                -71.78689524399994,
                -2.929792171999964
              ],
              [
                -71.78861060299994,
                -2.926687349999952
              ],
              [
                -71.7937477619999,
                -2.920482565999919
              ],
              [
                -71.80251296499995,
                -2.913644651999846
              ],
              [
                -71.80669609799992,
                -2.911254572999951
              ],
              [
                -71.81457210599996,
                -2.908115595999959
              ],
              [
                -71.82068209999994,
                -2.908849956999973
              ],
              [
                -71.83083261399992,
                -2.911197465999976
              ],
              [
                -71.83917927199997,
                -2.91219876599996
              ],
              [
                -71.84786623099995,
                -2.911860346999902
              ],
              [
                -71.85555577199989,
                -2.910404742999901
              ],
              [
                -71.86044462699994,
                -2.908780029999946
              ],
              [
                -71.86903530199999,
                -2.905111266999882
              ],
              [
                -71.87630523599995,
                -2.900650816999871
              ],
              [
                -71.88019392799998,
                -2.898950492999973
              ],
              [
                -71.88711833799988,
                -2.897047891999932
              ],
              [
                -71.89190145799995,
                -2.896490706999941
              ],
              [
                -71.90075944899985,
                -2.896246335999933
              ],
              [
                -71.91076645199996,
                -2.896601275999899
              ],
              [
                -71.92454432199997,
                -2.895285310999839
              ],
              [
                -71.93310865699982,
                -2.893640842999844
              ],
              [
                -71.94298287199996,
                -2.89100762399994
              ],
              [
                -71.95610372999994,
                -2.886910985999975
              ],
              [
                -71.98063952899997,
                -2.877488389999826
              ],
              [
                -71.98952360699997,
                -2.872310442999947
              ],
              [
                -71.99770264299991,
                -2.865627644999904
              ],
              [
                -72.00578788899992,
                -2.855914699999971
              ],
              [
                -72.01120831899988,
                -2.847236499999838
              ],
              [
                -72.01497615499994,
                -2.839334782999913
              ],
              [
                -72.01939039399997,
                -2.828802151999923
              ],
              [
                -72.02247590999991,
                -2.823458600999913
              ],
              [
                -72.02606462299985,
                -2.819318212999917
              ],
              [
                -72.02979971999997,
                -2.817099930999973
              ],
              [
                -72.03481248199995,
                -2.816341845999943
              ],
              [
                -72.04410548199996,
                -2.822966845999929
              ],
              [
                -72.04878323199995,
                -2.824874970999872
              ],
              [
                -72.05367686399984,
                -2.82609228299998
              ],
              [
                -72.06318484599996,
                -2.833794720999947
              ],
              [
                -72.06786109999996,
                -2.836291557999914
              ],
              [
                -72.0739228999999,
                -2.838594713999953
              ],
              [
                -72.07864845099994,
                -2.839719448999972
              ],
              [
                -72.08996379399991,
                -2.840140521999956
              ],
              [
                -72.1042758719999,
                -2.838607205999949
              ],
              [
                -72.11364747199991,
                -2.836145750999947
              ],
              [
                -72.11812817599991,
                -2.834314509999956
              ],
              [
                -72.12476490599988,
                -2.829429098999924
              ],
              [
                -72.1193912299999,
                -2.82563773399994
              ],
              [
                -72.11295234499988,
                -2.820072624999909
              ],
              [
                -72.1036008019999,
                -2.809410210999943
              ],
              [
                -72.10004359599992,
                -2.806450552999934
              ],
              [
                -72.09450357699995,
                -2.803611204999925
              ],
              [
                -72.08789900499994,
                -2.801286297999923
              ],
              [
                -72.07328513599998,
                -2.797587175999922
              ],
              [
                -72.06310444599995,
                -2.795459487999892
              ],
              [
                -72.04975038999993,
                -2.79197156299989
              ],
              [
                -72.04097732099996,
                -2.78912256599989
              ],
              [
                -72.01225016899991,
                -2.780365131999872
              ],
              [
                -72.00362127899996,
                -2.77732773199989
              ],
              [
                -71.99020063299986,
                -2.771865770999966
              ],
              [
                -71.98547091799992,
                -2.768597088999968
              ],
              [
                -71.98349727599998,
                -2.766420989999972
              ],
              [
                -71.98242872899993,
                -2.762076162999904
              ],
              [
                -71.98429840699998,
                -2.747324156999866
              ],
              [
                -71.98414976799995,
                -2.734840235999968
              ],
              [
                -71.98298660299997,
                -2.725988361999953
              ],
              [
                -71.98199021699998,
                -2.721328569999969
              ],
              [
                -71.97817104899997,
                -2.708255558999838
              ],
              [
                -71.97308255599995,
                -2.696556746999875
              ],
              [
                -71.96947311699984,
                -2.690329472999963
              ],
              [
                -71.96226712699985,
                -2.680202410999868
              ],
              [
                -71.95236236899984,
                -2.668630310999959
              ],
              [
                -71.94954264399996,
                -2.664916398999935
              ],
              [
                -71.94677596499992,
                -2.660128555999961
              ],
              [
                -71.94474362799997,
                -2.654794582999955
              ],
              [
                -71.94334221399993,
                -2.647277453999948
              ],
              [
                -71.94345639199997,
                -2.641435199999933
              ],
              [
                -71.94499338399993,
                -2.634122012999853
              ],
              [
                -71.94912591999991,
                -2.625965784999948
              ],
              [
                -71.95420995399996,
                -2.61862494099995
              ],
              [
                -71.95714290999996,
                -2.611776017999944
              ],
              [
                -71.95757655399996,
                -2.608004158999961
              ],
              [
                -71.95578410499996,
                -2.602307292999967
              ],
              [
                -71.95004649399988,
                -2.594413470999882
              ],
              [
                -71.93912183199996,
                -2.581532333999917
              ],
              [
                -71.92245896999998,
                -2.563068772999884
              ],
              [
                -71.9207877689999,
                -2.559848541999941
              ],
              [
                -71.92079698299989,
                -2.555989137999973
              ],
              [
                -71.92160353899999,
                -2.553016105999916
              ],
              [
                -71.9284196509999,
                -2.537266156999976
              ],
              [
                -71.93614915499995,
                -2.521129925999901
              ],
              [
                -71.93678839199998,
                -2.516598419999923
              ],
              [
                -71.93497439999999,
                -2.510674384999959
              ],
              [
                -71.93132865699988,
                -2.505099386999916
              ],
              [
                -71.92634534499996,
                -2.499721436999948
              ],
              [
                -71.9161673299999,
                -2.490631292999922
              ],
              [
                -71.90815339099993,
                -2.486036672999887
              ],
              [
                -71.90150195099989,
                -2.484453116999873
              ],
              [
                -71.89514822899991,
                -2.483774781999955
              ],
              [
                -71.88531604799988,
                -2.483570593999957
              ],
              [
                -71.87674044599999,
                -2.484454743999947
              ],
              [
                -71.86534437599994,
                -2.486477796999964
              ],
              [
                -71.85736829199993,
                -2.487423511999964
              ],
              [
                -71.8512525129999,
                -2.487650038999902
              ],
              [
                -71.84590692899991,
                -2.48711239599993
              ],
              [
                -71.84027943999996,
                -2.484296159999928
              ],
              [
                -71.83721453699997,
                -2.480819446999874
              ],
              [
                -71.83102160399994,
                -2.472161114999892
              ],
              [
                -71.82768962799986,
                -2.466271951999943
              ],
              [
                -71.82065558899995,
                -2.463477820999969
              ],
              [
                -71.81824137199999,
                -2.461856919999946
              ],
              [
                -71.81536468699989,
                -2.458104673999912
              ],
              [
                -71.81421892699996,
                -2.455482337999911
              ],
              [
                -71.81074689399998,
                -2.444907223999962
              ],
              [
                -71.80816069299988,
                -2.439458841999908
              ],
              [
                -71.80413767699991,
                -2.434293919999959
              ],
              [
                -71.8016934399999,
                -2.433075901999928
              ],
              [
                -71.7975561479999,
                -2.433460615999934
              ],
              [
                -71.78973372299998,
                -2.437976957999979
              ],
              [
                -71.78564310099989,
                -2.439894071999959
              ],
              [
                -71.77576936999998,
                -2.442589861999977
              ],
              [
                -71.77000569199987,
                -2.443557767999948
              ],
              [
                -71.75975438199998,
                -2.443774095999913
              ],
              [
                -71.75444431699998,
                -2.442110867999872
              ],
              [
                -71.75318053699988,
                -2.44021834199998
              ],
              [
                -71.75166038899994,
                -2.435343495999973
              ],
              [
                -71.74864931999997,
                -2.432999421999966
              ],
              [
                -71.74307823699996,
                -2.431142068999975
              ],
              [
                -71.73925751499996,
                -2.431093714999975
              ],
              [
                -71.73377738999994,
                -2.433269626999959
              ],
              [
                -71.73057015999996,
                -2.436244963999911
              ],
              [
                -71.72308800299993,
                -2.445125897999958
              ],
              [
                -71.71765921699989,
                -2.447853176999899
              ],
              [
                -71.71340419199998,
                -2.448485795999943
              ],
              [
                -71.70989549799987,
                -2.448147490999929
              ],
              [
                -71.7051741539999,
                -2.445894670999962
              ],
              [
                -71.69611577399996,
                -2.439930862999972
              ],
              [
                -71.68744200799995,
                -2.434689620999961
              ],
              [
                -71.68017510599998,
                -2.432655287999921
              ],
              [
                -71.67774464999997,
                -2.433824907999963
              ],
              [
                -71.67599362099992,
                -2.432916226999851
              ],
              [
                -71.67458230999995,
                -2.428315662999978
              ],
              [
                -71.67168804199986,
                -2.421747171999868
              ],
              [
                -71.66513894899992,
                -2.40947685499998
              ],
              [
                -71.66124120099994,
                -2.404041300999836
              ],
              [
                -71.65711529699996,
                -2.40000691299997
              ],
              [
                -71.64542590599996,
                -2.391439912999829
              ],
              [
                -71.64274299099998,
                -2.385585456999934
              ],
              [
                -71.64154409399998,
                -2.379802440999811
              ],
              [
                -71.63905273099994,
                -2.373546903999966
              ],
              [
                -71.63307277299992,
                -2.362365884999861
              ],
              [
                -71.63067354999993,
                -2.358982162999951
              ],
              [
                -71.62596025799996,
                -2.355552464999846
              ],
              [
                -71.62144837699987,
                -2.353858490999926
              ],
              [
                -71.61221980299996,
                -2.35210071399996
              ],
              [
                -71.60542383999996,
                -2.352638052999907
              ],
              [
                -71.59732879499995,
                -2.354366447999951
              ],
              [
                -71.58974617899997,
                -2.353607590999957
              ],
              [
                -71.58730852599996,
                -2.354157978999922
              ],
              [
                -71.58186649999993,
                -2.358385652999971
              ],
              [
                -71.57882099599988,
                -2.359502438999925
              ],
              [
                -71.57558031199989,
                -2.359329338999885
              ],
              [
                -71.57209858299996,
                -2.357897062999939
              ],
              [
                -71.56561688999994,
                -2.357784546999937
              ],
              [
                -71.55692487999983,
                -2.358667159999868
              ],
              [
                -71.54279849999995,
                -2.36156208999995
              ],
              [
                -71.53659725699993,
                -2.363378538999882
              ],
              [
                -71.52008630699993,
                -2.36964097799995
              ],
              [
                -71.51189699099984,
                -2.36994776399996
              ],
              [
                -71.50761958799995,
                -2.368673601999944
              ],
              [
                -71.50437875699993,
                -2.36700641799996
              ],
              [
                -71.49921002699995,
                -2.363024449999898
              ],
              [
                -71.49650424299989,
                -2.360289011999953
              ],
              [
                -71.4933668839999,
                -2.354044945999874
              ],
              [
                -71.48751448099983,
                -2.353377720999958
              ],
              [
                -71.48367073199995,
                -2.350945970999817
              ],
              [
                -71.48100360599989,
                -2.347415969999929
              ],
              [
                -71.4793839809999,
                -2.340064220999977
              ],
              [
                -71.47996960599994,
                -2.33086059599998
              ],
              [
                -71.48113285599993,
                -2.32679497099997
              ],
              [
                -71.48461198099994,
                -2.320196094999915
              ],
              [
                -71.4961501059999,
                -2.293343844999924
              ],
              [
                -71.49659435599989,
                -2.288667345999897
              ],
              [
                -71.49628448099992,
                -2.2835162209999
              ],
              [
                -71.49480598099996,
                -2.277995719999922
              ],
              [
                -71.48774973099995,
                -2.272423970999967
              ],
              [
                -71.48304310599997,
                -2.270462970999915
              ],
              [
                -71.47731673099992,
                -2.269364720999931
              ],
              [
                -71.47057060599997,
                -2.269521595999834
              ],
              [
                -71.46335385699996,
                -2.271090469999876
              ],
              [
                -71.45825498099998,
                -2.274149720999958
              ],
              [
                -71.45464660599993,
                -2.277052220999963
              ],
              [
                -71.44609635599994,
                -2.285916220999979
              ],
              [
                -71.44068360599988,
                -2.294545095999922
              ],
              [
                -71.43663873099996,
                -2.301869094999915
              ],
              [
                -71.43194973099997,
                -2.314748595999959
              ],
              [
                -71.42891710599986,
                -2.320666720999952
              ],
              [
                -71.42538723099989,
                -2.324275345999922
              ],
              [
                -71.41801348099989,
                -2.329530845999841
              ],
              [
                -71.40616848099995,
                -2.337218345999872
              ],
              [
                -71.39918698099996,
                -2.343493845999888
              ],
              [
                -71.39639573099993,
                -2.347114720999969
              ],
              [
                -71.39518635599995,
                -2.352122594999912
              ],
              [
                -71.39526485599998,
                -2.356280094999931
              ],
              [
                -71.39675523099993,
                -2.36334022099993
              ],
              [
                -71.39887323099992,
                -2.36851734499993
              ],
              [
                -71.40428585599994,
                -2.379813220999893
              ],
              [
                -71.40601160599994,
                -2.384598220999976
              ],
              [
                -71.40656248099992,
                -2.388251845999832
              ],
              [
                -71.40632535599997,
                -2.393070095999974
              ],
              [
                -71.40177560599983,
                -2.401463595999871
              ],
              [
                -71.39840260599988,
                -2.405071970999927
              ],
              [
                -71.39471573099985,
                -2.407033095999907
              ],
              [
                -71.39040135599998,
                -2.407111470999951
              ],
              [
                -71.38710685599989,
                -2.405934844999933
              ],
              [
                -71.3831843559999,
                -2.403581595999981
              ],
              [
                -71.37981148099988,
                -2.400679219999915
              ],
              [
                -71.37108635599998,
                -2.389351845999897
              ],
              [
                -71.36812335599996,
                -2.387579095999968
              ],
              [
                -71.35784723099994,
                -2.382637095999939
              ],
              [
                -71.34694360599991,
                -2.379264095999929
              ],
              [
                -71.34341373099988,
                -2.379656345999877
              ],
              [
                -71.33486335599986,
                -2.381774095999958
              ],
              [
                -71.33133323099997,
                -2.381617345999871
              ],
              [
                -71.32552860599992,
                -2.380205345999912
              ],
              [
                -71.32074348099997,
                -2.377773470999955
              ],
              [
                -71.31674285599996,
                -2.374400595999873
              ],
              [
                -71.31242848099998,
                -2.368674220999935
              ],
              [
                -71.31070273099982,
                -2.364908970999977
              ],
              [
                -71.30947073099992,
                -2.35249409599993
              ],
              [
                -71.30709435599994,
                -2.347415970999975
              ],
              [
                -71.3023877309999,
                -2.343572220999874
              ],
              [
                -71.29297448099999,
                -2.339806970999916
              ],
              [
                -71.28599298099982,
                -2.337845845999937
              ],
              [
                -71.28018823099995,
                -2.337139845999957
              ],
              [
                -71.2768151059999,
                -2.335963220999929
              ],
              [
                -71.27218698099995,
                -2.333453095999914
              ],
              [
                -71.26983360599996,
                -2.333296220999898
              ],
              [
                -71.26634098099998,
                -2.336476095999842
              ],
              [
                -71.2658099809999,
                -2.341155595999965
              ],
              [
                -71.26638210599998,
                -2.344905845999904
              ],
              [
                -71.27095410599992,
                -2.352225220999969
              ],
              [
                -71.27077698099993,
                -2.356035095999971
              ],
              [
                -71.26810785599997,
                -2.357770720999952
              ],
              [
                -71.26426410599998,
                -2.358162720999815
              ],
              [
                -71.26010660599991,
                -2.356829220999941
              ],
              [
                -71.25806710599988,
                -2.354083720999824
              ],
              [
                -71.25226223099992,
                -2.343336970999871
              ],
              [
                -71.24865385599998,
                -2.33902259599995
              ],
              [
                -71.24575147999991,
                -2.33776747099995
              ],
              [
                -71.23947598099988,
                -2.336826095999925
              ],
              [
                -71.23476935599996,
                -2.336747719999948
              ],
              [
                -71.23108248099999,
                -2.337610595999934
              ],
              [
                -71.22794485599997,
                -2.339571594999882
              ],
              [
                -71.22339510599994,
                -2.343493845999888
              ],
              [
                -71.21947285599998,
                -2.348200470999927
              ],
              [
                -71.21609985599986,
                -2.353769970999963
              ],
              [
                -71.21021660599996,
                -2.364595095999903
              ],
              [
                -71.20503923099994,
                -2.370635344999926
              ],
              [
                -71.20017573099989,
                -2.37455734599996
              ],
              [
                -71.19492010499988,
                -2.377224595999962
              ],
              [
                -71.18817398099992,
                -2.379577845999961
              ],
              [
                -71.1828397299999,
                -2.380205345999912
              ],
              [
                -71.17577985599996,
                -2.379028720999941
              ],
              [
                -71.17350498099984,
                -2.376675469999896
              ],
              [
                -71.17201460599989,
                -2.372753220999925
              ],
              [
                -71.17060935599994,
                -2.359330095999951
              ],
              [
                -71.17042573099997,
                -2.350187470999856
              ],
              [
                -71.16824923099989,
                -2.340042345999962
              ],
              [
                -71.16683735599997,
                -2.337767469999903
              ],
              [
                -71.1629151059999,
                -2.33557109599991
              ],
              [
                -71.15703185599995,
                -2.33360997099993
              ],
              [
                -71.15083485599985,
                -2.334394345999897
              ],
              [
                -71.14793235599996,
                -2.336433970999906
              ],
              [
                -71.14076473099993,
                -2.342812470999888
              ],
              [
                -71.13512910599991,
                -2.342859470999883
              ],
              [
                -71.13244185599996,
                -2.340597469999977
              ],
              [
                -71.13032248099995,
                -2.337494845999913
              ],
              [
                -71.12995835599992,
                -2.334153845999879
              ],
              [
                -71.13116660599997,
                -2.325696845999971
              ],
              [
                -71.13355010599992,
                -2.318013970999857
              ],
              [
                -71.1366704809999,
                -2.313615095999864
              ],
              [
                -71.1415031059999,
                -2.308312595999894
              ],
              [
                -71.14322573099997,
                -2.304585845999895
              ],
              [
                -71.14337685599997,
                -2.301594844999954
              ],
              [
                -71.14220598099996,
                -2.296113970999897
              ],
              [
                -71.13977423099993,
                -2.290779719999875
              ],
              [
                -71.13679348099998,
                -2.287171344999933
              ],
              [
                -71.13357735599988,
                -2.285131845999842
              ],
              [
                -71.12690948099998,
                -2.282621594999966
              ],
              [
                -71.11992810599992,
                -2.280503720999889
              ],
              [
                -71.09918373099993,
                -2.27635484599989
              ],
              [
                -71.07735660599997,
                -2.274374595999916
              ],
              [
                -71.06854760499988,
                -2.271168845999966
              ],
              [
                -71.05889898099991,
                -2.270305969999811
              ],
              [
                -71.05332948099988,
                -2.270619845999931
              ],
              [
                -71.04650497999995,
                -2.272502345999897
              ],
              [
                -71.03442460599996,
                -2.274855720999938
              ],
              [
                -71.03034560599997,
                -2.277052220999963
              ],
              [
                -71.02642335599995,
                -2.280268345999957
              ],
              [
                -71.02383473099991,
                -2.283641595999882
              ],
              [
                -71.01953135499986,
                -2.291925345999971
              ],
              [
                -71.01690748099998,
                -2.295531720999975
              ],
              [
                -71.01238198099992,
                -2.298780970999928
              ],
              [
                -71.00610647999991,
                -2.301840345999949
              ],
              [
                -70.99839372999992,
                -2.303926594999893
              ],
              [
                -70.99261423099989,
                -2.301604970999904
              ],
              [
                -70.99033935599988,
                -2.299094845999889
              ],
              [
                -70.98908423099988,
                -2.2963492209999
              ],
              [
                -70.98900585599995,
                -2.293211470999893
              ],
              [
                -70.99041785599991,
                -2.287092970999936
              ],
              [
                -70.99447373099991,
                -2.27781659599998
              ],
              [
                -71.00102172999993,
                -2.269335845999933
              ],
              [
                -71.00423723099988,
                -2.263769719999971
              ],
              [
                -71.01442148099994,
                -2.247714345999896
              ],
              [
                -71.01771610599985,
                -2.240811220999944
              ],
              [
                -71.01843747999993,
                -2.237441470999897
              ],
              [
                -71.01891410599995,
                -2.22686721999986
              ],
              [
                -71.01740235599993,
                -2.221827970999925
              ],
              [
                -71.01504910599988,
                -2.217278219999969
              ],
              [
                -71.0120682299999,
                -2.213199095999869
              ],
              [
                -71.00916585499994,
                -2.210610469999892
              ],
              [
                -71.00461610499997,
                -2.20880634599996
              ],
              [
                -71.00020510499996,
                -2.207853470999964
              ],
              [
                -70.99528510599993,
                -2.208888720999937
              ],
              [
                -70.98183398099997,
                -2.210990345999903
              ],
              [
                -70.97624035599995,
                -2.212607470999956
              ],
              [
                -70.97270110499994,
                -2.21422259499991
              ],
              [
                -70.96996285599988,
                -2.21652159599995
              ],
              [
                -70.96597260599992,
                -2.221353470999929
              ],
              [
                -70.96459960499993,
                -2.223998094999956
              ],
              [
                -70.95936523099994,
                -2.237679720999893
              ],
              [
                -70.95731447999998,
                -2.241128845999924
              ],
              [
                -70.95217972999995,
                -2.24653709599994
              ],
              [
                -70.94636522999997,
                -2.250564470999905
              ],
              [
                -70.94145123099997,
                -2.253214720999893
              ],
              [
                -70.9373476049999,
                -2.25448434499998
              ],
              [
                -70.92866598099994,
                -2.254152345999955
              ],
              [
                -70.92066210499996,
                -2.250138720999871
              ],
              [
                -70.91699997999996,
                -2.246810595999932
              ],
              [
                -70.91356635499994,
                -2.242681595999954
              ],
              [
                -70.90692973099988,
                -2.231314470999962
              ],
              [
                -70.90280860499996,
                -2.227066345999901
              ],
              [
                -70.89961323099988,
                -2.225347720999878
              ],
              [
                -70.88921285599992,
                -2.221798845999899
              ],
              [
                -70.88395510499998,
                -2.220771595999906
              ],
              [
                -70.87938672999985,
                -2.220892595999942
              ],
              [
                -70.87184960499997,
                -2.223314470999981
              ],
              [
                -70.8637461059999,
                -2.227117220999958
              ],
              [
                -70.85815435599989,
                -2.232179719999863
              ],
              [
                -70.85496485499993,
                -2.237011719999884
              ],
              [
                -70.85189060599998,
                -2.244140594999976
              ],
              [
                -70.84938872999999,
                -2.255748095999934
              ],
              [
                -70.84210935499988,
                -2.280808595999872
              ],
              [
                -70.83834760599996,
                -2.288167969999961
              ],
              [
                -70.83595310499999,
                -2.290814595999905
              ],
              [
                -70.83172660499986,
                -2.293119095999884
              ],
              [
                -70.82701997999999,
                -2.294388220999906
              ],
              [
                -70.81333985499998,
                -2.294749970999931
              ],
              [
                -70.80529110499998,
                -2.294074470999817
              ],
              [
                -70.79077898099996,
                -2.291799595999976
              ],
              [
                -70.7837976049999,
                -2.291877970999963
              ],
              [
                -70.77776185499994,
                -2.292990220999968
              ],
              [
                -70.77195747999991,
                -2.295784345999891
              ],
              [
                -70.76696872999997,
                -2.300210969999966
              ],
              [
                -70.7650293559999,
                -2.304808595999873
              ],
              [
                -70.76321485499994,
                -2.312855470999978
              ],
              [
                -70.75978910499992,
                -2.319869095999934
              ],
              [
                -70.75557035599991,
                -2.324701095999899
              ],
              [
                -70.75123635499989,
                -2.328269595999927
              ],
              [
                -70.74484185499989,
                -2.330460969999876
              ],
              [
                -70.7295033559999,
                -2.33106884599988
              ],
              [
                -70.72256635499997,
                -2.33244134499995
              ],
              [
                -70.71479873099986,
                -2.335785220999981
              ],
              [
                -70.70600198099999,
                -2.337519470999837
              ],
              [
                -70.70143160599997,
                -2.337753845999941
              ],
              [
                -70.69389260599996,
                -2.339257844999963
              ],
              [
                -70.68692772999998,
                -2.341794970999899
              ],
              [
                -70.67425585599989,
                -2.347556595999947
              ],
              [
                -70.66991410499992,
                -2.350318345999938
              ],
              [
                -70.6659238549999,
                -2.353773470999897
              ],
              [
                -70.66375785499991,
                -2.356877095999948
              ],
              [
                -70.66261322999998,
                -2.360556594999821
              ],
              [
                -70.66273435499994,
                -2.363773469999956
              ],
              [
                -70.66467972999999,
                -2.369287095999937
              ],
              [
                -70.67017385499992,
                -2.377326220999919
              ],
              [
                -70.67589447999995,
                -2.383753970999976
              ],
              [
                -70.67818360499996,
                -2.388693345999968
              ],
              [
                -70.67899410499996,
                -2.393404345999897
              ],
              [
                -70.67843548099995,
                -2.402138720999972
              ],
              [
                -70.67604097999998,
                -2.405359345999898
              ],
              [
                -70.67112697999988,
                -2.409273470999949
              ],
              [
                -70.66873247999996,
                -2.410193345999915
              ],
              [
                -70.66487722999989,
                -2.410406095999861
              ],
              [
                -70.65661723099998,
                -2.409060595999904
              ],
              [
                -70.64827735499989,
                -2.407001970999943
              ],
              [
                -70.64484372999993,
                -2.405513845999906
              ],
              [
                -70.63981635499988,
                -2.401150345999895
              ],
              [
                -70.63581060599984,
                -2.395640595999851
              ],
              [
                -70.63255848099988,
                -2.393148595999889
              ],
              [
                -70.6299698549999,
                -2.392913095999859
              ],
              [
                -70.62785060499988,
                -2.395029720999844
              ],
              [
                -70.62706847999993,
                -2.397534595999957
              ],
              [
                -70.62713672999996,
                -2.407488220999937
              ],
              [
                -70.62794522999991,
                -2.414611345999901
              ],
              [
                -70.62829685499997,
                -2.421623095999905
              ],
              [
                -70.63048048099989,
                -2.427251970999976
              ],
              [
                -70.63540035499989,
                -2.43437109599995
              ],
              [
                -70.63917572999998,
                -2.441835970999875
              ],
              [
                -70.64090035599997,
                -2.448384720999854
              ],
              [
                -70.64136522999996,
                -2.455509720999885
              ],
              [
                -70.64034185499992,
                -2.461142595999945
              ],
              [
                -70.63829410499989,
                -2.465767470999879
              ],
              [
                -70.63246185499997,
                -2.472153470999956
              ],
              [
                -70.62722647999993,
                -2.476382095999895
              ],
              [
                -70.62118560599998,
                -2.479603845999918
              ],
              [
                -70.61420510499983,
                -2.482221595999874
              ],
              [
                -70.60695610499994,
                -2.483966720999945
              ],
              [
                -70.5993043549999,
                -2.484436470999924
              ],
              [
                -70.58927223099994,
                -2.482934345999979
              ],
              [
                -70.58313897999994,
                -2.481554470999924
              ],
              [
                -70.57116548099987,
                -2.476208845999963
              ],
              [
                -70.56163947999994,
                -2.473008220999816
              ],
              [
                -70.5543502299999,
                -2.467748345999894
              ],
              [
                -70.55226010499996,
                -2.464765220999823
              ],
              [
                -70.55111185499999,
                -2.460004720999905
              ],
              [
                -70.5512622299999,
                -2.456247595999912
              ],
              [
                -70.55421647999992,
                -2.447628345999874
              ],
              [
                -70.55622847999996,
                -2.444462845999965
              ],
              [
                -70.56021872999997,
                -2.441124970999851
              ],
              [
                -70.5679863549999,
                -2.438244095999949
              ],
              [
                -70.57952160499997,
                -2.435701220999874
              ],
              [
                -70.59346098099996,
                -2.430398470999876
              ],
              [
                -70.59641998099988,
                -2.425912095999934
              ],
              [
                -70.59561910599996,
                -2.421316345999912
              ],
              [
                -70.59310160499996,
                -2.419021470999951
              ],
              [
                -70.58992410499997,
                -2.417891095999948
              ],
              [
                -70.57413473099996,
                -2.417433720999838
              ],
              [
                -70.56442198099995,
                -2.418365220999817
              ],
              [
                -70.55870897999995,
                -2.419980470999974
              ],
              [
                -70.5511698549999,
                -2.423437470999943
              ],
              [
                -70.54466210499999,
                -2.428845595999917
              ],
              [
                -70.54147260499985,
                -2.432068345999937
              ],
              [
                -70.53588098099993,
                -2.439085970999884
              ],
              [
                -70.53200597999995,
                -2.445640595999976
              ],
              [
                -70.52778710499996,
                -2.455874970999901
              ],
              [
                -70.52379685499983,
                -2.462429720999921
              ],
              [
                -70.52025585499996,
                -2.466800720999913
              ],
              [
                -70.51740235499994,
                -2.468988345999833
              ],
              [
                -70.51055272999992,
                -2.471755845999951
              ],
              [
                -70.5004492299999,
                -2.472767595999869
              ],
              [
                -70.49324272999996,
                -2.469709470999817
              ],
              [
                -70.48469522999983,
                -2.463306220999868
              ],
              [
                -70.47506060499995,
                -2.455068345999962
              ],
              [
                -70.47169535499995,
                -2.454728470999896
              ],
              [
                -70.46928072999992,
                -2.455884845999947
              ],
              [
                -70.4660427309999,
                -2.458929970999975
              ],
              [
                -70.45922435499989,
                -2.468080095999824
              ],
              [
                -70.45425635499998,
                -2.475828095999873
              ],
              [
                -70.45148310499997,
                -2.481574345999888
              ],
              [
                -70.45002822999993,
                -2.48831047099992
              ],
              [
                -70.44973822999998,
                -2.494058595999888
              ],
              [
                -70.44827272999999,
                -2.504923845999883
              ],
              [
                -70.4462934799999,
                -2.510787470999901
              ],
              [
                -70.44251947999993,
                -2.516486345999908
              ],
              [
                -70.43723410499996,
                -2.521246970999812
              ],
              [
                -70.42861910599999,
                -2.524874970999974
              ],
              [
                -70.42314847999995,
                -2.526253845999918
              ],
              [
                -70.41675585499996,
                -2.526378845999943
              ],
              [
                -70.41253710499996,
                -2.525695345999964
              ],
              [
                -70.40774610499994,
                -2.523290970999824
              ],
              [
                -70.40169535499996,
                -2.518249970999818
              ],
              [
                -70.38601047999998,
                -2.502106720999961
              ],
              [
                -70.37659722999996,
                -2.495125220999967
              ],
              [
                -70.36809760499989,
                -2.491282720999891
              ],
              [
                -70.3579063549999,
                -2.489322720999894
              ],
              [
                -70.35267197999997,
                -2.490418595999927
              ],
              [
                -70.3438862299999,
                -2.494105345999969
              ],
              [
                -70.33456822999995,
                -2.497047970999972
              ],
              [
                -70.33098647999998,
                -2.498874220999824
              ],
              [
                -70.32873397999998,
                -2.501573470999972
              ],
              [
                -70.32404010499988,
                -2.503283345999932
              ],
              [
                -70.31988260499998,
                -2.504146220999928
              ],
              [
                -70.31074485499994,
                -2.502770345999977
              ],
              [
                -70.30724410499994,
                -2.501601595999887
              ],
              [
                -70.30364472999992,
                -2.501400595999939
              ],
              [
                -70.2993282299999,
                -2.504054220999876
              ],
              [
                -70.29653122999986,
                -2.508609345999901
              ],
              [
                -70.29516597999998,
                -2.512625095999908
              ],
              [
                -70.29585935499995,
                -2.519048845999919
              ],
              [
                -70.29802735499999,
                -2.523406220999959
              ],
              [
                -70.30179685499996,
                -2.528220720999968
              ],
              [
                -70.3051054799999,
                -2.530740220999974
              ],
              [
                -70.31229497999993,
                -2.534404470999903
              ],
              [
                -70.31765822999989,
                -2.536347595999928
              ],
              [
                -70.33375960499995,
                -2.53705472099989
              ],
              [
                -70.33902272999995,
                -2.537719970999888
              ],
              [
                -70.34710247999993,
                -2.540700845999879
              ],
              [
                -70.3544961049999,
                -2.545266095999864
              ],
              [
                -70.35713285499992,
                -2.548353470999871
              ],
              [
                -70.35861910499989,
                -2.551908220999906
              ],
              [
                -70.3592612299999,
                -2.556232720999958
              ],
              [
                -70.35894747999998,
                -2.559762595999928
              ],
              [
                -70.3565108549999,
                -2.564213845999973
              ],
              [
                -70.35190622999994,
                -2.568542970999943
              ],
              [
                -70.34592572999998,
                -2.572470470999917
              ],
              [
                -70.33925810499994,
                -2.576078845999973
              ],
              [
                -70.33457997999994,
                -2.577888720999965
              ],
              [
                -70.33101922999987,
                -2.578511720999927
              ],
              [
                -70.32303672999984,
                -2.579076345999908
              ],
              [
                -70.31786847999996,
                -2.5785393459999
              ],
              [
                -70.31145185499992,
                -2.577012470999875
              ],
              [
                -70.30252935499993,
                -2.573185595999973
              ],
              [
                -70.29478060499997,
                -2.567685470999891
              ],
              [
                -70.28791685499993,
                -2.563243220999937
              ],
              [
                -70.28125447999997,
                -2.55702522099989
              ],
              [
                -70.27383747999994,
                -2.547328345999972
              ],
              [
                -70.2710854799999,
                -2.544911970999976
              ],
              [
                -70.26787447999993,
                -2.543603095999913
              ],
              [
                -70.26340322999994,
                -2.543603095999913
              ],
              [
                -70.25564785499995,
                -2.545381845999941
              ],
              [
                -70.25061372999988,
                -2.547395470999902
              ],
              [
                -70.24531122999991,
                -2.550415720999979
              ],
              [
                -70.24218710499997,
                -2.552804970999944
              ],
              [
                -70.23861772999999,
                -2.557183595999959
              ],
              [
                -70.23468097999995,
                -2.563390345999949
              ],
              [
                -70.23100597999996,
                -2.571215345999917
              ],
              [
                -70.23006472999998,
                -2.57458847099997
              ],
              [
                -70.22557647999997,
                -2.602537845999962
              ],
              [
                -70.22398810499993,
                -2.620390595999936
              ],
              [
                -70.22262172999984,
                -2.629840845999922
              ],
              [
                -70.21933010499998,
                -2.643587845999946
              ],
              [
                -70.21682810499993,
                -2.648523470999919
              ],
              [
                -70.21385935499995,
                -2.65231059599995
              ],
              [
                -70.2074804799999,
                -2.656906220999929
              ],
              [
                -70.20166797999991,
                -2.658976595999945
              ],
              [
                -70.1963047299999,
                -2.658982470999945
              ],
              [
                -70.19184960499996,
                -2.656347720999918
              ],
              [
                -70.18796485499996,
                -2.650271470999883
              ],
              [
                -70.1841779799999,
                -2.638126345999979
              ],
              [
                -70.18216185499989,
                -2.634609095999906
              ],
              [
                -70.17904872999998,
                -2.632673970999917
              ],
              [
                -70.1758416049999,
                -2.632437095999876
              ],
              [
                -70.17248560499996,
                -2.633242470999903
              ],
              [
                -70.16615960499996,
                -2.636391095999898
              ],
              [
                -70.16150510499995,
                -2.640245720999928
              ],
              [
                -70.15758285499999,
                -2.646128970999882
              ],
              [
                -70.15546497999998,
                -2.651619970999889
              ],
              [
                -70.15420985499998,
                -2.656875720999892
              ],
              [
                -70.15397447999993,
                -2.662837470999875
              ],
              [
                -70.15483735499998,
                -2.667230220999897
              ],
              [
                -70.15969922999994,
                -2.676453095999875
              ],
              [
                -70.16228860499996,
                -2.682470095999918
              ],
              [
                -70.16206185499993,
                -2.687849095999979
              ],
              [
                -70.15891997999995,
                -2.690335970999968
              ],
              [
                -70.15184960499988,
                -2.692636720999928
              ],
              [
                -70.14626372999999,
                -2.69608397099995
              ],
              [
                -70.14054660499994,
                -2.700538970999958
              ],
              [
                -70.1353518549999,
                -2.702701970999954
              ],
              [
                -70.12721285499998,
                -2.702869095999915
              ],
              [
                -70.12356635499998,
                -2.701722595999911
              ],
              [
                -70.11843160499996,
                -2.698632846999885
              ],
              [
                -70.1092617299999,
                -2.684880095999915
              ],
              [
                -70.10706522899989,
                -2.680722595999839
              ],
              [
                -70.10588860499996,
                -2.675388345999977
              ],
              [
                -70.10528697999985,
                -2.66411497099989
              ],
              [
                -70.10327022999996,
                -2.657361845999901
              ],
              [
                -70.09818947999986,
                -2.65058397099989
              ],
              [
                -70.09556635499996,
                -2.648751970999911
              ],
              [
                -70.0909058549999,
                -2.647148720999951
              ],
              [
                -70.08494422999996,
                -2.649031345999958
              ],
              [
                -70.07890385499996,
                -2.655385345999946
              ],
              [
                -70.07608010399997,
                -2.659856595999884
              ],
              [
                -70.06996147899997,
                -2.670838720999882
              ],
              [
                -70.06737285499997,
                -2.677820095999948
              ],
              [
                -70.06603935499993,
                -2.684095595999963
              ],
              [
                -70.06560547999999,
                -2.6942070959999
              ],
              [
                -70.06652147899996,
                -2.700400345999867
              ],
              [
                -70.07017147999994,
                -2.71125572099993
              ],
              [
                -70.07125485499989,
                -2.724320845999841
              ],
              [
                -70.06917385399993,
                -2.739450845999897
              ],
              [
                -70.06744210499988,
                -2.746004845999948
              ],
              [
                -70.06562997999998,
                -2.75043472099992
              ],
              [
                -70.06152447999995,
                -2.755556721999881
              ],
              [
                -70.06005960499988,
                -2.758917470999961
              ],
              [
                -70.06636572999992,
                -2.773894846999895
              ],
              [
                -70.06859310499993,
                -2.778041345999895
              ],
              [
                -70.07360860499995,
                -2.790662095999892
              ],
              [
                -70.07525635499996,
                -2.792490846999954
              ],
              [
                -70.0782078549999,
                -2.793794471999888
              ],
              [
                -70.07994060399994,
                -2.795663721999915
              ],
              [
                -70.10556060499994,
                -2.836490221999952
              ],
              [
                -70.13998147999996,
                -2.8908197209999
              ],
              [
                -70.47792590899991,
                -3.424217816999885
              ]
            ]
          ]
        ],
        "type": "MultiPolygon"
      },
      "type": "Feature",
      "properties": {
        "PROVINCIA": "PUTUMAYO",
        "DISTRITO": "YAGUAS",
        "name": "YAGUAS",
        "ID": "150904",
        "DEPARTAMEN": "LORETO"
      }
    }
  ]
}
