{
  "type": "FeatureCollection",
  "features": [
    {
      "geometry": {
        "coordinates": [
          [
            [
              [
                -77.38520273699999,
                -10.011418977999938
              ],
              [
                -77.38520898699994,
                -10.013320352999813
              ],
              [
                -77.38721173599993,
                -10.019464102999905
              ],
              [
                -77.3886734859999,
                -10.025859477999973
              ],
              [
                -77.38984223599988,
                -10.028573977999883
              ],
              [
                -77.38964673699996,
                -10.031517102999942
              ],
              [
                -77.3905586109999,
                -10.035020852999935
              ],
              [
                -77.39323536199998,
                -10.040148352999836
              ],
              [
                -77.39757098599995,
                -10.045162602999937
              ],
              [
                -77.39840048699995,
                -10.047160602999952
              ],
              [
                -77.39779723599997,
                -10.050516227999935
              ],
              [
                -77.39621373599994,
                -10.053268352999964
              ],
              [
                -77.39700548699989,
                -10.055266602999893
              ],
              [
                -77.39995111199988,
                -10.057667977999927
              ],
              [
                -77.40194711099997,
                -10.061783227999967
              ],
              [
                -77.4049039869999,
                -10.065343852999945
              ],
              [
                -77.40984748699992,
                -10.066698977999977
              ],
              [
                -77.41099023699996,
                -10.06818747799997
              ],
              [
                -77.40894411199997,
                -10.071893352999894
              ],
              [
                -77.40633436099995,
                -10.073976352999921
              ],
              [
                -77.40490398599991,
                -10.076385227999936
              ],
              [
                -77.40547073699997,
                -10.081314477999967
              ],
              [
                -77.40432036199991,
                -10.084349602999964
              ],
              [
                -77.40117573699996,
                -10.087490227999979
              ],
              [
                -77.40221886199998,
                -10.089007602999914
              ],
              [
                -77.40775323699995,
                -10.093902352999976
              ],
              [
                -77.40871823599991,
                -10.101303602999963
              ],
              [
                -77.40904898599996,
                -10.107925977999912
              ],
              [
                -77.41044536099992,
                -10.111433602999966
              ],
              [
                -77.41382036199991,
                -10.114165852999975
              ],
              [
                -77.41573236099993,
                -10.117277352999963
              ],
              [
                -77.42064261099995,
                -10.120304727999951
              ],
              [
                -77.42236523699995,
                -10.12262497799992
              ],
              [
                -77.42715036099992,
                -10.124513727999954
              ],
              [
                -77.42894336099994,
                -10.126552727999922
              ],
              [
                -77.43321286199989,
                -10.127939477999917
              ],
              [
                -77.43886523699996,
                -10.131277352999973
              ],
              [
                -77.44017773699983,
                -10.135902352999892
              ],
              [
                -77.44358986199995,
                -10.13970897799993
              ],
              [
                -77.44351173699988,
                -10.145105477999948
              ],
              [
                -77.44423048599987,
                -10.147177727999974
              ],
              [
                -77.44811523599992,
                -10.150636727999938
              ],
              [
                -77.45438673699988,
                -10.153833977999966
              ],
              [
                -77.45577736099995,
                -10.15546872799996
              ],
              [
                -77.45866598599991,
                -10.156162102999929
              ],
              [
                -77.46659573699992,
                -10.154583977999948
              ],
              [
                -77.47090823699989,
                -10.155445352999891
              ],
              [
                -77.47433011199996,
                -10.155763727999954
              ],
              [
                -77.47821286199996,
                -10.154052727999954
              ],
              [
                -77.4804374869999,
                -10.154017602999886
              ],
              [
                -77.48422461199982,
                -10.155480602999944
              ],
              [
                -77.48865423699993,
                -10.154994102999922
              ],
              [
                -77.49407611099986,
                -10.15322847799996
              ],
              [
                -77.49844411199996,
                -10.149044102999937
              ],
              [
                -77.49908586099991,
                -10.14723372799989
              ],
              [
                -77.50557511199997,
                -10.1457437279999
              ],
              [
                -77.51526361099991,
                -10.14740035299991
              ],
              [
                -77.5170078619999,
                -10.148339602999954
              ],
              [
                -77.51610023699993,
                -10.152004477999924
              ],
              [
                -77.51896448699995,
                -10.153653602999952
              ],
              [
                -77.52437536099995,
                -10.158858477999956
              ],
              [
                -77.52762861199989,
                -10.164518852999947
              ],
              [
                -77.53066248699992,
                -10.167267102999972
              ],
              [
                -77.53094961199997,
                -10.17017897799991
              ],
              [
                -77.53401748699997,
                -10.17345372799997
              ],
              [
                -77.53587348699995,
                -10.173810602999936
              ],
              [
                -77.53922861099994,
                -10.172359102999906
              ],
              [
                -77.54330936199989,
                -10.173682727999847
              ],
              [
                -77.54604686199997,
                -10.175363352999966
              ],
              [
                -77.54581236199994,
                -10.173391477999928
              ],
              [
                -77.54372611199989,
                -10.17084460299992
              ],
              [
                -77.53907298699994,
                -10.167979227999979
              ],
              [
                -77.53848211199988,
                -10.163089727999932
              ],
              [
                -77.53688286199991,
                -10.158169602999976
              ],
              [
                -77.53572161099993,
                -10.149775727999895
              ],
              [
                -77.53386761199994,
                -10.142257977999975
              ],
              [
                -77.53100036099983,
                -10.135970352999948
              ],
              [
                -77.52817673699997,
                -10.13533022799993
              ],
              [
                -77.52717161199985,
                -10.130374478999954
              ],
              [
                -77.52395111099992,
                -10.12689147799989
              ],
              [
                -77.52212636199994,
                -10.123895102999938
              ],
              [
                -77.51757411199998,
                -10.121052352999925
              ],
              [
                -77.51628511199988,
                -10.117165977999889
              ],
              [
                -77.51655661099994,
                -10.114333977999934
              ],
              [
                -77.51814498599992,
                -10.111080977999904
              ],
              [
                -77.51828711099995,
                -10.10503397799988
              ],
              [
                -77.51629298599983,
                -10.102351602999931
              ],
              [
                -77.51257611099993,
                -10.099880852999945
              ],
              [
                -77.51092186199986,
                -10.093585977999908
              ],
              [
                -77.50921873599998,
                -10.091466852999929
              ],
              [
                -77.50728511199998,
                -10.084368977999816
              ],
              [
                -77.50312298699993,
                -10.079105477999974
              ],
              [
                -77.50086523599998,
                -10.078363227999944
              ],
              [
                -77.49688086099991,
                -10.07469722799982
              ],
              [
                -77.49352348699995,
                -10.06748435299994
              ],
              [
                -77.4901426109999,
                -10.065279352999937
              ],
              [
                -77.48674798699994,
                -10.065449227999977
              ],
              [
                -77.48265798599994,
                -10.064335352999933
              ],
              [
                -77.48181161199983,
                -10.06306610299987
              ],
              [
                -77.48146323699996,
                -10.058237727999881
              ],
              [
                -77.48014861199988,
                -10.053736477999962
              ],
              [
                -77.47758073699998,
                -10.048830352999914
              ],
              [
                -77.47698348699993,
                -10.042160602999957
              ],
              [
                -77.47469386199992,
                -10.035714727999903
              ],
              [
                -77.47285211199994,
                -10.032180602999972
              ],
              [
                -77.47374811199995,
                -10.027750727999887
              ],
              [
                -77.47155798699998,
                -10.02145410299994
              ],
              [
                -77.47008961199992,
                -10.019189227999902
              ],
              [
                -77.46947298699996,
                -10.016099352999959
              ],
              [
                -77.46655373699991,
                -10.007668727999885
              ],
              [
                -77.4671031119999,
                -10.004281727999967
              ],
              [
                -77.46916873699996,
                -10.000847227999941
              ],
              [
                -77.46329536199988,
                -9.995023602999936
              ],
              [
                -77.46043323699996,
                -9.993132102999937
              ],
              [
                -77.45804411099988,
                -9.988503102999971
              ],
              [
                -77.45585398699995,
                -9.986860477999869
              ],
              [
                -77.45485848699991,
                -9.981509477999964
              ],
              [
                -77.45525661199991,
                -9.97628322799983
              ],
              [
                -77.45159823699998,
                -9.975038852999887
              ],
              [
                -77.44965998599997,
                -9.972354102999873
              ],
              [
                -77.44332111099993,
                -9.972639727999876
              ],
              [
                -77.4411511109999,
                -9.972239977999948
              ],
              [
                -77.43414261099997,
                -9.968007852999904
              ],
              [
                -77.43268461099996,
                -9.969886727999949
              ],
              [
                -77.42904023699998,
                -9.972392227999933
              ],
              [
                -77.42553823599991,
                -9.981246976999898
              ],
              [
                -77.41947373699998,
                -9.98622947799987
              ],
              [
                -77.41483273699993,
                -9.989361602999963
              ],
              [
                -77.41364823599997,
                -9.993979852999871
              ],
              [
                -77.40950861099998,
                -9.997902977999956
              ],
              [
                -77.40261136099991,
                -10.001275352999926
              ],
              [
                -77.39764186199989,
                -10.004228352999974
              ],
              [
                -77.39124023599999,
                -10.005473102999872
              ],
              [
                -77.38857286099994,
                -10.007547727999906
              ],
              [
                -77.38520273699999,
                -10.011418977999938
              ]
            ]
          ]
        ],
        "type": "MultiPolygon"
      },
      "type": "Feature",
      "properties": {
        "PROVINCIA": "RECUAY",
        "DISTRITO": "MARCA",
        "name": "MARCA",
        "ID": "021204",
        "DEPARTAMEN": "ANCASH"
      }
    }
  ]
}
