{
  "type": "FeatureCollection",
  "features": [
    {
      "geometry": {
        "coordinates": [
          [
            [
              [
                -78.69694998699998,
                -7.584619975999942
              ],
              [
                -78.6931426129999,
                -7.588371100999893
              ],
              [
                -78.69195511299989,
                -7.590353475999962
              ],
              [
                -78.68919136199992,
                -7.590509725999937
              ],
              [
                -78.68956636199988,
                -7.593242224999869
              ],
              [
                -78.68613673699997,
                -7.596080100999927
              ],
              [
                -78.68332223699997,
                -7.603982475999885
              ],
              [
                -78.68205848799994,
                -7.606248100999949
              ],
              [
                -78.68198048699998,
                -7.609353475999967
              ],
              [
                -78.6785156119999,
                -7.616728475999878
              ],
              [
                -78.67786311299994,
                -7.620167975999891
              ],
              [
                -78.6797187379999,
                -7.622031225999876
              ],
              [
                -78.6793711119999,
                -7.624343725999893
              ],
              [
                -78.67508598799992,
                -7.626146475999917
              ],
              [
                -78.6724687379999,
                -7.626023475999887
              ],
              [
                -78.66313473799988,
                -7.628124975999924
              ],
              [
                -78.6616407379999,
                -7.629851599999881
              ],
              [
                -78.65814448799989,
                -7.631189475999918
              ],
              [
                -78.65616986299995,
                -7.632822225999917
              ],
              [
                -78.65627348699991,
                -7.635390600999926
              ],
              [
                -78.65912498799992,
                -7.639328100999933
              ],
              [
                -78.65301361199994,
                -7.645152350999979
              ],
              [
                -78.64820898799991,
                -7.645650349999869
              ],
              [
                -78.64586911199996,
                -7.644634725999936
              ],
              [
                -78.64374411299997,
                -7.645355475999907
              ],
              [
                -78.64247073699988,
                -7.649822225999912
              ],
              [
                -78.64096486299997,
                -7.651882850999868
              ],
              [
                -78.64064648799985,
                -7.655333850999966
              ],
              [
                -78.63821286199999,
                -7.658123100999887
              ],
              [
                -78.63105073799994,
                -7.660496099999932
              ],
              [
                -78.62797261299994,
                -7.664970725999979
              ],
              [
                -78.62329686199996,
                -7.666671850999876
              ],
              [
                -78.61778511199992,
                -7.665718725999966
              ],
              [
                -78.61365623799998,
                -7.66851560099991
              ],
              [
                -78.61428511299988,
                -7.676183600999877
              ],
              [
                -78.61213286199995,
                -7.678576224999972
              ],
              [
                -78.61166986199993,
                -7.685226600999897
              ],
              [
                -78.60866011299998,
                -7.688951350999957
              ],
              [
                -78.6035468629999,
                -7.692537100999914
              ],
              [
                -78.6012343619999,
                -7.696257849999938
              ],
              [
                -78.59966011299997,
                -7.702240225999958
              ],
              [
                -78.59642773799993,
                -7.703468725999869
              ],
              [
                -78.59475198799998,
                -7.709749975999898
              ],
              [
                -78.59699611299999,
                -7.713468725999974
              ],
              [
                -78.5993066129999,
                -7.715343725999901
              ],
              [
                -78.60049786299999,
                -7.720755850999979
              ],
              [
                -78.59914648799997,
                -7.722771475999878
              ],
              [
                -78.59831636199988,
                -7.727050725999902
              ],
              [
                -78.60048236199992,
                -7.731591850999962
              ],
              [
                -78.6004453619999,
                -7.735169975999952
              ],
              [
                -78.60371486199995,
                -7.736951225999917
              ],
              [
                -78.60622848699995,
                -7.739378850999969
              ],
              [
                -78.60951361199994,
                -7.740011725999921
              ],
              [
                -78.61183398699995,
                -7.743152350999878
              ],
              [
                -78.61894923799997,
                -7.74612885099998
              ],
              [
                -78.62732036199998,
                -7.75129097599995
              ],
              [
                -78.62791798699999,
                -7.753039100999899
              ],
              [
                -78.63185548799999,
                -7.757064474999936
              ],
              [
                -78.63621023699994,
                -7.763633350999953
              ],
              [
                -78.63931498799997,
                -7.766654100999972
              ],
              [
                -78.64448448799999,
                -7.770056350999823
              ],
              [
                -78.64842736199995,
                -7.775644100999955
              ],
              [
                -78.6506616129999,
                -7.779693725999891
              ],
              [
                -78.65372186199988,
                -7.782588349999969
              ],
              [
                -78.65915973799997,
                -7.788747100999956
              ],
              [
                -78.66318998699984,
                -7.791983475999871
              ],
              [
                -78.66504148699988,
                -7.796993850999911
              ],
              [
                -78.66947786299988,
                -7.791891475999932
              ],
              [
                -78.67252873799998,
                -7.78527459999998
              ],
              [
                -78.67515411199997,
                -7.782823975999975
              ],
              [
                -78.67872111299994,
                -7.780674975999887
              ],
              [
                -78.68301661299984,
                -7.775793225999962
              ],
              [
                -78.68900973699994,
                -7.773542975999931
              ],
              [
                -78.69239161199988,
                -7.766674600999977
              ],
              [
                -78.69605086299987,
                -7.762677600999837
              ],
              [
                -78.69932598699995,
                -7.755308850999938
              ],
              [
                -78.70175523799998,
                -7.747059225999976
              ],
              [
                -78.70250086199991,
                -7.73941072599996
              ],
              [
                -78.70341486199999,
                -7.73666897499993
              ],
              [
                -78.70305398699986,
                -7.730174850999958
              ],
              [
                -78.70471361199998,
                -7.726062100999911
              ],
              [
                -78.71243073699998,
                -7.721270975999971
              ],
              [
                -78.71395311299989,
                -7.71640547599992
              ],
              [
                -78.71338448799992,
                -7.710673725999868
              ],
              [
                -78.71386461299994,
                -7.708272600999976
              ],
              [
                -78.71245823799984,
                -7.70398260099995
              ],
              [
                -78.71471911299994,
                -7.701817975999973
              ],
              [
                -78.71986611299991,
                -7.700038100999961
              ],
              [
                -78.72775598699991,
                -7.694309975999943
              ],
              [
                -78.72955898699996,
                -7.691980850999926
              ],
              [
                -78.73068823799997,
                -7.688759725999944
              ],
              [
                -78.73578548799992,
                -7.689451475999874
              ],
              [
                -78.74261898799995,
                -7.688373100999911
              ],
              [
                -78.74463936299992,
                -7.686040099999957
              ],
              [
                -78.74791036199997,
                -7.683995724999932
              ],
              [
                -78.75108773799997,
                -7.672909349999941
              ],
              [
                -78.75769623799988,
                -7.67429122599998
              ],
              [
                -78.76114873799997,
                -7.672749225999951
              ],
              [
                -78.76599073799997,
                -7.66907759999998
              ],
              [
                -78.77002998799998,
                -7.66663910099993
              ],
              [
                -78.77283511199988,
                -7.662441975999911
              ],
              [
                -78.77290911299997,
                -7.659548099999938
              ],
              [
                -78.77469136299999,
                -7.654529975999878
              ],
              [
                -78.78300686199992,
                -7.646310100999926
              ],
              [
                -78.78553136199992,
                -7.645743600999936
              ],
              [
                -78.79236586299999,
                -7.640029724999977
              ],
              [
                -78.79649123799999,
                -7.639758850999954
              ],
              [
                -78.80213636199989,
                -7.638640600999963
              ],
              [
                -78.80376911299999,
                -7.634106474999953
              ],
              [
                -78.80106473799998,
                -7.62745285099993
              ],
              [
                -78.79736698799991,
                -7.624159474999942
              ],
              [
                -78.79442548799989,
                -7.620196599999872
              ],
              [
                -78.79681223799992,
                -7.618085975999918
              ],
              [
                -78.79745248799998,
                -7.615705100999946
              ],
              [
                -78.79354873799997,
                -7.608631599999967
              ],
              [
                -78.79466798799996,
                -7.602212850999933
              ],
              [
                -78.79753711299986,
                -7.597292975999949
              ],
              [
                -78.79842186299999,
                -7.594167975999824
              ],
              [
                -78.7979531119999,
                -7.592123100999913
              ],
              [
                -78.79854298799995,
                -7.586603475999937
              ],
              [
                -78.80176361199989,
                -7.583990225999969
              ],
              [
                -78.80446673799997,
                -7.577738224999962
              ],
              [
                -78.80762886299988,
                -7.57344922499982
              ],
              [
                -78.80535348799998,
                -7.568929725999965
              ],
              [
                -78.80318361299987,
                -7.566433599999925
              ],
              [
                -78.7990371119999,
                -7.564144474999978
              ],
              [
                -78.79742573699997,
                -7.558658225999977
              ],
              [
                -78.79446486299986,
                -7.556699225999921
              ],
              [
                -78.79391411299991,
                -7.552790975999926
              ],
              [
                -78.79194336299997,
                -7.550078100999826
              ],
              [
                -78.78837111299998,
                -7.549048850999952
              ],
              [
                -78.78511323799995,
                -7.549908225999957
              ],
              [
                -78.77988948699993,
                -7.550257475999899
              ],
              [
                -78.77780023799994,
                -7.551396099999977
              ],
              [
                -78.77362298799994,
                -7.549343725999904
              ],
              [
                -78.77237198799992,
                -7.550660600999947
              ],
              [
                -78.76514836199988,
                -7.553350350999949
              ],
              [
                -78.76091836299992,
                -7.553361349999875
              ],
              [
                -78.7538944879999,
                -7.556040974999974
              ],
              [
                -78.75095423699992,
                -7.556135100999938
              ],
              [
                -78.74484173699989,
                -7.558480475999943
              ],
              [
                -78.7410624879999,
                -7.564144474999978
              ],
              [
                -78.73679373799996,
                -7.564724225999896
              ],
              [
                -78.73413861299991,
                -7.563005849999911
              ],
              [
                -78.7312303629999,
                -7.563091850999911
              ],
              [
                -78.72741598799996,
                -7.565085850999878
              ],
              [
                -78.72458011199996,
                -7.563572225999962
              ],
              [
                -78.72141473699998,
                -7.564092225999843
              ],
              [
                -78.71672848799994,
                -7.561388724999972
              ],
              [
                -78.71457223799996,
                -7.561611475999939
              ],
              [
                -78.71181636199992,
                -7.563775349999901
              ],
              [
                -78.708941612,
                -7.567982975999882
              ],
              [
                -78.70628698799993,
                -7.56967797599998
              ],
              [
                -78.70615823699995,
                -7.573281225999949
              ],
              [
                -78.70495573699998,
                -7.576220475999946
              ],
              [
                -78.70182048699996,
                -7.577674474999981
              ],
              [
                -78.70012798799996,
                -7.581207225999833
              ],
              [
                -78.69694998699998,
                -7.584619975999942
              ]
            ]
          ]
        ],
        "type": "MultiPolygon"
      },
      "type": "Feature",
      "properties": {
        "PROVINCIA": "GRAN CHIMU",
        "DISTRITO": "MARMOT",
        "name": "MARMOT",
        "ID": "121103",
        "DEPARTAMEN": "LA LIBERTAD"
      }
    }
  ]
}
