{
  "type": "FeatureCollection",
  "features": [
    {
      "geometry": {
        "coordinates": [
          [
            [
              [
                -73.96880260799992,
                -13.172860230999959
              ],
              [
                -73.9699331079999,
                -13.177939605999939
              ],
              [
                -73.9688046089999,
                -13.181826480999916
              ],
              [
                -73.96685748399989,
                -13.185185855999976
              ],
              [
                -73.96139735799994,
                -13.187260105999883
              ],
              [
                -73.96065460799997,
                -13.189814480999928
              ],
              [
                -73.96151035899999,
                -13.194807730999912
              ],
              [
                -73.96143335799991,
                -13.200957480999932
              ],
              [
                -73.96379998399988,
                -13.20694673099996
              ],
              [
                -73.96283860799991,
                -13.210089855999968
              ],
              [
                -73.96017623299997,
                -13.21315885599995
              ],
              [
                -73.9569592329999,
                -13.214785855999935
              ],
              [
                -73.95107998299994,
                -13.222698855999965
              ],
              [
                -73.94594023399992,
                -13.229095855999901
              ],
              [
                -73.94607423299988,
                -13.233750230999874
              ],
              [
                -73.9477273579999,
                -13.24111460599994
              ],
              [
                -73.94547485799995,
                -13.246526480999876
              ],
              [
                -73.94535785899996,
                -13.249802980999903
              ],
              [
                -73.94690823299999,
                -13.254536230999975
              ],
              [
                -73.94684973399995,
                -13.256817980999926
              ],
              [
                -73.94448023299998,
                -13.261834980999879
              ],
              [
                -73.94486048299984,
                -13.26657410599995
              ],
              [
                -73.93948248399994,
                -13.270888230999958
              ],
              [
                -73.93591473399994,
                -13.277804230999948
              ],
              [
                -73.93053560799996,
                -13.283402855999896
              ],
              [
                -73.9246043309999,
                -13.28504174799997
              ],
              [
                -73.92204533999984,
                -13.291793663999954
              ],
              [
                -73.92515648399996,
                -13.295972480999865
              ],
              [
                -73.92565048299997,
                -13.300363605999905
              ],
              [
                -73.92241198299996,
                -13.305742730999839
              ],
              [
                -73.91966760899993,
                -13.30777373099994
              ],
              [
                -73.92060073299996,
                -13.31507385599997
              ],
              [
                -73.92554073299993,
                -13.324075605999951
              ],
              [
                -73.93317023399999,
                -13.327643355999953
              ],
              [
                -73.93514623299995,
                -13.33033298099997
              ],
              [
                -73.93993448299994,
                -13.335127730999943
              ],
              [
                -73.94243723299996,
                -13.339198855999825
              ],
              [
                -73.94193673299998,
                -13.342369105999921
              ],
              [
                -73.94260410799984,
                -13.34695748099989
              ],
              [
                -73.94370535799999,
                -13.349860605999936
              ],
              [
                -73.94644173299992,
                -13.351562480999974
              ],
              [
                -73.95578523299986,
                -13.359704730999965
              ],
              [
                -73.95521485799992,
                -13.365165980999961
              ],
              [
                -73.95764335899986,
                -13.373282480999933
              ],
              [
                -73.96233598399988,
                -13.377975105999894
              ],
              [
                -73.96285735899994,
                -13.380386605999945
              ],
              [
                -73.9620752329999,
                -13.388142480999875
              ],
              [
                -73.95855573299986,
                -13.395051105999869
              ],
              [
                -73.95638003199997,
                -13.397687871999892
              ],
              [
                -73.95558198399993,
                -13.40191798099994
              ],
              [
                -73.95655860799997,
                -13.404761730999951
              ],
              [
                -73.95629723399992,
                -13.417104730999938
              ],
              [
                -73.95665913999994,
                -13.419747748999953
              ],
              [
                -73.99251332799992,
                -13.441334636999898
              ],
              [
                -73.99696598299994,
                -13.440089058999888
              ],
              [
                -73.99989864199995,
                -13.440100722999944
              ],
              [
                -74.00685583999996,
                -13.442041979999885
              ],
              [
                -74.01308536599998,
                -13.442664512999897
              ],
              [
                -74.01736709999994,
                -13.441485180999848
              ],
              [
                -74.021651707,
                -13.439588135999827
              ],
              [
                -74.02728727099998,
                -13.442049975999964
              ],
              [
                -74.03585713499996,
                -13.444164124999816
              ],
              [
                -74.03821477399998,
                -13.441302536999899
              ],
              [
                -74.04049047899997,
                -13.44059356699995
              ],
              [
                -74.04481508099991,
                -13.440897069999949
              ],
              [
                -74.04674515699992,
                -13.434876095999925
              ],
              [
                -74.04629498399999,
                -13.43020698099997
              ],
              [
                -74.04648198399991,
                -13.424081355999931
              ],
              [
                -74.04831910799987,
                -13.42028998099994
              ],
              [
                -74.04751823299995,
                -13.416786355999932
              ],
              [
                -74.05017098299999,
                -13.415334855999959
              ],
              [
                -74.05243148399995,
                -13.411263480999935
              ],
              [
                -74.05574344799999,
                -13.409454400999948
              ],
              [
                -74.05889632599991,
                -13.408943286999943
              ],
              [
                -74.06123573299993,
                -13.406178230999956
              ],
              [
                -74.06080848299996,
                -13.39963998099995
              ],
              [
                -74.05858585799996,
                -13.396464730999924
              ],
              [
                -74.06118948399995,
                -13.39246385599995
              ],
              [
                -74.06881060899997,
                -13.389603480999881
              ],
              [
                -74.07088473399983,
                -13.387578105999978
              ],
              [
                -74.07350948299995,
                -13.379127855999968
              ],
              [
                -74.07579560799991,
                -13.377476730999888
              ],
              [
                -74.08083517499995,
                -13.376330464999967
              ],
              [
                -74.08046907199997,
                -13.373554952999939
              ],
              [
                -74.08174208999998,
                -13.37094507899991
              ],
              [
                -74.07939057499988,
                -13.368025024999952
              ],
              [
                -74.07911560899998,
                -13.36469323099982
              ],
              [
                -74.08510748299994,
                -13.361290980999968
              ],
              [
                -74.08900635799995,
                -13.353086480999934
              ],
              [
                -74.09201723299998,
                -13.351708605999875
              ],
              [
                -74.09826286799989,
                -13.355932390999953
              ],
              [
                -74.10145835799995,
                -13.354821605999973
              ],
              [
                -74.10649832799999,
                -13.351472271999967
              ],
              [
                -74.11134235299994,
                -13.349712863999969
              ],
              [
                -74.1079843579999,
                -13.345602480999958
              ],
              [
                -74.10648910799995,
                -13.339149480999936
              ],
              [
                -74.10727610799995,
                -13.334191605999933
              ],
              [
                -74.10672523399984,
                -13.331673355999953
              ],
              [
                -74.10286910799988,
                -13.326243355999907
              ],
              [
                -74.10229460899996,
                -13.319965105999927
              ],
              [
                -74.09967560899997,
                -13.313165855999955
              ],
              [
                -74.09499996099993,
                -13.309751692999896
              ],
              [
                -74.09690560899986,
                -13.305409605999898
              ],
              [
                -74.10098510899996,
                -13.304100105999908
              ],
              [
                -74.10655860799989,
                -13.301224605999948
              ],
              [
                -74.11049560799995,
                -13.298021230999893
              ],
              [
                -74.11744185899994,
                -13.288377605999926
              ],
              [
                -74.12335736599994,
                -13.285008120999919
              ],
              [
                -74.12052003799982,
                -13.280380019999882
              ],
              [
                -74.1155800379999,
                -13.26992001899987
              ],
              [
                -74.11527003899994,
                -13.264910018999956
              ],
              [
                -74.11245003899995,
                -13.260880019999945
              ],
              [
                -74.11109003799993,
                -13.257650018999925
              ],
              [
                -74.10691003799985,
                -13.251220018999845
              ],
              [
                -74.10698003799996,
                -13.245870018999938
              ],
              [
                -74.10648003799997,
                -13.236210018999941
              ],
              [
                -74.10357003799999,
                -13.232360018999884
              ],
              [
                -74.09966003799997,
                -13.225610019999976
              ],
              [
                -74.09715003799994,
                -13.218790019999915
              ],
              [
                -74.09408003799984,
                -13.214130018999924
              ],
              [
                -74.09311003799996,
                -13.210540018999893
              ],
              [
                -74.09121003799999,
                -13.20808001999984
              ],
              [
                -74.08952003799993,
                -13.202370018999886
              ],
              [
                -74.09012003799984,
                -13.195580018999976
              ],
              [
                -74.09136003799995,
                -13.190150019999919
              ],
              [
                -74.08899003899995,
                -13.185890018999942
              ],
              [
                -74.08896003799998,
                -13.18090001999991
              ],
              [
                -74.08702003899992,
                -13.178390019999881
              ],
              [
                -74.08579003799997,
                -13.172540018999825
              ],
              [
                -74.08750003899996,
                -13.168800018999889
              ],
              [
                -74.09125003799988,
                -13.167370018999975
              ],
              [
                -74.09323003799994,
                -13.162950018999936
              ],
              [
                -74.09241356399997,
                -13.160479180999971
              ],
              [
                -74.0872600379999,
                -13.164000018999957
              ],
              [
                -74.08554003799998,
                -13.164020018999906
              ],
              [
                -74.08230003799991,
                -13.165990019999924
              ],
              [
                -74.07890003799997,
                -13.170380018999879
              ],
              [
                -74.07559003799986,
                -13.173270018999915
              ],
              [
                -74.07303003799996,
                -13.173480018999953
              ],
              [
                -74.07012003799997,
                -13.178980018999937
              ],
              [
                -74.06769003799991,
                -13.18030001999989
              ],
              [
                -74.06492003899996,
                -13.183190018999937
              ],
              [
                -74.06147003899997,
                -13.185180019999905
              ],
              [
                -74.05895003899991,
                -13.185600019999924
              ],
              [
                -74.0597700379999,
                -13.18935001899996
              ],
              [
                -74.05387003799996,
                -13.19523001899995
              ],
              [
                -74.05126003799995,
                -13.195460018999881
              ],
              [
                -74.04775003799995,
                -13.194000018999873
              ],
              [
                -74.04096003799998,
                -13.194730018999962
              ],
              [
                -74.03892003799996,
                -13.195600018999926
              ],
              [
                -74.03511003799991,
                -13.19932001899997
              ],
              [
                -74.03132003799988,
                -13.207230018999951
              ],
              [
                -74.02389003799993,
                -13.203070019999927
              ],
              [
                -74.02062003799989,
                -13.198470019999888
              ],
              [
                -74.01756003799994,
                -13.195730019999928
              ],
              [
                -74.01356003799998,
                -13.193710018999866
              ],
              [
                -74.00622003799992,
                -13.194540018999874
              ],
              [
                -74.00199003799997,
                -13.19576001999991
              ],
              [
                -73.99734003799989,
                -13.194010018999904
              ],
              [
                -73.99061003799994,
                -13.194610018999981
              ],
              [
                -73.98693003799991,
                -13.193680018999942
              ],
              [
                -73.98059003799989,
                -13.188700018999953
              ],
              [
                -73.97848003799993,
                -13.184560019999935
              ],
              [
                -73.96880260799992,
                -13.172860230999959
              ]
            ]
          ]
        ],
        "type": "MultiPolygon"
      },
      "type": "Feature",
      "properties": {
        "PROVINCIA": "HUAMANGA",
        "DISTRITO": "ACOCRO",
        "name": "ACOCRO",
        "ID": "050111",
        "DEPARTAMEN": "AYACUCHO"
      }
    }
  ]
}
