{
  "type": "FeatureCollection",
  "features": [
    {
      "geometry": {
        "coordinates": [
          [
            [
              [
                -74.18661517199996,
                -13.138678643999981
              ],
              [
                -74.18926003799993,
                -13.14130001899997
              ],
              [
                -74.18883003799988,
                -13.147910018999937
              ],
              [
                -74.19015003799996,
                -13.151870019999933
              ],
              [
                -74.18868003799992,
                -13.153600018999896
              ],
              [
                -74.18921003799989,
                -13.15860001999988
              ],
              [
                -74.1907600379999,
                -13.16215001899991
              ],
              [
                -74.19024003799996,
                -13.166280018999942
              ],
              [
                -74.19092003799989,
                -13.168460018999951
              ],
              [
                -74.19050962099993,
                -13.17488522799988
              ],
              [
                -74.19441911299987,
                -13.172922343999915
              ],
              [
                -74.20249004499993,
                -13.17110547599998
              ],
              [
                -74.20634278399996,
                -13.169500214999914
              ],
              [
                -74.21280360799989,
                -13.167644534999965
              ],
              [
                -74.21570095399994,
                -13.165912611999943
              ],
              [
                -74.21912514999991,
                -13.163874402999966
              ],
              [
                -74.21856509899993,
                -13.16180730799988
              ],
              [
                -74.21537567699994,
                -13.159479369999929
              ],
              [
                -74.21255490799996,
                -13.158386108999878
              ],
              [
                -74.20939350899994,
                -13.153157966999913
              ],
              [
                -74.20936799399993,
                -13.147406741999873
              ],
              [
                -74.20601505899998,
                -13.13958761899994
              ],
              [
                -74.20373491599997,
                -13.135488499999894
              ],
              [
                -74.20121003799989,
                -13.133800018999978
              ],
              [
                -74.19432003899993,
                -13.134860018999916
              ],
              [
                -74.19236003799995,
                -13.13636001899988
              ],
              [
                -74.18661517199996,
                -13.138678643999981
              ]
            ]
          ]
        ],
        "type": "MultiPolygon"
      },
      "type": "Feature",
      "properties": {
        "PROVINCIA": "HUAMANGA",
        "DISTRITO": "ANDRES AVELINO CACERES DORREGARAY",
        "name": "ANDRES AVELINO CACERES DORREGARAY",
        "ID": "050116",
        "DEPARTAMEN": "AYACUCHO"
      }
    }
  ]
}
