{
  "type": "FeatureCollection",
  "features": [
    {
      "geometry": {
        "coordinates": [
          [
            [
              [
                -78.91954298799999,
                -7.210945350999964
              ],
              [
                -78.91779886299992,
                -7.212437474999888
              ],
              [
                -78.91532811299993,
                -7.212580100999958
              ],
              [
                -78.91339848799998,
                -7.21484959999998
              ],
              [
                -78.91311511299989,
                -7.21715434999993
              ],
              [
                -78.90908398799996,
                -7.21975785099994
              ],
              [
                -78.90584173799994,
                -7.22011322499992
              ],
              [
                -78.90378123799997,
                -7.22133385099994
              ],
              [
                -78.90282423799994,
                -7.22468159999994
              ],
              [
                -78.90634573799997,
                -7.230546850999929
              ],
              [
                -78.90575198799996,
                -7.235634724999898
              ],
              [
                -78.89924023799995,
                -7.246009724999965
              ],
              [
                -78.89932223799997,
                -7.249769349999951
              ],
              [
                -78.90069136299991,
                -7.251267599999892
              ],
              [
                -78.90249611299993,
                -7.256664099999909
              ],
              [
                -78.90141598799994,
                -7.2593808499999
              ],
              [
                -78.90193548799994,
                -7.262130850999881
              ],
              [
                -78.8981641129999,
                -7.269273474999977
              ],
              [
                -78.89795311299991,
                -7.273810599999933
              ],
              [
                -78.89410936299998,
                -7.274958975999937
              ],
              [
                -78.8942676129999,
                -7.277734350999879
              ],
              [
                -78.89304298799993,
                -7.280322224999964
              ],
              [
                -78.89457423799996,
                -7.284136724999826
              ],
              [
                -78.89350386299998,
                -7.290160100999913
              ],
              [
                -78.88542386299997,
                -7.294859349999967
              ],
              [
                -78.8844863629999,
                -7.297414099999969
              ],
              [
                -78.88935936299998,
                -7.298013724999976
              ],
              [
                -78.89409648799995,
                -7.301653725999927
              ],
              [
                -78.899662488,
                -7.308493099999964
              ],
              [
                -78.9019964879999,
                -7.310585849999939
              ],
              [
                -78.90779623799989,
                -7.314054724999892
              ],
              [
                -78.91719136299992,
                -7.320716850999929
              ],
              [
                -78.91887873799999,
                -7.323387225999966
              ],
              [
                -78.92454036299995,
                -7.32611772599995
              ],
              [
                -78.92996323799991,
                -7.332429099999899
              ],
              [
                -78.9355473629999,
                -7.336515475999875
              ],
              [
                -78.9364082379999,
                -7.339013724999973
              ],
              [
                -78.94164261299994,
                -7.341142599999841
              ],
              [
                -78.9458749879999,
                -7.343496099999868
              ],
              [
                -78.9500698629999,
                -7.347639850999883
              ],
              [
                -78.95143923799998,
                -7.349749600999928
              ],
              [
                -78.95855761299998,
                -7.349779974999933
              ],
              [
                -78.96204036299991,
                -7.349291224999945
              ],
              [
                -78.97873323699997,
                -7.34889097599995
              ],
              [
                -78.98379261299993,
                -7.346541600999956
              ],
              [
                -78.98434248799992,
                -7.342539475999956
              ],
              [
                -78.98305936299994,
                -7.338231974999871
              ],
              [
                -78.98440361299993,
                -7.331938350999962
              ],
              [
                -78.98712598799995,
                -7.326907975999973
              ],
              [
                -78.99161361299991,
                -7.324453350999818
              ],
              [
                -78.99778486299982,
                -7.319259724999881
              ],
              [
                -78.99634898799997,
                -7.312355224999976
              ],
              [
                -78.9966577379999,
                -7.307098974999917
              ],
              [
                -78.99585336299998,
                -7.304511225999931
              ],
              [
                -78.99273911299997,
                -7.300348099999894
              ],
              [
                -78.99161523799995,
                -7.295867099999953
              ],
              [
                -78.99185798799988,
                -7.293322100999887
              ],
              [
                -78.99558198799997,
                -7.29087697499989
              ],
              [
                -78.99982423799997,
                -7.289249975999951
              ],
              [
                -79.00233686299987,
                -7.286784225999952
              ],
              [
                -79.0040882379999,
                -7.283835100999909
              ],
              [
                -79.00936361299995,
                -7.282629349999979
              ],
              [
                -79.01282673799994,
                -7.279959349999956
              ],
              [
                -79.01723436299994,
                -7.279498725999929
              ],
              [
                -79.02217186299993,
                -7.278249974999937
              ],
              [
                -79.02454086299991,
                -7.27407547599995
              ],
              [
                -79.02949798799983,
                -7.271297850999872
              ],
              [
                -79.03012373799999,
                -7.264497224999957
              ],
              [
                -79.02983598799989,
                -7.261708974999976
              ],
              [
                -79.02050386299993,
                -7.257040975999928
              ],
              [
                -79.01364648799995,
                -7.255544975999953
              ],
              [
                -79.00768736299989,
                -7.25952609999996
              ],
              [
                -79.00489036299996,
                -7.260564725999927
              ],
              [
                -79.0029268639999,
                -7.264324349999924
              ],
              [
                -78.99669311299988,
                -7.27083684999991
              ],
              [
                -78.99320736299995,
                -7.27225810099992
              ],
              [
                -78.99069411299996,
                -7.269463599999881
              ],
              [
                -78.98355998799997,
                -7.259113475999925
              ],
              [
                -78.97992498799994,
                -7.256357600999877
              ],
              [
                -78.97854048799996,
                -7.249226974999885
              ],
              [
                -78.97847161299995,
                -7.243829099999971
              ],
              [
                -78.97767798899997,
                -7.239728224999908
              ],
              [
                -78.97921286299999,
                -7.234021474999906
              ],
              [
                -78.97393311299993,
                -7.225960724999879
              ],
              [
                -78.97245648799998,
                -7.219906349999974
              ],
              [
                -78.97365073799995,
                -7.214241100999914
              ],
              [
                -78.9728978629999,
                -7.212296099999946
              ],
              [
                -78.97043548799991,
                -7.210201224999878
              ],
              [
                -78.96918611299992,
                -7.205799474999935
              ],
              [
                -78.96337711299998,
                -7.196846475999962
              ],
              [
                -78.96071073799999,
                -7.194431099999974
              ],
              [
                -78.95860736299994,
                -7.194054724999887
              ],
              [
                -78.95686311299994,
                -7.191152349999925
              ],
              [
                -78.9548339879999,
                -7.189580100999933
              ],
              [
                -78.9539922379999,
                -7.191890599999908
              ],
              [
                -78.95577148799993,
                -7.194583974999887
              ],
              [
                -78.95487111299997,
                -7.195736350999937
              ],
              [
                -78.9500292379999,
                -7.197378850999883
              ],
              [
                -78.94716598799988,
                -7.200113224999882
              ],
              [
                -78.94369536299996,
                -7.20487122499992
              ],
              [
                -78.93918361299995,
                -7.203910225999834
              ],
              [
                -78.93720698799984,
                -7.204300725999815
              ],
              [
                -78.93375973799988,
                -7.202195349999954
              ],
              [
                -78.92820698799983,
                -7.204865225999981
              ],
              [
                -78.92129123799998,
                -7.210899224999878
              ],
              [
                -78.91954298799999,
                -7.210945350999964
              ]
            ]
          ]
        ],
        "type": "MultiPolygon"
      },
      "type": "Feature",
      "properties": {
        "PROVINCIA": "CONTUMAZA",
        "DISTRITO": "TANTARICA",
        "name": "TANTARICA",
        "ID": "060407",
        "DEPARTAMEN": "CAJAMARCA"
      }
    }
  ]
}
