{
  "type": "FeatureCollection",
  "features": [
    {
      "geometry": {
        "coordinates": [
          [
            [
              [
                -71.5099334809999,
                -15.526089607999893
              ],
              [
                -71.5170974809999,
                -15.523821857999963
              ],
              [
                -71.52146910599993,
                -15.524185232999912
              ],
              [
                -71.52639773199996,
                -15.523404107999852
              ],
              [
                -71.53150173099993,
                -15.526933607999922
              ],
              [
                -71.53289035599994,
                -15.529990232999978
              ],
              [
                -71.53565210599999,
                -15.53300185799992
              ],
              [
                -71.54008485599985,
                -15.535255482999958
              ],
              [
                -71.54608148099999,
                -15.534150107999892
              ],
              [
                -71.55529023099984,
                -15.537068357999942
              ],
              [
                -71.55706023099992,
                -15.538829857999872
              ],
              [
                -71.55728910599993,
                -15.542601608999917
              ],
              [
                -71.55622098099985,
                -15.54483598299987
              ],
              [
                -71.55858610599995,
                -15.54675573299994
              ],
              [
                -71.55738823099995,
                -15.55333423299993
              ],
              [
                -71.56251523099996,
                -15.554668482999944
              ],
              [
                -71.56448360699994,
                -15.556621607999887
              ],
              [
                -71.56536098099997,
                -15.559486358999948
              ],
              [
                -71.56849673199991,
                -15.55776973299993
              ],
              [
                -71.57032773099996,
                -15.55933185799995
              ],
              [
                -71.57236485599998,
                -15.558513607999942
              ],
              [
                -71.57700348099996,
                -15.561825732999978
              ],
              [
                -71.57766723099991,
                -15.565984732999937
              ],
              [
                -71.57953648099993,
                -15.568855232999965
              ],
              [
                -71.57859810599984,
                -15.571886982999956
              ],
              [
                -71.58409123099995,
                -15.572714857999927
              ],
              [
                -71.58943935599996,
                -15.568916357999854
              ],
              [
                -71.59733585599997,
                -15.568329857999913
              ],
              [
                -71.60057835699996,
                -15.567464857999937
              ],
              [
                -71.61047360599997,
                -15.55976385799994
              ],
              [
                -71.61200710599991,
                -15.557396857999834
              ],
              [
                -71.61724085599997,
                -15.560474357999908
              ],
              [
                -71.62384798099998,
                -15.55922985799998
              ],
              [
                -71.62808985599997,
                -15.559190732999923
              ],
              [
                -71.63380435599998,
                -15.55646798299989
              ],
              [
                -71.63765710599989,
                -15.552691482999876
              ],
              [
                -71.64064785599993,
                -15.55280685799994
              ],
              [
                -71.64093785699993,
                -15.547663732999979
              ],
              [
                -71.64279935599995,
                -15.545226107999838
              ],
              [
                -71.6484527309999,
                -15.539774857999817
              ],
              [
                -71.64949798199996,
                -15.532192232999932
              ],
              [
                -71.64675910599993,
                -15.526267108999946
              ],
              [
                -71.65261835599995,
                -15.520037607999939
              ],
              [
                -71.65488435599997,
                -15.519495982999956
              ],
              [
                -71.65908048199998,
                -15.51709273299997
              ],
              [
                -71.66236873099996,
                -15.516415607999932
              ],
              [
                -71.66687773099994,
                -15.516934357999958
              ],
              [
                -71.67081448099998,
                -15.518197107999981
              ],
              [
                -71.67617798099991,
                -15.516717857999879
              ],
              [
                -71.67906185699997,
                -15.517070732999855
              ],
              [
                -71.6811447319999,
                -15.506069233999881
              ],
              [
                -71.6796646059999,
                -15.499399232999906
              ],
              [
                -71.67870335599997,
                -15.49751760799984
              ],
              [
                -71.67544560599998,
                -15.495394732999955
              ],
              [
                -71.6750946059999,
                -15.490426982999963
              ],
              [
                -71.67726135599992,
                -15.48029323299994
              ],
              [
                -71.67731473099991,
                -15.474956482999971
              ],
              [
                -71.67642973099998,
                -15.464616732999957
              ],
              [
                -71.67687223099989,
                -15.458335857999941
              ],
              [
                -71.67627710699986,
                -15.455128607999882
              ],
              [
                -71.67298135599992,
                -15.44907860799998
              ],
              [
                -71.66103073099993,
                -15.431653482999877
              ],
              [
                -71.65909423099993,
                -15.428047232999859
              ],
              [
                -71.65778498099996,
                -15.421024607999925
              ],
              [
                -71.65576148199995,
                -15.41876323299988
              ],
              [
                -71.65034385599995,
                -15.415882357999976
              ],
              [
                -71.64703373099991,
                -15.415468232999899
              ],
              [
                -71.63757323099998,
                -15.415969857999926
              ],
              [
                -71.63437648099989,
                -15.415155357999879
              ],
              [
                -71.63184360699995,
                -15.413444482999978
              ],
              [
                -71.6232147309999,
                -15.403515857999878
              ],
              [
                -71.62020873099988,
                -15.402111982999884
              ],
              [
                -71.6177521059999,
                -15.40261360799991
              ],
              [
                -71.61323548099995,
                -15.40497010799993
              ],
              [
                -71.60932160599987,
                -15.408591232999981
              ],
              [
                -71.60626985599987,
                -15.408527357999901
              ],
              [
                -71.60100560599994,
                -15.40384198299995
              ],
              [
                -71.59844210599994,
                -15.398354482999935
              ],
              [
                -71.5960617309999,
                -15.397583982999947
              ],
              [
                -71.59234623099996,
                -15.398418482999887
              ],
              [
                -71.58977510699987,
                -15.397391357999936
              ],
              [
                -71.5906753559999,
                -15.39219285799993
              ],
              [
                -71.59233098199996,
                -15.389076357999897
              ],
              [
                -71.58753973099994,
                -15.389168732999906
              ],
              [
                -71.58367923099996,
                -15.390952107999965
              ],
              [
                -71.5804367319999,
                -15.394845857999883
              ],
              [
                -71.5782928559999,
                -15.39899348299997
              ],
              [
                -71.57818598099993,
                -15.4013233579999
              ],
              [
                -71.57537835599999,
                -15.40427023299992
              ],
              [
                -71.57298273099991,
                -15.405616732999874
              ],
              [
                -71.56947323099996,
                -15.410365107999837
              ],
              [
                -71.56577298199988,
                -15.419826482999838
              ],
              [
                -71.56246948099994,
                -15.42251585799994
              ],
              [
                -71.55579373199993,
                -15.424665482999899
              ],
              [
                -71.55112460599997,
                -15.427490232999958
              ],
              [
                -71.54436498099994,
                -15.429377607999982
              ],
              [
                -71.54046635599997,
                -15.431692232999978
              ],
              [
                -71.53997798099988,
                -15.43394560799993
              ],
              [
                -71.5411987309999,
                -15.43857385799987
              ],
              [
                -71.54052735599987,
                -15.441924107999967
              ],
              [
                -71.53875735599996,
                -15.444786107999903
              ],
              [
                -71.53211973099991,
                -15.44655223299992
              ],
              [
                -71.52570348199998,
                -15.450860982999927
              ],
              [
                -71.52452098099997,
                -15.454874982999968
              ],
              [
                -71.52083585599996,
                -15.458609732999946
              ],
              [
                -71.5195236059999,
                -15.461486857999887
              ],
              [
                -71.51957698099989,
                -15.47334860799998
              ],
              [
                -71.51784510599992,
                -15.478899982999963
              ],
              [
                -71.51683810599991,
                -15.486143107999908
              ],
              [
                -71.51420598099992,
                -15.492240857999946
              ],
              [
                -71.51144410599994,
                -15.49537748299997
              ],
              [
                -71.51164248099991,
                -15.498968107999929
              ],
              [
                -71.51377873099995,
                -15.502629232999823
              ],
              [
                -71.51276398099998,
                -15.507293857999969
              ],
              [
                -71.51337435599987,
                -15.510972982999874
              ],
              [
                -71.51030735599994,
                -15.520000482999876
              ],
              [
                -71.51136785599994,
                -15.523497608999946
              ],
              [
                -71.5099334809999,
                -15.526089607999893
              ]
            ]
          ]
        ],
        "type": "MultiPolygon"
      },
      "type": "Feature",
      "properties": {
        "PROVINCIA": "CAYLLOMA",
        "DISTRITO": "TUTI",
        "name": "TUTI",
        "ID": "040218",
        "DEPARTAMEN": "AREQUIPA"
      }
    }
  ]
}
