{
  "type": "FeatureCollection",
  "features": [
    {
      "geometry": {
        "coordinates": [
          [
            [
              [
                -70.35528572999993,
                -12.917823730999828
              ],
              [
                -70.35530072999995,
                -12.927099605999842
              ],
              [
                -70.35286722999996,
                -12.939376980999953
              ],
              [
                -70.35273822999994,
                -12.944894480999949
              ],
              [
                -70.35606447999999,
                -12.953619104999916
              ],
              [
                -70.35767385499992,
                -12.961585979999882
              ],
              [
                -70.35780535499998,
                -12.968009605999896
              ],
              [
                -70.35616735499997,
                -12.98295935599998
              ],
              [
                -70.35786972999989,
                -12.98636410499995
              ],
              [
                -70.35840735499994,
                -12.993532105999975
              ],
              [
                -70.35957210499998,
                -12.996488855999928
              ],
              [
                -70.35930335499995,
                -13.008405605999883
              ],
              [
                -70.36010972999986,
                -13.012258355999961
              ],
              [
                -70.36297697999987,
                -13.019336730999896
              ],
              [
                -70.36747872999985,
                -13.026023230999897
              ],
              [
                -70.36844247999983,
                -13.02910298099988
              ],
              [
                -70.37508397999983,
                -13.032716855999865
              ],
              [
                -70.37946285499993,
                -13.041640604999941
              ],
              [
                -70.38304722999993,
                -13.054011605999904
              ],
              [
                -70.38322635499992,
                -13.059566855999947
              ],
              [
                -70.3843016049999,
                -13.062613230999943
              ],
              [
                -70.38839647999998,
                -13.069148480999843
              ],
              [
                -70.39111035499997,
                -13.084960105999812
              ],
              [
                -70.39370247999994,
                -13.094368480999947
              ],
              [
                -70.39935422999997,
                -13.104545730999916
              ],
              [
                -70.40069822999999,
                -13.11063848099991
              ],
              [
                -70.40286810499998,
                -13.114412855999944
              ],
              [
                -70.40410072999993,
                -13.12118948099993
              ],
              [
                -70.40354447999994,
                -13.123136355999975
              ],
              [
                -70.40440672999995,
                -13.12608460599995
              ],
              [
                -70.40657610499994,
                -13.127670105999925
              ],
              [
                -70.41447735499997,
                -13.12931748099993
              ],
              [
                -70.41769510499995,
                -13.133089979999966
              ],
              [
                -70.41669647999993,
                -13.13575297999995
              ],
              [
                -70.41181448099991,
                -13.13863773099996
              ],
              [
                -70.4068214799999,
                -13.138415855999881
              ],
              [
                -70.40360372999993,
                -13.136751605999962
              ],
              [
                -70.39816697999998,
                -13.131980480999971
              ],
              [
                -70.3937287299999,
                -13.129983230999926
              ],
              [
                -70.38966210499996,
                -13.131538355999908
              ],
              [
                -70.38914422999994,
                -13.135278355999901
              ],
              [
                -70.39075522999991,
                -13.138270230999922
              ],
              [
                -70.39622135499991,
                -13.144944605999967
              ],
              [
                -70.40059422999997,
                -13.151158605999967
              ],
              [
                -70.40122710499992,
                -13.153229980999924
              ],
              [
                -70.39950097999991,
                -13.156106855999951
              ],
              [
                -70.39685422999997,
                -13.158063230999971
              ],
              [
                -70.38989210499989,
                -13.161630480999975
              ],
              [
                -70.38667010499995,
                -13.164392355999894
              ],
              [
                -70.3855768549999,
                -13.167038980999962
              ],
              [
                -70.38626735499992,
                -13.171526980999943
              ],
              [
                -70.38540422999984,
                -13.175842229999944
              ],
              [
                -70.38321797999987,
                -13.181308355999931
              ],
              [
                -70.38431110499988,
                -13.187125355999854
              ],
              [
                -70.38846685499993,
                -13.192388730999937
              ],
              [
                -70.39125260499992,
                -13.187632105999967
              ],
              [
                -70.39547647999984,
                -13.183050855999966
              ],
              [
                -70.39843347999988,
                -13.182670605999931
              ],
              [
                -70.40105247999998,
                -13.181234480999876
              ],
              [
                -70.40485435499994,
                -13.18359998099993
              ],
              [
                -70.40959760499999,
                -13.18275198099991
              ],
              [
                -70.41228910499996,
                -13.177643855999975
              ],
              [
                -70.41372535499994,
                -13.176756729999909
              ],
              [
                -70.41773835499998,
                -13.176629980999905
              ],
              [
                -70.42048423099999,
                -13.175404980999929
              ],
              [
                -70.42546885499985,
                -13.176123105999977
              ],
              [
                -70.43104485499998,
                -13.173461729999872
              ],
              [
                -70.43594497999987,
                -13.173461730999975
              ],
              [
                -70.43847247999992,
                -13.171986355999934
              ],
              [
                -70.44650572999996,
                -13.17037810599993
              ],
              [
                -70.44912472999994,
                -13.167632230999914
              ],
              [
                -70.4582914799999,
                -13.163281230999871
              ],
              [
                -70.46424772999995,
                -13.15969060499998
              ],
              [
                -70.47086260599997,
                -13.159148229999971
              ],
              [
                -70.47937385499989,
                -13.160167230999889
              ],
              [
                -70.49429847999994,
                -13.157649855999978
              ],
              [
                -70.49773435499998,
                -13.156542980999973
              ],
              [
                -70.50076147999988,
                -13.156542980999973
              ],
              [
                -70.50432497999998,
                -13.159455105999939
              ],
              [
                -70.50903322999989,
                -13.158703105999905
              ],
              [
                -70.5118353549999,
                -13.15723260599998
              ],
              [
                -70.52195135499989,
                -13.155355105999888
              ],
              [
                -70.52555322999996,
                -13.153055980999909
              ],
              [
                -70.52972985499991,
                -13.15255785599993
              ],
              [
                -70.5351711049999,
                -13.154320480999843
              ],
              [
                -70.54199160499996,
                -13.154626980999979
              ],
              [
                -70.54984672999996,
                -13.152864355999952
              ],
              [
                -70.55103460599992,
                -13.145967105999944
              ],
              [
                -70.55455985499992,
                -13.143131605999884
              ],
              [
                -70.55670572999992,
                -13.140181105999943
              ],
              [
                -70.55800848099989,
                -13.136694229999932
              ],
              [
                -70.56161035499991,
                -13.133820355999887
              ],
              [
                -70.56673535499993,
                -13.13101723099993
              ],
              [
                -70.57052960499993,
                -13.130321729999878
              ],
              [
                -70.57438685499994,
                -13.122922980999931
              ],
              [
                -70.57799147999992,
                -13.117547980999973
              ],
              [
                -70.58355623099993,
                -13.112994854999954
              ],
              [
                -70.58507397999995,
                -13.105280105999952
              ],
              [
                -70.58754010499996,
                -13.103129980999938
              ],
              [
                -70.59949185499994,
                -13.09914623099985
              ],
              [
                -70.60126247999989,
                -13.100474105999922
              ],
              [
                -70.60638460599995,
                -13.101738854999951
              ],
              [
                -70.6097993549999,
                -13.099715230999948
              ],
              [
                -70.61422585499986,
                -13.09946235599989
              ],
              [
                -70.62118197999996,
                -13.095857855999895
              ],
              [
                -70.62491285599992,
                -13.093138605999968
              ],
              [
                -70.63003497999989,
                -13.091810730999953
              ],
              [
                -70.63737047999996,
                -13.090798855999935
              ],
              [
                -70.64167385499991,
                -13.09075585599993
              ],
              [
                -70.64793097999984,
                -13.093391605999955
              ],
              [
                -70.65387510499994,
                -13.093265105999876
              ],
              [
                -70.65842822999991,
                -13.090229730999908
              ],
              [
                -70.65975610499993,
                -13.08845910599996
              ],
              [
                -70.66962098099998,
                -13.090672479999967
              ],
              [
                -70.67463560599987,
                -13.096612855999922
              ],
              [
                -70.67913810499988,
                -13.096359980999978
              ],
              [
                -70.68343822999998,
                -13.098434104999967
              ],
              [
                -70.68394410499991,
                -13.105465979999963
              ],
              [
                -70.68520872999994,
                -13.1067812309999
              ],
              [
                -70.68763710499996,
                -13.10551660599998
              ],
              [
                -70.69305010599999,
                -13.10501060599995
              ],
              [
                -70.69588310499984,
                -13.105870730999982
              ],
              [
                -70.70205498099995,
                -13.104352980999977
              ],
              [
                -70.70564685499988,
                -13.10516248099998
              ],
              [
                -70.71004810499988,
                -13.109462605999965
              ],
              [
                -70.71298222999991,
                -13.109260105999908
              ],
              [
                -70.72294822999993,
                -13.105820105999953
              ],
              [
                -70.72780485499987,
                -13.10511185599995
              ],
              [
                -70.73220610499999,
                -13.10511185599995
              ],
              [
                -70.74601697999998,
                -13.103492979999942
              ],
              [
                -70.75072172999995,
                -13.105465980999952
              ],
              [
                -70.7540468549999,
                -13.105585980999933
              ],
              [
                -70.75841310599986,
                -13.108044230999951
              ],
              [
                -70.76286823099997,
                -13.107733480999912
              ],
              [
                -70.76962847999994,
                -13.105298605999963
              ],
              [
                -70.77136385499989,
                -13.10353735599989
              ],
              [
                -70.77429085499989,
                -13.103278230999877
              ],
              [
                -70.77887535599996,
                -13.09988522999987
              ],
              [
                -70.79174847999997,
                -13.092554980999921
              ],
              [
                -70.79621248099994,
                -13.091764355999942
              ],
              [
                -70.79985347999991,
                -13.089910105999934
              ],
              [
                -70.80289760599999,
                -13.084137730999885
              ],
              [
                -70.80722872999996,
                -13.081736980999949
              ],
              [
                -70.81203072999995,
                -13.077593980999893
              ],
              [
                -70.81334885599983,
                -13.072933230999979
              ],
              [
                -70.81735348099988,
                -13.06985148099983
              ],
              [
                -70.8209754799999,
                -13.070014354999898
              ],
              [
                -70.82634235599994,
                -13.068601980999915
              ],
              [
                -70.82954373099989,
                -13.067001230999892
              ],
              [
                -70.83698198099984,
                -13.068037105999963
              ],
              [
                -70.84296098099998,
                -13.067048480999972
              ],
              [
                -70.84945772999993,
                -13.07199160599987
              ],
              [
                -70.85082297999992,
                -13.077405605999957
              ],
              [
                -70.85242360599995,
                -13.079100480999841
              ],
              [
                -70.85529535599994,
                -13.07975948099994
              ],
              [
                -70.85939110499999,
                -13.079618355999969
              ],
              [
                -70.86311035599988,
                -13.080324355999949
              ],
              [
                -70.86970123099996,
                -13.078394230999947
              ],
              [
                -70.87511523099994,
                -13.074816355999928
              ],
              [
                -70.87912110499997,
                -13.073837855999955
              ],
              [
                -70.88217685499995,
                -13.070673480999972
              ],
              [
                -70.89069798099996,
                -13.069637730999887
              ],
              [
                -70.89215735599998,
                -13.070485105999921
              ],
              [
                -70.89926622999997,
                -13.06968485599998
              ],
              [
                -70.90006647999991,
                -13.071191355999929
              ],
              [
                -70.8985129809999,
                -13.076699480999935
              ],
              [
                -70.89903073099993,
                -13.08074810599993
              ],
              [
                -70.89667685599994,
                -13.08399647999994
              ],
              [
                -70.89710060599998,
                -13.08625610599995
              ],
              [
                -70.89460547999988,
                -13.088515980999944
              ],
              [
                -70.89498210499994,
                -13.091340730999889
              ],
              [
                -70.89309897999993,
                -13.09647223099995
              ],
              [
                -70.8899447309999,
                -13.102874855999971
              ],
              [
                -70.8946122299999,
                -13.101886479999905
              ],
              [
                -70.90063473099985,
                -13.102380105999885
              ],
              [
                -70.90460160599997,
                -13.100542980999933
              ],
              [
                -70.90699797999991,
                -13.093646480999894
              ],
              [
                -70.9061347309999,
                -13.091927730999885
              ],
              [
                -70.90972073099988,
                -13.088302730999885
              ],
              [
                -70.9151387309999,
                -13.084195355999952
              ],
              [
                -70.91816010599996,
                -13.083000105999929
              ],
              [
                -70.92070698099991,
                -13.083386730999905
              ],
              [
                -70.92447648099989,
                -13.0816777309999
              ],
              [
                -70.92664260599997,
                -13.078498105999927
              ],
              [
                -70.92950385599994,
                -13.076044980999882
              ],
              [
                -70.92851160599997,
                -13.07364060599997
              ],
              [
                -70.92574222999997,
                -13.07346097999988
              ],
              [
                -70.92603322999997,
                -13.069626980999885
              ],
              [
                -70.92804685599998,
                -13.067505855999912
              ],
              [
                -70.93244922999997,
                -13.068693355999926
              ],
              [
                -70.93621873099994,
                -13.066722605999928
              ],
              [
                -70.93842385599999,
                -13.062439480999956
              ],
              [
                -70.94213873099994,
                -13.05972848099998
              ],
              [
                -70.94535747999998,
                -13.059386729999858
              ],
              [
                -70.94889060499992,
                -13.057083979999845
              ],
              [
                -70.95170510499992,
                -13.057287105999933
              ],
              [
                -70.95647460599992,
                -13.055697229999964
              ],
              [
                -70.95949523099995,
                -13.053431230999934
              ],
              [
                -70.96262560599996,
                -13.052721355999836
              ],
              [
                -70.96940248099997,
                -13.054108980999956
              ],
              [
                -70.97148397999996,
                -13.053253855999913
              ],
              [
                -70.97475935499989,
                -13.047251480999932
              ],
              [
                -70.97866410599994,
                -13.045234605999951
              ],
              [
                -70.9803744809999,
                -13.042620605999957
              ],
              [
                -70.97903522999991,
                -13.04113622999995
              ],
              [
                -70.98266573099994,
                -13.036666730999912
              ],
              [
                -70.98024548099988,
                -13.031148480999946
              ],
              [
                -70.98021310599995,
                -13.025726980999877
              ],
              [
                -70.98276248099995,
                -13.023451855999951
              ],
              [
                -70.98726422999994,
                -13.023306605999835
              ],
              [
                -70.99068498099996,
                -13.023935980999966
              ],
              [
                -70.99368610599998,
                -13.020789605999937
              ],
              [
                -70.99166922999996,
                -13.017807729999959
              ],
              [
                -70.99060422999997,
                -13.013628729999937
              ],
              [
                -70.98831310499992,
                -13.012402479999935
              ],
              [
                -70.98729660599992,
                -13.010224105999896
              ],
              [
                -70.99110123099996,
                -13.001621480999972
              ],
              [
                -70.9890718559999,
                -13.001202854999974
              ],
              [
                -70.98794123099998,
                -12.998706980999884
              ],
              [
                -70.98970710499998,
                -12.996960605999902
              ],
              [
                -70.98650535599984,
                -12.991779480999924
              ],
              [
                -70.98081973099994,
                -12.98954798099993
              ],
              [
                -70.98037347999997,
                -12.98580297999996
              ],
              [
                -70.97761797999982,
                -12.985123730999817
              ],
              [
                -70.97625960599987,
                -12.982426480999948
              ],
              [
                -70.9793449799999,
                -12.981378604999918
              ],
              [
                -70.98171235599995,
                -12.982096604999981
              ],
              [
                -70.9808973559999,
                -12.978118605999839
              ],
              [
                -70.98198398099993,
                -12.976275230999818
              ],
              [
                -70.97946148099993,
                -12.973694354999964
              ],
              [
                -70.97864635499991,
                -12.970182105999982
              ],
              [
                -70.97278622999988,
                -12.962284355999941
              ],
              [
                -70.97045760599997,
                -12.957243105999908
              ],
              [
                -70.97020535599995,
                -12.95252785599996
              ],
              [
                -70.96824548099988,
                -12.946745105999923
              ],
              [
                -70.96488847999996,
                -12.946007730999952
              ],
              [
                -70.96366598099996,
                -12.943329980999977
              ],
              [
                -70.96058072999995,
                -12.941622355999925
              ],
              [
                -70.96267635499999,
                -12.938323480999827
              ],
              [
                -70.96190023099996,
                -12.934403729999872
              ],
              [
                -70.96339435599998,
                -12.932211105999897
              ],
              [
                -70.96621185599992,
                -12.931652479999968
              ],
              [
                -70.96593360599991,
                -12.928059729999973
              ],
              [
                -70.96375772999994,
                -12.926820104999877
              ],
              [
                -70.95619285599997,
                -12.924745354999914
              ],
              [
                -70.95475073099993,
                -12.922240605999946
              ],
              [
                -70.95500373099992,
                -12.916937605999976
              ],
              [
                -70.95199298099993,
                -12.913547355999924
              ],
              [
                -70.95138573099996,
                -12.911295605999953
              ],
              [
                -70.9542447309999,
                -12.909145105999926
              ],
              [
                -70.95399172999993,
                -12.903755980999904
              ],
              [
                -70.95568685499995,
                -12.901023605999967
              ],
              [
                -70.95353622999983,
                -12.899024854999936
              ],
              [
                -70.94979185599988,
                -12.898619980999854
              ],
              [
                -70.94941235599993,
                -12.896267105999925
              ],
              [
                -70.95141110499992,
                -12.893408105999981
              ],
              [
                -70.95389047999998,
                -12.886526355999933
              ],
              [
                -70.95313610599993,
                -12.884977104999905
              ],
              [
                -70.94888322999992,
                -12.882310730999905
              ],
              [
                -70.9471899809999,
                -12.879644229999826
              ],
              [
                -70.94603010599997,
                -12.873692854999888
              ],
              [
                -70.94755010499995,
                -12.870999729999824
              ],
              [
                -70.94501685499995,
                -12.870599855999956
              ],
              [
                -70.94079060599995,
                -12.87681260599993
              ],
              [
                -70.93777760499995,
                -12.87902560599997
              ],
              [
                -70.93552447999997,
                -12.876919229999942
              ],
              [
                -70.93408460599994,
                -12.872092979999934
              ],
              [
                -70.93149822999999,
                -12.866453605999823
              ],
              [
                -70.92999172999998,
                -12.864600479999979
              ],
              [
                -70.92709860499997,
                -12.86464048099998
              ],
              [
                -70.92673872999984,
                -12.866426855999919
              ],
              [
                -70.9281384809999,
                -12.869693229999882
              ],
              [
                -70.92800522999983,
                -12.872599605999937
              ],
              [
                -70.92391560599992,
                -12.874092979999944
              ],
              [
                -70.92066923099998,
                -12.872757980999893
              ],
              [
                -70.91775685599998,
                -12.869899979999957
              ],
              [
                -70.91705772999995,
                -12.866451230999871
              ],
              [
                -70.91533335499992,
                -12.864260729999899
              ],
              [
                -70.9107193559999,
                -12.865192855999965
              ],
              [
                -70.90936798099989,
                -12.868315354999936
              ],
              [
                -70.90698822999991,
                -12.869154855999966
              ],
              [
                -70.90515623099986,
                -12.866120480999882
              ],
              [
                -70.90675922999998,
                -12.859696730999929
              ],
              [
                -70.90507023099985,
                -12.852855354999917
              ],
              [
                -70.90249398099996,
                -12.849677730999929
              ],
              [
                -70.8987438559999,
                -12.847015479999982
              ],
              [
                -70.89628210599994,
                -12.8473589809999
              ],
              [
                -70.89253210599992,
                -12.850307480999959
              ],
              [
                -70.89115797999983,
                -12.853255979999858
              ],
              [
                -70.88966947999995,
                -12.853513604999932
              ],
              [
                -70.88680685499997,
                -12.850679604999925
              ],
              [
                -70.88617710599993,
                -12.847187229999975
              ],
              [
                -70.88465985499994,
                -12.846156730999894
              ],
              [
                -70.88036610599988,
                -12.84612822999992
              ],
              [
                -70.87389660499997,
                -12.841261604999886
              ],
              [
                -70.86924648099989,
                -12.839710354999966
              ],
              [
                -70.86473235499994,
                -12.839462854999908
              ],
              [
                -70.86021835499997,
                -12.841565479999872
              ],
              [
                -70.85644623099995,
                -12.841627355999947
              ],
              [
                -70.8519941049999,
                -12.839834104999909
              ],
              [
                -70.8480364799999,
                -12.840081354999938
              ],
              [
                -70.84346060599995,
                -12.836247479999884
              ],
              [
                -70.83808085599998,
                -12.835381855999856
              ],
              [
                -70.83542185599998,
                -12.835938354999882
              ],
              [
                -70.83294835499987,
                -12.834948980999911
              ],
              [
                -70.82686197999988,
                -12.836224104999928
              ],
              [
                -70.82090710599994,
                -12.838208979999933
              ],
              [
                -70.81603473099995,
                -12.838930855999934
              ],
              [
                -70.81433448099995,
                -12.84036323099997
              ],
              [
                -70.8158092299999,
                -12.84651510599997
              ],
              [
                -70.81792885499988,
                -12.84755185499995
              ],
              [
                -70.82034810599993,
                -12.851676229999953
              ],
              [
                -70.81654648099999,
                -12.851330604999873
              ],
              [
                -70.81749110499999,
                -12.858611480999969
              ],
              [
                -70.81994310499994,
                -12.860297355999819
              ],
              [
                -70.81793635499997,
                -12.865095854999936
              ],
              [
                -70.82270235599998,
                -12.86466698099997
              ],
              [
                -70.82674822999996,
                -12.867725729999904
              ],
              [
                -70.82552635499997,
                -12.870145105999882
              ],
              [
                -70.82735347999994,
                -12.872236355999917
              ],
              [
                -70.82872072999993,
                -12.876673854999979
              ],
              [
                -70.83077147999995,
                -12.878259729999911
              ],
              [
                -70.83113873099995,
                -12.882921855999939
              ],
              [
                -70.82981835599998,
                -12.884511730999861
              ],
              [
                -70.83165035499985,
                -12.887345730999868
              ],
              [
                -70.83000972999997,
                -12.893775355999935
              ],
              [
                -70.83261135599997,
                -12.89821285599993
              ],
              [
                -70.82834572999997,
                -12.900556604999963
              ],
              [
                -70.82762898099992,
                -12.902044980999904
              ],
              [
                -70.82868948099991,
                -12.907062479999922
              ],
              [
                -70.82566797999993,
                -12.912749979999944
              ],
              [
                -70.82535835499988,
                -12.925586105999912
              ],
              [
                -70.82345585499996,
                -12.928774105999935
              ],
              [
                -70.81939372999994,
                -12.92897973099997
              ],
              [
                -70.81579435499992,
                -12.927231480999978
              ],
              [
                -70.81461173099996,
                -12.925431729999957
              ],
              [
                -70.81373635599994,
                -12.91995710599997
              ],
              [
                -70.81262310599993,
                -12.916908230999923
              ],
              [
                -70.8100819799999,
                -12.916890604999878
              ],
              [
                -70.80326760499997,
                -12.914831980999907
              ],
              [
                -70.80008785499996,
                -12.91210547999998
              ],
              [
                -70.80079697999992,
                -12.910337854999966
              ],
              [
                -70.7967382299999,
                -12.909697230999939
              ],
              [
                -70.79441797999988,
                -12.907652355999971
              ],
              [
                -70.79105473099997,
                -12.90855273099993
              ],
              [
                -70.78749022999989,
                -12.904923855999982
              ],
              [
                -70.78433197999988,
                -12.906093730999885
              ],
              [
                -70.78289847999986,
                -12.908843730999934
              ],
              [
                -70.77887698099983,
                -12.907822230999898
              ],
              [
                -70.77844922999998,
                -12.906650355999943
              ],
              [
                -70.77125585499994,
                -12.904581980999922
              ],
              [
                -70.77047660499994,
                -12.90694723099989
              ],
              [
                -70.76456447999988,
                -12.905974605999972
              ],
              [
                -70.76233010599992,
                -12.90805073099989
              ],
              [
                -70.76155072999995,
                -12.910550605999958
              ],
              [
                -70.75749010499987,
                -12.909709354999904
              ],
              [
                -70.75788135499994,
                -12.912387604999878
              ],
              [
                -70.76281648099996,
                -12.915758104999952
              ],
              [
                -70.76272622999994,
                -12.918105230999913
              ],
              [
                -70.76080022999992,
                -12.920452480999813
              ],
              [
                -70.75645235499996,
                -12.922331104999898
              ],
              [
                -70.7571416049999,
                -12.924683855999888
              ],
              [
                -70.75985747999982,
                -12.925169979999964
              ],
              [
                -70.76003323099997,
                -12.929191355999876
              ],
              [
                -70.75831635599985,
                -12.93344135599989
              ],
              [
                -70.75582810599985,
                -12.935708979999959
              ],
              [
                -70.75402922999996,
                -12.935964855999885
              ],
              [
                -70.75121285599988,
                -12.941705104999926
              ],
              [
                -70.74657410499998,
                -12.943833979999965
              ],
              [
                -70.74436910599997,
                -12.943513730999939
              ],
              [
                -70.74072247999993,
                -12.945128855999883
              ],
              [
                -70.73791585599997,
                -12.9455273559999
              ],
              [
                -70.73120897999996,
                -12.950173854999946
              ],
              [
                -70.72889647999995,
                -12.949845730999982
              ],
              [
                -70.72453973099988,
                -12.953674479999961
              ],
              [
                -70.72216010599993,
                -12.952050729999826
              ],
              [
                -70.7198262309999,
                -12.95270697999996
              ],
              [
                -70.71483598099991,
                -12.952757854999959
              ],
              [
                -70.70990035599993,
                -12.954906229999835
              ],
              [
                -70.70574222999994,
                -12.955232480999825
              ],
              [
                -70.70454247999999,
                -12.957155854999883
              ],
              [
                -70.70216198099996,
                -12.957378230999893
              ],
              [
                -70.70040422999989,
                -12.959358480999981
              ],
              [
                -70.69257247999991,
                -12.96147222999997
              ],
              [
                -70.69079247999997,
                -12.96069360599995
              ],
              [
                -70.68783335499984,
                -12.961872729999982
              ],
              [
                -70.68674310499995,
                -12.96369723099997
              ],
              [
                -70.68431785599995,
                -12.964453730999935
              ],
              [
                -70.68098047999985,
                -12.963363480999874
              ],
              [
                -70.67430560499992,
                -12.965632980999885
              ],
              [
                -70.67257022999996,
                -12.964542730999938
              ],
              [
                -70.66969997999996,
                -12.965232479999884
              ],
              [
                -70.65930960599991,
                -12.964854230999947
              ],
              [
                -70.65514897999992,
                -12.96852535499994
              ],
              [
                -70.65163348099992,
                -12.970527730999947
              ],
              [
                -70.64753960499996,
                -12.970527730999947
              ],
              [
                -70.64400448099985,
                -12.97367360599992
              ],
              [
                -70.63588085599997,
                -12.974955730999966
              ],
              [
                -70.63152097999989,
                -12.971478730999877
              ],
              [
                -70.62753560499993,
                -12.970756479999977
              ],
              [
                -70.62677735599993,
                -12.969593730999975
              ],
              [
                -70.6270598559999,
                -12.964130980999869
              ],
              [
                -70.62587960499997,
                -12.959086104999926
              ],
              [
                -70.62077760599988,
                -12.956744480999873
              ],
              [
                -70.61995897999992,
                -12.954172605999872
              ],
              [
                -70.6222624799999,
                -12.951926230999902
              ],
              [
                -70.62264322999988,
                -12.950003480999897
              ],
              [
                -70.62220535499989,
                -12.944120980999969
              ],
              [
                -70.61952110599992,
                -12.94126535499987
              ],
              [
                -70.61700822999995,
                -12.94354985599989
              ],
              [
                -70.61375285499997,
                -12.94134160599998
              ],
              [
                -70.61382910499998,
                -12.936715480999908
              ],
              [
                -70.60981222999999,
                -12.932413105999899
              ],
              [
                -70.60606198099993,
                -12.931080604999977
              ],
              [
                -70.60352998099995,
                -12.931937230999893
              ],
              [
                -70.60109322999995,
                -12.929500479999888
              ],
              [
                -70.60189273099991,
                -12.926606854999932
              ],
              [
                -70.60120747999997,
                -12.923732230999917
              ],
              [
                -70.59871360499994,
                -12.921771354999976
              ],
              [
                -70.59102260499998,
                -12.92369410599997
              ],
              [
                -70.5890808549999,
                -12.921714355999939
              ],
              [
                -70.58946160499988,
                -12.919772480999939
              ],
              [
                -70.59425897999989,
                -12.915451105999978
              ],
              [
                -70.59473485599983,
                -12.91198635599983
              ],
              [
                -70.59132722999988,
                -12.908045604999927
              ],
              [
                -70.59058473099998,
                -12.903400605999877
              ],
              [
                -70.58807185599989,
                -12.902639105999924
              ],
              [
                -70.5847784799999,
                -12.904542855999978
              ],
              [
                -70.58241785599989,
                -12.90473323099991
              ],
              [
                -70.5800382299999,
                -12.902981730999954
              ],
              [
                -70.5806662299999,
                -12.899745480999968
              ],
              [
                -70.57665260499994,
                -12.893372230999944
              ],
              [
                -70.57408185499992,
                -12.890923230999931
              ],
              [
                -70.5742159799999,
                -12.887243855999941
              ],
              [
                -70.57002585499998,
                -12.88517685599993
              ],
              [
                -70.56193010499999,
                -12.88391735499988
              ],
              [
                -70.55897285599991,
                -12.882503855999971
              ],
              [
                -70.5570374799999,
                -12.88022060599991
              ],
              [
                -70.55673298099987,
                -12.878176605999897
              ],
              [
                -70.55869010499998,
                -12.876154105999888
              ],
              [
                -70.56156060599989,
                -12.875088605999906
              ],
              [
                -70.56296785599989,
                -12.870630604999917
              ],
              [
                -70.55957522999995,
                -12.866662605999977
              ],
              [
                -70.55936322999997,
                -12.865269229999967
              ],
              [
                -70.5623016049999,
                -12.861179980999907
              ],
              [
                -70.56233172999993,
                -12.858514355999887
              ],
              [
                -70.55854535499998,
                -12.856818104999888
              ],
              [
                -70.55266897999996,
                -12.855788230999963
              ],
              [
                -70.54860998099986,
                -12.853092354999887
              ],
              [
                -70.54794360599988,
                -12.849548229999925
              ],
              [
                -70.54524772999991,
                -12.846943230999955
              ],
              [
                -70.5385534799999,
                -12.8420058559999
              ],
              [
                -70.53506272999994,
                -12.840591480999933
              ],
              [
                -70.53163135599993,
                -12.843014604999894
              ],
              [
                -70.52947947999996,
                -12.842801354999835
              ],
              [
                -70.52132497999992,
                -12.838058854999929
              ],
              [
                -70.52035022999985,
                -12.835974855999893
              ],
              [
                -70.52206435499994,
                -12.831739480999943
              ],
              [
                -70.52098885499993,
                -12.827773105999938
              ],
              [
                -70.51754685499998,
                -12.822858230999884
              ],
              [
                -70.51470710499996,
                -12.821266105999939
              ],
              [
                -70.51395422999991,
                -12.819351479999966
              ],
              [
                -70.51634197999994,
                -12.81612460599996
              ],
              [
                -70.51593335499996,
                -12.810832480999977
              ],
              [
                -70.5129163549999,
                -12.810168104999889
              ],
              [
                -70.51107610499997,
                -12.813617355999895
              ],
              [
                -70.51044535499994,
                -12.816986355999973
              ],
              [
                -70.50819672999995,
                -12.816735355999981
              ],
              [
                -70.50799335599999,
                -12.820027729999879
              ],
              [
                -70.50590310499996,
                -12.82184035499995
              ],
              [
                -70.50694747999995,
                -12.823388980999937
              ],
              [
                -70.50748960499988,
                -12.827653854999937
              ],
              [
                -70.50532098099995,
                -12.827942979999932
              ],
              [
                -70.50275485499998,
                -12.832208105999882
              ],
              [
                -70.50282710499994,
                -12.833834480999883
              ],
              [
                -70.50065847999991,
                -12.837123479999889
              ],
              [
                -70.49791160599983,
                -12.839508979999891
              ],
              [
                -70.49704410599998,
                -12.84283423099987
              ],
              [
                -70.49498385499999,
                -12.844930605999878
              ],
              [
                -70.48833347999994,
                -12.845978730999832
              ],
              [
                -70.48768285499995,
                -12.84778597999997
              ],
              [
                -70.48453835499998,
                -12.849809980999908
              ],
              [
                -70.48085172999987,
                -12.848942479999891
              ],
              [
                -70.4796951049999,
                -12.849665354999956
              ],
              [
                -70.47918910499999,
                -12.85400260599988
              ],
              [
                -70.4766591049999,
                -12.857978480999975
              ],
              [
                -70.47694822999983,
                -12.860183229999961
              ],
              [
                -70.4749964799999,
                -12.866074730999912
              ],
              [
                -70.47647835499993,
                -12.870773354999926
              ],
              [
                -70.47411035499994,
                -12.878690730999892
              ],
              [
                -70.46855272999994,
                -12.879623354999978
              ],
              [
                -70.46342335499997,
                -12.885197230999893
              ],
              [
                -70.46255047999995,
                -12.88835835499998
              ],
              [
                -70.45466597999996,
                -12.891222605999928
              ],
              [
                -70.45200385499999,
                -12.895150354999942
              ],
              [
                -70.44934185499989,
                -12.895039105999956
              ],
              [
                -70.44538085499988,
                -12.89988872999993
              ],
              [
                -70.44464847999996,
                -12.904078105999929
              ],
              [
                -70.44058985499998,
                -12.905330105999951
              ],
              [
                -70.43656835499985,
                -12.91040623099991
              ],
              [
                -70.43380660499997,
                -12.912554730999943
              ],
              [
                -70.43086322999994,
                -12.9137089809999
              ],
              [
                -70.43021485499997,
                -12.919562480999957
              ],
              [
                -70.42686522999992,
                -12.920068355999831
              ],
              [
                -70.42559760499995,
                -12.92458785599996
              ],
              [
                -70.42312698099988,
                -12.926988230999939
              ],
              [
                -70.42020510499998,
                -12.928359354999884
              ],
              [
                -70.41940235499999,
                -12.930054730999927
              ],
              [
                -70.41612310499983,
                -12.929013730999941
              ],
              [
                -70.41178122999992,
                -12.931089855999858
              ],
              [
                -70.40821097999992,
                -12.92986135599989
              ],
              [
                -70.40405272999988,
                -12.93277735599986
              ],
              [
                -70.40138285499995,
                -12.932972604999918
              ],
              [
                -70.39823822999989,
                -12.92889447999994
              ],
              [
                -70.39585160499996,
                -12.932486354999924
              ],
              [
                -70.39230272999998,
                -12.93195310599998
              ],
              [
                -70.39028910499997,
                -12.930554730999972
              ],
              [
                -70.38692385499996,
                -12.93391798099998
              ],
              [
                -70.38388085499992,
                -12.929123105999906
              ],
              [
                -70.38120310499994,
                -12.929978355999822
              ],
              [
                -70.37563285499994,
                -12.926736355999878
              ],
              [
                -70.37393160499994,
                -12.927593730999945
              ],
              [
                -70.36772072999997,
                -12.926152355999875
              ],
              [
                -70.36505072999995,
                -12.92780473099998
              ],
              [
                -70.36298435499992,
                -12.927289105999876
              ],
              [
                -70.36186135499992,
                -12.922478479999938
              ],
              [
                -70.35988672999997,
                -12.921665979999943
              ],
              [
                -70.35967822999993,
                -12.918852855999887
              ],
              [
                -70.35528572999993,
                -12.917823730999828
              ]
            ]
          ]
        ],
        "type": "MultiPolygon"
      },
      "type": "Feature",
      "properties": {
        "PROVINCIA": "MANU",
        "DISTRITO": "HUEPETUHE",
        "name": "HUEPETUHE",
        "ID": "160204",
        "DEPARTAMEN": "MADRE DE DIOS"
      }
    }
  ]
}
