{
  "type": "FeatureCollection",
  "features": [
    {
      "geometry": {
        "coordinates": [
          [
            [
              [
                -77.24736136199988,
                -8.712763726999924
              ],
              [
                -77.24639261099998,
                -8.718746101999955
              ],
              [
                -77.24919536099998,
                -8.720580100999882
              ],
              [
                -77.24816798599988,
                -8.727308601999937
              ],
              [
                -77.24199998699999,
                -8.732197226999915
              ],
              [
                -77.23982811199994,
                -8.73477735199998
              ],
              [
                -77.23843161199994,
                -8.734835975999943
              ],
              [
                -77.23540423600002,
                -8.737066351999943
              ],
              [
                -77.23243748599987,
                -8.740751976999945
              ],
              [
                -77.22749023699998,
                -8.742826226999966
              ],
              [
                -77.22638473699999,
                -8.74899410199987
              ],
              [
                -77.22412886099994,
                -8.75673435099992
              ],
              [
                -77.22340248599988,
                -8.763210975999868
              ],
              [
                -77.22416798699999,
                -8.76545897699998
              ],
              [
                -77.221968736,
                -8.773146476999955
              ],
              [
                -77.2181093609999,
                -8.775357476999943
              ],
              [
                -77.21712698599987,
                -8.776898475999872
              ],
              [
                -77.21316786199986,
                -8.778222601999914
              ],
              [
                -77.20604686199988,
                -8.78234172699996
              ],
              [
                -77.20347261099988,
                -8.78914847699997
              ],
              [
                -77.20013286100004,
                -8.79358785200003
              ],
              [
                -77.19907223699994,
                -8.803636726999855
              ],
              [
                -77.19573436199983,
                -8.814992226999891
              ],
              [
                -77.1916464869999,
                -8.820896476999906
              ],
              [
                -77.18869923599993,
                -8.823056601999951
              ],
              [
                -77.18496673699991,
                -8.827900351999972
              ],
              [
                -77.1785527369999,
                -8.830689475999975
              ],
              [
                -77.174820361,
                -8.833617226999934
              ],
              [
                -77.174169861,
                -8.836271601999897
              ],
              [
                -77.17732036099989,
                -8.839591851999842
              ],
              [
                -77.17659573599991,
                -8.843310601999974
              ],
              [
                -77.17711911099985,
                -8.847218726999927
              ],
              [
                -77.17514848599996,
                -8.85081060199991
              ],
              [
                -77.17126361099997,
                -8.853456975999961
              ],
              [
                -77.16996873699986,
                -8.857519476999926
              ],
              [
                -77.1703534859999,
                -8.859238226999935
              ],
              [
                -77.173068361,
                -8.862400351999895
              ],
              [
                -77.17309373700004,
                -8.866331976999959
              ],
              [
                -77.1709354859999,
                -8.86977535199992
              ],
              [
                -77.17064448699989,
                -8.872769476999963
              ],
              [
                -77.17250386199999,
                -8.87661722699994
              ],
              [
                -77.17044723599992,
                -8.878578101999892
              ],
              [
                -77.16684373599992,
                -8.879601601999923
              ],
              [
                -77.16488286099985,
                -8.881244101999926
              ],
              [
                -77.1648359859999,
                -8.889097601999936
              ],
              [
                -77.16262111099985,
                -8.89148260199994
              ],
              [
                -77.1595332359999,
                -8.897103476999973
              ],
              [
                -77.1612207359999,
                -8.90188910199987
              ],
              [
                -77.16136323599989,
                -8.905710976999899
              ],
              [
                -77.16282423599989,
                -8.908947226999885
              ],
              [
                -77.16525786199998,
                -8.910808601999975
              ],
              [
                -77.16576798599982,
                -8.913331476999929
              ],
              [
                -77.16929886199983,
                -8.921482476999927
              ],
              [
                -77.17275198599992,
                -8.923035101999972
              ],
              [
                -77.17511961199989,
                -8.92695460199991
              ],
              [
                -77.17952348599988,
                -8.926113226999917
              ],
              [
                -77.18857223599997,
                -8.92838285199997
              ],
              [
                -77.19233786099988,
                -8.927175726999906
              ],
              [
                -77.19549998599996,
                -8.92534197699996
              ],
              [
                -77.19923236100004,
                -8.9263222269999
              ],
              [
                -77.20604298699993,
                -8.925386726999932
              ],
              [
                -77.20905073599982,
                -8.923552601999972
              ],
              [
                -77.21855073699999,
                -8.92374810199982
              ],
              [
                -77.22036323599986,
                -8.92443372699995
              ],
              [
                -77.22613673599983,
                -8.924580101999936
              ],
              [
                -77.23503511199993,
                -8.926171727
              ],
              [
                -77.23983011199994,
                -8.931230476999929
              ],
              [
                -77.24487886199995,
                -8.93487885199994
              ],
              [
                -77.24950386199993,
                -8.93459760199994
              ],
              [
                -77.2549159859999,
                -8.936751976999915
              ],
              [
                -77.25725786099997,
                -8.939206976999913
              ],
              [
                -77.26124798599989,
                -8.940781226999945
              ],
              [
                -77.26351361199977,
                -8.940949351999905
              ],
              [
                -77.26566398700004,
                -8.943320726999957
              ],
              [
                -77.26819923599993,
                -8.94468947699994
              ],
              [
                -77.27173636099985,
                -8.944992226999943
              ],
              [
                -77.27659761099994,
                -8.94462885199988
              ],
              [
                -77.28085548599995,
                -8.946589851999875
              ],
              [
                -77.283857362,
                -8.94543360199998
              ],
              [
                -77.28888086199987,
                -8.945095726999966
              ],
              [
                -77.29315036100002,
                -8.946117226999945
              ],
              [
                -77.29462111200002,
                -8.94719135199989
              ],
              [
                -77.29965423699991,
                -8.94827347699993
              ],
              [
                -77.30414648699997,
                -8.948597601999893
              ],
              [
                -77.30694723699997,
                -8.94730472699996
              ],
              [
                -77.30931248699994,
                -8.947662101999981
              ],
              [
                -77.314865236,
                -8.946134851999886
              ],
              [
                -77.32046873699983,
                -8.945441351999875
              ],
              [
                -77.3235136109999,
                -8.94648435199997
              ],
              [
                -77.32719723699984,
                -8.952763726999933
              ],
              [
                -77.33097073599987,
                -8.95164647699994
              ],
              [
                -77.33340023699998,
                -8.951994101999901
              ],
              [
                -77.33578911099994,
                -8.956099601999881
              ],
              [
                -77.33777148699994,
                -8.957488226999942
              ],
              [
                -77.34272261099977,
                -8.955712851999976
              ],
              [
                -77.34551361199993,
                -8.95583010199988
              ],
              [
                -77.34900986099984,
                -8.959778101999973
              ],
              [
                -77.35127911199993,
                -8.96032222699995
              ],
              [
                -77.35302536199993,
                -8.962162101999922
              ],
              [
                -77.35360548599988,
                -8.965847602
              ],
              [
                -77.3585391119999,
                -8.969918101999951
              ],
              [
                -77.35949611199999,
                -8.97723822699993
              ],
              [
                -77.36135936099993,
                -8.977138726999954
              ],
              [
                -77.36770111099997,
                -8.979746101999922
              ],
              [
                -77.36899023599995,
                -8.982251976999976
              ],
              [
                -77.37235736199983,
                -8.98420897699998
              ],
              [
                -77.37774223599996,
                -8.988710976999869
              ],
              [
                -77.37996673599991,
                -8.991226601999927
              ],
              [
                -77.3839394869999,
                -8.992693351999947
              ],
              [
                -77.38632811100001,
                -8.99508197699987
              ],
              [
                -77.38959573699992,
                -8.995746101999941
              ],
              [
                -77.39229873699992,
                -8.99478910199997
              ],
              [
                -77.3974842369999,
                -8.995371101999979
              ],
              [
                -77.40508786199985,
                -8.993386726999972
              ],
              [
                -77.40773436200004,
                -8.993595851999942
              ],
              [
                -77.4104023619999,
                -8.991462851999927
              ],
              [
                -77.41872073699983,
                -8.994445351999957
              ],
              [
                -77.42170511099994,
                -8.994769476999977
              ],
              [
                -77.42595898599996,
                -8.99327735199995
              ],
              [
                -77.428773487,
                -8.991486351999924
              ],
              [
                -77.4340878619999,
                -8.99091010199993
              ],
              [
                -77.43760348599989,
                -8.992080101999932
              ],
              [
                -77.445144487,
                -8.990177726999889
              ],
              [
                -77.44826561099984,
                -8.99207222699988
              ],
              [
                -77.45564648599992,
                -8.994634726999891
              ],
              [
                -77.46100786199997,
                -8.994291101999977
              ],
              [
                -77.46374998700003,
                -8.995439601999976
              ],
              [
                -77.46974023699988,
                -8.996636726999895
              ],
              [
                -77.47677523699991,
                -9.00066597699987
              ],
              [
                -77.48070511200001,
                -9.003621101999954
              ],
              [
                -77.48426361199984,
                -9.0044922269999
              ],
              [
                -77.4865371109999,
                -9.007269476999909
              ],
              [
                -77.49175198699993,
                -9.00817385199997
              ],
              [
                -77.4978048619999,
                -9.007960976999925
              ],
              [
                -77.5037538609999,
                -9.005787101999942
              ],
              [
                -77.50606448699983,
                -9.006025351999938
              ],
              [
                -77.50836311099988,
                -9.004761726999902
              ],
              [
                -77.51459573699998,
                -9.00546110199997
              ],
              [
                -77.51786523599986,
                -9.005203101999939
              ],
              [
                -77.52089848600002,
                -9.003312476999895
              ],
              [
                -77.52633786199993,
                -9.001414101999956
              ],
              [
                -77.529470736,
                -9.000867226999901
              ],
              [
                -77.53792773700002,
                -8.997492226999896
              ],
              [
                -77.54393073599988,
                -8.993864351999946
              ],
              [
                -77.54700198599988,
                -8.991367226999898
              ],
              [
                -77.5527304869999,
                -8.987820351999915
              ],
              [
                -77.55451173700004,
                -8.984093726999959
              ],
              [
                -77.5543672369999,
                -8.98164647699997
              ],
              [
                -77.55625386199995,
                -8.978453101999946
              ],
              [
                -77.55630861199995,
                -8.969406226999979
              ],
              [
                -77.55722073599992,
                -8.962062351999975
              ],
              [
                -77.56191598700002,
                -8.953665976999957
              ],
              [
                -77.56086286199991,
                -8.953135476999933
              ],
              [
                -77.55505698699994,
                -8.953325851999978
              ],
              [
                -77.54931661199998,
                -8.950503476999984
              ],
              [
                -77.54649086200004,
                -8.947186851999902
              ],
              [
                -77.54400273699986,
                -8.931291976999944
              ],
              [
                -77.54432748699992,
                -8.92866085199995
              ],
              [
                -77.5490096119999,
                -8.921342476999882
              ],
              [
                -77.55444173599994,
                -8.916490476999968
              ],
              [
                -77.55588798699995,
                -8.912517226999967
              ],
              [
                -77.55959698699996,
                -8.90674460199989
              ],
              [
                -77.56345311199982,
                -8.903373101999932
              ],
              [
                -77.55715611199992,
                -8.903124351999963
              ],
              [
                -77.55187686199992,
                -8.90510110199989
              ],
              [
                -77.54907873699995,
                -8.903100851999966
              ],
              [
                -77.54540736199982,
                -8.90299110199993
              ],
              [
                -77.54124686199992,
                -8.900870976999954
              ],
              [
                -77.53844911199991,
                -8.900787851999894
              ],
              [
                -77.52551286199991,
                -8.905081351999968
              ],
              [
                -77.52362923700002,
                -8.90818385199998
              ],
              [
                -77.52340373699991,
                -8.914545476999933
              ],
              [
                -77.52282098599994,
                -8.917421476999948
              ],
              [
                -77.5195849869998,
                -8.920815351999977
              ],
              [
                -77.51626086199991,
                -8.92300372699998
              ],
              [
                -77.51350611199996,
                -8.923187226999971
              ],
              [
                -77.50611323699997,
                -8.920599601999982
              ],
              [
                -77.49969723599997,
                -8.916558601999952
              ],
              [
                -77.4979863609999,
                -8.91467185199997
              ],
              [
                -77.49552536200002,
                -8.913630851999926
              ],
              [
                -77.49229886099988,
                -8.909658226999909
              ],
              [
                -77.486482362,
                -8.905620976999842
              ],
              [
                -77.48432811199984,
                -8.905464851999966
              ],
              [
                -77.4782089869999,
                -8.906462851999947
              ],
              [
                -77.47432036199984,
                -8.907753851999928
              ],
              [
                -77.4723437369999,
                -8.911156226999879
              ],
              [
                -77.47095698699991,
                -8.91181635199996
              ],
              [
                -77.46577736199998,
                -8.911742226999877
              ],
              [
                -77.46452148599991,
                -8.910267601999976
              ],
              [
                -77.45942186199983,
                -8.909931601999972
              ],
              [
                -77.45720898699989,
                -8.910722601999964
              ],
              [
                -77.44720111199996,
                -8.908882851999977
              ],
              [
                -77.44248236199991,
                -8.911490226999888
              ],
              [
                -77.44029098600004,
                -8.913790976999906
              ],
              [
                -77.43785736199993,
                -8.914195351999979
              ],
              [
                -77.4326249859999,
                -8.913126976999877
              ],
              [
                -77.43057036199991,
                -8.911703101999933
              ],
              [
                -77.42666211199992,
                -8.911683601999925
              ],
              [
                -77.41640823599982,
                -8.912554726999929
              ],
              [
                -77.41033198699995,
                -8.911689476999925
              ],
              [
                -77.40557036099989,
                -8.913175726999896
              ],
              [
                -77.40257223599997,
                -8.90932810199996
              ],
              [
                -77.40067973699996,
                -8.908888726999919
              ],
              [
                -77.39622261199986,
                -8.905636726999887
              ],
              [
                -77.39230861200002,
                -8.90446872699988
              ],
              [
                -77.38846673599994,
                -8.904900226999871
              ],
              [
                -77.3847617369999,
                -8.906785101999958
              ],
              [
                -77.3810839869999,
                -8.910025351999934
              ],
              [
                -77.37530661199992,
                -8.911996101999932
              ],
              [
                -77.37042973699988,
                -8.910915976999888
              ],
              [
                -77.36818548699989,
                -8.908238226999856
              ],
              [
                -77.37470511100003,
                -8.901933601999929
              ],
              [
                -77.37613473599993,
                -8.897956976999978
              ],
              [
                -77.37859373599991,
                -8.897398476999854
              ],
              [
                -77.38545311099989,
                -8.893007851999926
              ],
              [
                -77.38758398599998,
                -8.890689476999967
              ],
              [
                -77.38795698599995,
                -8.886564476999979
              ],
              [
                -77.39148636200002,
                -8.884400351999943
              ],
              [
                -77.3924648609999,
                -8.881040976999941
              ],
              [
                -77.39485736199987,
                -8.880085975999975
              ],
              [
                -77.39784373699996,
                -8.87677735199992
              ],
              [
                -77.4062207369999,
                -8.869466851999903
              ],
              [
                -77.40928511200002,
                -8.867150351999896
              ],
              [
                -77.41447261199988,
                -8.864171976999955
              ],
              [
                -77.41999998699998,
                -8.861794976999931
              ],
              [
                -77.42375973699995,
                -8.855742225999961
              ],
              [
                -77.42849798599985,
                -8.852404351999894
              ],
              [
                -77.43130273699984,
                -8.851988226999936
              ],
              [
                -77.4355488619999,
                -8.848074226999927
              ],
              [
                -77.439615237,
                -8.847406226999965
              ],
              [
                -77.442122987,
                -8.844660101999978
              ],
              [
                -77.44373636199992,
                -8.841189476999944
              ],
              [
                -77.44713286099983,
                -8.838320351999869
              ],
              [
                -77.44538136199986,
                -8.83441260199993
              ],
              [
                -77.44194423699986,
                -8.83108735199994
              ],
              [
                -77.43978836199983,
                -8.828193476999957
              ],
              [
                -77.43816611199992,
                -8.824643226999967
              ],
              [
                -77.43793136199986,
                -8.813496225999927
              ],
              [
                -77.43524011199992,
                -8.810592476999943
              ],
              [
                -77.43131036099993,
                -8.809080851999909
              ],
              [
                -77.42212498599986,
                -8.808605476999901
              ],
              [
                -77.41569923599985,
                -8.806937476999906
              ],
              [
                -77.41275198699998,
                -8.805085976999862
              ],
              [
                -77.41170698699977,
                -8.803466851999929
              ],
              [
                -77.40542386200002,
                -8.79858197699997
              ],
              [
                -77.40053873599993,
                -8.795338976999858
              ],
              [
                -77.4002077369999,
                -8.793684101999872
              ],
              [
                -77.3976378619999,
                -8.791036351999935
              ],
              [
                -77.39763823700002,
                -8.789159851999898
              ],
              [
                -77.39506786199996,
                -8.783170851999898
              ],
              [
                -77.39513811099994,
                -8.781441976999929
              ],
              [
                -77.39264448699993,
                -8.777433600999927
              ],
              [
                -77.39047336199997,
                -8.776200726999946
              ],
              [
                -77.39193423599988,
                -8.771106976999931
              ],
              [
                -77.39500386200001,
                -8.770097601999908
              ],
              [
                -77.39265236199986,
                -8.767619101999912
              ],
              [
                -77.39020898599995,
                -8.766404351999881
              ],
              [
                -77.38676561199998,
                -8.76348047599987
              ],
              [
                -77.38094923599976,
                -8.761781226999972
              ],
              [
                -77.37841798699992,
                -8.759456976999957
              ],
              [
                -77.37649023599994,
                -8.75903510199987
              ],
              [
                -77.3690957369999,
                -8.754878851999877
              ],
              [
                -77.3662929869999,
                -8.74975385199997
              ],
              [
                -77.36135336199993,
                -8.748845726999946
              ],
              [
                -77.35101361199992,
                -8.742826226999966
              ],
              [
                -77.34839261099984,
                -8.740412226999979
              ],
              [
                -77.346435487,
                -8.739718725999978
              ],
              [
                -77.34196486099995,
                -8.73974610199997
              ],
              [
                -77.33691798599989,
                -8.737347601999943
              ],
              [
                -77.33345511199991,
                -8.732777351999971
              ],
              [
                -77.32927148599987,
                -8.730453101999956
              ],
              [
                -77.32579886199989,
                -8.730103476999886
              ],
              [
                -77.32016011199988,
                -8.73204497699993
              ],
              [
                -77.31391211200003,
                -8.729326226999945
              ],
              [
                -77.31215823599985,
                -8.727665851999973
              ],
              [
                -77.30935736200001,
                -8.72725785199998
              ],
              [
                -77.30441011200003,
                -8.721972725999933
              ],
              [
                -77.30239648699995,
                -8.71804497699992
              ],
              [
                -77.299828112,
                -8.71702935199994
              ],
              [
                -77.29377536100003,
                -8.71203135199994
              ],
              [
                -77.28751761099988,
                -8.709160101999942
              ],
              [
                -77.27976761100001,
                -8.702824225999905
              ],
              [
                -77.27431236099983,
                -8.703716851999957
              ],
              [
                -77.2703144859999,
                -8.708123101999945
              ],
              [
                -77.26287486099983,
                -8.714205100999948
              ],
              [
                -77.2602988619999,
                -8.714718726999877
              ],
              [
                -77.25781248700002,
                -8.713792976999912
              ],
              [
                -77.25267386199994,
                -8.71414060199993
              ],
              [
                -77.24736136199988,
                -8.712763726999924
              ]
            ]
          ]
        ],
        "type": "MultiPolygon"
      },
      "type": "Feature",
      "properties": {
        "PROVINCIA": "MARISCAL LUZURIAGA",
        "name": "MARISCAL LUZURIAGA",
        "ID": "020900",
        "DEPARTAMEN": "ANCASH"
      }
    }
  ]
}
