{
  "type": "FeatureCollection",
  "features": [
    {
      "type": "Feature",
      "geometry": {
        "type": "Polygon",
        "coordinates": [
          [
            [
              -79.4297,
              -5.9764
            ],
            [
              -79.353,
              -5.9157
            ],
            [
              -79.2147,
              -6.0421
            ],
            [
              -79.2482,
              -6.2063
            ],
            [
              -79.4667,
              -6.385
            ],
            [
              -79.4508,
              -6.519
            ],
            [
              -79.3162,
              -6.679
            ],
            [
              -79.1739,
              -6.707
            ],
            [
              -79.1669,
              -6.7682
            ],
            [
              -79.3154,
              -6.884
            ],
            [
              -79.3477,
              -7.0104
            ],
            [
              -79.4795,
              -6.9585
            ],
            [
              -79.7089,
              -7.1815
            ],
            [
              -79.715,
              -7.1167
            ],
            [
              -79.9465,
              -6.8707
            ],
            [
              -79.98,
              -6.7686
            ],
            [
              -80.1164,
              -6.6454
            ],
            [
              -80.528,
              -6.4271
            ],
            [
              -80.6083,
              -6.3594
            ],
            [
              -80.4508,
              -6.0986
            ],
            [
              -80.3112,
              -5.9453
            ],
            [
              -80.1853,
              -5.9023
            ],
            [
              -79.9837,
              -5.6926
            ],
            [
              -79.9492,
              -5.5454
            ],
            [
              -79.7943,
              -5.6646
            ],
            [
              -79.7265,
              -5.8115
            ],
            [
              -79.4297,
              -5.9764
            ]
          ]
        ]
      },
      "properties": {
        "name": "Lambayeque",
        "id": "PE-LAM",
        "CNTRY": "Peru",
        "TYPE": "Region"
      },
      "id": "130000"
    }
  ]
}
