{
  "type": "FeatureCollection",
  "features": [
    {
      "geometry": {
        "coordinates": [
          [
            [
              [
                -72.77286310699992,
                -13.448880605999875
              ],
              [
                -72.77050485799992,
                -13.449663105999946
              ],
              [
                -72.7701246069999,
                -13.453890480999974
              ],
              [
                -72.76734185699996,
                -13.45575973099983
              ],
              [
                -72.76350635799997,
                -13.45945448099991
              ],
              [
                -72.75886598199997,
                -13.462616855999897
              ],
              [
                -72.75541023199997,
                -13.467594105999979
              ],
              [
                -72.75133973299995,
                -13.472357730999931
              ],
              [
                -72.75032460699998,
                -13.478201355999943
              ],
              [
                -72.75186323199995,
                -13.483187481999892
              ],
              [
                -72.7518641069999,
                -13.487534230999927
              ],
              [
                -72.75271935699988,
                -13.490812230999893
              ],
              [
                -72.75642535799994,
                -13.494764855999847
              ],
              [
                -72.75841810699995,
                -13.498939480999923
              ],
              [
                -72.76223248299982,
                -13.502070355999876
              ],
              [
                -72.76678435699995,
                -13.507090855999877
              ],
              [
                -72.77086498199998,
                -13.513511356999913
              ],
              [
                -72.7759663569999,
                -13.515702480999948
              ],
              [
                -72.78476523199998,
                -13.524364481999953
              ],
              [
                -72.78918185699996,
                -13.527274605999935
              ],
              [
                -72.79020885699998,
                -13.53182810599992
              ],
              [
                -72.79400923299994,
                -13.53562848099989
              ],
              [
                -72.7985429819999,
                -13.537720981999826
              ],
              [
                -72.80920973299999,
                -13.540982481999947
              ],
              [
                -72.81232073299998,
                -13.543748605999951
              ],
              [
                -72.81533885799996,
                -13.544358855999974
              ],
              [
                -72.81691373299998,
                -13.546173355999827
              ],
              [
                -72.81633598199994,
                -13.550460980999958
              ],
              [
                -72.81858785799994,
                -13.552902355999947
              ],
              [
                -72.82828048199997,
                -13.555999480999958
              ],
              [
                -72.83085548199995,
                -13.555939480999882
              ],
              [
                -72.83323823299992,
                -13.555190105999884
              ],
              [
                -72.84014035699988,
                -13.554382855999961
              ],
              [
                -72.84668810699998,
                -13.555827230999853
              ],
              [
                -72.85238323199991,
                -13.554972355999894
              ],
              [
                -72.85491685699992,
                -13.551856856999962
              ],
              [
                -72.85762148299989,
                -13.550555730999974
              ],
              [
                -72.86145610699992,
                -13.55076123099991
              ],
              [
                -72.86351023299989,
                -13.549802481999961
              ],
              [
                -72.86820073299992,
                -13.544872356999917
              ],
              [
                -72.87732035799996,
                -13.54495123099997
              ],
              [
                -72.87332885799987,
                -13.54151685699992
              ],
              [
                -72.87247635699993,
                -13.538437605999945
              ],
              [
                -72.86897510699998,
                -13.536460980999948
              ],
              [
                -72.86792848199997,
                -13.53492460599989
              ],
              [
                -72.86021973199996,
                -13.52885985599994
              ],
              [
                -72.85502973199993,
                -13.52247710599994
              ],
              [
                -72.85461060799992,
                -13.517448355999875
              ],
              [
                -72.85510310699988,
                -13.514505855999971
              ],
              [
                -72.85940135699991,
                -13.510952730999861
              ],
              [
                -72.85968985699998,
                -13.509122981999894
              ],
              [
                -72.85710898299993,
                -13.503961105999906
              ],
              [
                -72.85212310699995,
                -13.498459480999827
              ],
              [
                -72.84854423199988,
                -13.497854980999819
              ],
              [
                -72.84590760699996,
                -13.494350855999869
              ],
              [
                -72.84688948199994,
                -13.486957855999947
              ],
              [
                -72.84272998199992,
                -13.478303355999913
              ],
              [
                -72.84142260699997,
                -13.477479480999875
              ],
              [
                -72.84039073199995,
                -13.472572980999814
              ],
              [
                -72.83892185699989,
                -13.4695683569999
              ],
              [
                -72.84224635699996,
                -13.462029605999817
              ],
              [
                -72.84690073199988,
                -13.456381355999838
              ],
              [
                -72.85060085699996,
                -13.454465980999885
              ],
              [
                -72.85461260699998,
                -13.449036730999921
              ],
              [
                -72.85668248199994,
                -13.444429731999946
              ],
              [
                -72.85639948199997,
                -13.432788605999974
              ],
              [
                -72.85796685699995,
                -13.429741480999837
              ],
              [
                -72.85708310799993,
                -13.42409848099993
              ],
              [
                -72.8590653569999,
                -13.418637855999918
              ],
              [
                -72.84786923299998,
                -13.424396605999902
              ],
              [
                -72.8401426069999,
                -13.425668105999932
              ],
              [
                -72.83827335699988,
                -13.427069980999931
              ],
              [
                -72.8339917319999,
                -13.425081230999979
              ],
              [
                -72.83117698199999,
                -13.42226660599988
              ],
              [
                -72.82639548199995,
                -13.421821105999982
              ],
              [
                -72.82512398199998,
                -13.423853230999896
              ],
              [
                -72.82253748299996,
                -13.425298605999956
              ],
              [
                -72.81625623299993,
                -13.426515730999938
              ],
              [
                -72.81057260799986,
                -13.42357073099987
              ],
              [
                -72.80574760699994,
                -13.421940605999907
              ],
              [
                -72.80145498199988,
                -13.422690480999961
              ],
              [
                -72.79908585799996,
                -13.421690606999903
              ],
              [
                -72.79705373199994,
                -13.422451356999886
              ],
              [
                -72.79341323299991,
                -13.426124480999874
              ],
              [
                -72.79300023199994,
                -13.436307230999944
              ],
              [
                -72.79440210699994,
                -13.440404105999903
              ],
              [
                -72.79704285799994,
                -13.445305230999907
              ],
              [
                -72.79766223199994,
                -13.44823948099986
              ],
              [
                -72.79702110699992,
                -13.451238855999975
              ],
              [
                -72.79395648199994,
                -13.455563980999955
              ],
              [
                -72.78945748199999,
                -13.457922230999941
              ],
              [
                -72.78580610799997,
                -13.458128856999906
              ],
              [
                -72.78064935699996,
                -13.456535730999974
              ],
              [
                -72.77863360699996,
                -13.454640355999913
              ],
              [
                -72.7748843569999,
                -13.44953273199991
              ],
              [
                -72.77286310699992,
                -13.448880605999875
              ]
            ]
          ]
        ],
        "type": "MultiPolygon"
      },
      "type": "Feature",
      "properties": {
        "PROVINCIA": "ABANCAY",
        "DISTRITO": "SAN PEDRO DE CACHORA",
        "name": "SAN PEDRO DE CACHORA",
        "ID": "030108",
        "DEPARTAMEN": "APURIMAC"
      }
    }
  ]
}
