{
  "type": "FeatureCollection",
  "features": [
    {
      "geometry": {
        "coordinates": [
          [
            [
              [
                -77.84520748699993,
                -7.637047225999936
              ],
              [
                -77.84266798699997,
                -7.641755850999971
              ],
              [
                -77.83981736199996,
                -7.645555099999967
              ],
              [
                -77.84359898699995,
                -7.656347850999907
              ],
              [
                -77.84653711199996,
                -7.659935599999926
              ],
              [
                -77.84838473699989,
                -7.666906225999981
              ],
              [
                -77.84872623699994,
                -7.672754849999933
              ],
              [
                -77.85048236199998,
                -7.677183600999911
              ],
              [
                -77.85424223699988,
                -7.684097600999905
              ],
              [
                -77.85437498699991,
                -7.687728475999961
              ],
              [
                -77.85534961199994,
                -7.691136725999968
              ],
              [
                -77.85885736199998,
                -7.698513725999874
              ],
              [
                -77.85990761199986,
                -7.704069474999926
              ],
              [
                -77.85957048699993,
                -7.70564722599994
              ],
              [
                -77.86245511199996,
                -7.713414100999955
              ],
              [
                -77.86299411199997,
                -7.716970725999886
              ],
              [
                -77.86447073699992,
                -7.720873100999938
              ],
              [
                -77.86932436199999,
                -7.726070350999976
              ],
              [
                -77.87132036199995,
                -7.729427725999926
              ],
              [
                -77.87117386199998,
                -7.731939475999923
              ],
              [
                -77.87233198699994,
                -7.734363225999914
              ],
              [
                -77.87785936199998,
                -7.741173850999871
              ],
              [
                -77.88032811199997,
                -7.745954975999894
              ],
              [
                -77.88110948699995,
                -7.749101599999904
              ],
              [
                -77.88849023699993,
                -7.744886725999947
              ],
              [
                -77.89345898699997,
                -7.743019474999926
              ],
              [
                -77.89632811199988,
                -7.741337850999969
              ],
              [
                -77.90051561199988,
                -7.735211100999891
              ],
              [
                -77.90255073699996,
                -7.729289100999949
              ],
              [
                -77.9042676119999,
                -7.726735975999873
              ],
              [
                -77.91037198699996,
                -7.723345350999921
              ],
              [
                -77.91645698699995,
                -7.722722975999943
              ],
              [
                -77.91826798699992,
                -7.721357225999839
              ],
              [
                -77.92219536199991,
                -7.711656225999889
              ],
              [
                -77.92378911199995,
                -7.704443350999952
              ],
              [
                -77.92651511199995,
                -7.700371850999886
              ],
              [
                -77.92779223699989,
                -7.69701484999996
              ],
              [
                -77.93206386199995,
                -7.696597850999979
              ],
              [
                -77.93341461199998,
                -7.694565725999894
              ],
              [
                -77.93702123699995,
                -7.694898350999893
              ],
              [
                -77.93922636199994,
                -7.69624672599997
              ],
              [
                -77.94016023699999,
                -7.699300725999876
              ],
              [
                -77.93894848699989,
                -7.703940974999966
              ],
              [
                -77.93978561199998,
                -7.70539310099997
              ],
              [
                -77.94291123699992,
                -7.706681725999886
              ],
              [
                -77.94586148699989,
                -7.713679725999896
              ],
              [
                -77.94574611199994,
                -7.716525350999973
              ],
              [
                -77.94172073699986,
                -7.723915975999887
              ],
              [
                -77.9408359869999,
                -7.730769475999921
              ],
              [
                -77.94320511199999,
                -7.736724600999935
              ],
              [
                -77.94652536199993,
                -7.740081975999942
              ],
              [
                -77.95092773799996,
                -7.74279685099998
              ],
              [
                -77.95291598699998,
                -7.744943350999961
              ],
              [
                -77.95401373699991,
                -7.74775385099997
              ],
              [
                -77.95994548699991,
                -7.751433475999931
              ],
              [
                -77.96121486199996,
                -7.752998100999889
              ],
              [
                -77.96428711199997,
                -7.753201225999931
              ],
              [
                -77.96594723699991,
                -7.752222600999971
              ],
              [
                -77.96920111199995,
                -7.752706974999967
              ],
              [
                -77.97175586199995,
                -7.754044975999932
              ],
              [
                -77.97384386199997,
                -7.757962975999931
              ],
              [
                -77.97667823699999,
                -7.753393475999928
              ],
              [
                -77.98243748699991,
                -7.74609185099996
              ],
              [
                -77.98445636199989,
                -7.744875975999946
              ],
              [
                -77.99080948699992,
                -7.744756975999962
              ],
              [
                -77.99787648699998,
                -7.742068225999901
              ],
              [
                -78.00080323799989,
                -7.74247272599996
              ],
              [
                -78.00508798799996,
                -7.741811850999909
              ],
              [
                -78.00952648799995,
                -7.744402600999877
              ],
              [
                -78.01941798799999,
                -7.746935600999961
              ],
              [
                -78.02520523699985,
                -7.749550725999939
              ],
              [
                -78.02858198699982,
                -7.748527350999836
              ],
              [
                -78.03297461199992,
                -7.749685600999896
              ],
              [
                -78.03638473699988,
                -7.74905072599995
              ],
              [
                -78.0404179869999,
                -7.749992225999961
              ],
              [
                -78.04639261199998,
                -7.754331975999946
              ],
              [
                -78.0504804869999,
                -7.756421850999971
              ],
              [
                -78.04968998699997,
                -7.750012225999967
              ],
              [
                -78.04983761199992,
                -7.742336350999892
              ],
              [
                -78.05119561199996,
                -7.735900600999969
              ],
              [
                -78.05347336199992,
                -7.73059060099996
              ],
              [
                -78.06198411299994,
                -7.721753350999904
              ],
              [
                -78.06396323799993,
                -7.718575475999955
              ],
              [
                -78.06500998699994,
                -7.714439849999906
              ],
              [
                -78.07024023799988,
                -7.709996100999945
              ],
              [
                -78.07430473699992,
                -7.708740225999975
              ],
              [
                -78.07617998699999,
                -7.706619975999956
              ],
              [
                -78.07897623699989,
                -7.699375849999967
              ],
              [
                -78.08122111199992,
                -7.696168850999925
              ],
              [
                -78.07812111199996,
                -7.69384172599996
              ],
              [
                -78.07437698699994,
                -7.693193350999934
              ],
              [
                -78.06837698699991,
                -7.689755850999916
              ],
              [
                -78.06321286199994,
                -7.688806600999897
              ],
              [
                -78.05716211199996,
                -7.683787099999961
              ],
              [
                -78.0543103629999,
                -7.682269475999931
              ],
              [
                -78.05092773699988,
                -7.678921850999927
              ],
              [
                -78.04382036199996,
                -7.678173849999951
              ],
              [
                -78.03948636199993,
                -7.679449225999974
              ],
              [
                -78.03506636299988,
                -7.679789100999926
              ],
              [
                -78.02979686199996,
                -7.68208410099993
              ],
              [
                -78.02597261199992,
                -7.682507850999912
              ],
              [
                -78.02133398699982,
                -7.681652349999922
              ],
              [
                -78.0169628619999,
                -7.679833975999941
              ],
              [
                -78.01266411199992,
                -7.679406225999969
              ],
              [
                -77.9986422369999,
                -7.679073974999937
              ],
              [
                -77.99417411199994,
                -7.67730385099992
              ],
              [
                -77.99005436199997,
                -7.674892350999869
              ],
              [
                -77.97740911199998,
                -7.669951100999981
              ],
              [
                -77.976863112,
                -7.668634100999952
              ],
              [
                -77.97320311199996,
                -7.667049849999898
              ],
              [
                -77.9705266119999,
                -7.671370725999907
              ],
              [
                -77.9667284869999,
                -7.675148475999947
              ],
              [
                -77.96280223699995,
                -7.674313600999938
              ],
              [
                -77.96388323699995,
                -7.671933349999904
              ],
              [
                -77.96470798799999,
                -7.66619372599996
              ],
              [
                -77.96093673699994,
                -7.662713475999908
              ],
              [
                -77.96158736199988,
                -7.658838475999914
              ],
              [
                -77.96013898699994,
                -7.65526122599988
              ],
              [
                -77.95782398699998,
                -7.65480022499986
              ],
              [
                -77.95276936199997,
                -7.658181600999967
              ],
              [
                -77.94834886199999,
                -7.659731474999944
              ],
              [
                -77.94089923699994,
                -7.657459599999981
              ],
              [
                -77.93658423699992,
                -7.657477225999912
              ],
              [
                -77.93515786199998,
                -7.653990100999977
              ],
              [
                -77.93230473699998,
                -7.651788600999964
              ],
              [
                -77.93912861199988,
                -7.648376600999939
              ],
              [
                -77.93909473699989,
                -7.64386797599991
              ],
              [
                -77.94050323699992,
                -7.640627349999932
              ],
              [
                -77.93264898699994,
                -7.639183725999942
              ],
              [
                -77.93060011199998,
                -7.637802350999948
              ],
              [
                -77.92625398699988,
                -7.637088350999932
              ],
              [
                -77.92546073699998,
                -7.634781099999941
              ],
              [
                -77.92155073699996,
                -7.631158849999963
              ],
              [
                -77.92004498699998,
                -7.628582225999935
              ],
              [
                -77.9148452369999,
                -7.627060975999939
              ],
              [
                -77.91278073699988,
                -7.624903475999929
              ],
              [
                -77.91595698699996,
                -7.619322225999895
              ],
              [
                -77.91569573699991,
                -7.616912100999969
              ],
              [
                -77.91789873699986,
                -7.612859474999937
              ],
              [
                -77.91930986199998,
                -7.605715975999885
              ],
              [
                -77.92277348699997,
                -7.600312475999829
              ],
              [
                -77.92050973699997,
                -7.599089850999917
              ],
              [
                -77.91505473699993,
                -7.598548849999929
              ],
              [
                -77.9128906119999,
                -7.59698247599988
              ],
              [
                -77.91009373699995,
                -7.597154224999883
              ],
              [
                -77.90527923699995,
                -7.59499997599994
              ],
              [
                -77.89865423699996,
                -7.592714849999936
              ],
              [
                -77.89717973699999,
                -7.591341849999935
              ],
              [
                -77.88789448699993,
                -7.588214849999929
              ],
              [
                -77.88548236199995,
                -7.589035099999933
              ],
              [
                -77.87825586199995,
                -7.587464850999936
              ],
              [
                -77.87654886199988,
                -7.58536322599997
              ],
              [
                -77.87298236199996,
                -7.585630849999916
              ],
              [
                -77.86953123699993,
                -7.584853475999978
              ],
              [
                -77.86742761199997,
                -7.589064475999976
              ],
              [
                -77.86791798699994,
                -7.591751974999852
              ],
              [
                -77.86693161199997,
                -7.596150350999949
              ],
              [
                -77.86536723699993,
                -7.599159974999964
              ],
              [
                -77.86528323699991,
                -7.602710975999969
              ],
              [
                -77.86626361199995,
                -7.60863085099993
              ],
              [
                -77.86499411199998,
                -7.61390622599987
              ],
              [
                -77.8632382369999,
                -7.616738225999882
              ],
              [
                -77.85817773699989,
                -7.619671850999964
              ],
              [
                -77.85478511199995,
                -7.622955100999945
              ],
              [
                -77.85420111199994,
                -7.624792975999924
              ],
              [
                -77.84917561199995,
                -7.631701225999905
              ],
              [
                -77.84545311199997,
                -7.635900350999975
              ],
              [
                -77.84520748699993,
                -7.637047225999936
              ]
            ]
          ]
        ],
        "type": "MultiPolygon"
      },
      "type": "Feature",
      "properties": {
        "PROVINCIA": "SANCHEZ CARRION",
        "DISTRITO": "MARCABAL",
        "name": "MARCABAL",
        "ID": "120305",
        "DEPARTAMEN": "LA LIBERTAD"
      }
    }
  ]
}
