{
  "type": "FeatureCollection",
  "features": [
    {
      "geometry": {
        "coordinates": [
          [
            [
              [
                -73.60618360799998,
                -13.728767606999895
              ],
              [
                -73.61085935799997,
                -13.730886730999941
              ],
              [
                -73.62280273299996,
                -13.732544980999819
              ],
              [
                -73.62896098399995,
                -13.736580106999895
              ],
              [
                -73.63318748299997,
                -13.736505856999884
              ],
              [
                -73.63592573299997,
                -13.734867230999953
              ],
              [
                -73.64392198299998,
                -13.735277356999859
              ],
              [
                -73.65144723299994,
                -13.733767605999901
              ],
              [
                -73.65532035799993,
                -13.732285106999882
              ],
              [
                -73.65722260799993,
                -13.732373106999887
              ],
              [
                -73.65893748299999,
                -13.730560605999926
              ],
              [
                -73.66273635799996,
                -13.7288146059999
              ],
              [
                -73.66655660799995,
                -13.72885348099993
              ],
              [
                -73.67371348399996,
                -13.73073935699989
              ],
              [
                -73.67480373299986,
                -13.728737856999942
              ],
              [
                -73.67939898299994,
                -13.724528730999907
              ],
              [
                -73.6854519829999,
                -13.722733105999964
              ],
              [
                -73.68981560799983,
                -13.719228731999976
              ],
              [
                -73.69589660799988,
                -13.711353981999821
              ],
              [
                -73.70192835799998,
                -13.70528360599991
              ],
              [
                -73.70635373399995,
                -13.705893731999936
              ],
              [
                -73.70941973299989,
                -13.70741523099997
              ],
              [
                -73.71198385899993,
                -13.707353480999927
              ],
              [
                -73.7151426079999,
                -13.70453448099994
              ],
              [
                -73.71561373299988,
                -13.69995473199998
              ],
              [
                -73.71336623299993,
                -13.69440173199996
              ],
              [
                -73.71348998299993,
                -13.691158105999932
              ],
              [
                -73.72011773299988,
                -13.68281873099994
              ],
              [
                -73.72305985799994,
                -13.681892105999907
              ],
              [
                -73.72171285799999,
                -13.678300730999865
              ],
              [
                -73.7184413579999,
                -13.677185606999956
              ],
              [
                -73.71474998299993,
                -13.674124980999864
              ],
              [
                -73.71355073399991,
                -13.671400356999925
              ],
              [
                -73.71385348299992,
                -13.668464855999957
              ],
              [
                -73.71208398299996,
                -13.663453105999963
              ],
              [
                -73.71194135799988,
                -13.660742231999961
              ],
              [
                -73.70846285799996,
                -13.657890605999967
              ],
              [
                -73.70554685799988,
                -13.652324231999955
              ],
              [
                -73.70524023299993,
                -13.64853910599993
              ],
              [
                -73.70271098299992,
                -13.64326760699987
              ],
              [
                -73.70008985799996,
                -13.639677731999939
              ],
              [
                -73.70045310799998,
                -13.635787106999885
              ],
              [
                -73.69903510899996,
                -13.63495698099996
              ],
              [
                -73.69628910799997,
                -13.631029355999885
              ],
              [
                -73.69334960799995,
                -13.628794981999931
              ],
              [
                -73.6889589829999,
                -13.624306605999891
              ],
              [
                -73.6861132329999,
                -13.619960981999952
              ],
              [
                -73.68226760799996,
                -13.619456981999917
              ],
              [
                -73.67676948299999,
                -13.622900356999878
              ],
              [
                -73.67368335899988,
                -13.624137980999876
              ],
              [
                -73.67310773299994,
                -13.62066023199992
              ],
              [
                -73.66933985899993,
                -13.615412230999937
              ],
              [
                -73.66116973299995,
                -13.611536231999935
              ],
              [
                -73.65687973399997,
                -13.608160230999943
              ],
              [
                -73.65266510799995,
                -13.604007481999872
              ],
              [
                -73.64459785799994,
                -13.60039910599994
              ],
              [
                -73.64039773299999,
                -13.596465355999953
              ],
              [
                -73.63734185899989,
                -13.59614260599983
              ],
              [
                -73.63519360799995,
                -13.593781355999965
              ],
              [
                -73.63210348299998,
                -13.592591855999956
              ],
              [
                -73.62927673299998,
                -13.593830605999926
              ],
              [
                -73.62751373299994,
                -13.597263730999941
              ],
              [
                -73.6211577329999,
                -13.60004735699988
              ],
              [
                -73.6173381079999,
                -13.600372105999838
              ],
              [
                -73.61365035799997,
                -13.603765605999968
              ],
              [
                -73.60732923299997,
                -13.607406230999914
              ],
              [
                -73.60443160799997,
                -13.609931605999975
              ],
              [
                -73.60518473299993,
                -13.61767323099997
              ],
              [
                -73.60698085899986,
                -13.622219480999945
              ],
              [
                -73.6043857329999,
                -13.628642730999957
              ],
              [
                -73.59979260799992,
                -13.636319480999873
              ],
              [
                -73.59570085799993,
                -13.641071605999969
              ],
              [
                -73.59285310799993,
                -13.646502605999899
              ],
              [
                -73.59267760799997,
                -13.650182980999887
              ],
              [
                -73.59367385799999,
                -13.656542980999973
              ],
              [
                -73.60162335799987,
                -13.664121231999843
              ],
              [
                -73.60327860799987,
                -13.677764605999926
              ],
              [
                -73.60330398299999,
                -13.680527980999955
              ],
              [
                -73.60490473299996,
                -13.68388948199987
              ],
              [
                -73.60480273299993,
                -13.689080105999949
              ],
              [
                -73.60560935799998,
                -13.691914105999956
              ],
              [
                -73.6088319829999,
                -13.694064480999941
              ],
              [
                -73.61157423299994,
                -13.697851606999961
              ],
              [
                -73.61392185799997,
                -13.698884605999979
              ],
              [
                -73.61497460799984,
                -13.703632855999842
              ],
              [
                -73.61300585799984,
                -13.707935605999978
              ],
              [
                -73.61386910799996,
                -13.711324230999935
              ],
              [
                -73.61308010799985,
                -13.718304731999922
              ],
              [
                -73.61203923299996,
                -13.720482480999976
              ],
              [
                -73.60685748299994,
                -13.72299810599992
              ],
              [
                -73.60570310799983,
                -13.724968730999933
              ],
              [
                -73.60618360799998,
                -13.728767606999895
              ]
            ]
          ]
        ],
        "type": "MultiPolygon"
      },
      "type": "Feature",
      "properties": {
        "PROVINCIA": "CHINCHEROS",
        "DISTRITO": "URANMARCA",
        "name": "URANMARCA",
        "ID": "030707",
        "DEPARTAMEN": "APURIMAC"
      }
    }
  ]
}
