{
  "type": "FeatureCollection",
  "features": [
    {
      "geometry": {
        "coordinates": [
          [
            [
              [
                -76.05089573499993,
                -6.810860224999828
              ],
              [
                -76.05205923499983,
                -6.812733974999958
              ],
              [
                -76.0519343609999,
                -6.815506849999963
              ],
              [
                -76.05054086099989,
                -6.82083834999986
              ],
              [
                -76.04886035999994,
                -6.830326224999908
              ],
              [
                -76.03829098599982,
                -6.844759724999903
              ],
              [
                -76.036117235,
                -6.847177724999938
              ],
              [
                -76.03434760999994,
                -6.853958974999955
              ],
              [
                -76.03568948499986,
                -6.862687474999973
              ],
              [
                -76.0350038599999,
                -6.864986349999981
              ],
              [
                -76.03199023499985,
                -6.868296849999979
              ],
              [
                -76.02642773499997,
                -6.872615224999947
              ],
              [
                -76.02313086100003,
                -6.877189474999966
              ],
              [
                -76.02049223599982,
                -6.87937884999991
              ],
              [
                -76.01889523499995,
                -6.881934099999967
              ],
              [
                -76.01476798499988,
                -6.886146974999917
              ],
              [
                -76.01178448500002,
                -6.888180599999885
              ],
              [
                -76.01064673599984,
                -6.89042134999994
              ],
              [
                -76.01052935999991,
                -6.893611349999958
              ],
              [
                -76.01577573599985,
                -6.899979099999882
              ],
              [
                -76.01710611099998,
                -6.905370599999969
              ],
              [
                -76.01463786099987,
                -6.911461224999925
              ],
              [
                -76.01573586099994,
                -6.91370097499987
              ],
              [
                -76.01804873499998,
                -6.915844724999886
              ],
              [
                -76.02925785999992,
                -6.918535099999929
              ],
              [
                -76.03414848499983,
                -6.920994099999973
              ],
              [
                -76.03839636099991,
                -6.921602349999944
              ],
              [
                -76.04640235999989,
                -6.924931599999979
              ],
              [
                -76.0480936109999,
                -6.926727599999936
              ],
              [
                -76.04951398499992,
                -6.931130349999933
              ],
              [
                -76.05110010999988,
                -6.933530849999954
              ],
              [
                -76.05184423499998,
                -6.937871599999937
              ],
              [
                -76.05146348499983,
                -6.944295974999932
              ],
              [
                -76.04727573499991,
                -6.955717599999957
              ],
              [
                -76.04596660999994,
                -6.963074225999947
              ],
              [
                -76.043872985,
                -6.967924224999877
              ],
              [
                -76.04008973599997,
                -6.973420724999926
              ],
              [
                -76.03958998600001,
                -6.982724474999941
              ],
              [
                -76.03842411099993,
                -6.985056349999979
              ],
              [
                -76.03571148599991,
                -6.986579099999915
              ],
              [
                -76.03564010999986,
                -6.993146474999946
              ],
              [
                -76.0333378599999,
                -6.994972599999926
              ],
              [
                -76.02975710999982,
                -6.994373474999918
              ],
              [
                -76.022540236,
                -6.989781849999872
              ],
              [
                -76.01981536099987,
                -6.99020747499992
              ],
              [
                -76.01509823599986,
                -6.994775599999969
              ],
              [
                -76.01079148500003,
                -6.996536474999914
              ],
              [
                -76.00811323499983,
                -7.002220724999972
              ],
              [
                -76.00769810999986,
                -7.007577099999935
              ],
              [
                -76.00850723500002,
                -7.013906474999942
              ],
              [
                -76.00657973499989,
                -7.020973474999892
              ],
              [
                -76.00578123499997,
                -7.030234349999944
              ],
              [
                -76.00927423499996,
                -7.033429349999949
              ],
              [
                -76.01004086,
                -7.03553947499995
              ],
              [
                -76.01226260999988,
                -7.038052849999872
              ],
              [
                -76.01039223499993,
                -7.040847974999963
              ],
              [
                -76.01181498499989,
                -7.044581849999929
              ],
              [
                -76.01113235999998,
                -7.048011599999938
              ],
              [
                -76.01288423499989,
                -7.049705849999953
              ],
              [
                -76.01411298499994,
                -7.05260547499995
              ],
              [
                -76.01335298599986,
                -7.054772225999898
              ],
              [
                -76.01368198499989,
                -7.057839975999968
              ],
              [
                -76.01307335999991,
                -7.061499849999961
              ],
              [
                -76.01474298499988,
                -7.06557934999995
              ],
              [
                -76.01398635999988,
                -7.072262850999891
              ],
              [
                -76.01141498499999,
                -7.075718724999945
              ],
              [
                -76.01071710999992,
                -7.078379849999919
              ],
              [
                -76.01271185999991,
                -7.082030349999911
              ],
              [
                -76.01747161000003,
                -7.08863247499994
              ],
              [
                -76.01806648599995,
                -7.093367600999954
              ],
              [
                -76.02077911000003,
                -7.09698435099989
              ],
              [
                -76.02187361,
                -7.100886724999896
              ],
              [
                -76.02023173500004,
                -7.106145349999906
              ],
              [
                -76.02153898499984,
                -7.111118974999954
              ],
              [
                -76.0233012349999,
                -7.114306849999821
              ],
              [
                -76.03006948500001,
                -7.114442349999933
              ],
              [
                -76.04007648499993,
                -7.116686349999952
              ],
              [
                -76.04658560999991,
                -7.121430224999926
              ],
              [
                -76.04978473599994,
                -7.133342599999935
              ],
              [
                -76.05245248599988,
                -7.13991459999994
              ],
              [
                -76.05306836099993,
                -7.142955600999926
              ],
              [
                -76.05561435999982,
                -7.14985597499998
              ],
              [
                -76.05782723600004,
                -7.153924849999896
              ],
              [
                -76.05904073499994,
                -7.159968724999942
              ],
              [
                -76.05994498499985,
                -7.161301224999875
              ],
              [
                -76.06566248499996,
                -7.164685474999942
              ],
              [
                -76.072627485,
                -7.170105224999929
              ],
              [
                -76.07676773599991,
                -7.174411974999941
              ],
              [
                -76.08331123499988,
                -7.176672474999918
              ],
              [
                -76.08702435999999,
                -7.179271599999936
              ],
              [
                -76.09527073599997,
                -7.18176434999998
              ],
              [
                -76.09837548500002,
                -7.184028974999933
              ],
              [
                -76.10231398600001,
                -7.184667350999973
              ],
              [
                -76.10567473499998,
                -7.184483975000035
              ],
              [
                -76.11002348499983,
                -7.182977850999919
              ],
              [
                -76.11180423499991,
                -7.183051224999929
              ],
              [
                -76.11530510999984,
                -7.185046475999911
              ],
              [
                -76.11737260999985,
                -7.18757509999989
              ],
              [
                -76.1207437349999,
                -7.190060350999886
              ],
              [
                -76.12635085999983,
                -7.193160099999943
              ],
              [
                -76.12849035999994,
                -7.195211724999979
              ],
              [
                -76.13479310999998,
                -7.197680099999957
              ],
              [
                -76.13675311099996,
                -7.200100974999941
              ],
              [
                -76.14352523599996,
                -7.203962474999969
              ],
              [
                -76.1474996099999,
                -7.200984849999884
              ],
              [
                -76.15128748499995,
                -7.200298349999969
              ],
              [
                -76.15794261099995,
                -7.198294599999883
              ],
              [
                -76.15892610999987,
                -7.19715197499994
              ],
              [
                -76.15962036099984,
                -7.192940099999873
              ],
              [
                -76.15934285999992,
                -7.190024099999903
              ],
              [
                -76.15955098599989,
                -7.182502850999981
              ],
              [
                -76.15850961099994,
                -7.176786724999943
              ],
              [
                -76.16018198599994,
                -7.17217947499995
              ],
              [
                -76.15982861100002,
                -7.168848850999893
              ],
              [
                -76.16052298499983,
                -7.165655099999981
              ],
              [
                -76.15943523499982,
                -7.162600475999909
              ],
              [
                -76.16116373599982,
                -7.154883724999934
              ],
              [
                -76.15827810999991,
                -7.148529974999917
              ],
              [
                -76.15727073599987,
                -7.145230225999967
              ],
              [
                -76.159851861,
                -7.137653099999966
              ],
              [
                -76.16061548499994,
                -7.133556849999877
              ],
              [
                -76.16279085999997,
                -7.130525224999872
              ],
              [
                -76.16367023599992,
                -7.12693822499989
              ],
              [
                -76.16325373500001,
                -7.120226849999881
              ],
              [
                -76.1585389849999,
                -7.112787350999952
              ],
              [
                -76.15776198499992,
                -7.102745724999977
              ],
              [
                -76.16388660999996,
                -7.098089099999981
              ],
              [
                -76.16707510999998,
                -7.094186850999961
              ],
              [
                -76.16719410999997,
                -7.088737849999973
              ],
              [
                -76.16902623599987,
                -7.082313350999868
              ],
              [
                -76.1719529849999,
                -7.080623849999881
              ],
              [
                -76.17763998599997,
                -7.07948172499988
              ],
              [
                -76.18599185999994,
                -7.075912599999981
              ],
              [
                -76.18887098499994,
                -7.077268849999939
              ],
              [
                -76.19346335999995,
                -7.077126100999919
              ],
              [
                -76.19616748599987,
                -7.077976599999943
              ],
              [
                -76.19919861100004,
                -7.077325474999896
              ],
              [
                -76.21009848499989,
                -7.078061600999888
              ],
              [
                -76.21663935999987,
                -7.076245724999922
              ],
              [
                -76.21842386100002,
                -7.073295224999981
              ],
              [
                -76.22161236099987,
                -7.07258134999995
              ],
              [
                -76.22530061100002,
                -7.070558724999955
              ],
              [
                -76.22877461099995,
                -7.071843724999951
              ],
              [
                -76.23182023499999,
                -7.072081599999933
              ],
              [
                -76.23716211099992,
                -7.074513725999964
              ],
              [
                -76.2387676109999,
                -7.072324974999958
              ],
              [
                -76.24283723499991,
                -7.068488599999966
              ],
              [
                -76.24719160999985,
                -7.065728474999958
              ],
              [
                -76.25727148599987,
                -7.061343724999972
              ],
              [
                -76.26095210999995,
                -7.063693099999966
              ],
              [
                -76.26943960999984,
                -7.063991599999952
              ],
              [
                -76.27412711099998,
                -7.066204349999907
              ],
              [
                -76.2798616099999,
                -7.062706599999956
              ],
              [
                -76.28309760999986,
                -7.063134849999926
              ],
              [
                -76.28671448599988,
                -7.062230724999949
              ],
              [
                -76.29406698600002,
                -7.057685849999928
              ],
              [
                -76.29880210999994,
                -7.057614475999969
              ],
              [
                -76.30070561099996,
                -7.059827475999953
              ],
              [
                -76.30517910999998,
                -7.061707349999949
              ],
              [
                -76.31079461000002,
                -7.061659599999928
              ],
              [
                -76.31900061099998,
                -7.058452474999967
              ],
              [
                -76.32083673599993,
                -7.056927224999981
              ],
              [
                -76.32102510999988,
                -7.05472122499998
              ],
              [
                -76.32545073599988,
                -7.05081897599996
              ],
              [
                -76.32680711,
                -7.046416974999943
              ],
              [
                -76.32897248599977,
                -7.04346634999996
              ],
              [
                -76.33743548500001,
                -7.041059599999869
              ],
              [
                -76.340817861,
                -7.036477099999956
              ],
              [
                -76.3440392359999,
                -7.033315725999955
              ],
              [
                -76.3482792349999,
                -7.032147100000032
              ],
              [
                -76.35218961099997,
                -7.033705349999877
              ],
              [
                -76.3535979859999,
                -7.032716474999972
              ],
              [
                -76.35617611000004,
                -7.028830849999963
              ],
              [
                -76.36068761099983,
                -7.025975599999981
              ],
              [
                -76.36342873599989,
                -7.025004724999974
              ],
              [
                -76.36691998599991,
                -7.02200197499991
              ],
              [
                -76.36931073599993,
                -7.01700972499998
              ],
              [
                -76.37094298499989,
                -7.016379225000037
              ],
              [
                -76.37539273499982,
                -7.01648634999998
              ],
              [
                -76.38063911099988,
                -7.014832474999935
              ],
              [
                -76.38632998599991,
                -7.015629974999911
              ],
              [
                -76.38983998599997,
                -7.016729974999976
              ],
              [
                -76.39546998599997,
                -7.014879974999872
              ],
              [
                -76.40147998600003,
                -7.015029974999948
              ],
              [
                -76.40531998599988,
                -7.017329974999882
              ],
              [
                -76.40820011099987,
                -7.020569974999944
              ],
              [
                -76.41261998599992,
                -7.020269974999962
              ],
              [
                -76.41551998599988,
                -7.020949974999837
              ],
              [
                -76.41767573499999,
                -7.018316099999936
              ],
              [
                -76.41833286099984,
                -7.008515225999929
              ],
              [
                -76.41755998499991,
                -7.003175724999835
              ],
              [
                -76.41907060999995,
                -7.001419224999893
              ],
              [
                -76.42254136099996,
                -7.010292350999975
              ],
              [
                -76.42433511099995,
                -7.013453099999936
              ],
              [
                -76.42946048599993,
                -7.013111349999974
              ],
              [
                -76.43734623599994,
                -7.00895359999987
              ],
              [
                -76.44133623499994,
                -7.006154974999959
              ],
              [
                -76.44474648599993,
                -7.007175349999898
              ],
              [
                -76.44956023599997,
                -7.005936849999955
              ],
              [
                -76.45118936099993,
                -7.006113724999921
              ],
              [
                -76.45262698599987,
                -7.009475349999946
              ],
              [
                -76.45458048599994,
                -7.010404099999903
              ],
              [
                -76.45552398599978,
                -7.013404474999902
              ],
              [
                -76.45856861099986,
                -7.010677099999953
              ],
              [
                -76.46240986099991,
                -7.010399974999928
              ],
              [
                -76.4654499849999,
                -7.009069975999978
              ],
              [
                -76.46647998599997,
                -7.004109974999949
              ],
              [
                -76.46367998499983,
                -7.00431997499993
              ],
              [
                -76.46291998599992,
                -7.003119849999905
              ],
              [
                -76.4629699859999,
                -6.997459975999959
              ],
              [
                -76.46495998599988,
                -6.992179975999875
              ],
              [
                -76.466199986,
                -6.991959974999872
              ],
              [
                -76.46630998499984,
                -6.996289975999957
              ],
              [
                -76.46815998499989,
                -6.996569974999943
              ],
              [
                -76.47130998599994,
                -6.998709974999883
              ],
              [
                -76.47267998599995,
                -6.996219849999932
              ],
              [
                -76.47376998599998,
                -6.990619974999959
              ],
              [
                -76.47789998599984,
                -6.98674984999991
              ],
              [
                -76.47961998600005,
                -6.989299849999952
              ],
              [
                -76.48240998599988,
                -6.990639975999898
              ],
              [
                -76.47939998499987,
                -6.992909974999975
              ],
              [
                -76.4842499859999,
                -6.995649974999935
              ],
              [
                -76.48716998599991,
                -6.993419974999881
              ],
              [
                -76.48871998599998,
                -6.988869974999943
              ],
              [
                -76.4933199859999,
                -6.991879974999961
              ],
              [
                -76.49900998599998,
                -6.992199974999949
              ],
              [
                -76.498099986,
                -6.985609974999932
              ],
              [
                -76.49646998599997,
                -6.982509974999971
              ],
              [
                -76.50103998599991,
                -6.984209974999942
              ],
              [
                -76.50187998599995,
                -6.980229974999929
              ],
              [
                -76.50011998499997,
                -6.975679974999878
              ],
              [
                -76.50249998599992,
                -6.972589974999948
              ],
              [
                -76.50296011099988,
                -6.969879974999969
              ],
              [
                -76.5056599859999,
                -6.968259974999967
              ],
              [
                -76.50705998599989,
                -6.971159974999921
              ],
              [
                -76.50893998599986,
                -6.972129974999973
              ],
              [
                -76.508990111,
                -6.974559974999863
              ],
              [
                -76.51207998499984,
                -6.974459974999945
              ],
              [
                -76.514379985,
                -6.975999974999979
              ],
              [
                -76.51894998599994,
                -6.976059974999885
              ],
              [
                -76.52043998499994,
                -6.976729974999898
              ],
              [
                -76.52350998600002,
                -6.976039974999935
              ],
              [
                -76.52534998600004,
                -6.970989974999952
              ],
              [
                -76.52025998599987,
                -6.965379974999962
              ],
              [
                -76.51971998599987,
                -6.962129974999925
              ],
              [
                -76.52232998599999,
                -6.963129974999958
              ],
              [
                -76.52842998599988,
                -6.961539975999926
              ],
              [
                -76.53010998599996,
                -6.957510099999922
              ],
              [
                -76.52695998599984,
                -6.953469974999962
              ],
              [
                -76.52949998599985,
                -6.953299974999936
              ],
              [
                -76.52986998599982,
                -6.949719849999894
              ],
              [
                -76.53195998499984,
                -6.949009974999967
              ],
              [
                -76.53439998599993,
                -6.949859974999981
              ],
              [
                -76.5349299849999,
                -6.952739974999929
              ],
              [
                -76.53736998599999,
                -6.950759974999926
              ],
              [
                -76.53631998599997,
                -6.947919974999934
              ],
              [
                -76.53875998599989,
                -6.946879974999945
              ],
              [
                -76.541079986,
                -6.948209974999941
              ],
              [
                -76.54453998599985,
                -6.947679974999971
              ],
              [
                -76.54617998599991,
                -6.944939974999954
              ],
              [
                -76.54502998599997,
                -6.942659974999913
              ],
              [
                -76.54123998599982,
                -6.945169974999942
              ],
              [
                -76.53899998599985,
                -6.94111984999995
              ],
              [
                -76.54155998599992,
                -6.939819974999978
              ],
              [
                -76.54518998599997,
                -6.936159974999896
              ],
              [
                -76.54731998599982,
                -6.932989974999884
              ],
              [
                -76.54687011099992,
                -6.930269974999931
              ],
              [
                -76.54864360999983,
                -6.928329225000027
              ],
              [
                -76.54537986099996,
                -6.926078224999912
              ],
              [
                -76.54150136099997,
                -6.922271099999932
              ],
              [
                -76.53961111099989,
                -6.915206224999906
              ],
              [
                -76.53704123599988,
                -6.912755349999884
              ],
              [
                -76.53192536099982,
                -6.911684599999944
              ],
              [
                -76.52667511099997,
                -6.911922599999912
              ],
              [
                -76.523406486,
                -6.911187099999893
              ],
              [
                -76.51413036099996,
                -6.90560822499998
              ],
              [
                -76.511611486,
                -6.902037349999944
              ],
              [
                -76.5100029859999,
                -6.89577547499988
              ],
              [
                -76.50954323599984,
                -6.890490224999951
              ],
              [
                -76.50765061099992,
                -6.888324974999932
              ],
              [
                -76.50177198599988,
                -6.88382297499993
              ],
              [
                -76.4966956109999,
                -6.878500224999868
              ],
              [
                -76.48288323499986,
                -6.866154349999988
              ],
              [
                -76.47283561099994,
                -6.858674224999959
              ],
              [
                -76.47135161099999,
                -6.855978474999915
              ],
              [
                -76.47402173599994,
                -6.848214724999934
              ],
              [
                -76.47405011099988,
                -6.845476724999969
              ],
              [
                -76.47189773599996,
                -6.8377221
              ],
              [
                -76.47139473599992,
                -6.834052099999894
              ],
              [
                -76.47436448599996,
                -6.828855349999969
              ],
              [
                -76.47419298599993,
                -6.826628099999823
              ],
              [
                -76.47008135999988,
                -6.823887224999964
              ],
              [
                -76.46374248599994,
                -6.82228809999998
              ],
              [
                -76.46384448500004,
                -6.819109099999935
              ],
              [
                -76.467340111,
                -6.815263849999951
              ],
              [
                -76.4814902359999,
                -6.807419974999902
              ],
              [
                -76.48565948599997,
                -6.801997599999879
              ],
              [
                -76.49138448600002,
                -6.797238474999858
              ],
              [
                -76.49834961099987,
                -6.794192474999875
              ],
              [
                -76.50008023599997,
                -6.792462099999966
              ],
              [
                -76.50080073599992,
                -6.787648474999969
              ],
              [
                -76.50316986099983,
                -6.758874349999928
              ],
              [
                -76.50434473599995,
                -6.753618724999967
              ],
              [
                -76.50644636100003,
                -6.752253849999875
              ],
              [
                -76.50777198599985,
                -6.749490474999959
              ],
              [
                -76.512183735,
                -6.743828849999943
              ],
              [
                -76.51673361099995,
                -6.740303474999905
              ],
              [
                -76.51720786100003,
                -6.736605099999906
              ],
              [
                -76.5197471109999,
                -6.73153472499996
              ],
              [
                -76.51998173599986,
                -6.727809224999817
              ],
              [
                -76.52387311099989,
                -6.72538284999996
              ],
              [
                -76.52253148599988,
                -6.720141849999948
              ],
              [
                -76.52523636099988,
                -6.715049474999944
              ],
              [
                -76.52501948499986,
                -6.707123724999974
              ],
              [
                -76.52619886100001,
                -6.705753099999981
              ],
              [
                -76.524209611,
                -6.692870224999979
              ],
              [
                -76.51871136099999,
                -6.693869224999958
              ],
              [
                -76.50987836099995,
                -6.692579974999944
              ],
              [
                -76.50122861100004,
                -6.690359099999966
              ],
              [
                -76.49713761099986,
                -6.690709724999977
              ],
              [
                -76.49159848600004,
                -6.693517349999979
              ],
              [
                -76.48525561099996,
                -6.69461522499995
              ],
              [
                -76.48110836099983,
                -6.694493224999974
              ],
              [
                -76.47842486000002,
                -6.693761349999875
              ],
              [
                -76.47317973499992,
                -6.6894921
              ],
              [
                -76.46910098599994,
                -6.687660974999972
              ],
              [
                -76.46457648499995,
                -6.682993474999876
              ],
              [
                -76.46162373599998,
                -6.680945599999973
              ],
              [
                -76.45743298599996,
                -6.679610724999975
              ],
              [
                -76.45631798599999,
                -6.680006349999928
              ],
              [
                -76.45311173599993,
                -6.681215599999973
              ],
              [
                -76.44900748599997,
                -6.679348973999879
              ],
              [
                -76.446240236,
                -6.679659599999979
              ],
              [
                -76.43600035999998,
                -6.679802475000031
              ],
              [
                -76.43506636099988,
                -6.67870897499995
              ],
              [
                -76.43037023599987,
                -6.678978974999893
              ],
              [
                -76.42376835999988,
                -6.681191224999964
              ],
              [
                -76.41873786099995,
                -6.68080109999994
              ],
              [
                -76.41582811099988,
                -6.681739974999914
              ],
              [
                -76.41512498599997,
                -6.684998349999944
              ],
              [
                -76.41243261100004,
                -6.688308224999957
              ],
              [
                -76.40881636099988,
                -6.689921849999905
              ],
              [
                -76.40302798499994,
                -6.684846974999971
              ],
              [
                -76.39796610999991,
                -6.682676473999948
              ],
              [
                -76.39151648499995,
                -6.682326849999981
              ],
              [
                -76.38792473499996,
                -6.679583099999888
              ],
              [
                -76.38327998499989,
                -6.678202349999935
              ],
              [
                -76.37790723499995,
                -6.678298224999878
              ],
              [
                -76.37155861099995,
                -6.681154349999929
              ],
              [
                -76.3650809849999,
                -6.682104224999932
              ],
              [
                -76.35732036099989,
                -6.685184224999944
              ],
              [
                -76.35105273499988,
                -6.68922259999988
              ],
              [
                -76.34497548599984,
                -6.686578724999947
              ],
              [
                -76.33928861099986,
                -6.683532974999935
              ],
              [
                -76.33573523599983,
                -6.682364099999972
              ],
              [
                -76.32948148499986,
                -6.682313223999927
              ],
              [
                -76.32524973499994,
                -6.6807490999999
              ],
              [
                -76.321751985,
                -6.680844224999873
              ],
              [
                -76.31808761000002,
                -6.683866099999875
              ],
              [
                -76.31608885999992,
                -6.684556224999938
              ],
              [
                -76.31149648600001,
                -6.684579974999963
              ],
              [
                -76.30543885999998,
                -6.682598724999934
              ],
              [
                -76.30026873599996,
                -6.68611672499992
              ],
              [
                -76.29505773499983,
                -6.686544974999947
              ],
              [
                -76.29079848499987,
                -6.687782349999907
              ],
              [
                -76.28951348600003,
                -6.689305224999941
              ],
              [
                -76.28401748499994,
                -6.689367099999913
              ],
              [
                -76.27504960999983,
                -6.692069099999856
              ],
              [
                -76.27140973499985,
                -6.717322849999903
              ],
              [
                -76.2686837359999,
                -6.7326054749999
              ],
              [
                -76.26780886099982,
                -6.742005348999953
              ],
              [
                -76.26350998499993,
                -6.764059974999839
              ],
              [
                -76.26189523599999,
                -6.769101474999957
              ],
              [
                -76.25681535999996,
                -6.772613474999957
              ],
              [
                -76.25244473599992,
                -6.771404599999926
              ],
              [
                -76.25031486,
                -6.769966474999933
              ],
              [
                -76.24346336099984,
                -6.768415224999956
              ],
              [
                -76.23910661099995,
                -6.766454099999976
              ],
              [
                -76.23610723499996,
                -6.766580099999885
              ],
              [
                -76.22515085999999,
                -6.768556224999884
              ],
              [
                -76.22229161099983,
                -6.768385099999932
              ],
              [
                -76.2175273599999,
                -6.7671231
              ],
              [
                -76.21340123499982,
                -6.763756849999879
              ],
              [
                -76.20799035999994,
                -6.760988849999933
              ],
              [
                -76.20599173499988,
                -6.756420224999943
              ],
              [
                -76.20444986099994,
                -6.754250224999964
              ],
              [
                -76.19862486099998,
                -6.751623224999946
              ],
              [
                -76.1973706099999,
                -6.749156974999892
              ],
              [
                -76.198838486,
                -6.741817599999877
              ],
              [
                -76.19849236000005,
                -6.734203599999887
              ],
              [
                -76.19628348599997,
                -6.726895849999892
              ],
              [
                -76.18819248599993,
                -6.712312224999948
              ],
              [
                -76.18187898499997,
                -6.70651659899994
              ],
              [
                -76.17605411100004,
                -6.704403724999906
              ],
              [
                -76.17131023599984,
                -6.703762724999876
              ],
              [
                -76.16148223599998,
                -6.706837849999943
              ],
              [
                -76.15615235999996,
                -6.706968724999967
              ],
              [
                -76.1514176099999,
                -6.703457349999951
              ],
              [
                -76.14812598599985,
                -6.698519974999897
              ],
              [
                -76.14576698499991,
                -6.696270474999949
              ],
              [
                -76.1405552359999,
                -6.693170849999888
              ],
              [
                -76.13430111099996,
                -6.693170849999888
              ],
              [
                -76.12676998599989,
                -6.687993099999915
              ],
              [
                -76.12634961100002,
                -6.692151350000017
              ],
              [
                -76.12420073499993,
                -6.696832849999907
              ],
              [
                -76.12120761099999,
                -6.699442099999885
              ],
              [
                -76.11607548500001,
                -6.702242724999962
              ],
              [
                -76.11132036100003,
                -6.705412849999902
              ],
              [
                -76.0990279849999,
                -6.712412224999866
              ],
              [
                -76.09540823499998,
                -6.714859224999827
              ],
              [
                -76.09583561099993,
                -6.716995849999932
              ],
              [
                -76.09828935999991,
                -6.720134849999965
              ],
              [
                -76.10222261000001,
                -6.723396474999902
              ],
              [
                -76.10385348499995,
                -6.726274474999911
              ],
              [
                -76.10339323499988,
                -6.728805849999958
              ],
              [
                -76.09693735999986,
                -6.736536224999895
              ],
              [
                -76.09408936099993,
                -6.740733349999971
              ],
              [
                -76.09019198499988,
                -6.74837784999994
              ],
              [
                -76.0892927349999,
                -6.75377409999993
              ],
              [
                -76.08534986099988,
                -6.764791224999954
              ],
              [
                -76.08230161099993,
                -6.771984974999896
              ],
              [
                -76.07522986000004,
                -6.787103974999923
              ],
              [
                -76.07291323499993,
                -6.794053724999969
              ],
              [
                -76.06852386000003,
                -6.801491349999935
              ],
              [
                -76.06364685999989,
                -6.804295599999875
              ],
              [
                -76.05755048599997,
                -6.806002599999886
              ],
              [
                -76.05089573499993,
                -6.810860224999828
              ]
            ]
          ]
        ],
        "type": "MultiPolygon"
      },
      "type": "Feature",
      "properties": {
        "PROVINCIA": "PICOTA",
        "name": "PICOTA",
        "ID": "210900",
        "DEPARTAMEN": "SAN MARTIN"
      }
    }
  ]
}
