{
  "type": "FeatureCollection",
  "features": [
    {
      "geometry": {
        "coordinates": [
          [
            [
              [
                -72.52040848199994,
                -15.41021448299989
              ],
              [
                -72.5226593569999,
                -15.417413732999933
              ],
              [
                -72.52115635699988,
                -15.42057323299997
              ],
              [
                -72.52155298199995,
                -15.423137732999976
              ],
              [
                -72.5239487319999,
                -15.424390732999939
              ],
              [
                -72.52405548199994,
                -15.426271482999937
              ],
              [
                -72.52234648199993,
                -15.42946260799988
              ],
              [
                -72.52342985699988,
                -15.438920982999832
              ],
              [
                -72.52081298199988,
                -15.443878232999907
              ],
              [
                -72.51558685699996,
                -15.45085810799992
              ],
              [
                -72.51483148199998,
                -15.455957357999978
              ],
              [
                -72.51563273199991,
                -15.45916748299993
              ],
              [
                -72.5147704819999,
                -15.464021732999925
              ],
              [
                -72.51362610699988,
                -15.466308607999963
              ],
              [
                -72.51069635699997,
                -15.469043732999978
              ],
              [
                -72.50759123199998,
                -15.475064232999841
              ],
              [
                -72.50762173199985,
                -15.478260982999927
              ],
              [
                -72.5115891069999,
                -15.489260732999924
              ],
              [
                -72.51589198199997,
                -15.494430482999917
              ],
              [
                -72.5160598569999,
                -15.496622107999883
              ],
              [
                -72.5265176069999,
                -15.505386732999966
              ],
              [
                -72.52962998199996,
                -15.511597982999831
              ],
              [
                -72.53373710699998,
                -15.516745483999955
              ],
              [
                -72.53503423199999,
                -15.521587357999977
              ],
              [
                -72.53784948199996,
                -15.526146857999947
              ],
              [
                -72.54145048199985,
                -15.529411357999948
              ],
              [
                -72.54360960699995,
                -15.534378982999954
              ],
              [
                -72.55040735699993,
                -15.540067733999877
              ],
              [
                -72.55761723199998,
                -15.54220385799988
              ],
              [
                -72.56006623299993,
                -15.540864982999949
              ],
              [
                -72.56291960699986,
                -15.53758148299994
              ],
              [
                -72.57067873199998,
                -15.538650607999955
              ],
              [
                -72.57839198199991,
                -15.545394857999952
              ],
              [
                -72.58343498199997,
                -15.548373233999882
              ],
              [
                -72.58638760699995,
                -15.550763107999956
              ],
              [
                -72.59278873199997,
                -15.551320107999913
              ],
              [
                -72.60089873299995,
                -15.550286232999895
              ],
              [
                -72.60272985699987,
                -15.550763107999956
              ],
              [
                -72.60551448199988,
                -15.554461482999955
              ],
              [
                -72.60690310699994,
                -15.559353857999838
              ],
              [
                -72.60881810699993,
                -15.559671357999889
              ],
              [
                -72.61688998199998,
                -15.555932983999924
              ],
              [
                -72.61863710699993,
                -15.556053108999947
              ],
              [
                -72.62875360699996,
                -15.559711483999934
              ],
              [
                -72.63417035699996,
                -15.556912482999962
              ],
              [
                -72.63642123199998,
                -15.55227185799987
              ],
              [
                -72.64026635699997,
                -15.550017357999934
              ],
              [
                -72.64420323299998,
                -15.550414982999882
              ],
              [
                -72.65255735699998,
                -15.547801857999957
              ],
              [
                -72.65603635699995,
                -15.548520107999877
              ],
              [
                -72.66069798199999,
                -15.545888857999955
              ],
              [
                -72.66645810699998,
                -15.539330482999901
              ],
              [
                -72.66849523199988,
                -15.53499598299993
              ],
              [
                -72.67500310699995,
                -15.534937857999978
              ],
              [
                -72.6820221079999,
                -15.536031732999902
              ],
              [
                -72.68939210699989,
                -15.535629232999895
              ],
              [
                -72.69290148199991,
                -15.536607732999869
              ],
              [
                -72.70095823199995,
                -15.542478607999954
              ],
              [
                -72.70349123199992,
                -15.542766607999909
              ],
              [
                -72.70925135699991,
                -15.542133357999887
              ],
              [
                -72.72042085699997,
                -15.54610535899991
              ],
              [
                -72.72151185799999,
                -15.5508261089999
              ],
              [
                -72.72093960699988,
                -15.554739982999934
              ],
              [
                -72.72824860699995,
                -15.565092107999874
              ],
              [
                -72.73561098199991,
                -15.568055107999896
              ],
              [
                -72.73743435699998,
                -15.571531357999959
              ],
              [
                -72.74337773199994,
                -15.572053107999864
              ],
              [
                -72.74816135699996,
                -15.573679982999977
              ],
              [
                -72.75140385699996,
                -15.577491732999817
              ],
              [
                -72.75332635699993,
                -15.580702732999953
              ],
              [
                -72.75736998199994,
                -15.582705482999927
              ],
              [
                -72.76018523199997,
                -15.58256248299989
              ],
              [
                -72.76327510799985,
                -15.585253732999888
              ],
              [
                -72.77281185699997,
                -15.589573857999937
              ],
              [
                -72.77671048199994,
                -15.594443357999978
              ],
              [
                -72.77964023299995,
                -15.597208982999916
              ],
              [
                -72.78869623299988,
                -15.603008232999969
              ],
              [
                -72.79470060699992,
                -15.608629232999874
              ],
              [
                -72.79955285699998,
                -15.614271107999969
              ],
              [
                -72.80475610699989,
                -15.620968857999912
              ],
              [
                -72.81018823299985,
                -15.626334233999955
              ],
              [
                -72.81179048199988,
                -15.619435357999976
              ],
              [
                -72.81074523199993,
                -15.60996248299989
              ],
              [
                -72.80924223199992,
                -15.601736107999955
              ],
              [
                -72.81097410799993,
                -15.59942823299997
              ],
              [
                -72.81041723199996,
                -15.595691732999967
              ],
              [
                -72.80769348199993,
                -15.590972857999873
              ],
              [
                -72.80596923299998,
                -15.589834232999976
              ],
              [
                -72.80331423299998,
                -15.587737982999897
              ],
              [
                -72.79804235799998,
                -15.58157823299996
              ],
              [
                -72.7982788569999,
                -15.578965232999963
              ],
              [
                -72.80130773199994,
                -15.576165232999927
              ],
              [
                -72.80310060699998,
                -15.57319548299995
              ],
              [
                -72.80470273299994,
                -15.567148232999841
              ],
              [
                -72.80808260799989,
                -15.560090107999827
              ],
              [
                -72.81128698299989,
                -15.55521873299989
              ],
              [
                -72.81643673199994,
                -15.550324482999883
              ],
              [
                -72.82098385699993,
                -15.54924398299994
              ],
              [
                -72.83383935699999,
                -15.549295483999913
              ],
              [
                -72.84281160699993,
                -15.548877732999813
              ],
              [
                -72.84518435799998,
                -15.551709232999883
              ],
              [
                -72.85324860699984,
                -15.55321885799998
              ],
              [
                -72.85939785699998,
                -15.555201482999905
              ],
              [
                -72.86334985699995,
                -15.55420398299998
              ],
              [
                -72.86943048299997,
                -15.55467323299996
              ],
              [
                -72.87489323299997,
                -15.550736482999866
              ],
              [
                -72.87632748199997,
                -15.549115232999839
              ],
              [
                -72.88047785799995,
                -15.547724732999882
              ],
              [
                -72.88637548199995,
                -15.544627232999915
              ],
              [
                -72.88993835799994,
                -15.541891107999959
              ],
              [
                -72.89514160799996,
                -15.536311107999836
              ],
              [
                -72.89839173299993,
                -15.531517982999901
              ],
              [
                -72.89971923299998,
                -15.523003608999943
              ],
              [
                -72.90496823199999,
                -15.51470373299992
              ],
              [
                -72.90501398299995,
                -15.512252857999897
              ],
              [
                -72.90242773199992,
                -15.508511482999893
              ],
              [
                -72.89920810699988,
                -15.506705232999934
              ],
              [
                -72.89814760799999,
                -15.505082107999897
              ],
              [
                -72.89791110699997,
                -15.495660732999852
              ],
              [
                -72.89676660699996,
                -15.49219323299991
              ],
              [
                -72.89226535699993,
                -15.483884857999954
              ],
              [
                -72.89235685699992,
                -15.479843107999898
              ],
              [
                -72.89051823299997,
                -15.468851982999979
              ],
              [
                -72.88653560799997,
                -15.463118607999888
              ],
              [
                -72.88446810799996,
                -15.454668982999976
              ],
              [
                -72.88331598299993,
                -15.451901482999858
              ],
              [
                -72.88037873299999,
                -15.447538357999974
              ],
              [
                -72.88048548299986,
                -15.444537107999906
              ],
              [
                -72.88335423299998,
                -15.439288107999914
              ],
              [
                -72.88779448199995,
                -15.433009107999965
              ],
              [
                -72.89070898299985,
                -15.429592107999952
              ],
              [
                -72.89273835799997,
                -15.425849857999935
              ],
              [
                -72.89501185799998,
                -15.423699357999908
              ],
              [
                -72.89536285699995,
                -15.4194869829999
              ],
              [
                -72.89475248299993,
                -15.415144857999962
              ],
              [
                -72.89316560799989,
                -15.410011232999977
              ],
              [
                -72.89154048199998,
                -15.407741607999924
              ],
              [
                -72.8899842319999,
                -15.40348623299991
              ],
              [
                -72.88510135699994,
                -15.403513857999883
              ],
              [
                -72.87741848299993,
                -15.402788107999982
              ],
              [
                -72.87506860799994,
                -15.40608973299993
              ],
              [
                -72.87371823199993,
                -15.406326232999959
              ],
              [
                -72.87067410699996,
                -15.404218732999936
              ],
              [
                -72.86608123199989,
                -15.399363357999846
              ],
              [
                -72.86350248199994,
                -15.398869482999942
              ],
              [
                -72.86101548299996,
                -15.395980857999916
              ],
              [
                -72.86068723299996,
                -15.390177732999916
              ],
              [
                -72.85771173199998,
                -15.38753885799997
              ],
              [
                -72.85650635699983,
                -15.382686607999972
              ],
              [
                -72.85689548199997,
                -15.378642982999963
              ],
              [
                -72.85625460699987,
                -15.375881232999973
              ],
              [
                -72.85345460799994,
                -15.372044607999896
              ],
              [
                -72.84841160699995,
                -15.36784360799993
              ],
              [
                -72.84561923299998,
                -15.363802857999929
              ],
              [
                -72.84368898199989,
                -15.357839732999878
              ],
              [
                -72.84217073299993,
                -15.35493185799993
              ],
              [
                -72.84104923199988,
                -15.349340482999935
              ],
              [
                -72.84346785699995,
                -15.343927357999974
              ],
              [
                -72.84307860699994,
                -15.33867448299992
              ],
              [
                -72.8410797329999,
                -15.336790232999874
              ],
              [
                -72.8386537319999,
                -15.327238107999847
              ],
              [
                -72.83870698199996,
                -15.32343860799989
              ],
              [
                -72.83719635699993,
                -15.317884482999943
              ],
              [
                -72.83468623199991,
                -15.315021481999963
              ],
              [
                -72.83013910699998,
                -15.312185232999923
              ],
              [
                -72.81573473299994,
                -15.307102107999981
              ],
              [
                -72.81137110699984,
                -15.303550732999952
              ],
              [
                -72.81214160699989,
                -15.29685748299994
              ],
              [
                -72.80936435799998,
                -15.29383473299987
              ],
              [
                -72.8037033569999,
                -15.29096510799991
              ],
              [
                -72.8011398569999,
                -15.286854732999927
              ],
              [
                -72.80012510799997,
                -15.283078232999912
              ],
              [
                -72.7970276069999,
                -15.280657732999941
              ],
              [
                -72.79140473199993,
                -15.278710357999898
              ],
              [
                -72.78908535699986,
                -15.27692798299995
              ],
              [
                -72.78847498199997,
                -15.274204231999931
              ],
              [
                -72.7894821079999,
                -15.26950935799988
              ],
              [
                -72.7891387329999,
                -15.266290607999906
              ],
              [
                -72.78977198299998,
                -15.261883856999816
              ],
              [
                -72.78791048199997,
                -15.259413732999974
              ],
              [
                -72.78671260699991,
                -15.254327732999968
              ],
              [
                -72.78778835699984,
                -15.251831981999885
              ],
              [
                -72.78530885699996,
                -15.247003607999886
              ],
              [
                -72.78277585699988,
                -15.244188357999917
              ],
              [
                -72.78099060699998,
                -15.245543482999949
              ],
              [
                -72.77706910699993,
                -15.244642232999922
              ],
              [
                -72.77358248199994,
                -15.24579523299991
              ],
              [
                -72.76957698299998,
                -15.248167982999973
              ],
              [
                -72.76432798199994,
                -15.249109232999956
              ],
              [
                -72.75988773199998,
                -15.24915985799987
              ],
              [
                -72.75685123199997,
                -15.250462482999922
              ],
              [
                -72.74914548199996,
                -15.251672732999964
              ],
              [
                -72.74536135699992,
                -15.25179848199997
              ],
              [
                -72.73963160799997,
                -15.25316523299989
              ],
              [
                -72.73622898199989,
                -15.251806232999968
              ],
              [
                -72.72882085799995,
                -15.251818732999936
              ],
              [
                -72.72524260699993,
                -15.25095560799997
              ],
              [
                -72.72293848199996,
                -15.249101607999933
              ],
              [
                -72.71557623199993,
                -15.246486607999941
              ],
              [
                -72.71188360699995,
                -15.245900107999887
              ],
              [
                -72.70661923299991,
                -15.24422460799991
              ],
              [
                -72.70055385699999,
                -15.243599857999982
              ],
              [
                -72.69613648199999,
                -15.243909857999881
              ],
              [
                -72.69339748199991,
                -15.24315835799996
              ],
              [
                -72.69107823199994,
                -15.242330607999975
              ],
              [
                -72.68293760699999,
                -15.242330607999975
              ],
              [
                -72.67170710699997,
                -15.238311732999875
              ],
              [
                -72.66701510699988,
                -15.2340354829999
              ],
              [
                -72.66119385699983,
                -15.233365107999873
              ],
              [
                -72.65565485699983,
                -15.236033482999858
              ],
              [
                -72.65100860699988,
                -15.23893923199995
              ],
              [
                -72.64627073199989,
                -15.239495232999957
              ],
              [
                -72.64055635799997,
                -15.235960982999813
              ],
              [
                -72.63705448199994,
                -15.232855857999937
              ],
              [
                -72.63695535799991,
                -15.23113823299991
              ],
              [
                -72.63211823199998,
                -15.225463857999898
              ],
              [
                -72.62687685699984,
                -15.22514535799985
              ],
              [
                -72.62232210699995,
                -15.221597732999953
              ],
              [
                -72.61979673199994,
                -15.220455107999896
              ],
              [
                -72.61254885699998,
                -15.219542482999884
              ],
              [
                -72.60997773199995,
                -15.220039357999951
              ],
              [
                -72.60501860699998,
                -15.224548357999936
              ],
              [
                -72.60068510699995,
                -15.224639107999963
              ],
              [
                -72.59825135699987,
                -15.222609482999928
              ],
              [
                -72.59645085699992,
                -15.21737873199993
              ],
              [
                -72.59197235799991,
                -15.213812857999926
              ],
              [
                -72.58931735699997,
                -15.208531356999913
              ],
              [
                -72.58292385699997,
                -15.204252232999977
              ],
              [
                -72.57189173199987,
                -15.20027160799998
              ],
              [
                -72.56035610699985,
                -15.200929607999967
              ],
              [
                -72.54889673199989,
                -15.202872232999937
              ],
              [
                -72.54391485699989,
                -15.203220357999953
              ],
              [
                -72.54188535699996,
                -15.204339981999965
              ],
              [
                -72.53599548199998,
                -15.20164685799989
              ],
              [
                -72.53094485699995,
                -15.20023635799987
              ],
              [
                -72.52818298199998,
                -15.197658481999952
              ],
              [
                -72.52533723199997,
                -15.203175481999892
              ],
              [
                -72.5228731069999,
                -15.205603607999876
              ],
              [
                -72.52219385699993,
                -15.211403857999926
              ],
              [
                -72.51940923199993,
                -15.215793607999956
              ],
              [
                -72.51762373199989,
                -15.217472107999924
              ],
              [
                -72.51782985699998,
                -15.221990607999942
              ],
              [
                -72.51589198299996,
                -15.224031482999976
              ],
              [
                -72.51612848199989,
                -15.228059732999952
              ],
              [
                -72.51853185699997,
                -15.233585356999981
              ],
              [
                -72.51850123199995,
                -15.237226482999972
              ],
              [
                -72.51998898199992,
                -15.240828482999916
              ],
              [
                -72.52346035699992,
                -15.244303731999878
              ],
              [
                -72.52716823199995,
                -15.244226482999977
              ],
              [
                -72.52937310699991,
                -15.245076232999963
              ],
              [
                -72.53044885699995,
                -15.253029857999877
              ],
              [
                -72.53314973199997,
                -15.264069606999897
              ],
              [
                -72.53287510699988,
                -15.26740548299989
              ],
              [
                -72.52993773199995,
                -15.268135982999922
              ],
              [
                -72.52893823199992,
                -15.270647982999947
              ],
              [
                -72.53189848199997,
                -15.274297732999855
              ],
              [
                -72.53679660699999,
                -15.277810107999926
              ],
              [
                -72.53753660799993,
                -15.280680607999955
              ],
              [
                -72.53953548199985,
                -15.280989607999857
              ],
              [
                -72.54439548299996,
                -15.279861482999934
              ],
              [
                -72.5475387329999,
                -15.287958106999895
              ],
              [
                -72.54515073199985,
                -15.290908857999966
              ],
              [
                -72.54894260699996,
                -15.29759210799989
              ],
              [
                -72.54943085799994,
                -15.303859732999967
              ],
              [
                -72.5520858569999,
                -15.309069607999902
              ],
              [
                -72.55162048199992,
                -15.310766232999867
              ],
              [
                -72.55294798199998,
                -15.313814107999974
              ],
              [
                -72.55331410699984,
                -15.317057607999857
              ],
              [
                -72.55471035699998,
                -15.320863732999896
              ],
              [
                -72.5569992319999,
                -15.32322698299987
              ],
              [
                -72.55719760699998,
                -15.325439482999968
              ],
              [
                -72.55574798199996,
                -15.332714857999918
              ],
              [
                -72.55650335699994,
                -15.335609482999871
              ],
              [
                -72.55584710699998,
                -15.340907107999897
              ],
              [
                -72.55631260699994,
                -15.343373357999951
              ],
              [
                -72.55239860699993,
                -15.350771857999973
              ],
              [
                -72.55282598199994,
                -15.357063232999963
              ],
              [
                -72.55626673199998,
                -15.359287231999929
              ],
              [
                -72.55833435699998,
                -15.361666732999936
              ],
              [
                -72.55983735699982,
                -15.365237232999846
              ],
              [
                -72.55951685799994,
                -15.369392357999914
              ],
              [
                -72.56237798199999,
                -15.37554073299998
              ],
              [
                -72.56538385699997,
                -15.376263607999931
              ],
              [
                -72.5695724819999,
                -15.38069910799993
              ],
              [
                -72.56844335799991,
                -15.381418232999977
              ],
              [
                -72.5608291079999,
                -15.381772982999962
              ],
              [
                -72.55755610699998,
                -15.381375482999943
              ],
              [
                -72.5520858569999,
                -15.381720482999981
              ],
              [
                -72.55059810699998,
                -15.384415607999927
              ],
              [
                -72.55258173199996,
                -15.39002710799997
              ],
              [
                -72.55523685699995,
                -15.394775357999947
              ],
              [
                -72.55361173199992,
                -15.401578857999937
              ],
              [
                -72.54989623199992,
                -15.403821982999887
              ],
              [
                -72.54787448199988,
                -15.408952732999865
              ],
              [
                -72.54458623199997,
                -15.415713357999948
              ],
              [
                -72.54260248199995,
                -15.41866773299995
              ],
              [
                -72.5382843569999,
                -15.419841732999942
              ],
              [
                -72.53318035699994,
                -15.417879107999909
              ],
              [
                -72.53050235699993,
                -15.415716982999982
              ],
              [
                -72.52689348199993,
                -15.410853357999827
              ],
              [
                -72.52360535699995,
                -15.409845357999927
              ],
              [
                -72.52040848199994,
                -15.41021448299989
              ]
            ]
          ]
        ],
        "type": "MultiPolygon"
      },
      "type": "Feature",
      "properties": {
        "PROVINCIA": "CONDESUYOS",
        "DISTRITO": "SALAMANCA",
        "name": "SALAMANCA",
        "ID": "040606",
        "DEPARTAMEN": "AREQUIPA"
      }
    }
  ]
}
