{
  "type": "FeatureCollection",
  "features": [
    {
      "geometry": {
        "coordinates": [
          [
            [
              [
                -75.91654768899991,
                -6.140760726999929
              ],
              [
                -75.91547473499998,
                -6.156451223999966
              ],
              [
                -75.91620723499994,
                -6.160992098999884
              ],
              [
                -75.9206748609999,
                -6.1677302249999
              ],
              [
                -75.92675373499998,
                -6.173589474999915
              ],
              [
                -75.92931710999989,
                -6.177324474999978
              ],
              [
                -75.93092848499998,
                -6.182378223999876
              ],
              [
                -75.9317259849999,
                -6.191600973999925
              ],
              [
                -75.93206785999996,
                -6.204681849999929
              ],
              [
                -75.93317423499991,
                -6.212657974999956
              ],
              [
                -75.93710110999996,
                -6.219780974999935
              ],
              [
                -75.9442209849999,
                -6.229274848999921
              ],
              [
                -75.94833235999994,
                -6.235660349999819
              ],
              [
                -75.95216023599988,
                -6.242495849999955
              ],
              [
                -75.95634610999997,
                -6.248367224999924
              ],
              [
                -75.96257210999994,
                -6.25572509999995
              ],
              [
                -75.97279285999997,
                -6.266746099999978
              ],
              [
                -75.97487511099996,
                -6.270910473999891
              ],
              [
                -75.97824123499993,
                -6.281356473999949
              ],
              [
                -75.97895535999999,
                -6.285948473999895
              ],
              [
                -75.97853473499998,
                -6.294108973999926
              ],
              [
                -75.97634735999992,
                -6.300397723999936
              ],
              [
                -75.97199360999991,
                -6.306602224999949
              ],
              [
                -75.96717723499995,
                -6.310114598999974
              ],
              [
                -75.95893260999998,
                -6.317349723999939
              ],
              [
                -75.95478923499991,
                -6.321619223999903
              ],
              [
                -75.94982173499994,
                -6.327721223999959
              ],
              [
                -75.94489185999998,
                -6.33715634999993
              ],
              [
                -75.94142323499995,
                -6.344798099999878
              ],
              [
                -75.9291957349999,
                -6.356835099999898
              ],
              [
                -75.9243976109999,
                -6.364146474999927
              ],
              [
                -75.92273611099995,
                -6.367322349999881
              ],
              [
                -75.92212610999991,
                -6.370645474999947
              ],
              [
                -75.92334286099987,
                -6.372961723999936
              ],
              [
                -75.92639560999993,
                -6.374830973999963
              ],
              [
                -75.92614323599992,
                -6.377564973999938
              ],
              [
                -75.9230667349999,
                -6.381857474999947
              ],
              [
                -75.91903398499994,
                -6.386248849999845
              ],
              [
                -75.91966536099994,
                -6.388291599999945
              ],
              [
                -75.92498648599997,
                -6.391551598999911
              ],
              [
                -75.92675810999998,
                -6.395845224999903
              ],
              [
                -75.92578898499994,
                -6.400050849999957
              ],
              [
                -75.92184685999996,
                -6.405111099999885
              ],
              [
                -75.91858410999993,
                -6.410176974999899
              ],
              [
                -75.91329398599993,
                -6.415286224999875
              ],
              [
                -75.91059373499996,
                -6.416068348999943
              ],
              [
                -75.91118785999993,
                -6.420189474999972
              ],
              [
                -75.9095881099999,
                -6.423618598999894
              ],
              [
                -75.90649498599993,
                -6.42709272399992
              ],
              [
                -75.90623298499992,
                -6.434584599999937
              ],
              [
                -75.90461735999992,
                -6.438638724999919
              ],
              [
                -75.90186948599995,
                -6.441006974999937
              ],
              [
                -75.90203573499991,
                -6.444106348999981
              ],
              [
                -75.90099248599995,
                -6.44596622499995
              ],
              [
                -75.90079548499989,
                -6.452507099999877
              ],
              [
                -75.89996260999999,
                -6.455315599999892
              ],
              [
                -75.9019977349999,
                -6.459167849999972
              ],
              [
                -75.91108810999992,
                -6.460060848999944
              ],
              [
                -75.91358235999996,
                -6.461224598999877
              ],
              [
                -75.91560836099995,
                -6.457692598999927
              ],
              [
                -75.9191537349999,
                -6.459143974999961
              ],
              [
                -75.91996285999988,
                -6.463236724999945
              ],
              [
                -75.92338073499997,
                -6.463726849999887
              ],
              [
                -75.92530985999997,
                -6.46311822399997
              ],
              [
                -75.93534785999998,
                -6.463170348999938
              ],
              [
                -75.9414622349999,
                -6.464398224999911
              ],
              [
                -75.94358935999998,
                -6.466834349999942
              ],
              [
                -75.94390048599996,
                -6.469715349999944
              ],
              [
                -75.94592823499994,
                -6.474001724999937
              ],
              [
                -75.95010423599996,
                -6.478649473999951
              ],
              [
                -75.95243060999996,
                -6.483977974999902
              ],
              [
                -75.95405935999992,
                -6.490474599999914
              ],
              [
                -75.95680986099995,
                -6.490625224999974
              ],
              [
                -75.96240110999992,
                -6.488948849999872
              ],
              [
                -75.96728698499999,
                -6.488411724999935
              ],
              [
                -75.97403635999984,
                -6.490602474999946
              ],
              [
                -75.97679298599991,
                -6.494763474999957
              ],
              [
                -75.97908898499992,
                -6.499467098999958
              ],
              [
                -75.98639098499996,
                -6.500432474999968
              ],
              [
                -75.99108085999995,
                -6.499677349999956
              ],
              [
                -75.99804998499997,
                -6.495099724999875
              ],
              [
                -76.00483198499995,
                -6.498326099999929
              ],
              [
                -76.0072819849999,
                -6.498629473999927
              ],
              [
                -76.01429173499992,
                -6.494903349999902
              ],
              [
                -76.02117573499999,
                -6.489978848999954
              ],
              [
                -76.02291361099998,
                -6.489644098999975
              ],
              [
                -76.02891698599996,
                -6.485937474999957
              ],
              [
                -76.04015998599994,
                -6.481832974999975
              ],
              [
                -76.06901685999998,
                -6.472735224999951
              ],
              [
                -76.07074085999994,
                -6.472432348999973
              ],
              [
                -76.07709136099987,
                -6.473718849999898
              ],
              [
                -76.08443085999988,
                -6.478415223999889
              ],
              [
                -76.08851660999989,
                -6.478776599999946
              ],
              [
                -76.09321373499995,
                -6.478248474999873
              ],
              [
                -76.09643773599998,
                -6.476830973999938
              ],
              [
                -76.10141285999998,
                -6.475941724999871
              ],
              [
                -76.10938948599994,
                -6.475223724999978
              ],
              [
                -76.11279735999995,
                -6.476167973999964
              ],
              [
                -76.11541835999998,
                -6.481167223999876
              ],
              [
                -76.11502523499996,
                -6.482605974999899
              ],
              [
                -76.11900273499998,
                -6.487051223999913
              ],
              [
                -76.12255035999982,
                -6.487795474999928
              ],
              [
                -76.12455136099999,
                -6.487175224999874
              ],
              [
                -76.12842985999993,
                -6.490987473999894
              ],
              [
                -76.12930636099998,
                -6.49429522499986
              ],
              [
                -76.13257886099996,
                -6.499500349999948
              ],
              [
                -76.13908085999992,
                -6.499305474999971
              ],
              [
                -76.14735898599992,
                -6.497322474999976
              ],
              [
                -76.15195223599989,
                -6.498802848999958
              ],
              [
                -76.15431736099993,
                -6.498566224999934
              ],
              [
                -76.15755023499997,
                -6.500664849999907
              ],
              [
                -76.15897236099988,
                -6.503944098999909
              ],
              [
                -76.16134810999989,
                -6.50640347399991
              ],
              [
                -76.16313823599995,
                -6.505700849999869
              ],
              [
                -76.16831286099983,
                -6.505390598999952
              ],
              [
                -76.17448198599999,
                -6.501403224999933
              ],
              [
                -76.18054973599999,
                -6.500832098999979
              ],
              [
                -76.18357161099988,
                -6.498424474999922
              ],
              [
                -76.18273486099991,
                -6.494884348999904
              ],
              [
                -76.18366361099993,
                -6.491868349999947
              ],
              [
                -76.18658760999995,
                -6.486020224999947
              ],
              [
                -76.18306585999994,
                -6.484447973999977
              ],
              [
                -76.18296473599986,
                -6.482250349999958
              ],
              [
                -76.18745198499994,
                -6.480282474999967
              ],
              [
                -76.19196673599993,
                -6.479592974999946
              ],
              [
                -76.19688611099991,
                -6.476264349999951
              ],
              [
                -76.19764923499991,
                -6.474342599999829
              ],
              [
                -76.19581936099996,
                -6.472448349999922
              ],
              [
                -76.19236698499992,
                -6.471275223999953
              ],
              [
                -76.19153048599998,
                -6.467417849999947
              ],
              [
                -76.18767710999992,
                -6.465748724999912
              ],
              [
                -76.18078661099992,
                -6.459194098999944
              ],
              [
                -76.1823751099999,
                -6.457611849999921
              ],
              [
                -76.18322035999995,
                -6.451160099999981
              ],
              [
                -76.18189510999997,
                -6.446270224999978
              ],
              [
                -76.18370723499999,
                -6.442860849999931
              ],
              [
                -76.18313248499999,
                -6.436443099999963
              ],
              [
                -76.18208010999996,
                -6.434673849999967
              ],
              [
                -76.18241298499993,
                -6.430300599999953
              ],
              [
                -76.18453635999987,
                -6.42744872399993
              ],
              [
                -76.18137586099994,
                -6.423532848999912
              ],
              [
                -76.17619360999998,
                -6.406774724999877
              ],
              [
                -76.17414848499993,
                -6.395763723999892
              ],
              [
                -76.17015823499992,
                -6.386742224999978
              ],
              [
                -76.16570311099997,
                -6.371509724999953
              ],
              [
                -76.16393935999997,
                -6.363349724999978
              ],
              [
                -76.16101748499989,
                -6.358125599999937
              ],
              [
                -76.15947286099998,
                -6.353751598999963
              ],
              [
                -76.15532735999994,
                -6.350189349999937
              ],
              [
                -76.1499417359999,
                -6.342515848999881
              ],
              [
                -76.14734385999998,
                -6.33802959999997
              ],
              [
                -76.14718960999994,
                -6.326830098999949
              ],
              [
                -76.14965035999995,
                -6.317249974999868
              ],
              [
                -76.15315235999998,
                -6.31333197399988
              ],
              [
                -76.16396323499998,
                -6.303291223999906
              ],
              [
                -76.16884173599988,
                -6.299127848999944
              ],
              [
                -76.17300385999994,
                -6.294939474999978
              ],
              [
                -76.17565823599989,
                -6.29132597399996
              ],
              [
                -76.17843323499989,
                -6.285335224999869
              ],
              [
                -76.17922610999995,
                -6.282024848999981
              ],
              [
                -76.18001935999996,
                -6.274118599999952
              ],
              [
                -76.17915023599988,
                -6.262600223999925
              ],
              [
                -76.17880010999988,
                -6.250255598999956
              ],
              [
                -76.17909373499992,
                -6.242068349999954
              ],
              [
                -76.17775786099998,
                -6.236722598999961
              ],
              [
                -76.17475973599988,
                -6.230919973999903
              ],
              [
                -76.17266360999992,
                -6.22798247399993
              ],
              [
                -76.16285973599992,
                -6.221129473999952
              ],
              [
                -76.15914148599995,
                -6.218163474999926
              ],
              [
                -76.14708835999988,
                -6.205924973999913
              ],
              [
                -76.14030473599996,
                -6.195046849999926
              ],
              [
                -76.13534573599998,
                -6.185740223999971
              ],
              [
                -76.13165235999992,
                -6.180800724999926
              ],
              [
                -76.12780037099998,
                -6.176884800999915
              ],
              [
                -76.12710326099995,
                -6.174634296999955
              ],
              [
                -76.12916306199992,
                -6.1664881559999
              ],
              [
                -76.13416335599993,
                -6.157469628999934
              ],
              [
                -76.14072525499995,
                -6.150353265999911
              ],
              [
                -76.1459893569999,
                -6.14667340099993
              ],
              [
                -76.08689177799994,
                -6.10690075399998
              ],
              [
                -76.08362818299992,
                -6.106825934999904
              ],
              [
                -76.07298972699994,
                -6.101230482999938
              ],
              [
                -76.06947578599994,
                -6.101490725999895
              ],
              [
                -76.06471759399994,
                -6.099646189999874
              ],
              [
                -76.06160673299996,
                -6.099742569999933
              ],
              [
                -76.06060623299993,
                -6.101589671999932
              ],
              [
                -76.05543896399996,
                -6.101959376999957
              ],
              [
                -76.05109770599995,
                -6.102358215999914
              ],
              [
                -76.04271765599998,
                -6.100996078999913
              ],
              [
                -76.03927224299991,
                -6.099624304999963
              ],
              [
                -76.02721515599984,
                -6.09574185699995
              ],
              [
                -76.02132003999986,
                -6.092230012999892
              ],
              [
                -76.01816003999988,
                -6.091200012999934
              ],
              [
                -76.01748003999995,
                -6.088160012999936
              ],
              [
                -76.01546003999994,
                -6.085130012999969
              ],
              [
                -76.01276170799997,
                -6.084219940999901
              ],
              [
                -76.01033574799999,
                -6.090973130999942
              ],
              [
                -76.00754187699994,
                -6.092773209999905
              ],
              [
                -76.00575332599988,
                -6.095217551999895
              ],
              [
                -75.99520756599998,
                -6.094980360999898
              ],
              [
                -75.98693994499996,
                -6.095655953999938
              ],
              [
                -75.9695234859999,
                -6.096215878999942
              ],
              [
                -75.96371867899995,
                -6.096798633999981
              ],
              [
                -75.9591957799999,
                -6.097976905999872
              ],
              [
                -75.95355514599993,
                -6.102617645999885
              ],
              [
                -75.9504911489999,
                -6.107756496999912
              ],
              [
                -75.94817714999994,
                -6.114613562999978
              ],
              [
                -75.94562170699999,
                -6.117874492999874
              ],
              [
                -75.93656794199995,
                -6.126551232999873
              ],
              [
                -75.93104194799997,
                -6.132865730999924
              ],
              [
                -75.92253914499997,
                -6.139670475999935
              ],
              [
                -75.91654768899991,
                -6.140760726999929
              ]
            ]
          ]
        ],
        "type": "MultiPolygon"
      },
      "type": "Feature",
      "properties": {
        "PROVINCIA": "LAMAS",
        "DISTRITO": "BARRANQUITA",
        "name": "BARRANQUITA",
        "ID": "210303",
        "DEPARTAMEN": "SAN MARTIN"
      }
    }
  ]
}
