{
  "type": "FeatureCollection",
  "features": [
    {
      "geometry": {
        "coordinates": [
          [
            [
              [
                -76.1459893569999,
                -6.14667340099993
              ],
              [
                -76.14072525499995,
                -6.150353265999911
              ],
              [
                -76.13416335599993,
                -6.157469628999934
              ],
              [
                -76.12916306199992,
                -6.1664881559999
              ],
              [
                -76.12710326099995,
                -6.174634296999955
              ],
              [
                -76.12780037099998,
                -6.176884800999915
              ],
              [
                -76.13165235999992,
                -6.180800724999926
              ],
              [
                -76.13534573599998,
                -6.185740223999971
              ],
              [
                -76.14030473599996,
                -6.195046849999926
              ],
              [
                -76.14708835999988,
                -6.205924973999913
              ],
              [
                -76.15914148599995,
                -6.218163474999926
              ],
              [
                -76.16285973599992,
                -6.221129473999952
              ],
              [
                -76.17266360999992,
                -6.22798247399993
              ],
              [
                -76.17475973599988,
                -6.230919973999903
              ],
              [
                -76.17775786099998,
                -6.236722598999961
              ],
              [
                -76.17909373499992,
                -6.242068349999954
              ],
              [
                -76.17880010999988,
                -6.250255598999956
              ],
              [
                -76.17915023599988,
                -6.262600223999925
              ],
              [
                -76.18001935999996,
                -6.274118599999952
              ],
              [
                -76.17922610999995,
                -6.282024848999981
              ],
              [
                -76.17843323499989,
                -6.285335224999869
              ],
              [
                -76.17565823599989,
                -6.29132597399996
              ],
              [
                -76.17300385999994,
                -6.294939474999978
              ],
              [
                -76.16884173599988,
                -6.299127848999944
              ],
              [
                -76.16396323499998,
                -6.303291223999906
              ],
              [
                -76.15315235999998,
                -6.31333197399988
              ],
              [
                -76.14965035999995,
                -6.317249974999868
              ],
              [
                -76.14718960999994,
                -6.326830098999949
              ],
              [
                -76.14734385999998,
                -6.33802959999997
              ],
              [
                -76.1499417359999,
                -6.342515848999881
              ],
              [
                -76.15532735999994,
                -6.350189349999937
              ],
              [
                -76.15947286099998,
                -6.353751598999963
              ],
              [
                -76.16101748499989,
                -6.358125599999937
              ],
              [
                -76.16393935999997,
                -6.363349724999978
              ],
              [
                -76.16570311099997,
                -6.371509724999953
              ],
              [
                -76.17015823499992,
                -6.386742224999978
              ],
              [
                -76.17414848499993,
                -6.395763723999892
              ],
              [
                -76.17619360999998,
                -6.406774724999877
              ],
              [
                -76.18137586099994,
                -6.423532848999912
              ],
              [
                -76.18453635999987,
                -6.42744872399993
              ],
              [
                -76.1871132359999,
                -6.42725484999994
              ],
              [
                -76.18929898499994,
                -6.428510849999952
              ],
              [
                -76.19602836099995,
                -6.42970497399989
              ],
              [
                -76.20157611099995,
                -6.427939848999927
              ],
              [
                -76.20742761099996,
                -6.427630974999886
              ],
              [
                -76.20838998599999,
                -6.425978349999923
              ],
              [
                -76.21553711099989,
                -6.427038349999975
              ],
              [
                -76.21870161099997,
                -6.425219098999889
              ],
              [
                -76.22204786099991,
                -6.420930724999891
              ],
              [
                -76.22414448599994,
                -6.42164409999998
              ],
              [
                -76.23244423499995,
                -6.419373724999957
              ],
              [
                -76.23723160999998,
                -6.420240223999883
              ],
              [
                -76.24118173599999,
                -6.423262974999943
              ],
              [
                -76.24241886099992,
                -6.425451224999904
              ],
              [
                -76.24444136099993,
                -6.426236349999954
              ],
              [
                -76.24689223599995,
                -6.431709224999906
              ],
              [
                -76.24839135999991,
                -6.431352224999955
              ],
              [
                -76.25019961099997,
                -6.427402349999966
              ],
              [
                -76.2561232349999,
                -6.427863349999939
              ],
              [
                -76.25933748499995,
                -6.425697099999923
              ],
              [
                -76.2619663609999,
                -6.427607599999931
              ],
              [
                -76.26504486099992,
                -6.427672848999975
              ],
              [
                -76.2679926109999,
                -6.426198974999977
              ],
              [
                -76.26985136099995,
                -6.426474974999962
              ],
              [
                -76.27375761099995,
                -6.417584974999897
              ],
              [
                -76.27938323499995,
                -6.413945349999949
              ],
              [
                -76.2815769849999,
                -6.413712724999812
              ],
              [
                -76.28370686099998,
                -6.410259973999928
              ],
              [
                -76.29139336099996,
                -6.403182473999948
              ],
              [
                -76.29618873599998,
                -6.395898848999877
              ],
              [
                -76.29807723499994,
                -6.391928099999973
              ],
              [
                -76.29888623499988,
                -6.385170348999964
              ],
              [
                -76.30039298599996,
                -6.383783224999945
              ],
              [
                -76.30375811099992,
                -6.383746223999879
              ],
              [
                -76.30774061099993,
                -6.378818349999904
              ],
              [
                -76.31249248599994,
                -6.369835973999955
              ],
              [
                -76.31705610999995,
                -6.364468723999948
              ],
              [
                -76.32880498499992,
                -6.354351599999973
              ],
              [
                -76.33392798599988,
                -6.349143849999905
              ],
              [
                -76.3376702349999,
                -6.346937474999891
              ],
              [
                -76.35208448599997,
                -6.340746099999933
              ],
              [
                -76.35598861099999,
                -6.339355473999944
              ],
              [
                -76.35891836099995,
                -6.339406223999902
              ],
              [
                -76.36103898599998,
                -6.34122884899989
              ],
              [
                -76.36400486099996,
                -6.347373723999908
              ],
              [
                -76.36592998599991,
                -6.350310598999897
              ],
              [
                -76.37362698599992,
                -6.345521474999885
              ],
              [
                -76.37897285999986,
                -6.337700974999962
              ],
              [
                -76.38382386099994,
                -6.326168099999961
              ],
              [
                -76.38591748499988,
                -6.319009973999925
              ],
              [
                -76.38906698499989,
                -6.313184474999957
              ],
              [
                -76.39557848499999,
                -6.30265497399995
              ],
              [
                -76.39764448599993,
                -6.297205099999928
              ],
              [
                -76.39860548499996,
                -6.291681724999933
              ],
              [
                -76.40224198599992,
                -6.284607598999969
              ],
              [
                -76.40480860999992,
                -6.281052723999949
              ],
              [
                -76.41377685999998,
                -6.274944348999895
              ],
              [
                -76.4197773599999,
                -6.26841797499992
              ],
              [
                -76.4253123609999,
                -6.263982099999964
              ],
              [
                -76.43387736099999,
                -6.256272598999885
              ],
              [
                -76.4390888609999,
                -6.251085723999893
              ],
              [
                -76.44384411099998,
                -6.244509598999969
              ],
              [
                -76.4478836109999,
                -6.239904098999943
              ],
              [
                -76.45722136099988,
                -6.234482223999862
              ],
              [
                -76.4638457349999,
                -6.22517384899993
              ],
              [
                -76.47144098499996,
                -6.215693973999976
              ],
              [
                -76.48805911099993,
                -6.198961724999947
              ],
              [
                -76.49673936099998,
                -6.191178474999958
              ],
              [
                -76.50245011099997,
                -6.188941724999893
              ],
              [
                -76.50652786099994,
                -6.186586099999943
              ],
              [
                -76.50736373599989,
                -6.183081473999891
              ],
              [
                -76.51167198599995,
                -6.179097474999935
              ],
              [
                -76.51176323599987,
                -6.176926099999946
              ],
              [
                -76.51390723599997,
                -6.174594098999933
              ],
              [
                -76.51582423599996,
                -6.171024848999934
              ],
              [
                -76.5191836109999,
                -6.167113348999919
              ],
              [
                -76.5223846109999,
                -6.161738473999947
              ],
              [
                -76.52264286099995,
                -6.159414473999959
              ],
              [
                -76.52119036099998,
                -6.150344474999883
              ],
              [
                -76.52196498599994,
                -6.145341473999906
              ],
              [
                -76.52233761099995,
                -6.137980598999889
              ],
              [
                -76.52714061099988,
                -6.132414098999959
              ],
              [
                -76.53100273599995,
                -6.130267724999896
              ],
              [
                -76.53245523599998,
                -6.12591022499987
              ],
              [
                -76.53197111099996,
                -6.122811598999931
              ],
              [
                -76.53390773599995,
                -6.119712723999839
              ],
              [
                -76.5347807359999,
                -6.116247098999963
              ],
              [
                -76.53438686099992,
                -6.112237224999944
              ],
              [
                -76.53491398599994,
                -6.105821974999969
              ],
              [
                -76.53775448599993,
                -6.101147473999958
              ],
              [
                -76.53772423599992,
                -6.097184723999874
              ],
              [
                -76.53563411099998,
                -6.093892473999972
              ],
              [
                -76.5384914849999,
                -6.090811599999881
              ],
              [
                -76.53988686099996,
                -6.085906473999898
              ],
              [
                -76.53577173499991,
                -6.081685349999873
              ],
              [
                -76.535747986,
                -6.077616473999967
              ],
              [
                -76.53658111099992,
                -6.075056723999978
              ],
              [
                -76.54054373599996,
                -6.069378348999976
              ],
              [
                -76.53622810999991,
                -6.061232848999964
              ],
              [
                -76.53558511099993,
                -6.055788348999897
              ],
              [
                -76.53654248599992,
                -6.050186473999929
              ],
              [
                -76.5364853609999,
                -6.04601372399992
              ],
              [
                -76.53746098599999,
                -6.043009723999944
              ],
              [
                -76.53991798599998,
                -6.039146473999892
              ],
              [
                -76.54599810999997,
                -6.032339849999971
              ],
              [
                -76.54701948499991,
                -6.029919974999871
              ],
              [
                -76.54683598599996,
                -6.024915974999885
              ],
              [
                -76.54848930899993,
                -6.018462786999919
              ],
              [
                -76.54887582699996,
                -6.012753586999963
              ],
              [
                -76.54369868399988,
                -6.012140212999952
              ],
              [
                -76.54072289899995,
                -6.013561683999967
              ],
              [
                -76.53617349999996,
                -6.01310347499998
              ],
              [
                -76.52706768999997,
                -6.00967481299989
              ],
              [
                -76.52372161099998,
                -6.007494223999856
              ],
              [
                -76.52116561099996,
                -6.004554848999931
              ],
              [
                -76.51799436099992,
                -6.003406723999944
              ],
              [
                -76.51427566799998,
                -6.005955228999881
              ],
              [
                -76.50669843999992,
                -6.009924104999925
              ],
              [
                -76.49672666999999,
                -6.012284394999881
              ],
              [
                -76.48986064499996,
                -6.014217333999966
              ],
              [
                -76.48092282499994,
                -6.013962674999902
              ],
              [
                -76.47822284499983,
                -6.013344350999944
              ],
              [
                -76.47101130899989,
                -6.009493555999882
              ],
              [
                -76.46016707699988,
                -6.007777214999976
              ],
              [
                -76.45417776799997,
                -6.007413737999968
              ],
              [
                -76.44773504399996,
                -6.007582612999954
              ],
              [
                -76.44114664299997,
                -6.007015156999898
              ],
              [
                -76.4329511219999,
                -6.004486419999921
              ],
              [
                -76.42874104599991,
                -6.001549235999903
              ],
              [
                -76.42473940099995,
                -5.995807959999979
              ],
              [
                -76.42179326699988,
                -5.988417965999929
              ],
              [
                -76.41771268199994,
                -5.972882580999908
              ],
              [
                -76.41435262899995,
                -5.965999997999972
              ],
              [
                -76.4118844969999,
                -5.962153748999924
              ],
              [
                -76.40871209599999,
                -5.958951378999927
              ],
              [
                -76.40015805399997,
                -5.953558718999943
              ],
              [
                -76.38672448599988,
                -5.961869099999944
              ],
              [
                -76.37278710999982,
                -5.973759723999933
              ],
              [
                -76.36218935999995,
                -5.987824223999951
              ],
              [
                -76.34687898499999,
                -6.019894473999898
              ],
              [
                -76.34053123599995,
                -6.03204484999992
              ],
              [
                -76.33729486099992,
                -6.035648348999928
              ],
              [
                -76.33354998599998,
                -6.035519973999953
              ],
              [
                -76.3343684859999,
                -6.038632973999938
              ],
              [
                -76.33400610999996,
                -6.042106848999936
              ],
              [
                -76.33203061099994,
                -6.044053098999882
              ],
              [
                -76.32806986099996,
                -6.045279973999868
              ],
              [
                -76.31891598599998,
                -6.050330098999837
              ],
              [
                -76.31533985999994,
                -6.054066348999868
              ],
              [
                -76.31542948599991,
                -6.057807723999929
              ],
              [
                -76.31970560999997,
                -6.073569473999953
              ],
              [
                -76.31986223499996,
                -6.080145474999938
              ],
              [
                -76.31829661099994,
                -6.08609497499998
              ],
              [
                -76.30350098499997,
                -6.099618474999886
              ],
              [
                -76.29758386099996,
                -6.100309099999947
              ],
              [
                -76.29157235999986,
                -6.102430723999873
              ],
              [
                -76.2850795309999,
                -6.103831542999956
              ],
              [
                -76.28101380599992,
                -6.109215565999932
              ],
              [
                -76.27791053599992,
                -6.112151574999928
              ],
              [
                -76.26520613799994,
                -6.119688241999938
              ],
              [
                -76.25617254299988,
                -6.120613868999953
              ],
              [
                -76.2471493779999,
                -6.126061411999956
              ],
              [
                -76.2019838519999,
                -6.132495560999928
              ],
              [
                -76.1459893569999,
                -6.14667340099993
              ]
            ]
          ]
        ],
        "type": "MultiPolygon"
      },
      "type": "Feature",
      "properties": {
        "PROVINCIA": "LAMAS",
        "DISTRITO": "CAYNARACHI",
        "name": "CAYNARACHI",
        "ID": "210304",
        "DEPARTAMEN": "SAN MARTIN"
      }
    }
  ]
}
