{
  "type": "FeatureCollection",
  "features": [
    {
      "geometry": {
        "coordinates": [
          [
            [
              [
                -68.81421685299995,
                -16.347986358999947
              ],
              [
                -68.9183887289999,
                -16.403720733999933
              ],
              [
                -68.91851760299983,
                -16.37771485899998
              ],
              [
                -68.91839910399995,
                -16.23329710799993
              ],
              [
                -68.88469722799988,
                -16.265660108999953
              ],
              [
                -68.86781247799996,
                -16.277462858999968
              ],
              [
                -68.81421685299995,
                -16.319773482999835
              ],
              [
                -68.81421685299995,
                -16.347986358999947
              ]
            ]
          ]
        ],
        "type": "MultiPolygon"
      },
      "type": "Feature",
      "properties": {
        "PROVINCIA": "YUNGUYO",
        "DISTRITO": "ANAPIA",
        "name": "ANAPIA",
        "ID": "201003",
        "DEPARTAMEN": "PUNO"
      }
    }
  ]
}
