{
  "type": "FeatureCollection",
  "features": [
    {
      "geometry": {
        "coordinates": [
          [
            [
              [
                -68.814216853,
                -16.347986358999947
              ],
              [
                -68.9183887289999,
                -16.403720733999933
              ],
              [
                -68.91851760299983,
                -16.37771485899998
              ],
              [
                -68.91839910399995,
                -16.23329710799993
              ],
              [
                -68.88469722799988,
                -16.265660108999953
              ],
              [
                -68.86781247799985,
                -16.277462858999968
              ],
              [
                -68.814216853,
                -16.319773482999835
              ],
              [
                -68.814216853,
                -16.347986358999947
              ]
            ]
          ],
          [
            [
              [
                -68.93871285399985,
                -16.23383010899994
              ],
              [
                -68.936056603,
                -16.237810482999976
              ],
              [
                -68.93803322799982,
                -16.239203108999902
              ],
              [
                -68.94051172799993,
                -16.237730483999826
              ],
              [
                -68.94240222799976,
                -16.239537109000025
              ],
              [
                -68.94095310399985,
                -16.24098248399997
              ],
              [
                -68.94168947899993,
                -16.244679733999874
              ],
              [
                -68.94276760399987,
                -16.245415983999976
              ],
              [
                -68.94664447899993,
                -16.243822108999893
              ],
              [
                -68.94878322899996,
                -16.24184573399998
              ],
              [
                -68.94906247799997,
                -16.239636733999873
              ],
              [
                -68.95117972899993,
                -16.237083982999877
              ],
              [
                -68.95244922799998,
                -16.233759733999932
              ],
              [
                -68.95032810399988,
                -16.232089733999942
              ],
              [
                -68.95296685299991,
                -16.22621873399993
              ],
              [
                -68.94958197899996,
                -16.226017608999882
              ],
              [
                -68.94537885400001,
                -16.227246108999907
              ],
              [
                -68.94311322899995,
                -16.23147073399997
              ],
              [
                -68.93871285399985,
                -16.23383010899994
              ]
            ]
          ],
          [
            [
              [
                -69.0429509789999,
                -16.42040173399988
              ],
              [
                -69.04399410300005,
                -16.41965210899997
              ],
              [
                -69.04345510300004,
                -16.416435608999905
              ],
              [
                -69.05003697899991,
                -16.41368735899988
              ],
              [
                -69.05337697899995,
                -16.41025798399994
              ],
              [
                -69.05763085399985,
                -16.407621108999876
              ],
              [
                -69.060140354,
                -16.404309483999953
              ],
              [
                -69.06076322900003,
                -16.401350858999933
              ],
              [
                -69.05905997899987,
                -16.395959983999944
              ],
              [
                -69.05518335399984,
                -16.395978608999883
              ],
              [
                -69.05422310399996,
                -16.39263073399991
              ],
              [
                -69.06668047899996,
                -16.392942108999932
              ],
              [
                -69.06764072899983,
                -16.39242310899988
              ],
              [
                -69.07442710399994,
                -16.382660608999913
              ],
              [
                -69.08289697899994,
                -16.376179858999876
              ],
              [
                -69.09163072899986,
                -16.37200060899994
              ],
              [
                -69.09486685399986,
                -16.370882233999964
              ],
              [
                -69.10269397899998,
                -16.369802233999962
              ],
              [
                -69.10933397900004,
                -16.36791998399991
              ],
              [
                -69.11304497899988,
                -16.365921108999828
              ],
              [
                -69.11671822899996,
                -16.365443108999955
              ],
              [
                -69.12136060399985,
                -16.365879483999947
              ],
              [
                -69.12413085399999,
                -16.365378858999975
              ],
              [
                -69.12426960300002,
                -16.367664108999975
              ],
              [
                -69.12219897800003,
                -16.37362110899994
              ],
              [
                -69.12556472899996,
                -16.37828448399995
              ],
              [
                -69.12563422899996,
                -16.38539173399994
              ],
              [
                -69.12419772899983,
                -16.39147585899991
              ],
              [
                -69.12549910399986,
                -16.39665385899997
              ],
              [
                -69.1287241039999,
                -16.398591108999938
              ],
              [
                -69.1311864789999,
                -16.39899798299996
              ],
              [
                -69.13483947899988,
                -16.398349483999937
              ],
              [
                -69.13630922899989,
                -16.397247108999977
              ],
              [
                -69.14104172899988,
                -16.3911374839999
              ],
              [
                -69.14340660399989,
                -16.386584358999926
              ],
              [
                -69.14306172899984,
                -16.37972823399997
              ],
              [
                -69.14509835399997,
                -16.373965108999982
              ],
              [
                -69.14461797899992,
                -16.370788358999846
              ],
              [
                -69.14235272899998,
                -16.36554898399993
              ],
              [
                -69.13922297899984,
                -16.36030948399997
              ],
              [
                -69.13645897899994,
                -16.354646108999873
              ],
              [
                -69.13919335399999,
                -16.350609358999918
              ],
              [
                -69.13936197899989,
                -16.344580983999947
              ],
              [
                -69.14205272899994,
                -16.337701358999936
              ],
              [
                -69.14091397899995,
                -16.333915608999973
              ],
              [
                -69.14194035399998,
                -16.330993733999946
              ],
              [
                -69.14596660399985,
                -16.332177858999955
              ],
              [
                -69.15004472899994,
                -16.331801982999878
              ],
              [
                -69.15584122900003,
                -16.327785733999917
              ],
              [
                -69.16686147899998,
                -16.324354733999883
              ],
              [
                -69.17041972899995,
                -16.32067210899993
              ],
              [
                -69.17305722899994,
                -16.31982598299993
              ],
              [
                -69.17818297899987,
                -16.31395385899998
              ],
              [
                -69.18696897899991,
                -16.316161858999976
              ],
              [
                -69.19093847900001,
                -16.314549982999893
              ],
              [
                -69.19808060400004,
                -16.30562610899989
              ],
              [
                -69.20331785400003,
                -16.300644483999918
              ],
              [
                -69.20457422899989,
                -16.298691358999974
              ],
              [
                -69.20202435399995,
                -16.294716233999964
              ],
              [
                -69.20078710399997,
                -16.286955108999962
              ],
              [
                -69.19883760399989,
                -16.281255983999927
              ],
              [
                -69.20221285399992,
                -16.279193358999976
              ],
              [
                -69.20257035399999,
                -16.275649733999956
              ],
              [
                -69.20158785399997,
                -16.271431608999933
              ],
              [
                -69.19877185399986,
                -16.269924858999957
              ],
              [
                -69.19902935399978,
                -16.265845733999868
              ],
              [
                -69.20017160399993,
                -16.264186233999965
              ],
              [
                -69.19411872899997,
                -16.262909233999892
              ],
              [
                -69.18334935400003,
                -16.259536608999895
              ],
              [
                -69.17625747899996,
                -16.257039858999917
              ],
              [
                -69.1736127289999,
                -16.256660982999904
              ],
              [
                -69.17010622899977,
                -16.258607482999935
              ],
              [
                -69.16439785399996,
                -16.257698858999902
              ],
              [
                -69.16030035399984,
                -16.257544607999932
              ],
              [
                -69.14535410399998,
                -16.253145483999845
              ],
              [
                -69.13840060400003,
                -16.24990210899989
              ],
              [
                -69.12592997899998,
                -16.24354723399989
              ],
              [
                -69.11597760399985,
                -16.237737733999893
              ],
              [
                -69.11423210399994,
                -16.237321608999935
              ],
              [
                -69.11236547899995,
                -16.239551483999946
              ],
              [
                -69.113793729,
                -16.241178108999975
              ],
              [
                -69.10761297899984,
                -16.24291885899993
              ],
              [
                -69.1060002289999,
                -16.24138360899991
              ],
              [
                -69.10436635399998,
                -16.24412360799988
              ],
              [
                -69.09731122899996,
                -16.243817858999876
              ],
              [
                -69.09522785399997,
                -16.241027733999886
              ],
              [
                -69.09884510399985,
                -16.23807335899994
              ],
              [
                -69.09494597899999,
                -16.235556358999872
              ],
              [
                -69.09771185399995,
                -16.232931608999934
              ],
              [
                -69.099556479,
                -16.23239973299991
              ],
              [
                -69.10244135399995,
                -16.227994858999978
              ],
              [
                -69.10273897899981,
                -16.22465623399995
              ],
              [
                -69.09609810400002,
                -16.224808358999837
              ],
              [
                -69.09217185399996,
                -16.224225358999888
              ],
              [
                -69.08153572899994,
                -16.221381858999905
              ],
              [
                -69.07132785399983,
                -16.214600358999974
              ],
              [
                -69.06223297899987,
                -16.20746210899989
              ],
              [
                -69.05525885400004,
                -16.197361608999927
              ],
              [
                -69.04434472899993,
                -16.203107608999915
              ],
              [
                -69.03235235399995,
                -16.205998733999877
              ],
              [
                -69.02468647899991,
                -16.21008373299992
              ],
              [
                -69.02325047899984,
                -16.21165410799989
              ],
              [
                -69.01276397899994,
                -16.219761608999875
              ],
              [
                -69.00728910399994,
                -16.21637885899986
              ],
              [
                -69.00763822899978,
                -16.21028123399998
              ],
              [
                -69.00697422899998,
                -16.20535660899992
              ],
              [
                -68.99851635399989,
                -16.19861048399997
              ],
              [
                -68.98766172899997,
                -16.19432073299987
              ],
              [
                -68.98433585299995,
                -16.190107233999868
              ],
              [
                -68.98052922899984,
                -16.190458983999918
              ],
              [
                -68.97784372799987,
                -16.189081983999927
              ],
              [
                -68.97501610299986,
                -16.19229048299985
              ],
              [
                -68.973231479,
                -16.191564858999925
              ],
              [
                -68.96697710399997,
                -16.191224108999904
              ],
              [
                -68.96176947899994,
                -16.19248423299996
              ],
              [
                -68.95671085299989,
                -16.196456982999962
              ],
              [
                -68.95831985399997,
                -16.201240358999883
              ],
              [
                -68.96015460399991,
                -16.20211860899991
              ],
              [
                -68.961652104,
                -16.20446798399996
              ],
              [
                -68.96107435399989,
                -16.209337858999845
              ],
              [
                -68.96304447799992,
                -16.210062482999945
              ],
              [
                -68.96510860399991,
                -16.215961983999932
              ],
              [
                -68.96544810399985,
                -16.21875060799988
              ],
              [
                -68.96093260299989,
                -16.223000983999952
              ],
              [
                -68.95982572900004,
                -16.227404358999934
              ],
              [
                -68.96415310399988,
                -16.226324483999974
              ],
              [
                -68.96694122899993,
                -16.226674233999915
              ],
              [
                -68.96727097899986,
                -16.228858483999943
              ],
              [
                -68.97012260299988,
                -16.230231108999874
              ],
              [
                -68.971609478,
                -16.233852108999827
              ],
              [
                -68.96657685399998,
                -16.23534098399989
              ],
              [
                -68.96796047899988,
                -16.236936108999828
              ],
              [
                -68.96984972899998,
                -16.235730357999955
              ],
              [
                -68.97203635299996,
                -16.23666560899983
              ],
              [
                -68.96959347899991,
                -16.240839108999978
              ],
              [
                -68.97300260399987,
                -16.247278983999934
              ],
              [
                -68.97685035400002,
                -16.257082733999937
              ],
              [
                -68.97912922900002,
                -16.261348108999982
              ],
              [
                -68.98007360399998,
                -16.25752635799995
              ],
              [
                -68.98218360399994,
                -16.25924010899996
              ],
              [
                -68.98274347899991,
                -16.26495648399998
              ],
              [
                -68.98524047900003,
                -16.263890483999887
              ],
              [
                -68.98633410299982,
                -16.258106233999968
              ],
              [
                -68.98813135299986,
                -16.258438858999966
              ],
              [
                -68.98797985399983,
                -16.262041108999938
              ],
              [
                -68.98914385399996,
                -16.26466835799988
              ],
              [
                -68.99177072899988,
                -16.265951858999927
              ],
              [
                -68.99017447899996,
                -16.268275858999914
              ],
              [
                -68.99145835399997,
                -16.26968260899997
              ],
              [
                -68.99535022899983,
                -16.26950660899996
              ],
              [
                -68.99480535399988,
                -16.272542358999885
              ],
              [
                -68.99641535399996,
                -16.273929483999893
              ],
              [
                -68.99922910399988,
                -16.274355733999926
              ],
              [
                -69.00392985399998,
                -16.2732681089999
              ],
              [
                -69.00449735300003,
                -16.272041233999914
              ],
              [
                -69.00147822899999,
                -16.267318107999927
              ],
              [
                -68.999999979,
                -16.262993483999935
              ],
              [
                -68.99909610399988,
                -16.257088108999938
              ],
              [
                -68.99765647899989,
                -16.25346748399994
              ],
              [
                -68.99587097899985,
                -16.252021983999953
              ],
              [
                -68.99425910399998,
                -16.2436396089999
              ],
              [
                -68.99322697899993,
                -16.24090423399997
              ],
              [
                -68.98994585299988,
                -16.23845798399998
              ],
              [
                -68.99048872899994,
                -16.23632060899996
              ],
              [
                -68.99310922899997,
                -16.238269733999857
              ],
              [
                -68.99517085399992,
                -16.23855223399994
              ],
              [
                -68.99741322900002,
                -16.240930858999945
              ],
              [
                -68.99809185399977,
                -16.243837733999953
              ],
              [
                -69.00066822899993,
                -16.245410358999948
              ],
              [
                -69.00130685399984,
                -16.249143358999902
              ],
              [
                -69.00428785399993,
                -16.249971358999915
              ],
              [
                -69.00396572800003,
                -16.25228948399996
              ],
              [
                -69.0054361039999,
                -16.256226108999897
              ],
              [
                -69.00524460299988,
                -16.258030107999957
              ],
              [
                -69.00677860399986,
                -16.26010598299996
              ],
              [
                -69.01064260399994,
                -16.26011748399992
              ],
              [
                -69.01144472899995,
                -16.263064858999883
              ],
              [
                -69.01403585399993,
                -16.264605608999943
              ],
              [
                -69.01601897899997,
                -16.264223607999952
              ],
              [
                -69.0175829779999,
                -16.26171473399984
              ],
              [
                -69.01919785399991,
                -16.260967483999934
              ],
              [
                -69.02201897899982,
                -16.261453233999873
              ],
              [
                -69.02292510400002,
                -16.263526733999925
              ],
              [
                -69.0264166039999,
                -16.26375273399998
              ],
              [
                -69.02498010399995,
                -16.26821823399996
              ],
              [
                -69.02820010299985,
                -16.267256358999873
              ],
              [
                -69.02937647899984,
                -16.268668857999955
              ],
              [
                -69.02861460400004,
                -16.271605358999977
              ],
              [
                -69.03186785399993,
                -16.274059858999976
              ],
              [
                -69.03256960399989,
                -16.269559733999927
              ],
              [
                -69.03546960399984,
                -16.26996960899993
              ],
              [
                -69.03816847899986,
                -16.269108233999873
              ],
              [
                -69.03966210399983,
                -16.267145983999967
              ],
              [
                -69.04449885399981,
                -16.26561073399995
              ],
              [
                -69.04321135399994,
                -16.262427483999943
              ],
              [
                -69.04305597899997,
                -16.25929460899988
              ],
              [
                -69.04689772899997,
                -16.260420358999852
              ],
              [
                -69.04862522899998,
                -16.258024358999933
              ],
              [
                -69.05317922899985,
                -16.255691732999935
              ],
              [
                -69.05335435399985,
                -16.250330483999903
              ],
              [
                -69.05541897899997,
                -16.249014858999942
              ],
              [
                -69.06259372899979,
                -16.250528608999957
              ],
              [
                -69.06285122799994,
                -16.25602073399989
              ],
              [
                -69.06542322900003,
                -16.25674185799994
              ],
              [
                -69.06795410399991,
                -16.255813732999968
              ],
              [
                -69.0688844789999,
                -16.25730223399995
              ],
              [
                -69.07408985399991,
                -16.256449483999916
              ],
              [
                -69.07573122899993,
                -16.257770108999864
              ],
              [
                -69.0772522279999,
                -16.26144010899992
              ],
              [
                -69.07729810299998,
                -16.263947858999927
              ],
              [
                -69.07588697799991,
                -16.267098858999873
              ],
              [
                -69.07662922899988,
                -16.27246385899997
              ],
              [
                -69.07592447899992,
                -16.275239608999982
              ],
              [
                -69.07074435399994,
                -16.281227358999956
              ],
              [
                -69.06670935399995,
                -16.282348733999925
              ],
              [
                -69.06184560399987,
                -16.28010573399996
              ],
              [
                -69.05955497899987,
                -16.280263358999946
              ],
              [
                -69.05635035399985,
                -16.27755398399995
              ],
              [
                -69.05580235399998,
                -16.28103723399994
              ],
              [
                -69.05064035399982,
                -16.28270373399988
              ],
              [
                -69.04963285400004,
                -16.28520148399997
              ],
              [
                -69.04746447900004,
                -16.287046233999945
              ],
              [
                -69.03757160399988,
                -16.29990723399993
              ],
              [
                -69.03622985399988,
                -16.3028966089999
              ],
              [
                -69.0379036039999,
                -16.30797085899991
              ],
              [
                -69.03205110399989,
                -16.31327210799998
              ],
              [
                -69.02883760399993,
                -16.31974810899993
              ],
              [
                -69.0265604789999,
                -16.32204435899996
              ],
              [
                -69.02565497900002,
                -16.325705358999926
              ],
              [
                -69.02195872899983,
                -16.331905983999945
              ],
              [
                -69.02218597899997,
                -16.33532685899985
              ],
              [
                -69.02329035400004,
                -16.33615723399987
              ],
              [
                -69.02434797899997,
                -16.339609733999907
              ],
              [
                -69.02634710399991,
                -16.343227233999983
              ],
              [
                -69.02320672899987,
                -16.346721108999873
              ],
              [
                -69.02221347899984,
                -16.348999858999946
              ],
              [
                -69.02276085399984,
                -16.351133108999818
              ],
              [
                -69.02561010399995,
                -16.354299608999895
              ],
              [
                -69.02592835399992,
                -16.357181358999924
              ],
              [
                -69.0243598539999,
                -16.360569358999953
              ],
              [
                -69.02771847899987,
                -16.363443233999874
              ],
              [
                -69.02847247900002,
                -16.365532858999927
              ],
              [
                -69.0281741039999,
                -16.370328858999926
              ],
              [
                -69.02899322799982,
                -16.37305885899997
              ],
              [
                -69.03082285399995,
                -16.375776608999843
              ],
              [
                -69.02903722799982,
                -16.377746483999942
              ],
              [
                -69.026618729,
                -16.383531233999918
              ],
              [
                -69.0260624789999,
                -16.392110483999943
              ],
              [
                -69.02347872899992,
                -16.39973010899996
              ],
              [
                -69.02313835399991,
                -16.4039416089999
              ],
              [
                -69.02594447899992,
                -16.40639110899997
              ],
              [
                -69.02980847799995,
                -16.406000233999976
              ],
              [
                -69.03369497899985,
                -16.407342982999978
              ],
              [
                -69.03634060299999,
                -16.409550607999904
              ],
              [
                -69.0361687279999,
                -16.411209733999954
              ],
              [
                -69.03403947899983,
                -16.41285348399998
              ],
              [
                -69.03610647899995,
                -16.415393983999877
              ],
              [
                -69.04125735399992,
                -16.417357733999893
              ],
              [
                -69.0429509789999,
                -16.42040173399988
              ]
            ]
          ]
        ],
        "type": "MultiPolygon"
      },
      "type": "Feature",
      "properties": {
        "PROVINCIA": "YUNGUYO",
        "name": "YUNGUYO",
        "ID": "201000",
        "DEPARTAMEN": "PUNO"
      }
    }
  ]
}
