{
  "type": "FeatureCollection",
  "features": [
    {
      "geometry": {
        "coordinates": [
          [
            [
              [
                -80.18073823899977,
                -3.925826222999831
              ],
              [
                -80.1856426139999,
                -3.920863222999969
              ],
              [
                -80.18736136399991,
                -3.922765597999899
              ],
              [
                -80.19099998899998,
                -3.921222596999939
              ],
              [
                -80.19180473899996,
                -3.919558596999934
              ],
              [
                -80.1967871139999,
                -3.916189471999871
              ],
              [
                -80.19559173899995,
                -3.913519471999962
              ],
              [
                -80.19624223899984,
                -3.911449222999977
              ],
              [
                -80.198884739,
                -3.908683596999936
              ],
              [
                -80.20191011400004,
                -3.908576221999965
              ],
              [
                -80.20447673999985,
                -3.909519471999943
              ],
              [
                -80.20633398899986,
                -3.907431596999913
              ],
              [
                -80.21108398899986,
                -3.904787096999939
              ],
              [
                -80.21138286399992,
                -3.903050721999932
              ],
              [
                -80.21403911399995,
                -3.902736347999905
              ],
              [
                -80.21490236399995,
                -3.90458197199996
              ],
              [
                -80.22021486399996,
                -3.905283222999969
              ],
              [
                -80.21963286399989,
                -3.901537096999903
              ],
              [
                -80.22151561399994,
                -3.901394471999936
              ],
              [
                -80.22757611399993,
                -3.903634721999936
              ],
              [
                -80.23055661399997,
                -3.903990097999895
              ],
              [
                -80.23221286399996,
                -3.905982472999938
              ],
              [
                -80.23414073899988,
                -3.905513721999966
              ],
              [
                -80.23699798899986,
                -3.902820347999921
              ],
              [
                -80.23840236399997,
                -3.902585971999827
              ],
              [
                -80.24067573900004,
                -3.898626971999818
              ],
              [
                -80.24358598899988,
                -3.897535096999889
              ],
              [
                -80.24632224000004,
                -3.90052147199998
              ],
              [
                -80.24933986399981,
                -3.899765596999885
              ],
              [
                -80.251976614,
                -3.902191346999928
              ],
              [
                -80.2545527389999,
                -3.901289222999935
              ],
              [
                -80.25624411399986,
                -3.902855471999942
              ],
              [
                -80.25879486399981,
                -3.902107472999944
              ],
              [
                -80.25817573899991,
                -3.89870509699989
              ],
              [
                -80.25876561399986,
                -3.894300721999969
              ],
              [
                -80.26133198899993,
                -3.894021596999892
              ],
              [
                -80.26074998899992,
                -3.889562472999955
              ],
              [
                -80.2592929889999,
                -3.887706971999933
              ],
              [
                -80.26018549000003,
                -3.886115222999933
              ],
              [
                -80.26369923999988,
                -3.885005846999888
              ],
              [
                -80.2612617389999,
                -3.882361347999961
              ],
              [
                -80.26221873999992,
                -3.87970309699989
              ],
              [
                -80.26083398899993,
                -3.876878846999887
              ],
              [
                -80.25762111400002,
                -3.873466846999861
              ],
              [
                -80.25465036399999,
                -3.871771471999921
              ],
              [
                -80.25258023999993,
                -3.868363221999914
              ],
              [
                -80.25474898999988,
                -3.865933846999894
              ],
              [
                -80.25368811399994,
                -3.858368096999811
              ],
              [
                -80.25440198999985,
                -3.851086971999905
              ],
              [
                -80.25373573899992,
                -3.847303597999939
              ],
              [
                -80.25453886399998,
                -3.845086471999934
              ],
              [
                -80.25789973899998,
                -3.841592971999944
              ],
              [
                -80.25844698899988,
                -3.837452596999867
              ],
              [
                -80.25611511399984,
                -3.83504947199998
              ],
              [
                -80.25580586399985,
                -3.832765096999879
              ],
              [
                -80.25795299000004,
                -3.825665971999967
              ],
              [
                -80.26023048899992,
                -3.822554721999893
              ],
              [
                -80.26528123899993,
                -3.81991997199998
              ],
              [
                -80.26787698899989,
                -3.816390597999884
              ],
              [
                -80.2690958639999,
                -3.810876972999949
              ],
              [
                -80.27066986399996,
                -3.810931596999922
              ],
              [
                -80.27172461499981,
                -3.805105472999969
              ],
              [
                -80.27509373999993,
                -3.803984346999925
              ],
              [
                -80.275669865,
                -3.801009721999947
              ],
              [
                -80.277142615,
                -3.799107471999946
              ],
              [
                -80.28007811399988,
                -3.798585972999945
              ],
              [
                -80.28733198899982,
                -3.79310934699987
              ],
              [
                -80.28607423899996,
                -3.790027346999921
              ],
              [
                -80.28955473899998,
                -3.787130846999901
              ],
              [
                -80.28923636399992,
                -3.785664097
              ],
              [
                -80.29293523899992,
                -3.784886096999969
              ],
              [
                -80.2964356139999,
                -3.781710971999928
              ],
              [
                -80.2988808639999,
                -3.777498096999864
              ],
              [
                -80.30499986399991,
                -3.772566471999937
              ],
              [
                -80.30515023999993,
                -3.767043346999913
              ],
              [
                -80.30336548900004,
                -3.764807721999944
              ],
              [
                -80.30184748899978,
                -3.761199971999872
              ],
              [
                -80.29929511399996,
                -3.75860572299996
              ],
              [
                -80.29940023899997,
                -3.75155034699992
              ],
              [
                -80.30082936399998,
                -3.748418221999941
              ],
              [
                -80.300841364,
                -3.745345596999925
              ],
              [
                -80.3025443639998,
                -3.74167759799991
              ],
              [
                -80.30132623999998,
                -3.739570346999926
              ],
              [
                -80.30067461399989,
                -3.735294221999936
              ],
              [
                -80.29891198999997,
                -3.733555471999978
              ],
              [
                -80.2981736139999,
                -3.730077971999833
              ],
              [
                -80.30032961399985,
                -3.727294471999926
              ],
              [
                -80.30086998899998,
                -3.718097221999926
              ],
              [
                -80.30286836399989,
                -3.713542846999928
              ],
              [
                -80.3014101139999,
                -3.707421846999921
              ],
              [
                -80.30176948899998,
                -3.702748096999926
              ],
              [
                -80.30037298899992,
                -3.695589846999894
              ],
              [
                -80.3009062399999,
                -3.694087846999878
              ],
              [
                -80.29878511399988,
                -3.690160096999875
              ],
              [
                -80.300804739,
                -3.685493971999904
              ],
              [
                -80.30014261500003,
                -3.681513721999977
              ],
              [
                -80.29751361399991,
                -3.680298846999904
              ],
              [
                -80.29753323899985,
                -3.676980471999968
              ],
              [
                -80.29583398899985,
                -3.67383984699984
              ],
              [
                -80.29617973899985,
                -3.669443346999969
              ],
              [
                -80.29709173999993,
                -3.665988221999896
              ],
              [
                -80.29972273999982,
                -3.664298846999827
              ],
              [
                -80.3005801139999,
                -3.661603471999911
              ],
              [
                -80.301269489,
                -3.655742221999901
              ],
              [
                -80.30350386500004,
                -3.65358197199987
              ],
              [
                -80.30900786399991,
                -3.651658221999924
              ],
              [
                -80.31212498899987,
                -3.647373096999956
              ],
              [
                -80.3117128639999,
                -3.645093721999899
              ],
              [
                -80.31329098999998,
                -3.643611346999933
              ],
              [
                -80.31553711399988,
                -3.645373096999947
              ],
              [
                -80.31785936499989,
                -3.645169971999906
              ],
              [
                -80.3173573649999,
                -3.64280472199988
              ],
              [
                -80.319706989,
                -3.639519471999904
              ],
              [
                -80.32377336399992,
                -3.63794722199998
              ],
              [
                -80.32502536499993,
                -3.636398471999883
              ],
              [
                -80.3321387389999,
                -3.634499971999901
              ],
              [
                -80.33608986399997,
                -3.631576221999865
              ],
              [
                -80.33779298900004,
                -3.631466846999956
              ],
              [
                -80.33841973899985,
                -3.627095721999979
              ],
              [
                -80.34227186399988,
                -3.625088596999888
              ],
              [
                -80.34321099000005,
                -3.618759721999822
              ],
              [
                -80.37883011500003,
                -3.494611346999875
              ],
              [
                -80.38265236399991,
                -3.490976596999872
              ],
              [
                -80.37606448899999,
                -3.488646471999971
              ],
              [
                -80.37190623999993,
                -3.485722595999903
              ],
              [
                -80.35532423899991,
                -3.471136721999926
              ],
              [
                -80.350691364,
                -3.466392596999981
              ],
              [
                -80.34445699000003,
                -3.459404346999975
              ],
              [
                -80.33751361499992,
                -3.450126971999907
              ],
              [
                -80.33416799000003,
                -3.446318345999941
              ],
              [
                -80.33122661399983,
                -3.441708971999901
              ],
              [
                -80.32728711399977,
                -3.436832096999979
              ],
              [
                -80.32686323900003,
                -3.438722721999909
              ],
              [
                -80.33252923999999,
                -3.445574220999902
              ],
              [
                -80.33361723899992,
                -3.448568346999934
              ],
              [
                -80.33612698900004,
                -3.450281221999887
              ],
              [
                -80.33901561399983,
                -3.45425397199989
              ],
              [
                -80.33714261399996,
                -3.454415971999879
              ],
              [
                -80.33561311399995,
                -3.451037096999926
              ],
              [
                -80.3334354889999,
                -3.449808596999958
              ],
              [
                -80.33163073999981,
                -3.445437471999867
              ],
              [
                -80.32870698900001,
                -3.441564471999868
              ],
              [
                -80.32659173999986,
                -3.439779346999956
              ],
              [
                -80.32556248999987,
                -3.433818346999942
              ],
              [
                -80.322583989,
                -3.428550721999954
              ],
              [
                -80.31889061399988,
                -3.420804721999957
              ],
              [
                -80.31679686399991,
                -3.415302721999979
              ],
              [
                -80.31284574,
                -3.402699095999935
              ],
              [
                -80.31495111399994,
                -3.400617221999937
              ],
              [
                -80.31563473900002,
                -3.398285096999871
              ],
              [
                -80.31507611399991,
                -3.39269334599993
              ],
              [
                -80.31541986499991,
                -3.387888721999957
              ],
              [
                -80.31857423999998,
                -3.383714846999851
              ],
              [
                -80.31847848999985,
                -3.381773346999978
              ],
              [
                -80.31478911499994,
                -3.383339846999888
              ],
              [
                -80.31099611399992,
                -3.387882845999911
              ],
              [
                -80.30796098899987,
                -3.392945346999909
              ],
              [
                -80.30086523899985,
                -3.400830096999869
              ],
              [
                -80.29638673999978,
                -3.40400772199996
              ],
              [
                -80.29235936399988,
                -3.408804720999967
              ],
              [
                -80.28521486499989,
                -3.412763721999966
              ],
              [
                -80.28095311499999,
                -3.412912095999957
              ],
              [
                -80.27384961400003,
                -3.414951221999956
              ],
              [
                -80.27009573899977,
                -3.414955096999904
              ],
              [
                -80.26021486399986,
                -3.412595721999821
              ],
              [
                -80.25666798899994,
                -3.413154346999931
              ],
              [
                -80.24589448899991,
                -3.418628846999923
              ],
              [
                -80.23962498899988,
                -3.424474596999914
              ],
              [
                -80.23568748900004,
                -3.426748096999972
              ],
              [
                -80.23014848900004,
                -3.42878709699994
              ],
              [
                -80.22635736399997,
                -3.432384721999881
              ],
              [
                -80.22238086399989,
                -3.43515434699998
              ],
              [
                -80.22090036399993,
                -3.438695471999893
              ],
              [
                -80.22052148900002,
                -3.443858346999946
              ],
              [
                -80.22202023899985,
                -3.446699345999889
              ],
              [
                -80.22644961399988,
                -3.449351221999962
              ],
              [
                -80.22822136499985,
                -3.451420221999967
              ],
              [
                -80.23076248899986,
                -3.451624221999907
              ],
              [
                -80.23394723900003,
                -3.456562470999927
              ],
              [
                -80.23687111399983,
                -3.457742221999922
              ],
              [
                -80.24031636499996,
                -3.461732471999937
              ],
              [
                -80.23972073899989,
                -3.463732471999947
              ],
              [
                -80.24212298999987,
                -3.466212846999952
              ],
              [
                -80.24127348899992,
                -3.469785096999942
              ],
              [
                -80.23902148900004,
                -3.470814471999915
              ],
              [
                -80.23975786499977,
                -3.473999971999945
              ],
              [
                -80.2397284889999,
                -3.47778909699997
              ],
              [
                -80.24338286399984,
                -3.478298846999849
              ],
              [
                -80.24226361399997,
                -3.480540971999915
              ],
              [
                -80.24361136399983,
                -3.484406221999961
              ],
              [
                -80.24338473899991,
                -3.487064471999929
              ],
              [
                -80.23977536399991,
                -3.486529346999987
              ],
              [
                -80.23835161399984,
                -3.488445346999868
              ],
              [
                -80.236552739,
                -3.486201221999977
              ],
              [
                -80.23376761399999,
                -3.489201221999963
              ],
              [
                -80.23191211499994,
                -3.490068346999863
              ],
              [
                -80.23189261399983,
                -3.492165970999963
              ],
              [
                -80.22957611399977,
                -3.495556596999904
              ],
              [
                -80.22852736399977,
                -3.501128846999904
              ],
              [
                -80.225997989,
                -3.501687471999958
              ],
              [
                -80.22494536399995,
                -3.500220721999938
              ],
              [
                -80.22091986399994,
                -3.500978471999929
              ],
              [
                -80.21838286399992,
                -3.499292971999978
              ],
              [
                -80.21572661399995,
                -3.499996096999894
              ],
              [
                -80.21432811399995,
                -3.503341846999888
              ],
              [
                -80.21570311399995,
                -3.505712846999927
              ],
              [
                -80.2157011139999,
                -3.509005846999912
              ],
              [
                -80.21691598899986,
                -3.510843720999844
              ],
              [
                -80.21424799,
                -3.513003846999936
              ],
              [
                -80.21407423899996,
                -3.5170370969999
              ],
              [
                -80.21071486399995,
                -3.51856447199998
              ],
              [
                -80.21061523899982,
                -3.519794971999886
              ],
              [
                -80.21331448999985,
                -3.521777346999954
              ],
              [
                -80.214886739,
                -3.52563284699994
              ],
              [
                -80.21022073900002,
                -3.527083971999843
              ],
              [
                -80.20929098900001,
                -3.531833971999845
              ],
              [
                -80.2079218639999,
                -3.530710971999895
              ],
              [
                -80.20617386399994,
                -3.534517596999933
              ],
              [
                -80.20719723899981,
                -3.537431596999966
              ],
              [
                -80.20962886399991,
                -3.536529346999941
              ],
              [
                -80.21052736399992,
                -3.538935596999977
              ],
              [
                -80.20834573899987,
                -3.540978471999892
              ],
              [
                -80.20745111500003,
                -3.545373096999981
              ],
              [
                -80.208394489,
                -3.547644471999888
              ],
              [
                -80.20742973999984,
                -3.549888721999935
              ],
              [
                -80.205412239,
                -3.551080096999954
              ],
              [
                -80.20552736399992,
                -3.553369221999901
              ],
              [
                -80.2087753639999,
                -3.554267596999978
              ],
              [
                -80.21362698899986,
                -3.567488221999895
              ],
              [
                -80.21214661399995,
                -3.570697221999922
              ],
              [
                -80.21338861399994,
                -3.572009721999905
              ],
              [
                -80.218122989,
                -3.572982471999921
              ],
              [
                -80.21591011399994,
                -3.581230471999959
              ],
              [
                -80.21387298899987,
                -3.583861221999939
              ],
              [
                -80.213103489,
                -3.589251971999943
              ],
              [
                -80.21112886399993,
                -3.59220897199998
              ],
              [
                -80.20966986399992,
                -3.59276759699992
              ],
              [
                -80.20334961499987,
                -3.593042971999978
              ],
              [
                -80.19815423899979,
                -3.592613221999954
              ],
              [
                -80.19431636399992,
                -3.596191346999888
              ],
              [
                -80.18876948899998,
                -3.597933596999894
              ],
              [
                -80.18928711399991,
                -3.603054721999968
              ],
              [
                -80.19104098899999,
                -3.605361346999928
              ],
              [
                -80.19063861500001,
                -3.610128846999885
              ],
              [
                -80.19229298899984,
                -3.613884721999966
              ],
              [
                -80.196710989,
                -3.616665971999964
              ],
              [
                -80.19609573899993,
                -3.620283221999841
              ],
              [
                -80.19641598899983,
                -3.624796846999914
              ],
              [
                -80.19534373899984,
                -3.626081971999838
              ],
              [
                -80.19140036399989,
                -3.625300721999963
              ],
              [
                -80.18661523899982,
                -3.629130846999942
              ],
              [
                -80.18646873999995,
                -3.632080096999971
              ],
              [
                -80.18720311399989,
                -3.637896471999909
              ],
              [
                -80.18592986399989,
                -3.641324221999866
              ],
              [
                -80.18632423899999,
                -3.643351596999935
              ],
              [
                -80.18515036400004,
                -3.647203096999931
              ],
              [
                -80.1858476139999,
                -3.652206971999874
              ],
              [
                -80.18663086399988,
                -3.653591846999973
              ],
              [
                -80.18658973899994,
                -3.660382971999923
              ],
              [
                -80.18739273999995,
                -3.664736471999959
              ],
              [
                -80.18670911399988,
                -3.667636596999955
              ],
              [
                -80.18745798899982,
                -3.671406846999957
              ],
              [
                -80.1915268639998,
                -3.672120596999946
              ],
              [
                -80.19278798899995,
                -3.6740242219999
              ],
              [
                -80.19189298899988,
                -3.677547846999971
              ],
              [
                -80.19524298999994,
                -3.681909596999958
              ],
              [
                -80.195972364,
                -3.684434096999951
              ],
              [
                -80.19838211399997,
                -3.687056846999894
              ],
              [
                -80.1987363639999,
                -3.689378846999887
              ],
              [
                -80.19712898899985,
                -3.694914096999923
              ],
              [
                -80.19449411499988,
                -3.700150346999919
              ],
              [
                -80.19500586399988,
                -3.702058596999905
              ],
              [
                -80.19361323999976,
                -3.707999971999811
              ],
              [
                -80.18982611399986,
                -3.712773471999981
              ],
              [
                -80.18685548899998,
                -3.713259846999961
              ],
              [
                -80.1850156139999,
                -3.715337846999944
              ],
              [
                -80.18597661399991,
                -3.71895697199983
              ],
              [
                -80.18509173899997,
                -3.72158009799989
              ],
              [
                -80.18259573899991,
                -3.72421097199998
              ],
              [
                -80.18235936400004,
                -3.726425721999874
              ],
              [
                -80.18024998899978,
                -3.72809759699993
              ],
              [
                -80.18246286399989,
                -3.729808596999931
              ],
              [
                -80.18045298999988,
                -3.733470722999868
              ],
              [
                -80.18137698899983,
                -3.735662096999931
              ],
              [
                -80.18080861499988,
                -3.738581971999906
              ],
              [
                -80.18499998899995,
                -3.742068221999887
              ],
              [
                -80.18765623899998,
                -3.742044971999917
              ],
              [
                -80.18838473999995,
                -3.744343722
              ],
              [
                -80.18341973999992,
                -3.748435596999968
              ],
              [
                -80.184505865,
                -3.751386721999893
              ],
              [
                -80.18688673899999,
                -3.747968722999872
              ],
              [
                -80.19110936399989,
                -3.747456971999895
              ],
              [
                -80.19193748899983,
                -3.748542971999882
              ],
              [
                -80.18888086499987,
                -3.752855471999908
              ],
              [
                -80.1920038639999,
                -3.75398047199991
              ],
              [
                -80.19114448899995,
                -3.760031221999895
              ],
              [
                -80.18852923899982,
                -3.762542971999949
              ],
              [
                -80.1926016139999,
                -3.771683597999811
              ],
              [
                -80.19220898899982,
                -3.775845721999929
              ],
              [
                -80.1897968639999,
                -3.774703096999872
              ],
              [
                -80.18519536400004,
                -3.77530472199993
              ],
              [
                -80.18496886399993,
                -3.777402347999953
              ],
              [
                -80.18241798899999,
                -3.779968721999978
              ],
              [
                -80.18151173899997,
                -3.785630847999869
              ],
              [
                -80.17936723899999,
                -3.787374972999942
              ],
              [
                -80.176056614,
                -3.792753846999915
              ],
              [
                -80.17280661400002,
                -3.790923846999874
              ],
              [
                -80.16646098899992,
                -3.7977578469999
              ],
              [
                -80.160431614,
                -3.802390596999885
              ],
              [
                -80.16190611399998,
                -3.804554721999978
              ],
              [
                -80.1594159899999,
                -3.80929297199998
              ],
              [
                -80.1614899889999,
                -3.814639971999895
              ],
              [
                -80.16168548899992,
                -3.818964846999961
              ],
              [
                -80.16065823899993,
                -3.820212846999937
              ],
              [
                -80.16036523899993,
                -3.823767596999971
              ],
              [
                -80.16311136399986,
                -3.827673846999971
              ],
              [
                -80.16153323899994,
                -3.831790971999851
              ],
              [
                -80.15855473899995,
                -3.835691346999965
              ],
              [
                -80.15951761399987,
                -3.839589846999957
              ],
              [
                -80.15903511499982,
                -3.842964846999962
              ],
              [
                -80.15588086499997,
                -3.845199221999906
              ],
              [
                -80.15270511399984,
                -3.848509722999893
              ],
              [
                -80.15360348899992,
                -3.85029297199992
              ],
              [
                -80.15317774000005,
                -3.852824221999924
              ],
              [
                -80.15390236399986,
                -3.857357471999933
              ],
              [
                -80.15786323999998,
                -3.858771472999877
              ],
              [
                -80.15833786499991,
                -3.861496096999872
              ],
              [
                -80.156255864,
                -3.862814471999911
              ],
              [
                -80.15855473899995,
                -3.869818346999978
              ],
              [
                -80.15346286399983,
                -3.874273472999903
              ],
              [
                -80.14857611399998,
                -3.880101596999907
              ],
              [
                -80.14320311399979,
                -3.883986346999905
              ],
              [
                -80.13808598900005,
                -3.885554721999938
              ],
              [
                -80.13305661399977,
                -3.890091971999823
              ],
              [
                -80.128374989,
                -3.888015596999878
              ],
              [
                -80.12915048900004,
                -3.891984846999947
              ],
              [
                -80.12696236399984,
                -3.894179471999962
              ],
              [
                -80.127165364,
                -3.895515972999874
              ],
              [
                -80.13366436499996,
                -3.900527721999879
              ],
              [
                -80.13365123899996,
                -3.903934346999904
              ],
              [
                -80.13638311399995,
                -3.906417346999945
              ],
              [
                -80.13919023899996,
                -3.907773971999916
              ],
              [
                -80.1402418639999,
                -3.912962096999934
              ],
              [
                -80.15091798899994,
                -3.914126971999963
              ],
              [
                -80.15781048899993,
                -3.91314647199988
              ],
              [
                -80.15984536399992,
                -3.914937596999948
              ],
              [
                -80.16102261399988,
                -3.919146596999951
              ],
              [
                -80.16462698899994,
                -3.922425721999844
              ],
              [
                -80.17023636499994,
                -3.925164096999936
              ],
              [
                -80.17366798899997,
                -3.925990222999872
              ],
              [
                -80.17935161399998,
                -3.925171846999945
              ],
              [
                -80.18073823899977,
                -3.925826222999831
              ]
            ]
          ]
        ],
        "type": "MultiPolygon"
      },
      "type": "Feature",
      "properties": {
        "PROVINCIA": "ZARUMILLA",
        "name": "ZARUMILLA",
        "ID": "230300",
        "DEPARTAMEN": "TUMBES"
      }
    }
  ]
}
