{
  "type": "FeatureCollection",
  "features": [
    {
      "geometry": {
        "coordinates": [
          [
            [
              [
                -76.47135161099999,
                -6.855978474999915
              ],
              [
                -76.47283561099994,
                -6.858674224999959
              ],
              [
                -76.48288323499997,
                -6.866154349999874
              ],
              [
                -76.4966956109999,
                -6.878500224999868
              ],
              [
                -76.50177198599988,
                -6.88382297499993
              ],
              [
                -76.50765061099992,
                -6.888324974999932
              ],
              [
                -76.50954323599996,
                -6.890490224999951
              ],
              [
                -76.51000298599996,
                -6.89577547499988
              ],
              [
                -76.51161148599994,
                -6.902037349999944
              ],
              [
                -76.51413036099996,
                -6.90560822499998
              ],
              [
                -76.52340648599989,
                -6.911187099999893
              ],
              [
                -76.52667511099997,
                -6.911922599999912
              ],
              [
                -76.53192536099982,
                -6.911684599999944
              ],
              [
                -76.53704123599988,
                -6.912755349999884
              ],
              [
                -76.53961111099989,
                -6.915206224999906
              ],
              [
                -76.54150136099997,
                -6.922271099999932
              ],
              [
                -76.54537986099996,
                -6.926078224999912
              ],
              [
                -76.54864360999994,
                -6.928329224999914
              ],
              [
                -76.54687011099992,
                -6.930269974999931
              ],
              [
                -76.54731998599993,
                -6.932989974999884
              ],
              [
                -76.54308998599998,
                -6.939239974999907
              ],
              [
                -76.54566211099996,
                -6.938357474999918
              ],
              [
                -76.54657811099992,
                -6.936281224999902
              ],
              [
                -76.55263436099989,
                -6.932577724999874
              ],
              [
                -76.5660782359999,
                -6.923797599999943
              ],
              [
                -76.57121498499993,
                -6.921487599999978
              ],
              [
                -76.57377336099995,
                -6.919020599999953
              ],
              [
                -76.57815011099996,
                -6.920934599999953
              ],
              [
                -76.58246286099995,
                -6.924393724999902
              ],
              [
                -76.5862507359999,
                -6.924300099999869
              ],
              [
                -76.58935586099989,
                -6.921328724999967
              ],
              [
                -76.59520486099996,
                -6.920900349999954
              ],
              [
                -76.60204435999998,
                -6.918384099999969
              ],
              [
                -76.60240573599998,
                -6.914596349999897
              ],
              [
                -76.60370398499998,
                -6.911464349999903
              ],
              [
                -76.60761223599997,
                -6.909309474999873
              ],
              [
                -76.61051673599997,
                -6.909122099999934
              ],
              [
                -76.6148398609999,
                -6.909965349999879
              ],
              [
                -76.61868123599993,
                -6.908372599999893
              ],
              [
                -76.62079598599996,
                -6.905133474999957
              ],
              [
                -76.62427998599992,
                -6.902713849999941
              ],
              [
                -76.62584211099994,
                -6.898947349999958
              ],
              [
                -76.62495698599997,
                -6.896378599999878
              ],
              [
                -76.62701373599998,
                -6.893740349999973
              ],
              [
                -76.62907048599999,
                -6.892690224999967
              ],
              [
                -76.63008586099988,
                -6.890451224999879
              ],
              [
                -76.63325911099997,
                -6.889899849999949
              ],
              [
                -76.63822998599994,
                -6.890476974999899
              ],
              [
                -76.64112798599996,
                -6.887343599999895
              ],
              [
                -76.64791311099992,
                -6.885706224999979
              ],
              [
                -76.64810148599997,
                -6.882667099999935
              ],
              [
                -76.65089323599994,
                -6.881135724999979
              ],
              [
                -76.65307248599993,
                -6.876953974999935
              ],
              [
                -76.65187123599992,
                -6.87370272499993
              ],
              [
                -76.65590123599998,
                -6.869440099999963
              ],
              [
                -76.65918623599998,
                -6.869662349999942
              ],
              [
                -76.66584173599989,
                -6.87387947499991
              ],
              [
                -76.67350561099994,
                -6.875611474999971
              ],
              [
                -76.67690286099992,
                -6.878355724999892
              ],
              [
                -76.68154886099995,
                -6.877316349999887
              ],
              [
                -76.6857006109999,
                -6.878099974999884
              ],
              [
                -76.69064261099999,
                -6.877974599999902
              ],
              [
                -76.70278123599996,
                -6.875861349999923
              ],
              [
                -76.70916986099985,
                -6.875263724999968
              ],
              [
                -76.71288286099991,
                -6.866851599999904
              ],
              [
                -76.71584373599995,
                -6.857521474999942
              ],
              [
                -76.71869723599997,
                -6.850837849999948
              ],
              [
                -76.72532623599994,
                -6.83746884999988
              ],
              [
                -76.72940398599997,
                -6.827321349999977
              ],
              [
                -76.7333728609999,
                -6.814503474999981
              ],
              [
                -76.73422148599997,
                -6.812521849999882
              ],
              [
                -76.73581548599998,
                -6.809444724999935
              ],
              [
                -76.73620698599996,
                -6.806249974999957
              ],
              [
                -76.73446686099993,
                -6.802689474999966
              ],
              [
                -76.72627948599984,
                -6.801740724999945
              ],
              [
                -76.71915423599995,
                -6.802800724999827
              ],
              [
                -76.71580961099988,
                -6.802569724999898
              ],
              [
                -76.710639986,
                -6.800519974999929
              ],
              [
                -76.70822998599988,
                -6.801119974999949
              ],
              [
                -76.7024099859999,
                -6.799849974999916
              ],
              [
                -76.69938998599997,
                -6.800239974999954
              ],
              [
                -76.69775998599994,
                -6.799209974999883
              ],
              [
                -76.69298998599987,
                -6.801559849999933
              ],
              [
                -76.69044998599992,
                -6.804969974999892
              ],
              [
                -76.68552998599989,
                -6.810219849999953
              ],
              [
                -76.68247998599998,
                -6.80788997499991
              ],
              [
                -76.67704998599993,
                -6.806099974999938
              ],
              [
                -76.67503998599989,
                -6.804669974999968
              ],
              [
                -76.67366998599994,
                -6.80054997499991
              ],
              [
                -76.6706699859999,
                -6.801929974999894
              ],
              [
                -76.66727998599998,
                -6.800959974999955
              ],
              [
                -76.66373998599983,
                -6.795839974999978
              ],
              [
                -76.66143998599995,
                -6.794609974999958
              ],
              [
                -76.65972998599995,
                -6.795630099999926
              ],
              [
                -76.65624011099993,
                -6.792789974999948
              ],
              [
                -76.65118998599996,
                -6.793369974999962
              ],
              [
                -76.64818998599998,
                -6.791739974999928
              ],
              [
                -76.64532998599998,
                -6.791409974999965
              ],
              [
                -76.64464998599993,
                -6.789620099999922
              ],
              [
                -76.63961998599996,
                -6.789449974999968
              ],
              [
                -76.63316998599998,
                -6.784279974999947
              ],
              [
                -76.63149998599994,
                -6.779589974999965
              ],
              [
                -76.62833998599996,
                -6.780589974999941
              ],
              [
                -76.62432986099998,
                -6.777649974999918
              ],
              [
                -76.62120998499995,
                -6.776169974999959
              ],
              [
                -76.62023998599994,
                -6.778139974999874
              ],
              [
                -76.61749010999989,
                -6.778219974999956
              ],
              [
                -76.61691998599997,
                -6.779739974999927
              ],
              [
                -76.614070111,
                -6.780949974999942
              ],
              [
                -76.60739998499992,
                -6.780449974999954
              ],
              [
                -76.60643998599988,
                -6.781850099999929
              ],
              [
                -76.60080998599983,
                -6.786039974999937
              ],
              [
                -76.59827998599991,
                -6.78863997499991
              ],
              [
                -76.59776998599983,
                -6.793239974999949
              ],
              [
                -76.59626998499988,
                -6.794449974999964
              ],
              [
                -76.58870998499998,
                -6.790759974999901
              ],
              [
                -76.58671998599993,
                -6.788129974999947
              ],
              [
                -76.58298986099993,
                -6.786849974999882
              ],
              [
                -76.58202985999998,
                -6.784959974999936
              ],
              [
                -76.57698823599992,
                -6.782402349999927
              ],
              [
                -76.57365398599995,
                -6.77796984999992
              ],
              [
                -76.57121348599998,
                -6.777430224999932
              ],
              [
                -76.56624973599997,
                -6.773603849999972
              ],
              [
                -76.56240398599994,
                -6.769954224999935
              ],
              [
                -76.55903911099995,
                -6.768958974999975
              ],
              [
                -76.55066711099994,
                -6.761915974999965
              ],
              [
                -76.54127536099992,
                -6.753347099999928
              ],
              [
                -76.53454598599996,
                -6.748791849999975
              ],
              [
                -76.5272142359999,
                -6.739928474999886
              ],
              [
                -76.52420873599993,
                -6.733797724999874
              ],
              [
                -76.52387311099989,
                -6.72538284999996
              ],
              [
                -76.51998173599998,
                -6.727809224999817
              ],
              [
                -76.5197471109999,
                -6.73153472499996
              ],
              [
                -76.51720786099997,
                -6.736605099999906
              ],
              [
                -76.51673361099995,
                -6.740303474999905
              ],
              [
                -76.51218373499995,
                -6.743828849999943
              ],
              [
                -76.50777198599985,
                -6.749490474999959
              ],
              [
                -76.50644636099986,
                -6.752253849999875
              ],
              [
                -76.50434473599995,
                -6.753618724999967
              ],
              [
                -76.50289873599996,
                -6.762164724999877
              ],
              [
                -76.50080073599992,
                -6.787648474999969
              ],
              [
                -76.50008023599997,
                -6.792462099999966
              ],
              [
                -76.49834961099998,
                -6.794192474999875
              ],
              [
                -76.4913844859999,
                -6.797238474999858
              ],
              [
                -76.48565948599997,
                -6.801997599999879
              ],
              [
                -76.4814902359999,
                -6.807419974999902
              ],
              [
                -76.46734011099983,
                -6.815263849999951
              ],
              [
                -76.46384448499998,
                -6.819109099999935
              ],
              [
                -76.46374248599994,
                -6.82228809999998
              ],
              [
                -76.47008135999988,
                -6.823887224999964
              ],
              [
                -76.47419298599993,
                -6.826628099999823
              ],
              [
                -76.47436448599996,
                -6.828855349999969
              ],
              [
                -76.47139473599992,
                -6.834052099999894
              ],
              [
                -76.47189773599996,
                -6.837722099999894
              ],
              [
                -76.47405011099988,
                -6.845476724999969
              ],
              [
                -76.47402173599994,
                -6.848214724999934
              ],
              [
                -76.47135161099999,
                -6.855978474999915
              ]
            ]
          ]
        ],
        "type": "MultiPolygon"
      },
      "type": "Feature",
      "properties": {
        "PROVINCIA": "BELLAVISTA",
        "DISTRITO": "SAN PABLO",
        "name": "SAN PABLO",
        "ID": "210703",
        "DEPARTAMEN": "SAN MARTIN"
      }
    }
  ]
}
