{
  "type": "FeatureCollection",
  "features": [
    {
      "geometry": {
        "coordinates": [
          [
            [
              [
                -75.54909573499998,
                -11.598285103999956
              ],
              [
                -75.54505960999995,
                -11.601470104999976
              ],
              [
                -75.5436889849999,
                -11.605770729999904
              ],
              [
                -75.54030260999991,
                -11.610191854999869
              ],
              [
                -75.53724348499986,
                -11.612200978999908
              ],
              [
                -75.53001385999994,
                -11.612286103999963
              ],
              [
                -75.52264960899993,
                -11.616676479999967
              ],
              [
                -75.5204336089999,
                -11.618658229999937
              ],
              [
                -75.52488498499997,
                -11.625621104999823
              ],
              [
                -75.52633598499995,
                -11.630583979999926
              ],
              [
                -75.52488498499997,
                -11.635249228999953
              ],
              [
                -75.5288999849999,
                -11.636619978999931
              ],
              [
                -75.53425998499989,
                -11.636319978999893
              ],
              [
                -75.53847998499992,
                -11.639029978999929
              ],
              [
                -75.54153998499999,
                -11.638389979999943
              ],
              [
                -75.54324998499999,
                -11.635839979999957
              ],
              [
                -75.54668998499994,
                -11.634619978999922
              ],
              [
                -75.55002998499998,
                -11.635399979999875
              ],
              [
                -75.55450998499992,
                -11.638739979999912
              ],
              [
                -75.5577599849999,
                -11.63859997999998
              ],
              [
                -75.5663399849999,
                -11.635589978999974
              ],
              [
                -75.56777998499996,
                -11.63821997899987
              ],
              [
                -75.56556998499997,
                -11.646119978999934
              ],
              [
                -75.56280998499994,
                -11.64753997899993
              ],
              [
                -75.55949998499989,
                -11.646339979999937
              ],
              [
                -75.55765998499999,
                -11.647189978999904
              ],
              [
                -75.55548398499997,
                -11.651275354999882
              ],
              [
                -75.55383998499991,
                -11.65678510499987
              ],
              [
                -75.55409860899994,
                -11.664196729999901
              ],
              [
                -75.54675560999988,
                -11.666178354999829
              ],
              [
                -75.54488535999997,
                -11.670917978999853
              ],
              [
                -75.55011473499991,
                -11.674345354999843
              ],
              [
                -75.54860285999996,
                -11.677370104999909
              ],
              [
                -75.54595310899998,
                -11.67760560499994
              ],
              [
                -75.54293698499993,
                -11.679217853999944
              ],
              [
                -75.53911535999993,
                -11.68461135399997
              ],
              [
                -75.54007248499988,
                -11.68959622899996
              ],
              [
                -75.53674635999994,
                -11.69356210399991
              ],
              [
                -75.53592973499997,
                -11.69615172999994
              ],
              [
                -75.53298598499993,
                -11.69771322899993
              ],
              [
                -75.53182610999988,
                -11.702140604999954
              ],
              [
                -75.53239823499996,
                -11.705271479999908
              ],
              [
                -75.5297461099999,
                -11.713847604999955
              ],
              [
                -75.52780323499991,
                -11.716309854999906
              ],
              [
                -75.52653535999991,
                -11.720903354999962
              ],
              [
                -75.52112598499997,
                -11.72854547999998
              ],
              [
                -75.52163473499996,
                -11.736580104999973
              ],
              [
                -75.52119360899997,
                -11.739973729999974
              ],
              [
                -75.51974748499998,
                -11.741909103999888
              ],
              [
                -75.51535160999998,
                -11.743509729999971
              ],
              [
                -75.51626398499997,
                -11.74599572999989
              ],
              [
                -75.51872073499999,
                -11.748135604999845
              ],
              [
                -75.52241423499999,
                -11.74979022899987
              ],
              [
                -75.5223176099999,
                -11.753590853999924
              ],
              [
                -75.51807160999994,
                -11.756201854999972
              ],
              [
                -75.51420698499993,
                -11.756650854999975
              ],
              [
                -75.51279485999999,
                -11.76008010399994
              ],
              [
                -75.51341210999988,
                -11.762294978999876
              ],
              [
                -75.5165781099999,
                -11.765263728999855
              ],
              [
                -75.51718948499996,
                -11.768798854999943
              ],
              [
                -75.51504498499997,
                -11.774273479999977
              ],
              [
                -75.51872498499989,
                -11.777385479999964
              ],
              [
                -75.52893898499991,
                -11.779500979999966
              ],
              [
                -75.53695698499996,
                -11.779595729999869
              ],
              [
                -75.54000973499996,
                -11.766234354999938
              ],
              [
                -75.54155998499994,
                -11.757279979999907
              ],
              [
                -75.54365998399999,
                -11.751989979999905
              ],
              [
                -75.5462999849999,
                -11.75003997999994
              ],
              [
                -75.54711998499994,
                -11.74791997999995
              ],
              [
                -75.55119998499998,
                -11.74257997999996
              ],
              [
                -75.55542998499993,
                -11.735449978999952
              ],
              [
                -75.55714998499997,
                -11.734409979999896
              ],
              [
                -75.55922548499996,
                -11.73085285499991
              ],
              [
                -75.5604199849999,
                -11.729009979999944
              ],
              [
                -75.55888998499995,
                -11.725899978999905
              ],
              [
                -75.55605998499993,
                -11.724039853999955
              ],
              [
                -75.55595998499984,
                -11.717709979999938
              ],
              [
                -75.55727998499998,
                -11.71297997899984
              ],
              [
                -75.56042998499993,
                -11.709470104999866
              ],
              [
                -75.56694448499991,
                -11.711845353999934
              ],
              [
                -75.56997660999997,
                -11.713580104999949
              ],
              [
                -75.57528773499996,
                -11.71453272899987
              ],
              [
                -75.57869385999993,
                -11.713220228999887
              ],
              [
                -75.58186573499995,
                -11.708610478999958
              ],
              [
                -75.58607410999997,
                -11.70387972899988
              ],
              [
                -75.5901448599999,
                -11.700381479999976
              ],
              [
                -75.58761710999994,
                -11.693965978999927
              ],
              [
                -75.58883585999996,
                -11.682545603999927
              ],
              [
                -75.59038135999992,
                -11.679495853999924
              ],
              [
                -75.59960235999995,
                -11.677301603999922
              ],
              [
                -75.60288473499992,
                -11.677484353999944
              ],
              [
                -75.60623235999998,
                -11.674359354999922
              ],
              [
                -75.60778998499995,
                -11.670169979999969
              ],
              [
                -75.60903123499997,
                -11.662199228999839
              ],
              [
                -75.60900498499996,
                -11.652854979999915
              ],
              [
                -75.60983560999995,
                -11.650072104999879
              ],
              [
                -75.61389848499994,
                -11.647855478999816
              ],
              [
                -75.61209723499991,
                -11.646264603999896
              ],
              [
                -75.61334573499994,
                -11.633320479999952
              ],
              [
                -75.61636523499999,
                -11.625926603999972
              ],
              [
                -75.61741048499988,
                -11.618571354999972
              ],
              [
                -75.62157823499996,
                -11.61162522899997
              ],
              [
                -75.6218203599999,
                -11.609849478999934
              ],
              [
                -75.61936710999998,
                -11.605391728999962
              ],
              [
                -75.61674973499993,
                -11.603532103999953
              ],
              [
                -75.61610685999995,
                -11.598618854999927
              ],
              [
                -75.62067348499994,
                -11.590470353999933
              ],
              [
                -75.62279123499997,
                -11.588625478999973
              ],
              [
                -75.61825910999994,
                -11.586809228999812
              ],
              [
                -75.61340435999989,
                -11.582475479999971
              ],
              [
                -75.61176498499998,
                -11.582377104999978
              ],
              [
                -75.60763360999994,
                -11.584475603999977
              ],
              [
                -75.60373173499994,
                -11.583557478999978
              ],
              [
                -75.60212510899993,
                -11.581819729999893
              ],
              [
                -75.6007879849999,
                -11.57762847999993
              ],
              [
                -75.59930535999996,
                -11.577163729999938
              ],
              [
                -75.5962527349999,
                -11.578611979999948
              ],
              [
                -75.59343273499996,
                -11.582541353999886
              ],
              [
                -75.58943548499991,
                -11.584482478999917
              ],
              [
                -75.58626960999999,
                -11.58897522899997
              ],
              [
                -75.58330360999997,
                -11.59416572999993
              ],
              [
                -75.57999835999988,
                -11.594285103999937
              ],
              [
                -75.58060348499993,
                -11.589445228999864
              ],
              [
                -75.57784535999991,
                -11.583608979999951
              ],
              [
                -75.57624398499985,
                -11.58163385399996
              ],
              [
                -75.57170635999984,
                -11.583259229999953
              ],
              [
                -75.56783985999994,
                -11.587351604999924
              ],
              [
                -75.56549123499991,
                -11.59108522899993
              ],
              [
                -75.56229498499988,
                -11.593339853999964
              ],
              [
                -75.55984360999992,
                -11.593253353999899
              ],
              [
                -75.55717723499993,
                -11.595093103999886
              ],
              [
                -75.55684885999995,
                -11.598573478999924
              ],
              [
                -75.55560048499996,
                -11.601030729999934
              ],
              [
                -75.55056460899993,
                -11.599839354999858
              ],
              [
                -75.54909573499998,
                -11.598285103999956
              ]
            ]
          ]
        ],
        "type": "MultiPolygon"
      },
      "type": "Feature",
      "properties": {
        "PROVINCIA": "JAUJA",
        "DISTRITO": "ACOLLA",
        "name": "ACOLLA",
        "ID": "110302",
        "DEPARTAMEN": "JUNIN"
      }
    }
  ]
}
