{
  "type": "FeatureCollection",
  "features": [
    {
      "geometry": {
        "coordinates": [
          [
            [
              [
                -75.48541998499991,
                -11.767379978999884
              ],
              [
                -75.4821599849999,
                -11.775439978999941
              ],
              [
                -75.4796599849999,
                -11.776209979999976
              ],
              [
                -75.47644010999994,
                -11.779589979999855
              ],
              [
                -75.47330998499996,
                -11.781279979999965
              ],
              [
                -75.46784998499993,
                -11.781369978999976
              ],
              [
                -75.46398998499996,
                -11.78224997999996
              ],
              [
                -75.4614699849999,
                -11.7815799789999
              ],
              [
                -75.46098998499997,
                -11.784289979999869
              ],
              [
                -75.45796998499992,
                -11.786319979999973
              ],
              [
                -75.4582088599999,
                -11.787614854999902
              ],
              [
                -75.46341985899994,
                -11.792146479999872
              ],
              [
                -75.4738729849999,
                -11.787958979999871
              ],
              [
                -75.48258010999996,
                -11.784101479999833
              ],
              [
                -75.49249223499993,
                -11.78530072999996
              ],
              [
                -75.49809173499995,
                -11.779765603999977
              ],
              [
                -75.50016010999997,
                -11.77902147999987
              ],
              [
                -75.50138098499997,
                -11.775021479999964
              ],
              [
                -75.50891210999998,
                -11.773933603999978
              ],
              [
                -75.51504498499997,
                -11.774273479999977
              ],
              [
                -75.51718948499996,
                -11.768798854999943
              ],
              [
                -75.5165781099999,
                -11.765263728999855
              ],
              [
                -75.51341210999988,
                -11.762294978999876
              ],
              [
                -75.51279485999999,
                -11.76008010399994
              ],
              [
                -75.50141210999988,
                -11.760318354999924
              ],
              [
                -75.49527735999999,
                -11.75767972899996
              ],
              [
                -75.49171485999995,
                -11.759242229999813
              ],
              [
                -75.4886777349999,
                -11.764390604999903
              ],
              [
                -75.48541998499991,
                -11.767379978999884
              ]
            ]
          ]
        ],
        "type": "MultiPolygon"
      },
      "type": "Feature",
      "properties": {
        "PROVINCIA": "JAUJA",
        "DISTRITO": "JAUJA",
        "name": "JAUJA",
        "ID": "110301",
        "DEPARTAMEN": "JUNIN"
      }
    }
  ]
}
