{
  "type": "FeatureCollection",
  "features": [
    {
      "geometry": {
        "coordinates": [
          [
            [
              [
                -75.4009949849999,
                -11.874244479999902
              ],
              [
                -75.40514998499998,
                -11.875660103999962
              ],
              [
                -75.41050998499998,
                -11.879869854999924
              ],
              [
                -75.41180985999989,
                -11.881999979999875
              ],
              [
                -75.41756260999989,
                -11.885951229999876
              ],
              [
                -75.42046735999998,
                -11.886655854999901
              ],
              [
                -75.42502198499989,
                -11.889388729999894
              ],
              [
                -75.43001510999994,
                -11.88868935499994
              ],
              [
                -75.4350731099999,
                -11.886675604999937
              ],
              [
                -75.43844510999998,
                -11.88367822999993
              ],
              [
                -75.43985010999995,
                -11.881102479999981
              ],
              [
                -75.44364348499994,
                -11.87876072999984
              ],
              [
                -75.44521673399998,
                -11.878863229999979
              ],
              [
                -75.45113785999996,
                -11.88426110499995
              ],
              [
                -75.45711710999996,
                -11.885191228999872
              ],
              [
                -75.463447235,
                -11.889070354999944
              ],
              [
                -75.46959998499995,
                -11.883939978999933
              ],
              [
                -75.46968998499995,
                -11.881889979999926
              ],
              [
                -75.46667998399994,
                -11.877439979999963
              ],
              [
                -75.46525998499993,
                -11.874309978999975
              ],
              [
                -75.46106998499994,
                -11.869909979999932
              ],
              [
                -75.45848998499997,
                -11.868369979999954
              ],
              [
                -75.45753998399988,
                -11.863560104999976
              ],
              [
                -75.45617348399998,
                -11.86240760499993
              ],
              [
                -75.45332148499989,
                -11.86312060499995
              ],
              [
                -75.44864398499993,
                -11.86560622899998
              ],
              [
                -75.44498660999994,
                -11.864996604999817
              ],
              [
                -75.44250585999993,
                -11.861792979999962
              ],
              [
                -75.43976698499989,
                -11.858622604999937
              ],
              [
                -75.42823248499997,
                -11.848362229999964
              ],
              [
                -75.42601960999991,
                -11.84692047999988
              ],
              [
                -75.42241010899988,
                -11.846831979999934
              ],
              [
                -75.41682160899995,
                -11.837946229999943
              ],
              [
                -75.41304335999996,
                -11.83962710499992
              ],
              [
                -75.41233323499995,
                -11.840979104999974
              ],
              [
                -75.41122260899988,
                -11.845879354999965
              ],
              [
                -75.41187923499996,
                -11.849004729999933
              ],
              [
                -75.40813610999993,
                -11.858318853999833
              ],
              [
                -75.40750998399994,
                -11.863983729999916
              ],
              [
                -75.40476460899998,
                -11.865888604999896
              ],
              [
                -75.40201585999989,
                -11.870741979999934
              ],
              [
                -75.4009949849999,
                -11.874244479999902
              ]
            ]
          ]
        ],
        "type": "MultiPolygon"
      },
      "type": "Feature",
      "properties": {
        "PROVINCIA": "JAUJA",
        "DISTRITO": "LEONOR ORDOÑEZ",
        "name": "LEONOR ORDOÑEZ",
        "ID": "110312",
        "DEPARTAMEN": "JUNIN"
      }
    }
  ]
}
