{
  "type": "FeatureCollection",
  "features": [
    {
      "geometry": {
        "coordinates": [
          [
            [
              [
                -75.33096998499997,
                -11.810969853999893
              ],
              [
                -75.33424998499999,
                -11.812899978999894
              ],
              [
                -75.3359299839999,
                -11.816049978999956
              ],
              [
                -75.34063998499988,
                -11.818609978999916
              ],
              [
                -75.34311698499994,
                -11.820761479999874
              ],
              [
                -75.34577348499982,
                -11.821520479999947
              ],
              [
                -75.34874398399995,
                -11.821062478999977
              ],
              [
                -75.35679198399998,
                -11.815527104999944
              ],
              [
                -75.35878998499999,
                -11.817159979999872
              ],
              [
                -75.36063998499992,
                -11.820879979999916
              ],
              [
                -75.36384998499994,
                -11.824289979999946
              ],
              [
                -75.36379298499998,
                -11.831285104999836
              ],
              [
                -75.36583010999993,
                -11.833710978999932
              ],
              [
                -75.36061998499997,
                -11.843119979999926
              ],
              [
                -75.36499998499988,
                -11.844149979999884
              ],
              [
                -75.3669999849999,
                -11.846299853999938
              ],
              [
                -75.3732999849999,
                -11.850299978999885
              ],
              [
                -75.37316998499989,
                -11.854219978999879
              ],
              [
                -75.37395010999995,
                -11.855639979999978
              ],
              [
                -75.37543998499996,
                -11.862399979999907
              ],
              [
                -75.37432998499997,
                -11.863839978999863
              ],
              [
                -75.37869435999994,
                -11.8643052299999
              ],
              [
                -75.39392823499998,
                -11.872504479999918
              ],
              [
                -75.4009949849999,
                -11.874244479999902
              ],
              [
                -75.40201585999989,
                -11.870741979999934
              ],
              [
                -75.40476460899998,
                -11.865888604999896
              ],
              [
                -75.40750998399994,
                -11.863983729999916
              ],
              [
                -75.40813610999993,
                -11.858318853999833
              ],
              [
                -75.41187923499996,
                -11.849004729999933
              ],
              [
                -75.41122260899988,
                -11.845879354999965
              ],
              [
                -75.41233323499995,
                -11.840979104999974
              ],
              [
                -75.40552535899991,
                -11.83808985499985
              ],
              [
                -75.39850885899989,
                -11.837525978999906
              ],
              [
                -75.38881085999998,
                -11.83493985499996
              ],
              [
                -75.38142185899994,
                -11.830413979999946
              ],
              [
                -75.37745035999995,
                -11.825703728999883
              ],
              [
                -75.37440235899999,
                -11.820993104999957
              ],
              [
                -75.37316998499989,
                -11.816769978999844
              ],
              [
                -75.36831998399998,
                -11.815949979999857
              ],
              [
                -75.36664998499998,
                -11.813899979999974
              ],
              [
                -75.3640886099999,
                -11.804940228999897
              ],
              [
                -75.36127198499997,
                -11.802894853999874
              ],
              [
                -75.35580648499996,
                -11.795484603999853
              ],
              [
                -75.35407823499997,
                -11.791890604999935
              ],
              [
                -75.3527552349999,
                -11.793238103999954
              ],
              [
                -75.35252998399994,
                -11.801149979999934
              ],
              [
                -75.34842998499988,
                -11.809149979999972
              ],
              [
                -75.33854998499999,
                -11.807939978999968
              ],
              [
                -75.33261998399996,
                -11.808269979999977
              ],
              [
                -75.33096998499997,
                -11.810969853999893
              ]
            ]
          ]
        ],
        "type": "MultiPolygon"
      },
      "type": "Feature",
      "properties": {
        "PROVINCIA": "JAUJA",
        "DISTRITO": "SAN LORENZO",
        "name": "SAN LORENZO",
        "ID": "110326",
        "DEPARTAMEN": "JUNIN"
      }
    }
  ]
}
