{
  "type": "FeatureCollection",
  "features": [
    {
      "geometry": {
        "coordinates": [
          [
            [
              [
                -78.59090061299992,
                -5.868605849999938
              ],
              [
                -78.58728686199998,
                -5.8702120989999
              ],
              [
                -78.58246836299998,
                -5.876435848999961
              ],
              [
                -78.57900986299984,
                -5.876230223999926
              ],
              [
                -78.57716473799985,
                -5.877404223999974
              ],
              [
                -78.57468873799996,
                -5.875632848999885
              ],
              [
                -78.56847348699989,
                -5.877308223999933
              ],
              [
                -78.56371836299991,
                -5.877502098999912
              ],
              [
                -78.56128736299996,
                -5.876837473999899
              ],
              [
                -78.55481273799995,
                -5.876486098999976
              ],
              [
                -78.54713336299989,
                -5.878443723999851
              ],
              [
                -78.54221448699997,
                -5.88270984899998
              ],
              [
                -78.53530661299993,
                -5.88679497399994
              ],
              [
                -78.52833798799998,
                -5.893531724999889
              ],
              [
                -78.52384273699988,
                -5.898383849999902
              ],
              [
                -78.51625186299987,
                -5.910633849999954
              ],
              [
                -78.51238748799994,
                -5.914326223999979
              ],
              [
                -78.50894161199994,
                -5.914766598999961
              ],
              [
                -78.50509123699993,
                -5.914212349999957
              ],
              [
                -78.50237848799992,
                -5.917712723999955
              ],
              [
                -78.49940186199996,
                -5.922657348999962
              ],
              [
                -78.49771186299989,
                -5.928274098999907
              ],
              [
                -78.49699336299989,
                -5.934228848999908
              ],
              [
                -78.49779286199998,
                -5.938169223999978
              ],
              [
                -78.49728523799996,
                -5.941309849999868
              ],
              [
                -78.50223048699996,
                -5.944705473999932
              ],
              [
                -78.50486661299993,
                -5.95131822399992
              ],
              [
                -78.5115241119999,
                -5.952658598999903
              ],
              [
                -78.51188148799991,
                -5.959718224999961
              ],
              [
                -78.51018048699996,
                -5.966256223999835
              ],
              [
                -78.51232836299994,
                -5.969011723999927
              ],
              [
                -78.51375811299994,
                -5.973122348999937
              ],
              [
                -78.51356923799995,
                -5.980674348999969
              ],
              [
                -78.51465173799988,
                -5.983264848999966
              ],
              [
                -78.51808398799994,
                -5.987726598999927
              ],
              [
                -78.5220879869999,
                -5.988775349999855
              ],
              [
                -78.5228926129999,
                -5.990406223999969
              ],
              [
                -78.52798048799997,
                -5.991406223999945
              ],
              [
                -78.53059761299994,
                -5.993540973999814
              ],
              [
                -78.53896486299993,
                -5.995847473999959
              ],
              [
                -78.54395898799999,
                -5.999177724999981
              ],
              [
                -78.54846098799999,
                -6.000019473999942
              ],
              [
                -78.55113086299997,
                -6.002328098999953
              ],
              [
                -78.55653711199994,
                -6.002749973999869
              ],
              [
                -78.55806448699991,
                -6.004646473999969
              ],
              [
                -78.56364061199997,
                -6.007218724999973
              ],
              [
                -78.57156636199988,
                -6.011439473999872
              ],
              [
                -78.57662698799993,
                -6.016478348999954
              ],
              [
                -78.57950386199997,
                -6.017150348999962
              ],
              [
                -78.58207036199991,
                -6.018816348999962
              ],
              [
                -78.58757036299988,
                -6.020195348999948
              ],
              [
                -78.59101361299997,
                -6.019542973999876
              ],
              [
                -78.59653123799995,
                -6.021410098999979
              ],
              [
                -78.60092373799995,
                -6.022144473999901
              ],
              [
                -78.60451948799994,
                -6.021943348999969
              ],
              [
                -78.60775386199992,
                -6.023277348999954
              ],
              [
                -78.61003911299991,
                -6.023142598999925
              ],
              [
                -78.61197486199995,
                -6.021449223999866
              ],
              [
                -78.6122716129999,
                -6.018182473999957
              ],
              [
                -78.61478511299993,
                -6.014939348999917
              ],
              [
                -78.62046061299998,
                -6.012669098999936
              ],
              [
                -78.62232548799989,
                -6.011087973999906
              ],
              [
                -78.62619336199998,
                -6.004874973999961
              ],
              [
                -78.62823236299994,
                -5.995984348999912
              ],
              [
                -78.62818548799999,
                -5.990613223999958
              ],
              [
                -78.62981261199997,
                -5.989046848999919
              ],
              [
                -78.63586323799996,
                -5.988744098999916
              ],
              [
                -78.63774023799988,
                -5.984974599999873
              ],
              [
                -78.63943348799995,
                -5.974474598999905
              ],
              [
                -78.64151748799998,
                -5.969847598999877
              ],
              [
                -78.64319536299996,
                -5.96820484899996
              ],
              [
                -78.64766161199992,
                -5.967392724999968
              ],
              [
                -78.65001648799989,
                -5.963048348999962
              ],
              [
                -78.65336723799987,
                -5.962580098999979
              ],
              [
                -78.65837498799988,
                -5.958345723999969
              ],
              [
                -78.66032036299998,
                -5.955558598999971
              ],
              [
                -78.66005661299994,
                -5.950216848999958
              ],
              [
                -78.6615644879999,
                -5.942915973999902
              ],
              [
                -78.66288673799988,
                -5.94156634899997
              ],
              [
                -78.67023436299996,
                -5.92739647399992
              ],
              [
                -78.6717967379999,
                -5.919255848999967
              ],
              [
                -78.67315036299993,
                -5.916445348999957
              ],
              [
                -78.67629486299995,
                -5.913824223999882
              ],
              [
                -78.68277061299989,
                -5.911075973999971
              ],
              [
                -78.68491911199993,
                -5.907954348999965
              ],
              [
                -78.68462886299983,
                -5.904597598999942
              ],
              [
                -78.68600223799996,
                -5.900878598999896
              ],
              [
                -78.68765823799993,
                -5.896908223999958
              ],
              [
                -78.69068748799992,
                -5.89342384899993
              ],
              [
                -78.69593361299991,
                -5.888527348999901
              ],
              [
                -78.69604698799998,
                -5.883193473999938
              ],
              [
                -78.69165386299994,
                -5.876216098999919
              ],
              [
                -78.69133011299988,
                -5.871960973999933
              ],
              [
                -78.69268748799993,
                -5.869755598999973
              ],
              [
                -78.69589198799997,
                -5.866809598999907
              ],
              [
                -78.69837273799993,
                -5.860865973999921
              ],
              [
                -78.6967706129999,
                -5.852751473999831
              ],
              [
                -78.69821773699994,
                -5.849288723999848
              ],
              [
                -78.69914798799988,
                -5.840760848999878
              ],
              [
                -78.7015807379999,
                -5.836330348999979
              ],
              [
                -78.70677773799986,
                -5.831985973999963
              ],
              [
                -78.71201536299998,
                -5.830443098999922
              ],
              [
                -78.71191398799994,
                -5.826754598999912
              ],
              [
                -78.70912311299992,
                -5.816675973999907
              ],
              [
                -78.70839948799994,
                -5.811300848999963
              ],
              [
                -78.70602198799992,
                -5.807062723999877
              ],
              [
                -78.70431648799996,
                -5.794555223999907
              ],
              [
                -78.70178386299995,
                -5.791609223999956
              ],
              [
                -78.70057048799998,
                -5.785220848999927
              ],
              [
                -78.69873861299993,
                -5.781883598999968
              ],
              [
                -78.69471898799998,
                -5.777051848999918
              ],
              [
                -78.69252648699995,
                -5.771854848999965
              ],
              [
                -78.69354148799988,
                -5.769296848999886
              ],
              [
                -78.69289423699996,
                -5.762769473999924
              ],
              [
                -78.6915504879999,
                -5.758272973999965
              ],
              [
                -78.69253248799998,
                -5.755792098999848
              ],
              [
                -78.69175511299989,
                -5.750741848999951
              ],
              [
                -78.68994823799994,
                -5.747832848999963
              ],
              [
                -78.68603023799994,
                -5.744367598999929
              ],
              [
                -78.68245723799998,
                -5.74306809899997
              ],
              [
                -78.67996336299996,
                -5.747520348999956
              ],
              [
                -78.68480836299995,
                -5.749318473999949
              ],
              [
                -78.6868562379999,
                -5.754113473999951
              ],
              [
                -78.68570736299989,
                -5.760956348999912
              ],
              [
                -78.68883311299999,
                -5.769695598999931
              ],
              [
                -78.6880874879999,
                -5.775567098999943
              ],
              [
                -78.68541586299995,
                -5.77778872399989
              ],
              [
                -78.68221523799997,
                -5.783041223999874
              ],
              [
                -78.6812087379999,
                -5.788043723999976
              ],
              [
                -78.67501448699994,
                -5.795980973999917
              ],
              [
                -78.67349761299994,
                -5.80062084899987
              ],
              [
                -78.67412223799994,
                -5.806242348999945
              ],
              [
                -78.67305148799989,
                -5.809186973999942
              ],
              [
                -78.66843648799988,
                -5.814286473999914
              ],
              [
                -78.66141236299984,
                -5.820339848999936
              ],
              [
                -78.65861411299994,
                -5.826107598999954
              ],
              [
                -78.65513061299993,
                -5.830333473999929
              ],
              [
                -78.65393623699998,
                -5.835790348999979
              ],
              [
                -78.6499797379999,
                -5.838420098999961
              ],
              [
                -78.64362123799992,
                -5.841512723999926
              ],
              [
                -78.63897148799998,
                -5.845319223999923
              ],
              [
                -78.63658636299988,
                -5.848957098999961
              ],
              [
                -78.62903573699998,
                -5.854293098999904
              ],
              [
                -78.62927661299994,
                -5.8556582249999
              ],
              [
                -78.62574311299994,
                -5.857866723999962
              ],
              [
                -78.62269148799999,
                -5.862404098999946
              ],
              [
                -78.61907773699994,
                -5.86609822399987
              ],
              [
                -78.60947161299998,
                -5.86930872399995
              ],
              [
                -78.60084398799995,
                -5.870864348999874
              ],
              [
                -78.59619973799988,
                -5.869492223999941
              ],
              [
                -78.59090061299992,
                -5.868605849999938
              ]
            ]
          ]
        ],
        "type": "MultiPolygon"
      },
      "type": "Feature",
      "properties": {
        "PROVINCIA": "UTCUBAMBA",
        "DISTRITO": "CUMBA",
        "name": "CUMBA",
        "ID": "010703",
        "DEPARTAMEN": "AMAZONAS"
      }
    }
  ]
}
