{
  "type": "FeatureCollection",
  "features": [
    {
      "geometry": {
        "coordinates": [
          [
            [
              [
                -77.30010011199994,
                -10.284632477999935
              ],
              [
                -77.29928686199997,
                -10.289395727999931
              ],
              [
                -77.30074786199998,
                -10.292250477999971
              ],
              [
                -77.30174086199997,
                -10.296819477999918
              ],
              [
                -77.30372448699995,
                -10.302152602999968
              ],
              [
                -77.30601473699994,
                -10.30569197799997
              ],
              [
                -77.30862111199986,
                -10.315724602999978
              ],
              [
                -77.29597986099992,
                -10.317578228999935
              ],
              [
                -77.28603636199989,
                -10.317055477999872
              ],
              [
                -77.28408523599995,
                -10.31524710299982
              ],
              [
                -77.28160936099988,
                -10.315826227999935
              ],
              [
                -77.27554298699988,
                -10.314580852999939
              ],
              [
                -77.27278273699994,
                -10.319863227999917
              ],
              [
                -77.27021298699992,
                -10.322028603999968
              ],
              [
                -77.2692006119999,
                -10.326436352999963
              ],
              [
                -77.26971323599997,
                -10.330380477999881
              ],
              [
                -77.26859486099988,
                -10.331855853999912
              ],
              [
                -77.2680238619999,
                -10.335805603999972
              ],
              [
                -77.27003773699994,
                -10.339292102999877
              ],
              [
                -77.2694139869999,
                -10.340944977999925
              ],
              [
                -77.26523498699999,
                -10.343127977999927
              ],
              [
                -77.26302086099992,
                -10.346620977999976
              ],
              [
                -77.26058823699992,
                -10.347681228999875
              ],
              [
                -77.25784386199996,
                -10.350425727999948
              ],
              [
                -77.25691211199995,
                -10.357808727999952
              ],
              [
                -77.26563186099997,
                -10.363798102999965
              ],
              [
                -77.27218961099999,
                -10.371351852999965
              ],
              [
                -77.27525498699993,
                -10.376470727999845
              ],
              [
                -77.27726911199994,
                -10.381845102999876
              ],
              [
                -77.27989711099997,
                -10.384094478999941
              ],
              [
                -77.28103548599995,
                -10.387811478999822
              ],
              [
                -77.28303211099995,
                -10.389013102999968
              ],
              [
                -77.28745598599994,
                -10.388610602999961
              ],
              [
                -77.29493598699997,
                -10.384745727999928
              ],
              [
                -77.30011598699991,
                -10.385488352999971
              ],
              [
                -77.30721473599993,
                -10.383413727999937
              ],
              [
                -77.31183786199989,
                -10.383359103999851
              ],
              [
                -77.31411898599998,
                -10.384386353999844
              ],
              [
                -77.31966173599994,
                -10.389540102999945
              ],
              [
                -77.32241698699994,
                -10.390869102999943
              ],
              [
                -77.33002698599995,
                -10.393089602999908
              ],
              [
                -77.33382811099995,
                -10.396603727999945
              ],
              [
                -77.33422236099989,
                -10.400476478999963
              ],
              [
                -77.33850198699997,
                -10.409099603999948
              ],
              [
                -77.34358311199998,
                -10.410779353999942
              ],
              [
                -77.34727486199995,
                -10.413277977999883
              ],
              [
                -77.35305073599989,
                -10.412111477999929
              ],
              [
                -77.36039398599996,
                -10.413044853999963
              ],
              [
                -77.36484998699996,
                -10.415022352999927
              ],
              [
                -77.37144386199992,
                -10.415644727999961
              ],
              [
                -77.37703786199995,
                -10.414963602999933
              ],
              [
                -77.38313161099995,
                -10.414791977999926
              ],
              [
                -77.38504786099998,
                -10.41717210299987
              ],
              [
                -77.39518148699989,
                -10.421490852999966
              ],
              [
                -77.39788211199993,
                -10.424121227999933
              ],
              [
                -77.39874873699989,
                -10.426859853999929
              ],
              [
                -77.39886686099999,
                -10.431981227999927
              ],
              [
                -77.40130936099996,
                -10.433163102999856
              ],
              [
                -77.40328123699993,
                -10.436146478999945
              ],
              [
                -77.40414598699988,
                -10.439348228999847
              ],
              [
                -77.40759673599996,
                -10.441276603999881
              ],
              [
                -77.40926736099988,
                -10.443130227999973
              ],
              [
                -77.40965286199997,
                -10.446899602999906
              ],
              [
                -77.41245823699995,
                -10.450024477999932
              ],
              [
                -77.41509161199997,
                -10.451091977999965
              ],
              [
                -77.41792611199998,
                -10.45487535399991
              ],
              [
                -77.41939198699998,
                -10.459833978999939
              ],
              [
                -77.41983298699995,
                -10.463532228999952
              ],
              [
                -77.41876173599996,
                -10.466767728999969
              ],
              [
                -77.41844636199988,
                -10.474331727999981
              ],
              [
                -77.42175036199995,
                -10.479790603999959
              ],
              [
                -77.42172273699998,
                -10.482773478999832
              ],
              [
                -77.42045573699994,
                -10.487095852999971
              ],
              [
                -77.42281248699999,
                -10.489189478999833
              ],
              [
                -77.42811723699998,
                -10.492519477999906
              ],
              [
                -77.42341211199988,
                -10.5039589779999
              ],
              [
                -77.42271873699997,
                -10.51213472899991
              ],
              [
                -77.42131448699996,
                -10.514728477999938
              ],
              [
                -77.42133398699997,
                -10.520865228999924
              ],
              [
                -77.42197461099994,
                -10.523400352999829
              ],
              [
                -77.42001948599994,
                -10.529080103999945
              ],
              [
                -77.42283786099995,
                -10.527431602999968
              ],
              [
                -77.42513086099996,
                -10.528697227999942
              ],
              [
                -77.43089261199992,
                -10.529773477999981
              ],
              [
                -77.43654486199989,
                -10.528574227999968
              ],
              [
                -77.44451361099993,
                -10.530619102999879
              ],
              [
                -77.44943748599991,
                -10.533183602999884
              ],
              [
                -77.45263286199997,
                -10.534206978999919
              ],
              [
                -77.45633986199994,
                -10.534150353999962
              ],
              [
                -77.45969923599989,
                -10.53276947799992
              ],
              [
                -77.4639374859999,
                -10.534226977999879
              ],
              [
                -77.46769536199997,
                -10.537874978999923
              ],
              [
                -77.47017311199988,
                -10.534684977999973
              ],
              [
                -77.46711823599992,
                -10.53059197899995
              ],
              [
                -77.46430298699994,
                -10.525520477999919
              ],
              [
                -77.46384373699988,
                -10.522864978999849
              ],
              [
                -77.46438286199998,
                -10.518332728999837
              ],
              [
                -77.46338448699998,
                -10.515217853999957
              ],
              [
                -77.46102848699991,
                -10.512522477999937
              ],
              [
                -77.46154311199996,
                -10.508807727999908
              ],
              [
                -77.45877236199993,
                -10.499684102999879
              ],
              [
                -77.45765423699999,
                -10.497807228999932
              ],
              [
                -77.45681561199996,
                -10.49275572799985
              ],
              [
                -77.45851273699986,
                -10.488083727999822
              ],
              [
                -77.46008286099999,
                -10.485781352999936
              ],
              [
                -77.45851273699986,
                -10.4825929779999
              ],
              [
                -77.457634236,
                -10.478439977999926
              ],
              [
                -77.45332136099995,
                -10.475648478999972
              ],
              [
                -77.45170423699989,
                -10.471152227999937
              ],
              [
                -77.45206361199996,
                -10.462766353999825
              ],
              [
                -77.45015648599991,
                -10.454713228999879
              ],
              [
                -77.44808911199993,
                -10.450630103999913
              ],
              [
                -77.44551936199991,
                -10.448845603999871
              ],
              [
                -77.44388223599998,
                -10.44518047799994
              ],
              [
                -77.4432177359999,
                -10.439340727999934
              ],
              [
                -77.43686686099988,
                -10.43373097899996
              ],
              [
                -77.43834936199988,
                -10.427495103999945
              ],
              [
                -77.43739073599988,
                -10.423942727999815
              ],
              [
                -77.43730973599992,
                -10.413473852999857
              ],
              [
                -77.43522973599994,
                -10.410513978999916
              ],
              [
                -77.43200323699989,
                -10.40886060299988
              ],
              [
                -77.43248323599994,
                -10.406700728999965
              ],
              [
                -77.4304961119999,
                -10.403691353999932
              ],
              [
                -77.43234986099998,
                -10.398407602999896
              ],
              [
                -77.43209586199993,
                -10.394722477999835
              ],
              [
                -77.43314986099989,
                -10.388221227999964
              ],
              [
                -77.43397648699994,
                -10.38712797799991
              ],
              [
                -77.4312832359999,
                -10.384301352999898
              ],
              [
                -77.43058986099993,
                -10.379501477999952
              ],
              [
                -77.4309632369999,
                -10.375874852999914
              ],
              [
                -77.42818623599999,
                -10.370819602999973
              ],
              [
                -77.42880336199988,
                -10.36608860299998
              ],
              [
                -77.42788336199999,
                -10.364645727999857
              ],
              [
                -77.42277686199998,
                -10.362061977999929
              ],
              [
                -77.42083523699989,
                -10.359638727999823
              ],
              [
                -77.41915023699994,
                -10.36128872799992
              ],
              [
                -77.41467036199998,
                -10.36278197799993
              ],
              [
                -77.4078593619999,
                -10.363203102999933
              ],
              [
                -77.40435061199997,
                -10.364808603999904
              ],
              [
                -77.39840411099988,
                -10.361768602999916
              ],
              [
                -77.39787673599994,
                -10.359845102999941
              ],
              [
                -77.3945108609999,
                -10.357635478999896
              ],
              [
                -77.39157761199994,
                -10.354408853999928
              ],
              [
                -77.38837773699987,
                -10.353688852999937
              ],
              [
                -77.38635111199994,
                -10.350462352999955
              ],
              [
                -77.38547461099989,
                -10.34670510299992
              ],
              [
                -77.38276823699988,
                -10.344646477999959
              ],
              [
                -77.37904461199992,
                -10.339449352999907
              ],
              [
                -77.37648586099994,
                -10.338013352999951
              ],
              [
                -77.37394486199992,
                -10.332381102999932
              ],
              [
                -77.36928436199997,
                -10.328398102999927
              ],
              [
                -77.36601248699998,
                -10.323784602999922
              ],
              [
                -77.36321211099988,
                -10.318009102999895
              ],
              [
                -77.36203448699996,
                -10.313503477999973
              ],
              [
                -77.35944886199991,
                -10.312709852999944
              ],
              [
                -77.35983286099997,
                -10.309893853999824
              ],
              [
                -77.36203448599997,
                -10.305080977999864
              ],
              [
                -77.36232811099995,
                -10.302820353999948
              ],
              [
                -77.36111286199991,
                -10.299551353999902
              ],
              [
                -77.3590376119999,
                -10.29719597799982
              ],
              [
                -77.35950386099995,
                -10.29203322899997
              ],
              [
                -77.35471398599992,
                -10.289425977999883
              ],
              [
                -77.35501961199998,
                -10.286958978999962
              ],
              [
                -77.35244198699996,
                -10.281317977999947
              ],
              [
                -77.34981511199999,
                -10.281033977999812
              ],
              [
                -77.34563861099997,
                -10.278470727999888
              ],
              [
                -77.34223261099999,
                -10.272414977999972
              ],
              [
                -77.34038661199992,
                -10.266493727999944
              ],
              [
                -77.3371779869999,
                -10.264325228999951
              ],
              [
                -77.33371286099992,
                -10.259933602999922
              ],
              [
                -77.33002098599997,
                -10.25881185299994
              ],
              [
                -77.32712261099988,
                -10.256219352999949
              ],
              [
                -77.32307998599998,
                -10.258226227999955
              ],
              [
                -77.31878948699989,
                -10.263650727999902
              ],
              [
                -77.31779648599996,
                -10.267270602999929
              ],
              [
                -77.31549648599992,
                -10.270411478999847
              ],
              [
                -77.3101923609999,
                -10.270726852999928
              ],
              [
                -77.30795598699996,
                -10.271500977999949
              ],
              [
                -77.30584873699996,
                -10.273680102999947
              ],
              [
                -77.30527523599994,
                -10.282123727999931
              ],
              [
                -77.30247986099994,
                -10.284632477999935
              ],
              [
                -77.30010011199994,
                -10.284632477999935
              ]
            ]
          ]
        ],
        "type": "MultiPolygon"
      },
      "type": "Feature",
      "properties": {
        "PROVINCIA": "OCROS",
        "DISTRITO": "OCROS",
        "name": "OCROS",
        "ID": "022007",
        "DEPARTAMEN": "ANCASH"
      }
    }
  ]
}
