{
  "type": "FeatureCollection",
  "features": [
    {
      "geometry": {
        "coordinates": [
          [
            [
              [
                -78.50698823699997,
                -6.978818349999926
              ],
              [
                -78.50796736199999,
                -6.979707724999969
              ],
              [
                -78.50861248799998,
                -6.984063974999913
              ],
              [
                -78.51263023699988,
                -6.987268224999923
              ],
              [
                -78.51428761299996,
                -6.990315850999934
              ],
              [
                -78.51493861299991,
                -6.997082849999913
              ],
              [
                -78.51501573799999,
                -7.002880475999916
              ],
              [
                -78.5163146129999,
                -7.004437474999975
              ],
              [
                -78.51898048799995,
                -7.005046849999928
              ],
              [
                -78.52101361299992,
                -7.006802724999886
              ],
              [
                -78.52379886299991,
                -7.007324224999877
              ],
              [
                -78.52715823799997,
                -7.009808599999928
              ],
              [
                -78.52986136299995,
                -7.013646474999859
              ],
              [
                -78.53294923799996,
                -7.014746099999968
              ],
              [
                -78.53853511299991,
                -7.018869099999961
              ],
              [
                -78.54033998799991,
                -7.02170897499991
              ],
              [
                -78.54324611299995,
                -7.022736349999946
              ],
              [
                -78.54387111199998,
                -7.026009724999881
              ],
              [
                -78.54068361299994,
                -7.028371099999958
              ],
              [
                -78.53832611299993,
                -7.034810599999958
              ],
              [
                -78.53796211299994,
                -7.039780849999943
              ],
              [
                -78.54008211299998,
                -7.044213724999906
              ],
              [
                -78.54684448699999,
                -7.050459099999898
              ],
              [
                -78.54776748799998,
                -7.053175974999931
              ],
              [
                -78.54590623699988,
                -7.059056600999952
              ],
              [
                -78.54555098699996,
                -7.061945474999959
              ],
              [
                -78.54598473799996,
                -7.068185349999965
              ],
              [
                -78.54338273799988,
                -7.078038975999959
              ],
              [
                -78.54068448799995,
                -7.083917474999907
              ],
              [
                -78.5376132369999,
                -7.085816474999831
              ],
              [
                -78.53589011199989,
                -7.092277349999961
              ],
              [
                -78.53499873799996,
                -7.092903725999918
              ],
              [
                -78.52904786199997,
                -7.093506099999956
              ],
              [
                -78.52528961299998,
                -7.099336349999874
              ],
              [
                -78.5209047379999,
                -7.101841849999971
              ],
              [
                -78.51071398799996,
                -7.100010974999918
              ],
              [
                -78.51324836199996,
                -7.105472474999942
              ],
              [
                -78.51779698799999,
                -7.112514724999926
              ],
              [
                -78.51642361299997,
                -7.118248599999902
              ],
              [
                -78.51694723799994,
                -7.121745350999959
              ],
              [
                -78.52114586299996,
                -7.131330600999888
              ],
              [
                -78.52025436299994,
                -7.136317600999973
              ],
              [
                -78.52116986199991,
                -7.138871349999874
              ],
              [
                -78.52019536199992,
                -7.143402349999974
              ],
              [
                -78.51719736299992,
                -7.143748099999868
              ],
              [
                -78.51382811299987,
                -7.142681599999946
              ],
              [
                -78.5108261129999,
                -7.140802724999958
              ],
              [
                -78.5074511119999,
                -7.142546849999974
              ],
              [
                -78.50521098799999,
                -7.141705099999967
              ],
              [
                -78.50002923799997,
                -7.142779350999945
              ],
              [
                -78.4946523619999,
                -7.144988225999896
              ],
              [
                -78.49096873699995,
                -7.143349599999965
              ],
              [
                -78.48321098799994,
                -7.149074224999936
              ],
              [
                -78.48215036299996,
                -7.15245697499995
              ],
              [
                -78.47842386299999,
                -7.157164100999978
              ],
              [
                -78.47757611299994,
                -7.168201224999962
              ],
              [
                -78.47373436299995,
                -7.175753849999921
              ],
              [
                -78.47181048699991,
                -7.176818350999895
              ],
              [
                -78.47220898799992,
                -7.179949225999962
              ],
              [
                -78.47020448799998,
                -7.182663849999869
              ],
              [
                -78.47235498799995,
                -7.185294600999953
              ],
              [
                -78.47179598699995,
                -7.189377724999929
              ],
              [
                -78.4623994879999,
                -7.19604709999993
              ],
              [
                -78.4649092379999,
                -7.200409474999901
              ],
              [
                -78.46549023799992,
                -7.205179725999869
              ],
              [
                -78.4634159869999,
                -7.214404974999979
              ],
              [
                -78.46177411299993,
                -7.23253647599995
              ],
              [
                -78.46098873799997,
                -7.234677974999954
              ],
              [
                -78.45740173799993,
                -7.240201474999935
              ],
              [
                -78.45834048699999,
                -7.243957349999903
              ],
              [
                -78.46054886299999,
                -7.245804725999903
              ],
              [
                -78.46845298799991,
                -7.246216849999882
              ],
              [
                -78.48273623799992,
                -7.241072849999966
              ],
              [
                -78.48518561299989,
                -7.240912224999931
              ],
              [
                -78.48953873699992,
                -7.241921599999955
              ],
              [
                -78.4903253629999,
                -7.235652099999925
              ],
              [
                -78.49322911299998,
                -7.233650474999934
              ],
              [
                -78.49794636199994,
                -7.233883349999928
              ],
              [
                -78.50353323799999,
                -7.233185600999946
              ],
              [
                -78.50527148799995,
                -7.231935599999872
              ],
              [
                -78.5080878629999,
                -7.227019474999906
              ],
              [
                -78.51475111299993,
                -7.224687599999982
              ],
              [
                -78.52354486299993,
                -7.223698724999963
              ],
              [
                -78.52604486199994,
                -7.22294947599994
              ],
              [
                -78.53201323799993,
                -7.226765974999978
              ],
              [
                -78.53336098699998,
                -7.222735224999894
              ],
              [
                -78.53903998799996,
                -7.216235099999949
              ],
              [
                -78.5418501119999,
                -7.215453100999923
              ],
              [
                -78.54668736299993,
                -7.209920475999922
              ],
              [
                -78.55232311199995,
                -7.201466724999875
              ],
              [
                -78.55556911299993,
                -7.196045724999976
              ],
              [
                -78.55696661299993,
                -7.190508349999959
              ],
              [
                -78.56134561299996,
                -7.189413599999966
              ],
              [
                -78.56818786299988,
                -7.186813600999926
              ],
              [
                -78.57085636299996,
                -7.186813599999937
              ],
              [
                -78.57677536199998,
                -7.185104599999931
              ],
              [
                -78.58241123799996,
                -7.180741349999948
              ],
              [
                -78.59013773799995,
                -7.171742224999946
              ],
              [
                -78.59268298799998,
                -7.170378724999978
              ],
              [
                -78.60261661299995,
                -7.169636849999904
              ],
              [
                -78.60469336299991,
                -7.168419849999907
              ],
              [
                -78.6032138629999,
                -7.163266974999885
              ],
              [
                -78.60358198799997,
                -7.160826225999926
              ],
              [
                -78.60659111299992,
                -7.152588725999919
              ],
              [
                -78.61082198699995,
                -7.147351974999879
              ],
              [
                -78.61828811299989,
                -7.144260974999952
              ],
              [
                -78.62516661299998,
                -7.143896975999951
              ],
              [
                -78.62394523799998,
                -7.13851434999998
              ],
              [
                -78.62516011299994,
                -7.12902347499994
              ],
              [
                -78.62332886199994,
                -7.127457225999933
              ],
              [
                -78.61826286199994,
                -7.125917474999937
              ],
              [
                -78.6130478629999,
                -7.121844849999945
              ],
              [
                -78.6170378629999,
                -7.117984100999877
              ],
              [
                -78.61592973799998,
                -7.115355474999888
              ],
              [
                -78.61847936299989,
                -7.111726225999973
              ],
              [
                -78.61816998799998,
                -7.107062350999911
              ],
              [
                -78.62295673699998,
                -7.10263247599994
              ],
              [
                -78.62395211299992,
                -7.100090724999973
              ],
              [
                -78.62437523799986,
                -7.095018349999918
              ],
              [
                -78.62269923799994,
                -7.084349599999939
              ],
              [
                -78.62783598799996,
                -7.085417974999871
              ],
              [
                -78.62997461299994,
                -7.085013599999911
              ],
              [
                -78.63568548699999,
                -7.087970724999877
              ],
              [
                -78.63861323799983,
                -7.088826224999877
              ],
              [
                -78.64008786299996,
                -7.090876974999958
              ],
              [
                -78.64614261299994,
                -7.094152349999945
              ],
              [
                -78.64899411299996,
                -7.097330099999965
              ],
              [
                -78.65039048699987,
                -7.100248099999931
              ],
              [
                -78.65541398699992,
                -7.101783224999849
              ],
              [
                -78.66171486299999,
                -7.102990225999974
              ],
              [
                -78.66246673799992,
                -7.099179724999885
              ],
              [
                -78.66266986299996,
                -7.09285347499997
              ],
              [
                -78.65926761199995,
                -7.089482474999954
              ],
              [
                -78.65764261199996,
                -7.086744099999919
              ],
              [
                -78.6556679869999,
                -7.080009725999957
              ],
              [
                -78.65073048799991,
                -7.072601599999928
              ],
              [
                -78.64820111299997,
                -7.070808599999907
              ],
              [
                -78.64192386299993,
                -7.062206974999981
              ],
              [
                -78.63699736299998,
                -7.057535724999866
              ],
              [
                -78.63611923799988,
                -7.05435934999997
              ],
              [
                -78.63651948799998,
                -7.048513724999964
              ],
              [
                -78.63627923799999,
                -7.039058599999976
              ],
              [
                -78.63432811299992,
                -7.036671849999948
              ],
              [
                -78.63380861299993,
                -7.033749974999921
              ],
              [
                -78.63213473699989,
                -7.033640599999956
              ],
              [
                -78.63033398799996,
                -7.030423849999977
              ],
              [
                -78.62985548799998,
                -7.026417974999902
              ],
              [
                -78.62841211299991,
                -7.023996099999977
              ],
              [
                -78.62853511299994,
                -7.01936134999994
              ],
              [
                -78.62792573799999,
                -7.016374974999906
              ],
              [
                -78.62415236299995,
                -7.013740349999978
              ],
              [
                -78.62368361299991,
                -7.010656224999877
              ],
              [
                -78.61924998799998,
                -7.008214849999945
              ],
              [
                -78.60946673699993,
                -6.999605474999839
              ],
              [
                -78.60551761199991,
                -6.998554724999963
              ],
              [
                -78.60498236299998,
                -6.997251849999941
              ],
              [
                -78.6060058629999,
                -6.991697224999939
              ],
              [
                -78.60374998699996,
                -6.985070349999944
              ],
              [
                -78.6060156129999,
                -6.981040975999974
              ],
              [
                -78.60707223799994,
                -6.974222599999905
              ],
              [
                -78.60625973699996,
                -6.972050724999974
              ],
              [
                -78.6090566119999,
                -6.966333974999941
              ],
              [
                -78.60862111299991,
                -6.964884725999923
              ],
              [
                -78.6051718619999,
                -6.96156834999988
              ],
              [
                -78.60461123799996,
                -6.954498099999853
              ],
              [
                -78.60819723799995,
                -6.94828909999984
              ],
              [
                -78.60877148799995,
                -6.940392599999825
              ],
              [
                -78.61090323799993,
                -6.929444474999912
              ],
              [
                -78.61350611299997,
                -6.920726349999939
              ],
              [
                -78.60946486199992,
                -6.904507849999959
              ],
              [
                -78.60725086199989,
                -6.898501099999976
              ],
              [
                -78.60532036299992,
                -6.894822224999871
              ],
              [
                -78.60477736299987,
                -6.889571099999898
              ],
              [
                -78.60362098699994,
                -6.888061224999944
              ],
              [
                -78.59951948799994,
                -6.886509724999939
              ],
              [
                -78.59973411299995,
                -6.89063109999995
              ],
              [
                -78.59596686299989,
                -6.892246099999909
              ],
              [
                -78.58842873799995,
                -6.893845099999965
              ],
              [
                -78.58243248799994,
                -6.897671349999825
              ],
              [
                -78.58161861199994,
                -6.899838349999868
              ],
              [
                -78.57657223799993,
                -6.908630099999925
              ],
              [
                -78.57548011299997,
                -6.911582474999932
              ],
              [
                -78.57495148699996,
                -6.917316099999937
              ],
              [
                -78.56889811299993,
                -6.92142784999993
              ],
              [
                -78.56233073699985,
                -6.927538474999949
              ],
              [
                -78.55770511299994,
                -6.928737599999977
              ],
              [
                -78.55177348799987,
                -6.929544974999942
              ],
              [
                -78.54628373699995,
                -6.93130734999994
              ],
              [
                -78.54097273799988,
                -6.928965974999926
              ],
              [
                -78.53918723799995,
                -6.929445724999937
              ],
              [
                -78.53381323799994,
                -6.934549974999925
              ],
              [
                -78.53217823799991,
                -6.937075224999944
              ],
              [
                -78.52851536299988,
                -6.946063099999947
              ],
              [
                -78.52693161299993,
                -6.948431599999878
              ],
              [
                -78.52635936299993,
                -6.953753849999885
              ],
              [
                -78.52552736299992,
                -6.955853474999969
              ],
              [
                -78.51983236299998,
                -6.956848099999945
              ],
              [
                -78.51394498699995,
                -6.955440474999932
              ],
              [
                -78.51271673699995,
                -6.959132224999962
              ],
              [
                -78.50757298799994,
                -6.964843099999939
              ],
              [
                -78.50540236299992,
                -6.971566724999889
              ],
              [
                -78.50545511299987,
                -6.976347599999883
              ],
              [
                -78.50698823699997,
                -6.978818349999926
              ]
            ]
          ]
        ],
        "type": "MultiPolygon"
      },
      "type": "Feature",
      "properties": {
        "PROVINCIA": "CAJAMARCA",
        "DISTRITO": "CAJAMARCA",
        "name": "CAJAMARCA",
        "ID": "060101",
        "DEPARTAMEN": "CAJAMARCA"
      }
    }
  ]
}
