{
  "type": "FeatureCollection",
  "features": [
    {
      "geometry": {
        "coordinates": [
          [
            [
              [
                -78.60469336299991,
                -7.168419849999907
              ],
              [
                -78.60261661299995,
                -7.169636849999904
              ],
              [
                -78.59268298799998,
                -7.170378724999978
              ],
              [
                -78.59013773799995,
                -7.171742224999946
              ],
              [
                -78.58241123799996,
                -7.180741349999948
              ],
              [
                -78.57677536199998,
                -7.185104599999931
              ],
              [
                -78.57085636299996,
                -7.186813599999937
              ],
              [
                -78.56818786299988,
                -7.186813600999926
              ],
              [
                -78.56134561299996,
                -7.189413599999966
              ],
              [
                -78.55696661299993,
                -7.190508349999959
              ],
              [
                -78.55556911299993,
                -7.196045724999976
              ],
              [
                -78.55232311199995,
                -7.201466724999875
              ],
              [
                -78.54668736299993,
                -7.209920475999922
              ],
              [
                -78.5418501119999,
                -7.215453100999923
              ],
              [
                -78.53903998799996,
                -7.216235099999949
              ],
              [
                -78.53336098699998,
                -7.222735224999894
              ],
              [
                -78.53201323799993,
                -7.226765974999978
              ],
              [
                -78.52955473799983,
                -7.229039099999966
              ],
              [
                -78.52780861299993,
                -7.235064474999945
              ],
              [
                -78.52390598799997,
                -7.238336099999856
              ],
              [
                -78.52336623799994,
                -7.240496224999958
              ],
              [
                -78.52361236299993,
                -7.246271350999962
              ],
              [
                -78.52621098799995,
                -7.249206349999895
              ],
              [
                -78.52744511299989,
                -7.252407350999874
              ],
              [
                -78.52844286299995,
                -7.2581946009999
              ],
              [
                -78.53192811299994,
                -7.263147350999873
              ],
              [
                -78.53666861199991,
                -7.272628599999962
              ],
              [
                -78.53608586199994,
                -7.27409222499989
              ],
              [
                -78.53116373699999,
                -7.276721600999849
              ],
              [
                -78.52956248799995,
                -7.279605475999972
              ],
              [
                -78.53274798799998,
                -7.282994099999939
              ],
              [
                -78.53823823799996,
                -7.282093724999982
              ],
              [
                -78.54085161299997,
                -7.284421849999944
              ],
              [
                -78.54651173699989,
                -7.286900349999939
              ],
              [
                -78.54950598799991,
                -7.287431600999923
              ],
              [
                -78.55321098799999,
                -7.291826225999955
              ],
              [
                -78.55501948799986,
                -7.2922068499999
              ],
              [
                -78.56155073699995,
                -7.291312475999973
              ],
              [
                -78.56620511299997,
                -7.28915834999998
              ],
              [
                -78.56907611299994,
                -7.288695349999955
              ],
              [
                -78.57532611299996,
                -7.289867224999966
              ],
              [
                -78.58200786299989,
                -7.287662224999849
              ],
              [
                -78.5864336119999,
                -7.287902475999942
              ],
              [
                -78.58798236299998,
                -7.285839849999945
              ],
              [
                -78.59182423699997,
                -7.283646849999968
              ],
              [
                -78.59636723799997,
                -7.281880850999869
              ],
              [
                -78.60277536299998,
                -7.281988224999964
              ],
              [
                -78.60609373799997,
                -7.282556599999907
              ],
              [
                -78.60879886299989,
                -7.279398475999926
              ],
              [
                -78.60916211299991,
                -7.277566350999905
              ],
              [
                -78.6136016129999,
                -7.275167974999931
              ],
              [
                -78.61996098799995,
                -7.274025349999931
              ],
              [
                -78.62133398799995,
                -7.273011725999936
              ],
              [
                -78.62783786299991,
                -7.27374997499993
              ],
              [
                -78.62941011299995,
                -7.274400350999883
              ],
              [
                -78.63401361299992,
                -7.271458974999973
              ],
              [
                -78.63728711299996,
                -7.267011724999975
              ],
              [
                -78.64078911299998,
                -7.263632849999908
              ],
              [
                -78.64470111199995,
                -7.26142972599996
              ],
              [
                -78.64622661299995,
                -7.257214850999958
              ],
              [
                -78.6498457379999,
                -7.255634724999936
              ],
              [
                -78.65393161199995,
                -7.255085849999887
              ],
              [
                -78.66123636299994,
                -7.254998099999909
              ],
              [
                -78.66725586299998,
                -7.251439474999927
              ],
              [
                -78.67310536199983,
                -7.251017599999898
              ],
              [
                -78.67934961299983,
                -7.247732474999964
              ],
              [
                -78.68283011199992,
                -7.244949224999971
              ],
              [
                -78.6860801119999,
                -7.244712850999974
              ],
              [
                -78.6888926129999,
                -7.243470725999941
              ],
              [
                -78.69052348799994,
                -7.241435600999978
              ],
              [
                -78.69340036299997,
                -7.240041099999871
              ],
              [
                -78.69827536299988,
                -7.240869225999916
              ],
              [
                -78.70055073699996,
                -7.241902349999975
              ],
              [
                -78.70453123799996,
                -7.240531225999916
              ],
              [
                -78.70849798799998,
                -7.234675724999931
              ],
              [
                -78.71146673799996,
                -7.232673849999969
              ],
              [
                -78.71821686299995,
                -7.231316349999929
              ],
              [
                -78.7232011129999,
                -7.226730475999886
              ],
              [
                -78.72603123799996,
                -7.225390599999969
              ],
              [
                -78.72874798799995,
                -7.225285099999951
              ],
              [
                -78.73289261299993,
                -7.223318349999943
              ],
              [
                -78.73644723799998,
                -7.223958974999903
              ],
              [
                -78.73845511299993,
                -7.22256835099995
              ],
              [
                -78.74413873799989,
                -7.222423849999927
              ],
              [
                -78.74533198799998,
                -7.220947225999964
              ],
              [
                -78.74599411299994,
                -7.219331974999875
              ],
              [
                -78.73879098799989,
                -7.213294974999883
              ],
              [
                -78.73557223799997,
                -7.214292974999921
              ],
              [
                -78.73091211299993,
                -7.212109349999935
              ],
              [
                -78.72902736299994,
                -7.208873099999948
              ],
              [
                -78.72780661299993,
                -7.2050156009999
              ],
              [
                -78.72755273699988,
                -7.201542974999882
              ],
              [
                -78.72957611299995,
                -7.197070349999933
              ],
              [
                -78.72737298799996,
                -7.192349599999943
              ],
              [
                -78.72762886299995,
                -7.188156224999943
              ],
              [
                -78.72549998799997,
                -7.186826224999834
              ],
              [
                -78.72404886299995,
                -7.1821113499999
              ],
              [
                -78.72255273799982,
                -7.180521474999978
              ],
              [
                -78.72228511299994,
                -7.176154349999933
              ],
              [
                -78.720605488,
                -7.173650349999889
              ],
              [
                -78.71999611199993,
                -7.17081835099998
              ],
              [
                -78.71640823799999,
                -7.167708975999972
              ],
              [
                -78.71540823799995,
                -7.165064475999941
              ],
              [
                -78.71274023799998,
                -7.163081974999955
              ],
              [
                -78.71077348799997,
                -7.158226599999864
              ],
              [
                -78.70810161299988,
                -7.156533224999976
              ],
              [
                -78.7067837379999,
                -7.163332099999877
              ],
              [
                -78.7048213629999,
                -7.169214224999905
              ],
              [
                -78.70000423799996,
                -7.172250350999946
              ],
              [
                -78.68793836299994,
                -7.177052475999915
              ],
              [
                -78.68281348799997,
                -7.182459974999972
              ],
              [
                -78.67959098699998,
                -7.18341685099989
              ],
              [
                -78.67639711299995,
                -7.183266974999924
              ],
              [
                -78.67334398799994,
                -7.185036849999904
              ],
              [
                -78.66965811299997,
                -7.184800474999975
              ],
              [
                -78.66413848799988,
                -7.183351725999955
              ],
              [
                -78.66030423799998,
                -7.184036724999942
              ],
              [
                -78.65549386299995,
                -7.18621285099988
              ],
              [
                -78.65136186299992,
                -7.184801349999873
              ],
              [
                -78.64580886299996,
                -7.180845850999901
              ],
              [
                -78.64308311199994,
                -7.177926475999925
              ],
              [
                -78.64149098699988,
                -7.174550599999975
              ],
              [
                -78.63995748799994,
                -7.173662724999929
              ],
              [
                -78.63421148799995,
                -7.173947474999977
              ],
              [
                -78.62877948699992,
                -7.168618474999846
              ],
              [
                -78.62464061199995,
                -7.166998099999887
              ],
              [
                -78.61879686299989,
                -7.166728474999957
              ],
              [
                -78.61066061199995,
                -7.16829572499995
              ],
              [
                -78.60469336299991,
                -7.168419849999907
              ]
            ]
          ]
        ],
        "type": "MultiPolygon"
      },
      "type": "Feature",
      "properties": {
        "PROVINCIA": "CAJAMARCA",
        "DISTRITO": "MAGDALENA",
        "name": "MAGDALENA",
        "ID": "060109",
        "DEPARTAMEN": "CAJAMARCA"
      }
    }
  ]
}
