{
  "type": "FeatureCollection",
  "features": [
    {
      "geometry": {
        "coordinates": [
          [
            [
              [
                -78.25146873799997,
                -7.235124975999895
              ],
              [
                -78.2500117379999,
                -7.235206974999926
              ],
              [
                -78.24667573799996,
                -7.237580099999832
              ],
              [
                -78.24393748799997,
                -7.237093724999909
              ],
              [
                -78.24116398699988,
                -7.238107474999936
              ],
              [
                -78.23938986199994,
                -7.241039599999965
              ],
              [
                -78.2369498619999,
                -7.248107600999845
              ],
              [
                -78.23033198699989,
                -7.263992224999981
              ],
              [
                -78.22782823799997,
                -7.269492225999954
              ],
              [
                -78.21620898699996,
                -7.2965352249999
              ],
              [
                -78.22024611199993,
                -7.29644922499989
              ],
              [
                -78.21955273799995,
                -7.298820349999971
              ],
              [
                -78.2209531129999,
                -7.305099599999949
              ],
              [
                -78.22276561199993,
                -7.307640599999957
              ],
              [
                -78.22673823799994,
                -7.309148600999947
              ],
              [
                -78.23058023799996,
                -7.31292972499989
              ],
              [
                -78.23488461199992,
                -7.316326224999898
              ],
              [
                -78.2357989869999,
                -7.317986474999941
              ],
              [
                -78.23868423799996,
                -7.315891350999891
              ],
              [
                -78.24422498699994,
                -7.314159974999882
              ],
              [
                -78.24640036299996,
                -7.314121099999966
              ],
              [
                -78.25380861299993,
                -7.31154497499989
              ],
              [
                -78.2591582369999,
                -7.306996099999935
              ],
              [
                -78.26319723699993,
                -7.30505072599982
              ],
              [
                -78.26509761199998,
                -7.297699225999963
              ],
              [
                -78.26760161199996,
                -7.295248099999981
              ],
              [
                -78.27175198699996,
                -7.29360934999994
              ],
              [
                -78.27378123699992,
                -7.292302725999946
              ],
              [
                -78.27761136199985,
                -7.291892599999926
              ],
              [
                -78.28192773699993,
                -7.29059959999995
              ],
              [
                -78.28696286199988,
                -7.289878850999912
              ],
              [
                -78.2931913619999,
                -7.286427725999943
              ],
              [
                -78.29874998699995,
                -7.284904350999909
              ],
              [
                -78.29920111199988,
                -7.283392599999956
              ],
              [
                -78.2971641119999,
                -7.280560600999877
              ],
              [
                -78.29952923799993,
                -7.276796849999926
              ],
              [
                -78.29957423699994,
                -7.273923850999893
              ],
              [
                -78.300884737,
                -7.268195350999974
              ],
              [
                -78.30284361299988,
                -7.265785099999903
              ],
              [
                -78.30244536299989,
                -7.263017600999888
              ],
              [
                -78.2957578619999,
                -7.253996099999881
              ],
              [
                -78.29574223799995,
                -7.250417974999948
              ],
              [
                -78.29280473799997,
                -7.246929724999973
              ],
              [
                -78.29446286199999,
                -7.243515474999924
              ],
              [
                -78.29478711299998,
                -7.239089849999971
              ],
              [
                -78.29567773799994,
                -7.236761724999951
              ],
              [
                -78.29134173799991,
                -7.235580100999925
              ],
              [
                -78.28939848799996,
                -7.233816349999813
              ],
              [
                -78.28404098699997,
                -7.233892599999876
              ],
              [
                -78.28266011199997,
                -7.233234349999975
              ],
              [
                -78.27749611299998,
                -7.233076224999934
              ],
              [
                -78.2762422379999,
                -7.233665974999894
              ],
              [
                -78.27175386199997,
                -7.232355474999906
              ],
              [
                -78.26804686199995,
                -7.233328100999927
              ],
              [
                -78.26508986199997,
                -7.233111349999945
              ],
              [
                -78.26151173699992,
                -7.235365225999885
              ],
              [
                -78.25819136199993,
                -7.235146475999898
              ],
              [
                -78.25504686199997,
                -7.23586134999988
              ],
              [
                -78.25146873799997,
                -7.235124975999895
              ]
            ]
          ]
        ],
        "type": "MultiPolygon"
      },
      "type": "Feature",
      "properties": {
        "PROVINCIA": "CAJAMARCA",
        "DISTRITO": "MATARA",
        "name": "MATARA",
        "ID": "060110",
        "DEPARTAMEN": "CAJAMARCA"
      }
    }
  ]
}
