{
  "type": "FeatureCollection",
  "features": [
    {
      "geometry": {
        "coordinates": [
          [
            [
              [
                -78.19071548699992,
                -7.157319224999924
              ],
              [
                -78.18950511199989,
                -7.162419100999898
              ],
              [
                -78.19445598699997,
                -7.166998224999872
              ],
              [
                -78.19902036299999,
                -7.167868974999976
              ],
              [
                -78.1989013619999,
                -7.172699349999903
              ],
              [
                -78.20051236199998,
                -7.17615184999994
              ],
              [
                -78.20747948699994,
                -7.180606224999963
              ],
              [
                -78.21637936199994,
                -7.188459099999932
              ],
              [
                -78.21879261299995,
                -7.190049849999923
              ],
              [
                -78.22391961199986,
                -7.196237974999974
              ],
              [
                -78.22809461199995,
                -7.199459849999926
              ],
              [
                -78.23293086199999,
                -7.204460474999962
              ],
              [
                -78.23956248699989,
                -7.206537099999935
              ],
              [
                -78.24477536299992,
                -7.218540974999883
              ],
              [
                -78.24592973699993,
                -7.221970725999881
              ],
              [
                -78.25082611199997,
                -7.2306582249999
              ],
              [
                -78.25146873799997,
                -7.235124975999895
              ],
              [
                -78.25504686199997,
                -7.23586134999988
              ],
              [
                -78.25819136199993,
                -7.235146475999898
              ],
              [
                -78.26151173699992,
                -7.235365225999885
              ],
              [
                -78.26508986199997,
                -7.233111349999945
              ],
              [
                -78.26804686199995,
                -7.233328100999927
              ],
              [
                -78.27175386199997,
                -7.232355474999906
              ],
              [
                -78.2762422379999,
                -7.233665974999894
              ],
              [
                -78.27749611299998,
                -7.233076224999934
              ],
              [
                -78.28266011199997,
                -7.233234349999975
              ],
              [
                -78.28404098699997,
                -7.233892599999876
              ],
              [
                -78.28939848799996,
                -7.233816349999813
              ],
              [
                -78.29134173799991,
                -7.235580100999925
              ],
              [
                -78.29567773799994,
                -7.236761724999951
              ],
              [
                -78.30093473799997,
                -7.239447224999935
              ],
              [
                -78.3060233629999,
                -7.236894474999929
              ],
              [
                -78.31618198799998,
                -7.234197474999974
              ],
              [
                -78.32191548699996,
                -7.235413599999958
              ],
              [
                -78.32988998799988,
                -7.234547224999972
              ],
              [
                -78.34149036299993,
                -7.236282349999897
              ],
              [
                -78.34539923799997,
                -7.235699724999961
              ],
              [
                -78.34623473699997,
                -7.234253475999935
              ],
              [
                -78.3489612379999,
                -7.224178350999921
              ],
              [
                -78.35139361199998,
                -7.217344474999834
              ],
              [
                -78.35497211199993,
                -7.212067474999913
              ],
              [
                -78.35685673699999,
                -7.210868224999899
              ],
              [
                -78.36739123799998,
                -7.208727849999832
              ],
              [
                -78.36263873799993,
                -7.20598547499992
              ],
              [
                -78.36216761299994,
                -7.203329974999974
              ],
              [
                -78.36619373799994,
                -7.199775099999897
              ],
              [
                -78.36736461299989,
                -7.197479974999965
              ],
              [
                -78.36720111199998,
                -7.193937474999871
              ],
              [
                -78.369076738,
                -7.187582224999858
              ],
              [
                -78.37466411299994,
                -7.183154349999938
              ],
              [
                -78.37605173799989,
                -7.181010850999883
              ],
              [
                -78.37556836199997,
                -7.178705725999919
              ],
              [
                -78.37266848699988,
                -7.175248099999919
              ],
              [
                -78.3716273629999,
                -7.16970835099994
              ],
              [
                -78.37003323699992,
                -7.167349600999842
              ],
              [
                -78.36627586299988,
                -7.163739850999946
              ],
              [
                -78.35883986299996,
                -7.158669975999942
              ],
              [
                -78.35531661299996,
                -7.15693347499996
              ],
              [
                -78.35066011299995,
                -7.155705099999977
              ],
              [
                -78.34579298799997,
                -7.155540974999951
              ],
              [
                -78.3375859869999,
                -7.154001975999904
              ],
              [
                -78.33092386199996,
                -7.151640599999894
              ],
              [
                -78.32658198799999,
                -7.151435600999946
              ],
              [
                -78.32150973699999,
                -7.152421849999882
              ],
              [
                -78.3217011129999,
                -7.155445349999979
              ],
              [
                -78.32010748799996,
                -7.1572440999999
              ],
              [
                -78.32063473799997,
                -7.159615224999925
              ],
              [
                -78.31936136299993,
                -7.163900349999892
              ],
              [
                -78.31800586299988,
                -7.165320349999888
              ],
              [
                -78.31547073699983,
                -7.161156224999957
              ],
              [
                -78.31299998799994,
                -7.15958010099996
              ],
              [
                -78.30998236199991,
                -7.155937475999906
              ],
              [
                -78.30730073799998,
                -7.15498247499994
              ],
              [
                -78.30315823799998,
                -7.154794974999959
              ],
              [
                -78.29887886199987,
                -7.153279349999877
              ],
              [
                -78.29253511199988,
                -7.1536308499999
              ],
              [
                -78.28732611299995,
                -7.153003849999891
              ],
              [
                -78.2819941119999,
                -7.155205099999876
              ],
              [
                -78.27987498699997,
                -7.154072224999936
              ],
              [
                -78.2776464879999,
                -7.148392599999966
              ],
              [
                -78.27778911299998,
                -7.141335974999947
              ],
              [
                -78.27868373799993,
                -7.136958975999903
              ],
              [
                -78.28030498799995,
                -7.133494725999981
              ],
              [
                -78.27815286299995,
                -7.132659600999887
              ],
              [
                -78.27325236199994,
                -7.134774849999928
              ],
              [
                -78.26475761299992,
                -7.135871850999933
              ],
              [
                -78.26042111299995,
                -7.134972349999941
              ],
              [
                -78.25897173699991,
                -7.1356472249999
              ],
              [
                -78.25113761199998,
                -7.134940224999866
              ],
              [
                -78.24506623699989,
                -7.135807599999964
              ],
              [
                -78.24126161199996,
                -7.134817099999964
              ],
              [
                -78.23914873699994,
                -7.136187600999961
              ],
              [
                -78.23392248699997,
                -7.135737349999829
              ],
              [
                -78.23029711299995,
                -7.133732099999975
              ],
              [
                -78.22687086299999,
                -7.13036272599993
              ],
              [
                -78.22585623799995,
                -7.128280350999944
              ],
              [
                -78.22623611299997,
                -7.125469224999961
              ],
              [
                -78.22109823699992,
                -7.124519974999941
              ],
              [
                -78.21714761199996,
                -7.125608224999894
              ],
              [
                -78.21492648799995,
                -7.127254974999914
              ],
              [
                -78.21194061199992,
                -7.131670850999967
              ],
              [
                -78.20866023699995,
                -7.13440447499994
              ],
              [
                -78.20121636299996,
                -7.138147474999926
              ],
              [
                -78.20054336299995,
                -7.139829600999917
              ],
              [
                -78.2024779869999,
                -7.146852975999934
              ],
              [
                -78.19751536199988,
                -7.151226725999948
              ],
              [
                -78.19465523799994,
                -7.156826599999931
              ],
              [
                -78.19071548699992,
                -7.157319224999924
              ]
            ]
          ]
        ],
        "type": "MultiPolygon"
      },
      "type": "Feature",
      "properties": {
        "PROVINCIA": "CAJAMARCA",
        "DISTRITO": "NAMORA",
        "name": "NAMORA",
        "ID": "060111",
        "DEPARTAMEN": "CAJAMARCA"
      }
    }
  ]
}
