{
  "type": "FeatureCollection",
  "features": [
    {
      "geometry": {
        "coordinates": [
          [
            [
              [
                -77.08606048599995,
                -10.75354497799998
              ],
              [
                -77.08227536099997,
                -10.7598593539999
              ],
              [
                -77.08357636099998,
                -10.762576728999932
              ],
              [
                -77.08329486199995,
                -10.773697103999893
              ],
              [
                -77.07880473599994,
                -10.783718728999872
              ],
              [
                -77.07704098699992,
                -10.786595728999885
              ],
              [
                -77.07619536099998,
                -10.789718728999844
              ],
              [
                -77.07724198699998,
                -10.796500728999945
              ],
              [
                -77.08132423599994,
                -10.807691603999956
              ],
              [
                -77.08132423599994,
                -10.809591978999947
              ],
              [
                -77.07886086099995,
                -10.81698210399992
              ],
              [
                -77.07681998599998,
                -10.820239978999894
              ],
              [
                -77.07824998699988,
                -10.822649978999834
              ],
              [
                -77.07864998599996,
                -10.825879978999922
              ],
              [
                -77.08219998599992,
                -10.831509978999975
              ],
              [
                -77.08243998599988,
                -10.835309978999874
              ],
              [
                -77.0856699869999,
                -10.837509977999957
              ],
              [
                -77.08624998599993,
                -10.843369978999931
              ],
              [
                -77.08714998699998,
                -10.846759978999955
              ],
              [
                -77.08689998599988,
                -10.850389977999896
              ],
              [
                -77.08856998699997,
                -10.854899978999924
              ],
              [
                -77.09161998699989,
                -10.85620997899997
              ],
              [
                -77.09508998599995,
                -10.86138997799992
              ],
              [
                -77.10047998599998,
                -10.86559997899991
              ],
              [
                -77.10324998599998,
                -10.869829978999974
              ],
              [
                -77.10551998599988,
                -10.871559978999926
              ],
              [
                -77.10823998599994,
                -10.877789978999942
              ],
              [
                -77.10959998599998,
                -10.879469978999907
              ],
              [
                -77.1128499859999,
                -10.880319978999978
              ],
              [
                -77.11515998599998,
                -10.883949978999965
              ],
              [
                -77.11800998599989,
                -10.886019977999979
              ],
              [
                -77.11916998599997,
                -10.888069978999965
              ],
              [
                -77.11823998699992,
                -10.88982997799991
              ],
              [
                -77.11811998599995,
                -10.894039978999842
              ],
              [
                -77.11466998699996,
                -10.89971997799995
              ],
              [
                -77.11111998699994,
                -10.902099978999956
              ],
              [
                -77.10846998599999,
                -10.905779978999874
              ],
              [
                -77.10646998699997,
                -10.90706997899997
              ],
              [
                -77.1060699869999,
                -10.910149978999812
              ],
              [
                -77.10746998599996,
                -10.914109978999875
              ],
              [
                -77.1061599869999,
                -10.91591997899991
              ],
              [
                -77.10553998699993,
                -10.91969985399993
              ],
              [
                -77.10297911099997,
                -10.924156728999947
              ],
              [
                -77.09628448699993,
                -10.92279160399994
              ],
              [
                -77.08557836099988,
                -10.9222221039999
              ],
              [
                -77.0804529859999,
                -10.922278978999884
              ],
              [
                -77.0738471119999,
                -10.922962477999874
              ],
              [
                -77.07122748699999,
                -10.922734603999857
              ],
              [
                -77.06957223699999,
                -10.9258749789999
              ],
              [
                -77.07293586199984,
                -10.92985310399996
              ],
              [
                -77.07806123599988,
                -10.932586603999937
              ],
              [
                -77.0793709859999,
                -10.93924960399994
              ],
              [
                -77.08029486099997,
                -10.9413028539999
              ],
              [
                -77.07976961199995,
                -10.94420410299989
              ],
              [
                -77.07749173599996,
                -10.95046822899991
              ],
              [
                -77.07532773599996,
                -10.9546822289999
              ],
              [
                -77.07544161099997,
                -10.961459228999843
              ],
              [
                -77.07891548599997,
                -10.966071978999935
              ],
              [
                -77.07646661199993,
                -10.974728103999837
              ],
              [
                -77.07635273599993,
                -10.980081103999964
              ],
              [
                -77.0737356109999,
                -10.9844124789999
              ],
              [
                -77.06456048699988,
                -10.989623103999975
              ],
              [
                -77.0629902359999,
                -10.991210103999947
              ],
              [
                -77.06629511099999,
                -10.998235853999915
              ],
              [
                -77.07337023699989,
                -11.000969978999933
              ],
              [
                -77.0771102359999,
                -11.006289978999916
              ],
              [
                -77.07763023599995,
                -11.012459978999914
              ],
              [
                -77.08135023699998,
                -11.01579997899995
              ],
              [
                -77.0842501109999,
                -11.016019978999964
              ],
              [
                -77.08926298599994,
                -11.008565478999913
              ],
              [
                -77.09166911199998,
                -11.007264228999816
              ],
              [
                -77.09448698599988,
                -11.007326228999887
              ],
              [
                -77.09684398599995,
                -11.006128728999897
              ],
              [
                -77.09996136099994,
                -11.002745353999956
              ],
              [
                -77.10532161099997,
                -11.00103460399987
              ],
              [
                -77.11127136099998,
                -11.001376727999912
              ],
              [
                -77.11841836099995,
                -10.997974228999965
              ],
              [
                -77.12062323599997,
                -10.998373478999952
              ],
              [
                -77.12351248699991,
                -11.003657603999898
              ],
              [
                -77.12462298599996,
                -11.008406228999888
              ],
              [
                -77.12653473699993,
                -11.009132103999889
              ],
              [
                -77.13531673699998,
                -11.010215603999939
              ],
              [
                -77.13883998599988,
                -11.01122997899995
              ],
              [
                -77.14147261099993,
                -11.00697660399993
              ],
              [
                -77.14534961099997,
                -11.00413872899992
              ],
              [
                -77.14616798599991,
                -11.00219922899987
              ],
              [
                -77.15565461199998,
                -10.994934228999966
              ],
              [
                -77.16222573699991,
                -10.990627728999868
              ],
              [
                -77.16593836199996,
                -10.990293603999874
              ],
              [
                -77.17059998599996,
                -10.99110997899993
              ],
              [
                -77.17429148699995,
                -10.98691522899992
              ],
              [
                -77.17674173599988,
                -10.974849478999943
              ],
              [
                -77.17670461199992,
                -10.972844728999974
              ],
              [
                -77.17948911199994,
                -10.962709478999898
              ],
              [
                -77.18038011099992,
                -10.961187478999932
              ],
              [
                -77.18676986199989,
                -10.95830397899988
              ],
              [
                -77.19423011199996,
                -10.957504478999908
              ],
              [
                -77.19566148699994,
                -10.954943853999964
              ],
              [
                -77.19550861099998,
                -10.947093478999932
              ],
              [
                -77.19289498699999,
                -10.936415228999977
              ],
              [
                -77.19420998599998,
                -10.930019853999909
              ],
              [
                -77.1896899859999,
                -10.928829978999943
              ],
              [
                -77.18415011099995,
                -10.92464997899998
              ],
              [
                -77.18161998599993,
                -10.921879978999925
              ],
              [
                -77.17804998699995,
                -10.921319978999975
              ],
              [
                -77.17574998599991,
                -10.922029978999888
              ],
              [
                -77.17203998699989,
                -10.921609978999982
              ],
              [
                -77.16803998599988,
                -10.918539978999888
              ],
              [
                -77.16805998599995,
                -10.914069977999873
              ],
              [
                -77.16648036199996,
                -10.906414103999964
              ],
              [
                -77.16289436099999,
                -10.901804228999936
              ],
              [
                -77.16572486099989,
                -10.883149478999883
              ],
              [
                -77.16425386099996,
                -10.878962852999962
              ],
              [
                -77.16478136099983,
                -10.874228228999925
              ],
              [
                -77.1637422369999,
                -10.8700898539999
              ],
              [
                -77.1591801109999,
                -10.866978728999982
              ],
              [
                -77.15608698599993,
                -10.856146728999875
              ],
              [
                -77.15649411099997,
                -10.849244103999979
              ],
              [
                -77.16168948599989,
                -10.841458978999924
              ],
              [
                -77.16433398599992,
                -10.835623103999978
              ],
              [
                -77.16422661099995,
                -10.830517603999965
              ],
              [
                -77.16600961099994,
                -10.826296728999921
              ],
              [
                -77.17045086199994,
                -10.814055353999947
              ],
              [
                -77.17351123699996,
                -10.808625103999816
              ],
              [
                -77.17754186199994,
                -10.80575135399988
              ],
              [
                -77.18592111099991,
                -10.805444603999831
              ],
              [
                -77.18808448699997,
                -10.804795603999935
              ],
              [
                -77.18347173599994,
                -10.79522835299997
              ],
              [
                -77.17887998599997,
                -10.78731997899996
              ],
              [
                -77.17857423599992,
                -10.78110535399992
              ],
              [
                -77.17662111099997,
                -10.77807422899997
              ],
              [
                -77.16689986099993,
                -10.777005102999965
              ],
              [
                -77.16410948599992,
                -10.774727103999965
              ],
              [
                -77.16216211099999,
                -10.767374978999953
              ],
              [
                -77.16022461199998,
                -10.76502947799986
              ],
              [
                -77.15666986199994,
                -10.76411522899997
              ],
              [
                -77.15331248599989,
                -10.76154497899995
              ],
              [
                -77.14759761099998,
                -10.760435602999962
              ],
              [
                -77.14028911099996,
                -10.756103478999933
              ],
              [
                -77.13092773699998,
                -10.755517478999934
              ],
              [
                -77.12361323599998,
                -10.751599603999864
              ],
              [
                -77.11908786099991,
                -10.750455103999911
              ],
              [
                -77.11335736099988,
                -10.751037103999863
              ],
              [
                -77.10960348699996,
                -10.749515602999907
              ],
              [
                -77.10569723699996,
                -10.74970510299994
              ],
              [
                -77.10359186199997,
                -10.750939478999953
              ],
              [
                -77.10140236199999,
                -10.75046685399991
              ],
              [
                -77.09941798699992,
                -10.748255853999979
              ],
              [
                -77.09627536099998,
                -10.748205103999908
              ],
              [
                -77.09139261099989,
                -10.749830103999898
              ],
              [
                -77.08606048599995,
                -10.75354497799998
              ]
            ]
          ]
        ],
        "type": "MultiPolygon"
      },
      "type": "Feature",
      "properties": {
        "PROVINCIA": "OYON",
        "DISTRITO": "COCHAMARCA",
        "name": "COCHAMARCA",
        "ID": "141006",
        "DEPARTAMEN": "LIMA"
      }
    }
  ]
}
