{
  "type": "FeatureCollection",
  "features": [
    {
      "geometry": {
        "coordinates": [
          [
            [
              [
                -76.97292973599991,
                -10.875849603999939
              ],
              [
                -76.97594023599999,
                -10.87968997899992
              ],
              [
                -76.97527023599997,
                -10.884209978999877
              ],
              [
                -76.97713023699993,
                -10.885709977999909
              ],
              [
                -76.98029023599997,
                -10.885669978999886
              ],
              [
                -76.98123023599999,
                -10.887959978999845
              ],
              [
                -76.98081023599985,
                -10.891399977999981
              ],
              [
                -76.9839002359999,
                -10.893409978999955
              ],
              [
                -76.98502023699996,
                -10.895319978999964
              ],
              [
                -76.98603023599992,
                -10.900299978999897
              ],
              [
                -76.9889402369999,
                -10.902089978999925
              ],
              [
                -76.99225023599996,
                -10.909299978999911
              ],
              [
                -76.99540023599991,
                -10.9097099789999
              ],
              [
                -76.99805023699997,
                -10.912209978999897
              ],
              [
                -77.00242023599998,
                -10.912159978999853
              ],
              [
                -77.0040502359999,
                -10.913389977999941
              ],
              [
                -77.01025023599988,
                -10.914299978999964
              ],
              [
                -77.01438023599991,
                -10.918739977999905
              ],
              [
                -77.01638011099993,
                -10.924739978999867
              ],
              [
                -77.02252548699994,
                -10.92789197899998
              ],
              [
                -77.02725023699998,
                -10.932289978999904
              ],
              [
                -77.02835023599994,
                -10.937389978999818
              ],
              [
                -77.03060023599994,
                -10.944579977999979
              ],
              [
                -77.03710036099989,
                -10.949179978999837
              ],
              [
                -77.03894023599997,
                -10.949879978999945
              ],
              [
                -77.03900023699998,
                -10.953959978999933
              ],
              [
                -77.04004023699997,
                -10.955779978999942
              ],
              [
                -77.04259023599991,
                -10.956329978999975
              ],
              [
                -77.04574036199995,
                -10.958869978999928
              ],
              [
                -77.0476602359999,
                -10.961459978999812
              ],
              [
                -77.04792023599992,
                -10.964809978999881
              ],
              [
                -77.05038023599997,
                -10.97133985399995
              ],
              [
                -77.05151023599996,
                -10.975829978999968
              ],
              [
                -77.05559023599994,
                -10.979719978999924
              ],
              [
                -77.05801023599997,
                -10.985169978999977
              ],
              [
                -77.06039036099992,
                -10.988679977999936
              ],
              [
                -77.0629902359999,
                -10.991210103999947
              ],
              [
                -77.06456048699988,
                -10.989623103999975
              ],
              [
                -77.0737356109999,
                -10.9844124789999
              ],
              [
                -77.07635273599993,
                -10.980081103999964
              ],
              [
                -77.07646661199993,
                -10.974728103999837
              ],
              [
                -77.07891548599997,
                -10.966071978999935
              ],
              [
                -77.07544161099997,
                -10.961459228999843
              ],
              [
                -77.07532773599996,
                -10.9546822289999
              ],
              [
                -77.07749173599996,
                -10.95046822899991
              ],
              [
                -77.07976961199995,
                -10.94420410299989
              ],
              [
                -77.08029486099997,
                -10.9413028539999
              ],
              [
                -77.0793709859999,
                -10.93924960399994
              ],
              [
                -77.07806123599988,
                -10.932586603999937
              ],
              [
                -77.07293586199984,
                -10.92985310399996
              ],
              [
                -77.06957223699999,
                -10.9258749789999
              ],
              [
                -77.07122748699999,
                -10.922734603999857
              ],
              [
                -77.0738471119999,
                -10.922962477999874
              ],
              [
                -77.0804529859999,
                -10.922278978999884
              ],
              [
                -77.08557836099988,
                -10.9222221039999
              ],
              [
                -77.09628448699993,
                -10.92279160399994
              ],
              [
                -77.10297911099997,
                -10.924156728999947
              ],
              [
                -77.10553998699993,
                -10.91969985399993
              ],
              [
                -77.1061599869999,
                -10.91591997899991
              ],
              [
                -77.10746998599996,
                -10.914109978999875
              ],
              [
                -77.1060699869999,
                -10.910149978999812
              ],
              [
                -77.10646998699997,
                -10.90706997899997
              ],
              [
                -77.10846998599999,
                -10.905779978999874
              ],
              [
                -77.11111998699994,
                -10.902099978999956
              ],
              [
                -77.11466998699996,
                -10.89971997799995
              ],
              [
                -77.11811998599995,
                -10.894039978999842
              ],
              [
                -77.11823998699992,
                -10.88982997799991
              ],
              [
                -77.11916998599997,
                -10.888069978999965
              ],
              [
                -77.11800998599989,
                -10.886019977999979
              ],
              [
                -77.11515998599998,
                -10.883949978999965
              ],
              [
                -77.1128499859999,
                -10.880319978999978
              ],
              [
                -77.10959998599998,
                -10.879469978999907
              ],
              [
                -77.10823998599994,
                -10.877789978999942
              ],
              [
                -77.10551998599988,
                -10.871559978999926
              ],
              [
                -77.10324998599998,
                -10.869829978999974
              ],
              [
                -77.10047998599998,
                -10.86559997899991
              ],
              [
                -77.09508998599995,
                -10.86138997799992
              ],
              [
                -77.09161998699989,
                -10.85620997899997
              ],
              [
                -77.08856998699997,
                -10.854899978999924
              ],
              [
                -77.08689998599988,
                -10.850389977999896
              ],
              [
                -77.08714998699998,
                -10.846759978999955
              ],
              [
                -77.08624998599993,
                -10.843369978999931
              ],
              [
                -77.0856699869999,
                -10.837509977999957
              ],
              [
                -77.08243998599988,
                -10.835309978999874
              ],
              [
                -77.08219998599992,
                -10.831509978999975
              ],
              [
                -77.07864998599996,
                -10.825879978999922
              ],
              [
                -77.07824998699988,
                -10.822649978999834
              ],
              [
                -77.07681998599998,
                -10.820239978999894
              ],
              [
                -77.07886086099995,
                -10.81698210399992
              ],
              [
                -77.08132423599994,
                -10.809591978999947
              ],
              [
                -77.08132423599994,
                -10.807691603999956
              ],
              [
                -77.07724198699998,
                -10.796500728999945
              ],
              [
                -77.07619536099998,
                -10.789718728999844
              ],
              [
                -77.07704098699992,
                -10.786595728999885
              ],
              [
                -77.07880473599994,
                -10.783718728999872
              ],
              [
                -77.08329486199995,
                -10.773697103999893
              ],
              [
                -77.08357636099998,
                -10.762576728999932
              ],
              [
                -77.08227536099997,
                -10.7598593539999
              ],
              [
                -77.08606048599995,
                -10.75354497799998
              ],
              [
                -77.08221836099995,
                -10.751606352999886
              ],
              [
                -77.08107948599996,
                -10.750011852999933
              ],
              [
                -77.08073773699994,
                -10.743918353999959
              ],
              [
                -77.07714998699998,
                -10.742722478999895
              ],
              [
                -77.06940511199991,
                -10.744772602999944
              ],
              [
                -77.06178511099995,
                -10.743952853999929
              ],
              [
                -77.05966698699984,
                -10.742836352999973
              ],
              [
                -77.05342773599989,
                -10.741179727999963
              ],
              [
                -77.04992898599994,
                -10.739134728999943
              ],
              [
                -77.04707223599985,
                -10.736322228999938
              ],
              [
                -77.04330473599998,
                -10.737730477999946
              ],
              [
                -77.04016798599997,
                -10.736548853999977
              ],
              [
                -77.03729298599984,
                -10.73387497899995
              ],
              [
                -77.03483611199994,
                -10.732751978999943
              ],
              [
                -77.02764836099993,
                -10.735148477999928
              ],
              [
                -77.02460336099989,
                -10.738190853999924
              ],
              [
                -77.02242311099997,
                -10.743064103999927
              ],
              [
                -77.02020223599999,
                -10.74949922899998
              ],
              [
                -77.02024598599996,
                -10.754421727999954
              ],
              [
                -77.02270786199989,
                -10.759066477999966
              ],
              [
                -77.01997436099998,
                -10.763907103999884
              ],
              [
                -77.01872148599995,
                -10.768235102999881
              ],
              [
                -77.01820898699998,
                -10.773759728999948
              ],
              [
                -77.01534748599994,
                -10.77652097899994
              ],
              [
                -77.01187648599989,
                -10.782977853999967
              ],
              [
                -77.00838473599998,
                -10.786921853999957
              ],
              [
                -77.00617573599999,
                -10.794257852999976
              ],
              [
                -77.00637886099986,
                -10.800212853999938
              ],
              [
                -77.00541011099989,
                -10.805507853999927
              ],
              [
                -77.00370698699993,
                -10.80975785399994
              ],
              [
                -77.00012261099994,
                -10.813830478999932
              ],
              [
                -76.99910286099993,
                -10.816379853999933
              ],
              [
                -76.99859573599997,
                -10.823646478999933
              ],
              [
                -76.99739536099997,
                -10.829780228999937
              ],
              [
                -76.99775786099991,
                -10.835439478999945
              ],
              [
                -76.99733011199999,
                -10.838081978999924
              ],
              [
                -76.99347648599996,
                -10.845082477999881
              ],
              [
                -76.99134911099992,
                -10.850494102999903
              ],
              [
                -76.99065423599995,
                -10.855326227999967
              ],
              [
                -76.98671686099988,
                -10.859808603999909
              ],
              [
                -76.98224611099988,
                -10.863054603999899
              ],
              [
                -76.98033398699988,
                -10.867017603999898
              ],
              [
                -76.97363286099994,
                -10.870033227999897
              ],
              [
                -76.97292973599991,
                -10.875849603999939
              ]
            ]
          ]
        ],
        "type": "MultiPolygon"
      },
      "type": "Feature",
      "properties": {
        "PROVINCIA": "OYON",
        "DISTRITO": "NAVAN",
        "name": "NAVAN",
        "ID": "141002",
        "DEPARTAMEN": "LIMA"
      }
    }
  ]
}
