{
  "type": "FeatureCollection",
  "features": [
    {
      "geometry": {
        "coordinates": [
          [
            [
              [
                -76.33696998599999,
                -13.102059979999979
              ],
              [
                -76.34121498599984,
                -13.102064979999852
              ],
              [
                -76.34610998599993,
                -13.101259980999941
              ],
              [
                -76.34403998599998,
                -13.098329980999893
              ],
              [
                -76.34420998599995,
                -13.094139980999955
              ],
              [
                -76.34748998499998,
                -13.092329980999864
              ],
              [
                -76.34724998599995,
                -13.090109980999955
              ],
              [
                -76.34387998499989,
                -13.087310105999904
              ],
              [
                -76.34263998599988,
                -13.082459980999886
              ],
              [
                -76.3429699859999,
                -13.071119979999878
              ],
              [
                -76.34354986099993,
                -13.067829980999818
              ],
              [
                -76.34510998599995,
                -13.066109980999954
              ],
              [
                -76.35082148599992,
                -13.064415980999968
              ],
              [
                -76.35480336099988,
                -13.061652980999952
              ],
              [
                -76.36716835999988,
                -13.056885605999923
              ],
              [
                -76.37275785999998,
                -13.058337855999923
              ],
              [
                -76.37858098599992,
                -13.061703855999895
              ],
              [
                -76.38448386099992,
                -13.064514730999974
              ],
              [
                -76.38677936099998,
                -13.063507480999931
              ],
              [
                -76.3893281099999,
                -13.060111355999936
              ],
              [
                -76.39042361099996,
                -13.056795480999938
              ],
              [
                -76.38872998599999,
                -13.052729979999924
              ],
              [
                -76.39241523499999,
                -13.045065230999967
              ],
              [
                -76.39311123599992,
                -13.042345730999955
              ],
              [
                -76.39162010999985,
                -13.038735355999904
              ],
              [
                -76.39337298599992,
                -13.037580105999893
              ],
              [
                -76.39651748599994,
                -13.037769355999842
              ],
              [
                -76.40352998599991,
                -13.024129979999941
              ],
              [
                -76.4076099859999,
                -13.020469980999962
              ],
              [
                -76.41242998599995,
                -13.01875998099996
              ],
              [
                -76.41473998599992,
                -13.018929979999882
              ],
              [
                -76.41710948599996,
                -13.01609723099989
              ],
              [
                -76.42219898599996,
                -13.017112730999827
              ],
              [
                -76.42794723599997,
                -13.01373248099992
              ],
              [
                -76.43006836099988,
                -13.010865229999979
              ],
              [
                -76.42888673599998,
                -13.006947230999913
              ],
              [
                -76.42234773499996,
                -13.001623104999851
              ],
              [
                -76.42107760999994,
                -13.001323480999929
              ],
              [
                -76.41563998599997,
                -13.00633998099994
              ],
              [
                -76.41225998499988,
                -13.008479980999823
              ],
              [
                -76.40637998599993,
                -13.009889980999958
              ],
              [
                -76.4016953609999,
                -13.009766855999885
              ],
              [
                -76.39835386099992,
                -13.00544348099993
              ],
              [
                -76.39706411099996,
                -13.002116605999902
              ],
              [
                -76.3930058599999,
                -12.99822073099989
              ],
              [
                -76.38053123599991,
                -12.992447230999915
              ],
              [
                -76.37300198499992,
                -12.989882855999952
              ],
              [
                -76.35657423599997,
                -12.982357479999905
              ],
              [
                -76.35482810999997,
                -12.982339855999953
              ],
              [
                -76.35060511099988,
                -12.984781355999928
              ],
              [
                -76.3545899859999,
                -12.991289980999909
              ],
              [
                -76.3571599849999,
                -13.000119979999909
              ],
              [
                -76.35683998499991,
                -13.003659980999885
              ],
              [
                -76.35744998599995,
                -13.012199979999934
              ],
              [
                -76.35540998599998,
                -13.019169980999948
              ],
              [
                -76.35101998599993,
                -13.025149979999924
              ],
              [
                -76.34851998499994,
                -13.029629980999971
              ],
              [
                -76.34282998499998,
                -13.032959980999976
              ],
              [
                -76.33604998599998,
                -13.034049980999953
              ],
              [
                -76.33653473599992,
                -13.039577729999962
              ],
              [
                -76.33743998599994,
                -13.042769979999946
              ],
              [
                -76.33932011099989,
                -13.04591998099994
              ],
              [
                -76.33870785999994,
                -13.051399855999932
              ],
              [
                -76.33453511099992,
                -13.051621105999914
              ],
              [
                -76.33253711099991,
                -13.052779355999917
              ],
              [
                -76.33080998499992,
                -13.056819980999933
              ],
              [
                -76.3290589849999,
                -13.069697980999933
              ],
              [
                -76.32891986099992,
                -13.074819979999972
              ],
              [
                -76.33211998599995,
                -13.087639980999938
              ],
              [
                -76.33499998499997,
                -13.090849979999973
              ],
              [
                -76.33522461099989,
                -13.093358855999895
              ],
              [
                -76.33294923499989,
                -13.095503855999937
              ],
              [
                -76.33220536099998,
                -13.09919810599996
              ],
              [
                -76.33398560999996,
                -13.100109605999876
              ],
              [
                -76.33744636099993,
                -13.099639605999926
              ],
              [
                -76.33696998599999,
                -13.102059979999979
              ]
            ]
          ]
        ],
        "type": "MultiPolygon"
      },
      "type": "Feature",
      "properties": {
        "PROVINCIA": "CAÑETE",
        "DISTRITO": "IMPERIAL",
        "name": "IMPERIAL",
        "ID": "140406",
        "DEPARTAMEN": "LIMA"
      }
    }
  ]
}
