{
  "type": "FeatureCollection",
  "features": [
    {
      "geometry": {
        "coordinates": [
          [
            [
              [
                -76.21855060999991,
                -11.912730479999937
              ],
              [
                -76.21561823599995,
                -11.924395354999945
              ],
              [
                -76.22078961099999,
                -11.932456228999968
              ],
              [
                -76.22037885999993,
                -11.938327353999966
              ],
              [
                -76.22244736099992,
                -11.942722854999943
              ],
              [
                -76.22259948599992,
                -11.946540478999907
              ],
              [
                -76.22488111099995,
                -11.94990185499995
              ],
              [
                -76.2327747359999,
                -11.952578729999914
              ],
              [
                -76.23860011099998,
                -11.956670103999954
              ],
              [
                -76.24415161099995,
                -11.958373603999974
              ],
              [
                -76.24946810999995,
                -11.962034479999886
              ],
              [
                -76.25393135999991,
                -11.963636228999974
              ],
              [
                -76.25464623499983,
                -11.965826354999933
              ],
              [
                -76.25381173499994,
                -11.969186228999945
              ],
              [
                -76.24910936099991,
                -11.974452729999939
              ],
              [
                -76.24823960999998,
                -11.977698104999945
              ],
              [
                -76.25285348599988,
                -11.980583979999892
              ],
              [
                -76.25596173499997,
                -11.983840604999898
              ],
              [
                -76.25648823599988,
                -11.98748235499994
              ],
              [
                -76.26034923499998,
                -11.991079979999881
              ],
              [
                -76.26203910999999,
                -11.994355478999921
              ],
              [
                -76.26671673499987,
                -11.995355354999958
              ],
              [
                -76.26925598499992,
                -11.998714479999819
              ],
              [
                -76.27245898599989,
                -12.000337854999941
              ],
              [
                -76.2804004859999,
                -12.002751104999959
              ],
              [
                -76.28430535999996,
                -12.003145979999942
              ],
              [
                -76.28842973499997,
                -12.007597604999944
              ],
              [
                -76.29110610999999,
                -12.008981479999932
              ],
              [
                -76.2969197359999,
                -12.010193854999898
              ],
              [
                -76.30694523499994,
                -12.00884985499988
              ],
              [
                -76.30992873599996,
                -12.016659603999926
              ],
              [
                -76.31339498599988,
                -12.018063729999938
              ],
              [
                -76.32063448499997,
                -12.02205647999989
              ],
              [
                -76.32304298599996,
                -12.024921854999832
              ],
              [
                -76.32446286099992,
                -12.028289103999896
              ],
              [
                -76.32519748599998,
                -12.035482354999886
              ],
              [
                -76.32515361099996,
                -12.042019854999921
              ],
              [
                -76.3282249859999,
                -12.04803072999988
              ],
              [
                -76.3286211109999,
                -12.052779354999927
              ],
              [
                -76.32814448499994,
                -12.056140604999882
              ],
              [
                -76.33051360999991,
                -12.057470729999977
              ],
              [
                -76.33411523499996,
                -12.061132854999926
              ],
              [
                -76.34544398599996,
                -12.064682354999889
              ],
              [
                -76.34982210999993,
                -12.062778979999962
              ],
              [
                -76.35216961099991,
                -12.062715479999952
              ],
              [
                -76.35667448499998,
                -12.06417485499992
              ],
              [
                -76.36333661099991,
                -12.063667228999918
              ],
              [
                -76.37095048499998,
                -12.065697604999968
              ],
              [
                -76.37853710999997,
                -12.061632854999914
              ],
              [
                -76.38211736099998,
                -12.060304479999957
              ],
              [
                -76.38662223599994,
                -12.060177479999936
              ],
              [
                -76.38973123599999,
                -12.062017478999962
              ],
              [
                -76.3963299859999,
                -12.062969229999908
              ],
              [
                -76.4015299859999,
                -12.068179979999911
              ],
              [
                -76.40448998499994,
                -12.072119979999968
              ],
              [
                -76.40595998599997,
                -12.075329979999822
              ],
              [
                -76.41046998499996,
                -12.079129979999891
              ],
              [
                -76.41344998599993,
                -12.079259979999904
              ],
              [
                -76.41746998499985,
                -12.075659979999955
              ],
              [
                -76.42345836099997,
                -12.07417385499997
              ],
              [
                -76.42786323599995,
                -12.074048854999944
              ],
              [
                -76.43345923599998,
                -12.072528979999959
              ],
              [
                -76.43890373599993,
                -12.067797854999924
              ],
              [
                -76.44382423499991,
                -12.065613354999925
              ],
              [
                -76.44611361099999,
                -12.060063979999939
              ],
              [
                -76.44510748599998,
                -12.054375854999876
              ],
              [
                -76.44185448599995,
                -12.04791060499997
              ],
              [
                -76.44201561099993,
                -12.04321097899998
              ],
              [
                -76.44393548499988,
                -12.037746103999893
              ],
              [
                -76.44071711099997,
                -12.032560729999943
              ],
              [
                -76.4371029859999,
                -12.029496603999974
              ],
              [
                -76.43482223599995,
                -12.029384729999947
              ],
              [
                -76.42940348599996,
                -12.027336104999904
              ],
              [
                -76.42410048499994,
                -12.02407560499995
              ],
              [
                -76.42307898599995,
                -12.022347104999938
              ],
              [
                -76.42303961099998,
                -12.014883229999953
              ],
              [
                -76.42017198599996,
                -12.005769604999955
              ],
              [
                -76.42252898499993,
                -11.995398854999905
              ],
              [
                -76.4221754859999,
                -11.992413354999826
              ],
              [
                -76.4194256099999,
                -11.989899228999889
              ],
              [
                -76.41863998599996,
                -11.98758147999996
              ],
              [
                -76.41881873599988,
                -11.983609854999884
              ],
              [
                -76.41494736099992,
                -11.982003104999933
              ],
              [
                -76.41435810999997,
                -11.98035335499992
              ],
              [
                -76.41139798599988,
                -11.97866260499984
              ],
              [
                -76.40739998599986,
                -11.980129979999901
              ],
              [
                -76.40404998599996,
                -11.979789854999922
              ],
              [
                -76.39890998499993,
                -11.981379979999872
              ],
              [
                -76.39753998499998,
                -11.976689979999946
              ],
              [
                -76.39942998599997,
                -11.972919979999972
              ],
              [
                -76.40480173499998,
                -11.968540729999972
              ],
              [
                -76.40844098499991,
                -11.964361229999952
              ],
              [
                -76.41259211099992,
                -11.958106104999956
              ],
              [
                -76.41335973599996,
                -11.950002978999976
              ],
              [
                -76.41563436099995,
                -11.94460085499992
              ],
              [
                -76.41498748599997,
                -11.94319610499997
              ],
              [
                -76.40992298599997,
                -11.937820729999885
              ],
              [
                -76.40388123599996,
                -11.933644729999969
              ],
              [
                -76.4023263609999,
                -11.931378979999977
              ],
              [
                -76.39819473599994,
                -11.928980104999937
              ],
              [
                -76.3969042359999,
                -11.924769479999952
              ],
              [
                -76.39671286099997,
                -11.921515603999978
              ],
              [
                -76.39206411099997,
                -11.918895479999946
              ],
              [
                -76.38811023499994,
                -11.918495729999847
              ],
              [
                -76.38073560999987,
                -11.920139479999875
              ],
              [
                -76.37713723599995,
                -11.918806604999816
              ],
              [
                -76.37309448599996,
                -11.913297853999893
              ],
              [
                -76.37016235999988,
                -11.908100229999832
              ],
              [
                -76.3665194859999,
                -11.903879729999858
              ],
              [
                -76.3577233609999,
                -11.899970354999937
              ],
              [
                -76.35456910999994,
                -11.899481729999934
              ],
              [
                -76.35177036099992,
                -11.901214353999933
              ],
              [
                -76.34866061099996,
                -11.899081854999963
              ],
              [
                -76.34777210999988,
                -11.894106229999977
              ],
              [
                -76.34390711099991,
                -11.890863104999937
              ],
              [
                -76.33315610999989,
                -11.882955479999907
              ],
              [
                -76.33119923599997,
                -11.879148478999923
              ],
              [
                -76.32280511099998,
                -11.87500335499982
              ],
              [
                -76.32085036099983,
                -11.871626979999974
              ],
              [
                -76.31973973499993,
                -11.866207103999955
              ],
              [
                -76.31418661099991,
                -11.857455229999971
              ],
              [
                -76.31134335999997,
                -11.854034603999821
              ],
              [
                -76.31085936099998,
                -11.851183978999927
              ],
              [
                -76.30908073499995,
                -11.848789104999923
              ],
              [
                -76.31073610999988,
                -11.843893604999892
              ],
              [
                -76.3105881109999,
                -11.841906479999977
              ],
              [
                -76.30932011099998,
                -11.842211603999885
              ],
              [
                -76.30374198599992,
                -11.846243228999981
              ],
              [
                -76.30031773499996,
                -11.847458353999968
              ],
              [
                -76.29690511099994,
                -11.84372797999987
              ],
              [
                -76.29002385999996,
                -11.84299335499992
              ],
              [
                -76.28762073599995,
                -11.840970479999896
              ],
              [
                -76.28235823599988,
                -11.84205035499997
              ],
              [
                -76.27612223599994,
                -11.850385229999915
              ],
              [
                -76.27233498599992,
                -11.856560354999885
              ],
              [
                -76.27141210999997,
                -11.860681604999911
              ],
              [
                -76.26649448599994,
                -11.864408479999895
              ],
              [
                -76.26474536099994,
                -11.870613979999973
              ],
              [
                -76.26404573499985,
                -11.876302603999932
              ],
              [
                -76.26506486099998,
                -11.881990853999923
              ],
              [
                -76.26249436099994,
                -11.887785729999962
              ],
              [
                -76.25899623499993,
                -11.889489104999939
              ],
              [
                -76.25525461099988,
                -11.889337103999878
              ],
              [
                -76.25282111099989,
                -11.890264853999838
              ],
              [
                -76.24845585999992,
                -11.893884603999936
              ],
              [
                -76.24188536099996,
                -11.894873354999959
              ],
              [
                -76.24460786099996,
                -11.899816353999938
              ],
              [
                -76.24290436099994,
                -11.903238728999952
              ],
              [
                -76.2379003609999,
                -11.908729354999934
              ],
              [
                -76.23505623499994,
                -11.908653354999956
              ],
              [
                -76.23148198599989,
                -11.905930853999905
              ],
              [
                -76.22664523499998,
                -11.90641747999996
              ],
              [
                -76.22266035999996,
                -11.908120979999865
              ],
              [
                -76.21855060999991,
                -11.912730479999937
              ]
            ]
          ]
        ],
        "type": "MultiPolygon"
      },
      "type": "Feature",
      "properties": {
        "PROVINCIA": "HUAROCHIRI",
        "DISTRITO": "SAN DAMIAN",
        "name": "SAN DAMIAN",
        "ID": "140617",
        "DEPARTAMEN": "LIMA"
      }
    }
  ]
}
