{
  "type": "FeatureCollection",
  "features": [
    {
      "geometry": {
        "coordinates": [
          [
            [
              [
                -77.02794423599994,
                -11.965714104999961
              ],
              [
                -77.02765773599992,
                -11.966619604999948
              ],
              [
                -77.02956248699996,
                -11.971109354999953
              ],
              [
                -77.02895211099991,
                -11.982192229999953
              ],
              [
                -77.03017823599993,
                -11.984879729999875
              ],
              [
                -77.03065423599998,
                -11.996388729999921
              ],
              [
                -77.03368886199996,
                -12.001223354999922
              ],
              [
                -77.03803936099996,
                -12.00443160499998
              ],
              [
                -77.04392973599988,
                -12.01012110499994
              ],
              [
                -77.0448769859999,
                -12.011712854999814
              ],
              [
                -77.0463752359999,
                -12.017683604999831
              ],
              [
                -77.04776761099998,
                -12.017828354999892
              ],
              [
                -77.04876873599989,
                -12.01291585499996
              ],
              [
                -77.05027148599999,
                -12.010540979999917
              ],
              [
                -77.05296911099998,
                -12.011032604999912
              ],
              [
                -77.0537499859999,
                -12.007478354999932
              ],
              [
                -77.06140236099998,
                -12.008361354999977
              ],
              [
                -77.06290823599988,
                -11.997540979999883
              ],
              [
                -77.06523398699994,
                -11.984797854999954
              ],
              [
                -77.06623823699988,
                -11.977638604999925
              ],
              [
                -77.05982036099994,
                -11.976919979999877
              ],
              [
                -77.05344423599985,
                -11.972780979999982
              ],
              [
                -77.05211211099993,
                -11.970163354999954
              ],
              [
                -77.05147973599992,
                -11.96959172999982
              ],
              [
                -77.04792673699995,
                -11.967007979999892
              ],
              [
                -77.04439536099994,
                -11.96555297999987
              ],
              [
                -77.04037348599996,
                -11.965569229999971
              ],
              [
                -77.03293461099992,
                -11.96174372999991
              ],
              [
                -77.02828123599994,
                -11.960677729999816
              ],
              [
                -77.02879298699997,
                -11.964019479999934
              ],
              [
                -77.02794423599994,
                -11.965714104999961
              ]
            ]
          ]
        ],
        "type": "MultiPolygon"
      },
      "type": "Feature",
      "properties": {
        "PROVINCIA": "LIMA",
        "DISTRITO": "INDEPENDENCIA",
        "name": "INDEPENDENCIA",
        "ID": "140134",
        "DEPARTAMEN": "LIMA"
      }
    }
  ]
}
