{
  "type": "FeatureCollection",
  "features": [
    {
      "geometry": {
        "coordinates": [
          [
            [
              [
                -76.75330273599985,
                -12.428900354999882
              ],
              [
                -76.75285348599988,
                -12.431451229999936
              ],
              [
                -76.75485548599988,
                -12.434701229999973
              ],
              [
                -76.75731048599988,
                -12.444205104999924
              ],
              [
                -76.75547461099995,
                -12.449468730999968
              ],
              [
                -76.75424798599988,
                -12.454763729999968
              ],
              [
                -76.75168161099992,
                -12.46268947999988
              ],
              [
                -76.75634961099996,
                -12.474980480999875
              ],
              [
                -76.75763086099994,
                -12.47671685499995
              ],
              [
                -76.76487423599991,
                -12.479536230999884
              ],
              [
                -76.76835936099997,
                -12.482351604999963
              ],
              [
                -76.77004211099995,
                -12.487056479999978
              ],
              [
                -76.77149061099988,
                -12.493263979999938
              ],
              [
                -76.77557736099999,
                -12.496626355999979
              ],
              [
                -76.78018473599997,
                -12.49776197999995
              ],
              [
                -76.79080048599991,
                -12.503120104999823
              ],
              [
                -76.79094136099997,
                -12.506248480999943
              ],
              [
                -76.78819961099992,
                -12.50974022999992
              ],
              [
                -76.7859752359999,
                -12.513956354999891
              ],
              [
                -76.78416423599998,
                -12.51993160499984
              ],
              [
                -76.78638461099996,
                -12.516494104999879
              ],
              [
                -76.78941011099982,
                -12.515138604999834
              ],
              [
                -76.79374798599991,
                -12.511990229999924
              ],
              [
                -76.7993086109999,
                -12.509080104999839
              ],
              [
                -76.80358011099986,
                -12.509085979999952
              ],
              [
                -76.80248048599998,
                -12.5043222299999
              ],
              [
                -76.79913286099998,
                -12.500132854999947
              ],
              [
                -76.80121498599993,
                -12.497814479999931
              ],
              [
                -76.8051973609999,
                -12.496538980999844
              ],
              [
                -76.8001523609999,
                -12.494398480999905
              ],
              [
                -76.7990508609999,
                -12.48873822999991
              ],
              [
                -76.79921486099988,
                -12.485554855999965
              ],
              [
                -76.80237298599997,
                -12.482331979999856
              ],
              [
                -76.80206248599995,
                -12.47908397999987
              ],
              [
                -76.79792973599996,
                -12.48052535599993
              ],
              [
                -76.79102536099998,
                -12.477771479999888
              ],
              [
                -76.79231648599995,
                -12.4745371059999
              ],
              [
                -76.79123636099996,
                -12.471165980999956
              ],
              [
                -76.78911911099988,
                -12.469623104999926
              ],
              [
                -76.79084961099989,
                -12.467021479999971
              ],
              [
                -76.78808198599995,
                -12.46155272999988
              ],
              [
                -76.78884961099999,
                -12.45835348099996
              ],
              [
                -76.78814848599995,
                -12.455876979999971
              ],
              [
                -76.78382611099994,
                -12.455642605999913
              ],
              [
                -76.78307811099995,
                -12.453492229999824
              ],
              [
                -76.78402348599991,
                -12.450968730999932
              ],
              [
                -76.7850507359999,
                -12.443435604999934
              ],
              [
                -76.7816972359999,
                -12.444052854999939
              ],
              [
                -76.77754498599995,
                -12.442306604999885
              ],
              [
                -76.77504098599991,
                -12.437871104999886
              ],
              [
                -76.77577148599994,
                -12.433255854999913
              ],
              [
                -76.77938673599994,
                -12.426333979999981
              ],
              [
                -76.77888673599995,
                -12.4237266049999
              ],
              [
                -76.78006836099996,
                -12.417058605999955
              ],
              [
                -76.77595436099989,
                -12.424430979999954
              ],
              [
                -76.77234661099999,
                -12.42533310499988
              ],
              [
                -76.77061211099993,
                -12.420892604999892
              ],
              [
                -76.76672673599995,
                -12.420580479999956
              ],
              [
                -76.76266811099998,
                -12.419227479999961
              ],
              [
                -76.7611417359999,
                -12.422349604999852
              ],
              [
                -76.75673611099995,
                -12.42460447999997
              ],
              [
                -76.75489748599989,
                -12.42800410599989
              ],
              [
                -76.75330273599985,
                -12.428900354999882
              ]
            ]
          ]
        ],
        "type": "MultiPolygon"
      },
      "type": "Feature",
      "properties": {
        "PROVINCIA": "LIMA",
        "DISTRITO": "PUCUSANA",
        "name": "PUCUSANA",
        "ID": "140118",
        "DEPARTAMEN": "LIMA"
      }
    }
  ]
}
