{
  "type": "FeatureCollection",
  "features": [
    {
      "geometry": {
        "coordinates": [
          [
            [
              [
                -73.23324585699999,
                -15.874050108999882
              ],
              [
                -73.22930148299992,
                -15.884009357999958
              ],
              [
                -73.23109435699996,
                -15.888445857999955
              ],
              [
                -73.23299410699991,
                -15.891033232999973
              ],
              [
                -73.23257448299995,
                -15.894782982999914
              ],
              [
                -73.23421473199994,
                -15.904237733999821
              ],
              [
                -73.23542785799992,
                -15.907934232999935
              ],
              [
                -73.23117823199993,
                -15.911954858999934
              ],
              [
                -73.22958373299991,
                -15.915685607999933
              ],
              [
                -73.2292174829999,
                -15.924312607999923
              ],
              [
                -73.2251587319999,
                -15.926734983999893
              ],
              [
                -73.22487635699997,
                -15.931370733999927
              ],
              [
                -73.22804260799995,
                -15.941400483999871
              ],
              [
                -73.22918698299998,
                -15.946799233999911
              ],
              [
                -73.22988123299996,
                -15.953111733999947
              ],
              [
                -73.22735598299988,
                -15.957828483999947
              ],
              [
                -73.22330473299996,
                -15.962029482999924
              ],
              [
                -73.2234573579999,
                -15.969057107999902
              ],
              [
                -73.22499085799996,
                -15.98497198299998
              ],
              [
                -73.22180935799997,
                -15.988982357999873
              ],
              [
                -73.22135923299993,
                -15.992169358999888
              ],
              [
                -73.22428898299995,
                -15.99328423399993
              ],
              [
                -73.22570798299995,
                -15.995624483999961
              ],
              [
                -73.22877498299988,
                -15.997074108999982
              ],
              [
                -73.23516085799997,
                -15.995986983999899
              ],
              [
                -73.24028773299989,
                -15.998206108999966
              ],
              [
                -73.23962398299994,
                -16.004686357999844
              ],
              [
                -73.23579410799994,
                -16.011548983999944
              ],
              [
                -73.23484798299984,
                -16.01799398399993
              ],
              [
                -73.2333908579999,
                -16.021024732999877
              ],
              [
                -73.23397810699998,
                -16.02443885899993
              ],
              [
                -73.23204798199998,
                -16.02897648399994
              ],
              [
                -73.23223873299997,
                -16.034332233999976
              ],
              [
                -73.23461910799989,
                -16.036203357999966
              ],
              [
                -73.23768610699983,
                -16.038009608999914
              ],
              [
                -73.24291998299998,
                -16.043994983999937
              ],
              [
                -73.24877160799991,
                -16.045015358999876
              ],
              [
                -73.25341035799994,
                -16.049919108999973
              ],
              [
                -73.25559235799983,
                -16.056281983999952
              ],
              [
                -73.26694485799999,
                -16.05614473299994
              ],
              [
                -73.27044673299991,
                -16.057636233999972
              ],
              [
                -73.27198785799999,
                -16.06067273399998
              ],
              [
                -73.27844235799995,
                -16.064130608999903
              ],
              [
                -73.28054048199994,
                -16.0645523579999
              ],
              [
                -73.28706360799998,
                -16.06215285899998
              ],
              [
                -73.29285435799994,
                -16.057748733999972
              ],
              [
                -73.3002167329999,
                -16.055408483999884
              ],
              [
                -73.30232998299988,
                -16.051507983999898
              ],
              [
                -73.30622860799997,
                -16.04615785899989
              ],
              [
                -73.30735010799992,
                -16.042312607999975
              ],
              [
                -73.30689998299988,
                -16.03924748399993
              ],
              [
                -73.30823510699997,
                -16.033004732999814
              ],
              [
                -73.30951685699989,
                -16.031331983999962
              ],
              [
                -73.3145904829999,
                -16.028100982999888
              ],
              [
                -73.31737523299995,
                -16.02403260799997
              ],
              [
                -73.32261660699999,
                -16.02235985899995
              ],
              [
                -73.3265152329999,
                -16.02252773399988
              ],
              [
                -73.33236698299993,
                -16.019628482999906
              ],
              [
                -73.33325960799988,
                -16.017177608999873
              ],
              [
                -73.33226023299989,
                -16.00831598299993
              ],
              [
                -73.33359523299987,
                -16.006700482999975
              ],
              [
                -73.33922560799988,
                -16.00275798399997
              ],
              [
                -73.34240710799986,
                -15.999482107999938
              ],
              [
                -73.34745785799998,
                -15.9956979829999
              ],
              [
                -73.34983060799982,
                -15.992730107999932
              ],
              [
                -73.35287473299996,
                -15.98694323299992
              ],
              [
                -73.36096185799994,
                -15.983117107999817
              ],
              [
                -73.3667526079999,
                -15.975472483999965
              ],
              [
                -73.36714935799995,
                -15.973480233999965
              ],
              [
                -73.36608885799996,
                -15.96942998299994
              ],
              [
                -73.36635585799996,
                -15.963387482999849
              ],
              [
                -73.3637008579999,
                -15.956812857999978
              ],
              [
                -73.36350248199994,
                -15.952695857999913
              ],
              [
                -73.36124423299998,
                -15.950837108999963
              ],
              [
                -73.36197660699997,
                -15.943200107999928
              ],
              [
                -73.36090085799998,
                -15.93811698299993
              ],
              [
                -73.35898585699988,
                -15.934324233999973
              ],
              [
                -73.36125948299997,
                -15.928894983999896
              ],
              [
                -73.36086273299992,
                -15.926060733999975
              ],
              [
                -73.3619918579999,
                -15.923793733999958
              ],
              [
                -73.35919185799997,
                -15.919211358999974
              ],
              [
                -73.36281585799998,
                -15.916677482999944
              ],
              [
                -73.36395260799998,
                -15.914612732999899
              ],
              [
                -73.36346435799999,
                -15.911408482999889
              ],
              [
                -73.36412048299991,
                -15.90836710799988
              ],
              [
                -73.36259460799994,
                -15.905162982999968
              ],
              [
                -73.36400598299986,
                -15.9005461079999
              ],
              [
                -73.37079623299991,
                -15.89473535899998
              ],
              [
                -73.37210085799995,
                -15.89169310799997
              ],
              [
                -73.37568660799997,
                -15.888434357999927
              ],
              [
                -73.37948610799992,
                -15.886805482999932
              ],
              [
                -73.38432310699994,
                -15.882569358999945
              ],
              [
                -73.39002223299997,
                -15.882406232999926
              ],
              [
                -73.39247135699998,
                -15.880559983999945
              ],
              [
                -73.39931485699992,
                -15.881102608999981
              ],
              [
                -73.40680698299997,
                -15.879487982999876
              ],
              [
                -73.40984348299986,
                -15.87818048399987
              ],
              [
                -73.41072835799997,
                -15.87650010799996
              ],
              [
                -73.40942385799997,
                -15.873512233999975
              ],
              [
                -73.40741735799992,
                -15.871738608999976
              ],
              [
                -73.40651698299996,
                -15.863413857999944
              ],
              [
                -73.41242223299997,
                -15.8599022329999
              ],
              [
                -73.41279598299997,
                -15.855793983999888
              ],
              [
                -73.41768648299995,
                -15.84421635799987
              ],
              [
                -73.41869348299997,
                -15.842699982999932
              ],
              [
                -73.42169948299994,
                -15.84145635799996
              ],
              [
                -73.42401123299999,
                -15.834806483999955
              ],
              [
                -73.42440035799984,
                -15.829186482999944
              ],
              [
                -73.42161560799991,
                -15.82330898299989
              ],
              [
                -73.42242448299987,
                -15.820734983999898
              ],
              [
                -73.43049623299999,
                -15.820092232999912
              ],
              [
                -73.43357848299985,
                -15.820992482999884
              ],
              [
                -73.43840785799995,
                -15.815444982999907
              ],
              [
                -73.44151310799998,
                -15.81315710799987
              ],
              [
                -73.44625085799987,
                -15.811931607999895
              ],
              [
                -73.44886785799997,
                -15.80850023399995
              ],
              [
                -73.44862360799982,
                -15.801268608999976
              ],
              [
                -73.44960785799998,
                -15.798408482999946
              ],
              [
                -73.44992823299992,
                -15.791789982999944
              ],
              [
                -73.45156860799995,
                -15.784436233999827
              ],
              [
                -73.45377348299996,
                -15.779125232999945
              ],
              [
                -73.45393373299999,
                -15.776837358999899
              ],
              [
                -73.45793910799989,
                -15.775203733999945
              ],
              [
                -73.46071623299991,
                -15.768176107999977
              ],
              [
                -73.46071623299991,
                -15.764907857999901
              ],
              [
                -73.46300510799995,
                -15.762939483999844
              ],
              [
                -73.46626285799994,
                -15.763316107999913
              ],
              [
                -73.46881860799994,
                -15.762520732999917
              ],
              [
                -73.47304535799998,
                -15.759258232999969
              ],
              [
                -73.48044585799988,
                -15.758671732999971
              ],
              [
                -73.48509210799989,
                -15.759759857999939
              ],
              [
                -73.48847948299988,
                -15.758755733999976
              ],
              [
                -73.49006648299991,
                -15.756496482999921
              ],
              [
                -73.49211885799991,
                -15.751183482999977
              ],
              [
                -73.49208073299997,
                -15.745117232999974
              ],
              [
                -73.49462885799994,
                -15.74139398299991
              ],
              [
                -73.50019073299995,
                -15.736876482999946
              ],
              [
                -73.50126648299988,
                -15.73461148399997
              ],
              [
                -73.44161985799997,
                -15.678244607999886
              ],
              [
                -73.33582310799989,
                -15.664441107999949
              ],
              [
                -73.22540285799994,
                -15.663985233999824
              ],
              [
                -73.22772210799997,
                -15.668030607999981
              ],
              [
                -73.23217773299996,
                -15.674130482999828
              ],
              [
                -73.23897548199994,
                -15.680068982999842
              ],
              [
                -73.2408828579999,
                -15.686203982999928
              ],
              [
                -73.24132535799993,
                -15.691847858999836
              ],
              [
                -73.24113460799998,
                -15.698718108999913
              ],
              [
                -73.24363710799997,
                -15.70156473399993
              ],
              [
                -73.24422460699992,
                -15.703675232999842
              ],
              [
                -73.24471285699991,
                -15.711870232999956
              ],
              [
                -73.24147798199994,
                -15.714569983999866
              ],
              [
                -73.24015048299998,
                -15.718741357999932
              ],
              [
                -73.24298860799996,
                -15.727387482999973
              ],
              [
                -73.24606323299992,
                -15.732093858999917
              ],
              [
                -73.24746710699998,
                -15.736663857999872
              ],
              [
                -73.25045023299998,
                -15.739921607999918
              ],
              [
                -73.25176235799984,
                -15.743225107999876
              ],
              [
                -73.25149535799994,
                -15.74622060899992
              ],
              [
                -73.25543210699988,
                -15.751469607999923
              ],
              [
                -73.25688173299994,
                -15.757549232999963
              ],
              [
                -73.25611110699992,
                -15.761605232999955
              ],
              [
                -73.25665285799982,
                -15.767442732999939
              ],
              [
                -73.2551574819999,
                -15.77201273299994
              ],
              [
                -73.25144960799997,
                -15.77771385899996
              ],
              [
                -73.25126648299994,
                -15.77952385799989
              ],
              [
                -73.25316623299989,
                -15.784365608999906
              ],
              [
                -73.25642398299988,
                -15.787713982999946
              ],
              [
                -73.25701135799989,
                -15.790429108999888
              ],
              [
                -73.25592798299988,
                -15.800112733999981
              ],
              [
                -73.25475310699994,
                -15.80350585799988
              ],
              [
                -73.25606535699995,
                -15.808619482999973
              ],
              [
                -73.25556185699998,
                -15.814411107999888
              ],
              [
                -73.25669848299998,
                -15.816809483999918
              ],
              [
                -73.26181035799988,
                -15.82328035899991
              ],
              [
                -73.26244348299997,
                -15.825497607999978
              ],
              [
                -73.26054385799989,
                -15.834683357999893
              ],
              [
                -73.25856023199998,
                -15.839522358999886
              ],
              [
                -73.25418848299995,
                -15.848326732999965
              ],
              [
                -73.25378423299998,
                -15.850340857999981
              ],
              [
                -73.2496947329999,
                -15.85684398299992
              ],
              [
                -73.24831385699997,
                -15.861619982999855
              ],
              [
                -73.24865723299996,
                -15.865245858999913
              ],
              [
                -73.25061798199994,
                -15.86835285899997
              ],
              [
                -73.24906160799992,
                -15.870482482999932
              ],
              [
                -73.24399560799998,
                -15.873244233999912
              ],
              [
                -73.23324585699999,
                -15.874050108999882
              ]
            ]
          ]
        ],
        "type": "MultiPolygon"
      },
      "type": "Feature",
      "properties": {
        "PROVINCIA": "CARAVELI",
        "DISTRITO": "CARAVELI",
        "name": "CARAVELI",
        "ID": "040401",
        "DEPARTAMEN": "AREQUIPA"
      }
    }
  ]
}
