{
  "type": "FeatureCollection",
  "features": [
    {
      "geometry": {
        "coordinates": [
          [
            [
              [
                -73.43958198299998,
                -15.062392606999936
              ],
              [
                -73.44111785799998,
                -15.064610606999963
              ],
              [
                -73.44954660799988,
                -15.072682606999933
              ],
              [
                -73.45052773299989,
                -15.074421981999933
              ],
              [
                -73.4481641079999,
                -15.079327607999915
              ],
              [
                -73.44731673299987,
                -15.084188607999977
              ],
              [
                -73.45061698299997,
                -15.088193356999966
              ],
              [
                -73.45048323299994,
                -15.091538232999937
              ],
              [
                -73.44584510799996,
                -15.098183107999944
              ],
              [
                -73.43928935799994,
                -15.10268735699998
              ],
              [
                -73.43723785799995,
                -15.106388857999889
              ],
              [
                -73.43821898299996,
                -15.109198482999943
              ],
              [
                -73.44125148299992,
                -15.111918856999864
              ],
              [
                -73.44127985799997,
                -15.116497356999957
              ],
              [
                -73.43946773299996,
                -15.121908607999956
              ],
              [
                -73.43719335799989,
                -15.126368232999937
              ],
              [
                -73.43478510799986,
                -15.133860482999978
              ],
              [
                -73.43300123299997,
                -15.13368210799996
              ],
              [
                -73.43117273299993,
                -15.128865607999956
              ],
              [
                -73.42760498299998,
                -15.122666732999903
              ],
              [
                -73.42631173299998,
                -15.12230998299998
              ],
              [
                -73.42064785799994,
                -15.124673607999966
              ],
              [
                -73.40827285799992,
                -15.127041106999911
              ],
              [
                -73.39744498299996,
                -15.131202481999878
              ],
              [
                -73.3945282329999,
                -15.13124660799997
              ],
              [
                -73.38281735799995,
                -15.13350048299992
              ],
              [
                -73.37914935799995,
                -15.137124232999838
              ],
              [
                -73.37508373299994,
                -15.138803481999958
              ],
              [
                -73.37180685799996,
                -15.141708232999974
              ],
              [
                -73.36910698299994,
                -15.14200610699993
              ],
              [
                -73.36213873299988,
                -15.144798857999945
              ],
              [
                -73.35812885799993,
                -15.145001982999872
              ],
              [
                -73.35520898299995,
                -15.14820898299996
              ],
              [
                -73.34867573299994,
                -15.151804732999835
              ],
              [
                -73.34584760799987,
                -15.154509732999827
              ],
              [
                -73.34093160799989,
                -15.154814482999882
              ],
              [
                -73.33871098299994,
                -15.155601607999927
              ],
              [
                -73.33780860799988,
                -15.163171857999941
              ],
              [
                -73.33508198299995,
                -15.169435606999969
              ],
              [
                -73.33244923199999,
                -15.17189260799995
              ],
              [
                -73.32922073199995,
                -15.173199357999977
              ],
              [
                -73.32876548199994,
                -15.179535106999822
              ],
              [
                -73.33273823299993,
                -15.18248635699996
              ],
              [
                -73.32821873299997,
                -15.185595731999967
              ],
              [
                -73.32489848299997,
                -15.184921857999939
              ],
              [
                -73.32202148299996,
                -15.185308607999957
              ],
              [
                -73.31485160699987,
                -15.188439482999911
              ],
              [
                -73.3149863569999,
                -15.190744107999933
              ],
              [
                -73.31330473199995,
                -15.193386732999898
              ],
              [
                -73.30980273299991,
                -15.195833982999943
              ],
              [
                -73.30938285799988,
                -15.197544857999958
              ],
              [
                -73.31115823299996,
                -15.203933607999886
              ],
              [
                -73.31528910799989,
                -15.206304732999968
              ],
              [
                -73.32019135799999,
                -15.210470732999966
              ],
              [
                -73.32134960699989,
                -15.212130857999853
              ],
              [
                -73.32357035799998,
                -15.21190035799998
              ],
              [
                -73.32570898299997,
                -15.216220732999943
              ],
              [
                -73.32427735799985,
                -15.223781232999954
              ],
              [
                -73.32533010799989,
                -15.226726606999932
              ],
              [
                -73.32457623299996,
                -15.23289648199983
              ],
              [
                -73.32188285799998,
                -15.239087857999891
              ],
              [
                -73.32314448299996,
                -15.241455107999911
              ],
              [
                -73.32235348299992,
                -15.246308607999936
              ],
              [
                -73.3239766079999,
                -15.24754885699997
              ],
              [
                -73.32368360699991,
                -15.250714857999924
              ],
              [
                -73.3270659829999,
                -15.24726385799994
              ],
              [
                -73.32967148199992,
                -15.24246785799994
              ],
              [
                -73.33121773299996,
                -15.241050482999924
              ],
              [
                -73.33498310699997,
                -15.240162857999906
              ],
              [
                -73.3432578579999,
                -15.240420607999852
              ],
              [
                -73.34520635799993,
                -15.239264982999885
              ],
              [
                -73.35048110799988,
                -15.238120607999974
              ],
              [
                -73.35945760799984,
                -15.23543910799998
              ],
              [
                -73.36410460799993,
                -15.231764607999878
              ],
              [
                -73.36702223299994,
                -15.231044356999973
              ],
              [
                -73.36903973299997,
                -15.231800732999943
              ],
              [
                -73.37329035799996,
                -15.231008231999908
              ],
              [
                -73.37815348299989,
                -15.228630732999932
              ],
              [
                -73.38445735699992,
                -15.228882982999949
              ],
              [
                -73.39403948299997,
                -15.223335482999914
              ],
              [
                -73.39649810799995,
                -15.221518482999954
              ],
              [
                -73.39141798299988,
                -15.216596857999889
              ],
              [
                -73.39118973299992,
                -15.21385823199995
              ],
              [
                -73.39542798299993,
                -15.213923482999917
              ],
              [
                -73.39946685799998,
                -15.212759732999928
              ],
              [
                -73.40382973299984,
                -15.210805482999945
              ],
              [
                -73.40747685799988,
                -15.210524857999928
              ],
              [
                -73.41182523299995,
                -15.205895982999834
              ],
              [
                -73.41399948299983,
                -15.201196857999946
              ],
              [
                -73.41869873299999,
                -15.197970606999888
              ],
              [
                -73.4244497329999,
                -15.196848357999954
              ],
              [
                -73.42595210799988,
                -15.195817482999928
              ],
              [
                -73.42621085799988,
                -15.190642982999975
              ],
              [
                -73.42582273299985,
                -15.184271732999946
              ],
              [
                -73.42782798299993,
                -15.179161982999858
              ],
              [
                -73.43458723299989,
                -15.17667148299995
              ],
              [
                -73.43707748299988,
                -15.176412857999935
              ],
              [
                -73.44186398299996,
                -15.177609482999912
              ],
              [
                -73.44642410799997,
                -15.172111357999938
              ],
              [
                -73.44996610799996,
                -15.169009482999968
              ],
              [
                -73.45138348299997,
                -15.169166982999855
              ],
              [
                -73.45618660799994,
                -15.173733856999888
              ],
              [
                -73.46369960799996,
                -15.17595998299987
              ],
              [
                -73.47250010799996,
                -15.17505410799987
              ],
              [
                -73.47612373299995,
                -15.176865981999867
              ],
              [
                -73.47862585799993,
                -15.175873732999946
              ],
              [
                -73.48591635799988,
                -15.175658107999936
              ],
              [
                -73.49096360799996,
                -15.177211106999891
              ],
              [
                -73.49424223299991,
                -15.17742673299989
              ],
              [
                -73.49954835799991,
                -15.181309232999979
              ],
              [
                -73.50356023299997,
                -15.182603482999923
              ],
              [
                -73.5018347329999,
                -15.189678232999938
              ],
              [
                -73.50222298299997,
                -15.19908260799997
              ],
              [
                -73.50032473299996,
                -15.204820107999979
              ],
              [
                -73.49855610799989,
                -15.206286981999938
              ],
              [
                -73.49890123299991,
                -15.208573232999925
              ],
              [
                -73.5011444829999,
                -15.210687107999945
              ],
              [
                -73.50347398299994,
                -15.21603635799994
              ],
              [
                -73.50437985799982,
                -15.221687607999911
              ],
              [
                -73.5071408579999,
                -15.224405357999899
              ],
              [
                -73.51189648299993,
                -15.224751982999976
              ],
              [
                -73.51389060799988,
                -15.224134732999971
              ],
              [
                -73.51505473299994,
                -15.21942973299997
              ],
              [
                -73.5193418579999,
                -15.216664107999861
              ],
              [
                -73.52529310799991,
                -15.215447231999974
              ],
              [
                -73.52981060799988,
                -15.21615035799988
              ],
              [
                -73.53229098299994,
                -15.217882857999882
              ],
              [
                -73.53697848299998,
                -15.21496098199998
              ],
              [
                -73.53558785799987,
                -15.212624982999955
              ],
              [
                -73.53596285799989,
                -15.209665982999923
              ],
              [
                -73.53839448299993,
                -15.20709573299996
              ],
              [
                -73.53707623299994,
                -15.202562481999962
              ],
              [
                -73.53634573299996,
                -15.195218732999933
              ],
              [
                -73.53874610799988,
                -15.186464856999976
              ],
              [
                -73.54372073299999,
                -15.185060606999969
              ],
              [
                -73.54838473299998,
                -15.176427732999912
              ],
              [
                -73.5480606079999,
                -15.171886731999905
              ],
              [
                -73.54933198299995,
                -15.170367106999947
              ],
              [
                -73.54710935799989,
                -15.16505660799993
              ],
              [
                -73.55110348299996,
                -15.161474607999935
              ],
              [
                -73.55116598299998,
                -15.159165981999877
              ],
              [
                -73.55337498299997,
                -15.158374982999874
              ],
              [
                -73.55496873299995,
                -15.154244107999943
              ],
              [
                -73.55255660799992,
                -15.151990232999879
              ],
              [
                -73.55400385799993,
                -15.148888732999978
              ],
              [
                -73.5527753579999,
                -15.144386732999976
              ],
              [
                -73.54908985799995,
                -15.14573248299996
              ],
              [
                -73.54669335799991,
                -15.145091857999944
              ],
              [
                -73.54632423299995,
                -15.142199357999914
              ],
              [
                -73.54834960799991,
                -15.138550731999828
              ],
              [
                -73.54685948299988,
                -15.136660106999955
              ],
              [
                -73.54837310799991,
                -15.134306607999918
              ],
              [
                -73.54646873299998,
                -15.133263732999978
              ],
              [
                -73.5443808579999,
                -15.127914107999914
              ],
              [
                -73.5482851079999,
                -15.125031232999959
              ],
              [
                -73.5516523579999,
                -15.125234357999886
              ],
              [
                -73.55305073299996,
                -15.12241410699994
              ],
              [
                -73.55179098299999,
                -15.115265607999845
              ],
              [
                -73.55238473299994,
                -15.11302348299995
              ],
              [
                -73.54954098299999,
                -15.106855481999958
              ],
              [
                -73.5496621079999,
                -15.10391010799998
              ],
              [
                -73.54824610799994,
                -15.099382857999956
              ],
              [
                -73.54571285799989,
                -15.097333981999952
              ],
              [
                -73.54623635799993,
                -15.09381635799997
              ],
              [
                -73.5435351079999,
                -15.092263731999935
              ],
              [
                -73.53830073299997,
                -15.091029357999957
              ],
              [
                -73.53838285799992,
                -15.088044982999918
              ],
              [
                -73.53619335799988,
                -15.081876982999916
              ],
              [
                -73.53731060799993,
                -15.077277356999957
              ],
              [
                -73.53899023299994,
                -15.07587310799994
              ],
              [
                -73.54286723299998,
                -15.070290981999904
              ],
              [
                -73.54573648299998,
                -15.062820356999964
              ],
              [
                -73.54601173299994,
                -15.057091857999922
              ],
              [
                -73.5452793579999,
                -15.05565623299998
              ],
              [
                -73.54105073299996,
                -15.05624023199988
              ],
              [
                -73.5379961079999,
                -15.060017607999953
              ],
              [
                -73.53405473299995,
                -15.056790982999871
              ],
              [
                -73.53216998299996,
                -15.053720731999874
              ],
              [
                -73.53033598299999,
                -15.053478482999822
              ],
              [
                -73.52517573299997,
                -15.05780860799996
              ],
              [
                -73.51939260799998,
                -15.061404356999958
              ],
              [
                -73.51655273299997,
                -15.061351607999939
              ],
              [
                -73.51390435799988,
                -15.059652357999937
              ],
              [
                -73.50927535799997,
                -15.058105482999963
              ],
              [
                -73.50553910799988,
                -15.05596285799993
              ],
              [
                -73.50171048299995,
                -15.057806857999935
              ],
              [
                -73.49751523299983,
                -15.060701607999874
              ],
              [
                -73.4856007329999,
                -15.06057573299995
              ],
              [
                -73.48056635799998,
                -15.058394232999945
              ],
              [
                -73.47859473299991,
                -15.054576482999892
              ],
              [
                -73.47100123299992,
                -15.045137232999934
              ],
              [
                -73.4686819829999,
                -15.040990732999887
              ],
              [
                -73.46654198299984,
                -15.039110857999958
              ],
              [
                -73.46249298299995,
                -15.038214357999948
              ],
              [
                -73.4580573579999,
                -15.039397107999832
              ],
              [
                -73.45845235799999,
                -15.04337660799996
              ],
              [
                -73.45762210799995,
                -15.046822107999901
              ],
              [
                -73.45542185799991,
                -15.05051685799998
              ],
              [
                -73.45371985799994,
                -15.056245732999969
              ],
              [
                -73.44807398299997,
                -15.061393481999858
              ],
              [
                -73.44359048299992,
                -15.060604732999877
              ],
              [
                -73.43958198299998,
                -15.062392606999936
              ]
            ]
          ]
        ],
        "type": "MultiPolygon"
      },
      "type": "Feature",
      "properties": {
        "PROVINCIA": "PAUCAR DEL SARA SARA",
        "DISTRITO": "LAMPA",
        "name": "LAMPA",
        "ID": "051004",
        "DEPARTAMEN": "AYACUCHO"
      }
    }
  ]
}
