{
  "type": "FeatureCollection",
  "features": [
    {
      "geometry": {
        "coordinates": [
          [
            [
              [
                -73.51189648299993,
                -15.224751982999976
              ],
              [
                -73.51112110799988,
                -15.229117232999954
              ],
              [
                -73.50574810799998,
                -15.231331981999972
              ],
              [
                -73.50098248299992,
                -15.230017607999912
              ],
              [
                -73.50019723299994,
                -15.228130857999872
              ],
              [
                -73.49570123299992,
                -15.223105482999927
              ],
              [
                -73.48817773299987,
                -15.218173856999897
              ],
              [
                -73.47831635799997,
                -15.216695357999868
              ],
              [
                -73.47558610799996,
                -15.217355482999949
              ],
              [
                -73.47414435799993,
                -15.219070357999897
              ],
              [
                -73.46979885799993,
                -15.219146481999815
              ],
              [
                -73.46590623299988,
                -15.220144482999956
              ],
              [
                -73.46251373299998,
                -15.221964856999932
              ],
              [
                -73.45498048299999,
                -15.223599607999915
              ],
              [
                -73.45215623299998,
                -15.22634573299996
              ],
              [
                -73.45207810799991,
                -15.228478482999947
              ],
              [
                -73.44653510799992,
                -15.232650357999887
              ],
              [
                -73.4439863579999,
                -15.232347607999884
              ],
              [
                -73.43594923299997,
                -15.2338496079999
              ],
              [
                -73.43230660799986,
                -15.232900357999881
              ],
              [
                -73.43034360799999,
                -15.233703232999972
              ],
              [
                -73.42661523299995,
                -15.233605482999963
              ],
              [
                -73.42341598299993,
                -15.235720732999937
              ],
              [
                -73.41919535799985,
                -15.235638732999973
              ],
              [
                -73.41372848299994,
                -15.24041210699994
              ],
              [
                -73.41366410799998,
                -15.243044982999834
              ],
              [
                -73.40946285799998,
                -15.24530860699997
              ],
              [
                -73.40740435799984,
                -15.250074232999964
              ],
              [
                -73.40538285799983,
                -15.25127935699993
              ],
              [
                -73.40088673299994,
                -15.251949232999834
              ],
              [
                -73.40261910799995,
                -15.254744107999954
              ],
              [
                -73.40237698199996,
                -15.265093731999912
              ],
              [
                -73.40159373299991,
                -15.270081982999898
              ],
              [
                -73.39989485799987,
                -15.27423448299993
              ],
              [
                -73.39790935799988,
                -15.276458107999815
              ],
              [
                -73.39893723299997,
                -15.279256357999884
              ],
              [
                -73.40276348299989,
                -15.280798232999928
              ],
              [
                -73.40476223299999,
                -15.283881982999958
              ],
              [
                -73.4096733579999,
                -15.287651106999931
              ],
              [
                -73.41778185799996,
                -15.288630107999893
              ],
              [
                -73.42110448299997,
                -15.289905482999927
              ],
              [
                -73.42795110799989,
                -15.29353010799997
              ],
              [
                -73.43624098299995,
                -15.295073982999895
              ],
              [
                -73.43570398299994,
                -15.299336356999959
              ],
              [
                -73.43902660799995,
                -15.307357732999947
              ],
              [
                -73.44140948299997,
                -15.311351607999882
              ],
              [
                -73.44466510799992,
                -15.31363373299996
              ],
              [
                -73.44582373299988,
                -15.316866107999886
              ],
              [
                -73.44853710799993,
                -15.318898607999927
              ],
              [
                -73.45342223299991,
                -15.31441660799993
              ],
              [
                -73.45488073199988,
                -15.310622107999905
              ],
              [
                -73.45701860799994,
                -15.308350482999913
              ],
              [
                -73.46640573299993,
                -15.301669357999913
              ],
              [
                -73.46834323299993,
                -15.299130482999885
              ],
              [
                -73.46901135799999,
                -15.29595698299994
              ],
              [
                -73.47094885799987,
                -15.293952607999927
              ],
              [
                -73.47489085799998,
                -15.291847982999968
              ],
              [
                -73.47960098299995,
                -15.292048482999974
              ],
              [
                -73.48307523299991,
                -15.290545231999943
              ],
              [
                -73.48170560799991,
                -15.286903981999899
              ],
              [
                -73.48220673299994,
                -15.283797231999813
              ],
              [
                -73.48427785799987,
                -15.281558982999968
              ],
              [
                -73.48788573299987,
                -15.28002235799994
              ],
              [
                -73.49282973299995,
                -15.27608048299993
              ],
              [
                -73.50211660799988,
                -15.272873482999955
              ],
              [
                -73.50338598299999,
                -15.271604107999906
              ],
              [
                -73.50515823299992,
                -15.266287857999941
              ],
              [
                -73.50558585799996,
                -15.262148732999947
              ],
              [
                -73.51049460799993,
                -15.255632232999915
              ],
              [
                -73.5144284829999,
                -15.252142981999953
              ],
              [
                -73.5180887329999,
                -15.245130482999969
              ],
              [
                -73.51940573299999,
                -15.240803232999895
              ],
              [
                -73.52144110799998,
                -15.237912607999817
              ],
              [
                -73.52003860799994,
                -15.227496482999982
              ],
              [
                -73.52082535799991,
                -15.223562607999895
              ],
              [
                -73.52871023299997,
                -15.222929732999944
              ],
              [
                -73.53088235799999,
                -15.221321982999939
              ],
              [
                -73.53229098299994,
                -15.217882857999882
              ],
              [
                -73.52981060799988,
                -15.21615035799988
              ],
              [
                -73.52529310799991,
                -15.215447231999974
              ],
              [
                -73.5193418579999,
                -15.216664107999861
              ],
              [
                -73.51505473299994,
                -15.21942973299997
              ],
              [
                -73.51389060799988,
                -15.224134732999971
              ],
              [
                -73.51189648299993,
                -15.224751982999976
              ]
            ]
          ]
        ],
        "type": "MultiPolygon"
      },
      "type": "Feature",
      "properties": {
        "PROVINCIA": "PAUCAR DEL SARA SARA",
        "DISTRITO": "SARA SARA",
        "name": "SARA SARA",
        "ID": "051010",
        "DEPARTAMEN": "AYACUCHO"
      }
    }
  ]
}
