{
  "type": "FeatureCollection",
  "features": [
    {
      "geometry": {
        "coordinates": [
          [
            [
              [
                -75.02221953909907,
                -8.760488015279805
              ],
              [
                -75.02202928902108,
                -8.76096389015646
              ],
              [
                -75.02048253933924,
                -8.762796140396517
              ],
              [
                -75.02045878893227,
                -8.765841764985396
              ],
              [
                -75.01715128878215,
                -8.771409765229805
              ],
              [
                -75.0185790389952,
                -8.773860640297073
              ],
              [
                -75.01835778795106,
                -8.776673324453668
              ],
              [
                -74.95634510680588,
                -8.79147822674986
              ],
              [
                -74.95634003934265,
                -8.79387001459736
              ],
              [
                -74.95650003920917,
                -8.794410015439098
              ],
              [
                -74.96030003896641,
                -8.798680014794172
              ],
              [
                -74.96352003911488,
                -8.803310014558576
              ],
              [
                -74.96577003936744,
                -8.807980015227486
              ],
              [
                -74.96597003934744,
                -8.810330014960073
              ],
              [
                -74.96585003944267,
                -8.8121300149121
              ],
              [
                -74.96568003932282,
                -8.813740015192764
              ],
              [
                -74.96615003943526,
                -8.818580015081977
              ],
              [
                -74.9544722307092,
                -8.863568022137656
              ],
              [
                -74.95642171533689,
                -8.866116879382048
              ],
              [
                -74.96574586709824,
                -8.869408502268925
              ],
              [
                -74.97898057074201,
                -8.871653107843088
              ],
              [
                -74.98875636389397,
                -8.871503954826778
              ],
              [
                -75.00094716427219,
                -8.869300765024434
              ],
              [
                -75.00500213603789,
                -8.869730511425757
              ],
              [
                -75.00586690425666,
                -8.866569737396219
              ],
              [
                -75.00832989175552,
                -8.86344051524344
              ],
              [
                -75.0085356577141,
                -8.863312518918974
              ],
              [
                -75.01166950388591,
                -8.862493916274218
              ],
              [
                -75.0150380673648,
                -8.860438150039158
              ],
              [
                -75.01520190416386,
                -8.860417197543256
              ],
              [
                -75.01635573213446,
                -8.86043328090534
              ],
              [
                -75.01672121622443,
                -8.86047233530428
              ],
              [
                -75.01828434438471,
                -8.86063500987143
              ],
              [
                -75.01849163713462,
                -8.860639949190329
              ],
              [
                -75.02042266372882,
                -8.859758709239884
              ],
              [
                -75.02065214579,
                -8.859405024620173
              ],
              [
                -75.02340472343758,
                -8.858904274513748
              ],
              [
                -75.02357976126166,
                -8.859018964270263
              ],
              [
                -75.02413295555965,
                -8.859891082130957
              ],
              [
                -75.02422869784948,
                -8.860215442537026
              ],
              [
                -75.02468385049934,
                -8.861551729856956
              ],
              [
                -75.02480873379375,
                -8.861741742251752
              ],
              [
                -75.02891108539711,
                -8.86551930253188
              ],
              [
                -75.032102395452,
                -8.867378020257036
              ],
              [
                -75.03250063918767,
                -8.867521769408029
              ],
              [
                -75.0389842575841,
                -8.86846713843579
              ],
              [
                -75.04421177214715,
                -8.867513664209355
              ],
              [
                -75.0446216778426,
                -8.867570575530522
              ],
              [
                -75.04564600196926,
                -8.867801114963584
              ],
              [
                -75.04605555775191,
                -8.86792863573055
              ],
              [
                -75.05083085656952,
                -8.871981944585912
              ],
              [
                -75.05125228560064,
                -8.872751169703065
              ],
              [
                -75.051944499289,
                -8.873824727794783
              ],
              [
                -75.05209060111889,
                -8.874003171839831
              ],
              [
                -75.05369004900354,
                -8.875609567968297
              ],
              [
                -75.05810735825975,
                -8.877951377903969
              ],
              [
                -75.06108451829505,
                -8.878420995978729
              ],
              [
                -75.06450252014827,
                -8.882221727501928
              ],
              [
                -75.0646422594478,
                -8.882260600144718
              ],
              [
                -75.06791888995815,
                -8.880330652170471
              ],
              [
                -75.06934228769524,
                -8.87540585331368
              ],
              [
                -75.07274747605499,
                -8.873147338312776
              ],
              [
                -75.07300228747778,
                -8.873112816641992
              ],
              [
                -75.07579490338156,
                -8.873995336015696
              ],
              [
                -75.07594586500807,
                -8.873995785644297
              ],
              [
                -75.07602459934827,
                -8.873990765850976
              ],
              [
                -75.07618962188292,
                -8.873970189794306
              ],
              [
                -75.07853773873978,
                -8.873517585479021
              ],
              [
                -75.08348293582458,
                -8.874818883114926
              ],
              [
                -75.08376454921694,
                -8.874885058532413
              ],
              [
                -75.08405869082912,
                -8.874962692920406
              ],
              [
                -75.08795002076806,
                -8.876181352132676
              ],
              [
                -75.09488184681186,
                -8.876428389940656
              ],
              [
                -75.10067681476829,
                -8.878470026699688
              ],
              [
                -75.10098841785333,
                -8.878624394559438
              ],
              [
                -75.10486631891013,
                -8.880444637289145
              ],
              [
                -75.1050813663187,
                -8.880475488546324
              ],
              [
                -75.10602746809252,
                -8.880488055093167
              ],
              [
                -75.1061586607126,
                -8.880457357507282
              ],
              [
                -75.10789925303948,
                -8.879846181563266
              ],
              [
                -75.1079543118496,
                -8.879865691371549
              ],
              [
                -75.10793872876218,
                -8.880408018566413
              ],
              [
                -75.10775693088362,
                -8.88085715835382
              ],
              [
                -75.10857058373159,
                -8.882500421303973
              ],
              [
                -75.10871609181555,
                -8.882538353113318
              ],
              [
                -75.10895117099489,
                -8.882575801941641
              ],
              [
                -75.1091200068085,
                -8.882587960816863
              ],
              [
                -75.11606726963805,
                -8.88048250790672
              ],
              [
                -75.1163755420962,
                -8.880372025127087
              ],
              [
                -75.1198464397483,
                -8.879735726072113
              ],
              [
                -75.12009262794498,
                -8.879737434255503
              ],
              [
                -75.12286502400082,
                -8.881834075513893
              ],
              [
                -75.1229308831721,
                -8.882128793842469
              ],
              [
                -75.12263773603797,
                -8.885264632429767
              ],
              [
                -75.1201764608511,
                -8.891986452191702
              ],
              [
                -75.12004903627701,
                -8.892391339438404
              ],
              [
                -75.12055285912544,
                -8.899634792739448
              ],
              [
                -75.12010154865965,
                -8.901003237286375
              ],
              [
                -75.14712201719391,
                -8.895041858338857
              ],
              [
                -75.15346741122539,
                -8.874673844112522
              ],
              [
                -75.14671340755109,
                -8.860566161332201
              ],
              [
                -75.13604501374078,
                -8.85921342396881
              ],
              [
                -75.13210520267592,
                -8.853923430835152
              ],
              [
                -75.11961644557215,
                -8.847207088296045
              ],
              [
                -75.1146667052264,
                -8.839176543695544
              ],
              [
                -75.11753184160699,
                -8.812076366242252
              ],
              [
                -75.10842584135128,
                -8.799904304807
              ],
              [
                -75.10509373057494,
                -8.800012944188609
              ],
              [
                -75.10383030980904,
                -8.798816690638546
              ],
              [
                -75.10172362060803,
                -8.793133398423834
              ],
              [
                -75.1022042467037,
                -8.791158871651078
              ],
              [
                -75.09769099580814,
                -8.782245365006816
              ],
              [
                -75.09708896297485,
                -8.779971970904512
              ],
              [
                -75.09537178926433,
                -8.779547265232281
              ],
              [
                -75.09280178904646,
                -8.776247264945994
              ],
              [
                -75.08998178901999,
                -8.776287265309577
              ],
              [
                -75.0866517888054,
                -8.771797264961947
              ],
              [
                -75.0819917891659,
                -8.770407265144911
              ],
              [
                -75.08090178886204,
                -8.770307264962014
              ],
              [
                -75.07690178889857,
                -8.770167265011821
              ],
              [
                -75.07465178862066,
                -8.770917265388448
              ],
              [
                -75.07283066398156,
                -8.768697139549317
              ],
              [
                -75.07428216436324,
                -8.766865014888708
              ],
              [
                -75.07114128918613,
                -8.762391515326442
              ],
              [
                -75.07042741391962,
                -8.760059764902053
              ],
              [
                -75.06976116374642,
                -8.759631390123445
              ],
              [
                -75.06938053891975,
                -8.759107889564405
              ],
              [
                -75.06578753904535,
                -8.758870015094999
              ],
              [
                -75.06295591381246,
                -8.756157390339354
              ],
              [
                -75.05991028887621,
                -8.755110389672723
              ],
              [
                -75.05650766373162,
                -8.752397889716804
              ],
              [
                -75.05505616429491,
                -8.749875639677384
              ],
              [
                -75.04905991442718,
                -8.746258889791704
              ],
              [
                -75.04587141385974,
                -8.743284514838592
              ],
              [
                -75.04361091431167,
                -8.74502151488798
              ],
              [
                -75.04289716438461,
                -8.744355264605417
              ],
              [
                -75.0408507890595,
                -8.746306390043856
              ],
              [
                -75.03766228910496,
                -8.745521140301832
              ],
              [
                -75.02933416384809,
                -8.745735389977426
              ],
              [
                -75.0286679139648,
                -8.743927015321617
              ],
              [
                -75.02835853904372,
                -8.744045889994425
              ],
              [
                -75.0258125387632,
                -8.743689014940287
              ],
              [
                -75.0256460391588,
                -8.743617639613717
              ],
              [
                -75.02324278943388,
                -8.741880639595706
              ],
              [
                -75.0205539138966,
                -8.746330264923529
              ],
              [
                -75.02157716387728,
                -8.751469889731311
              ],
              [
                -75.01931666427811,
                -8.752493015134121
              ],
              [
                -75.02131541408733,
                -8.756704640081125
              ],
              [
                -75.02221953909907,
                -8.760488015279805
              ]
            ]
          ]
        ],
        "type": "MultiPolygon"
      },
      "type": "Feature",
      "properties": {
        "PROVINCIA": "PADRE ABAD",
        "DISTRITO": "ALEXANDER VON HUMBOLDT",
        "name": "ALEXANDER VON HUMBOLDT",
        "ID": "250205",
        "DEPARTAMEN": "UCAYALI"
      },
      "id": "250205"
    }
  ]
}
