{
  "type": "FeatureCollection",
  "features": [
    {
      "geometry": {
        "coordinates": [
          [
            [
              [
                -72.00060323199995,
                -13.444038231999969
              ],
              [
                -72.00021185599996,
                -13.44798760599997
              ],
              [
                -72.00241073199999,
                -13.45121723099993
              ],
              [
                -72.00388748099988,
                -13.455089105999946
              ],
              [
                -72.00638523199996,
                -13.45815285599997
              ],
              [
                -72.00765073199995,
                -13.463880855999946
              ],
              [
                -72.01048135699995,
                -13.466445105999924
              ],
              [
                -72.01511035699997,
                -13.469309106999958
              ],
              [
                -72.01720848199994,
                -13.473571855999921
              ],
              [
                -72.01897348199992,
                -13.475370230999886
              ],
              [
                -72.02326948099994,
                -13.476902105999955
              ],
              [
                -72.0262069819999,
                -13.477851605999945
              ],
              [
                -72.03158985599987,
                -13.477382855999963
              ],
              [
                -72.03337885699983,
                -13.478343731999871
              ],
              [
                -72.03855273099998,
                -13.478294981999852
              ],
              [
                -72.04499810699991,
                -13.48444535599998
              ],
              [
                -72.0456836059999,
                -13.48784385599987
              ],
              [
                -72.04814848199999,
                -13.490269480999928
              ],
              [
                -72.05142148199991,
                -13.489838230999965
              ],
              [
                -72.05220635599994,
                -13.500013106999859
              ],
              [
                -72.05455960599994,
                -13.503968605999944
              ],
              [
                -72.05736348199997,
                -13.505320480999956
              ],
              [
                -72.0607636069999,
                -13.503114605999883
              ],
              [
                -72.06344273199988,
                -13.50034910599993
              ],
              [
                -72.06603523199988,
                -13.499571355999876
              ],
              [
                -72.07130685699997,
                -13.496719481999833
              ],
              [
                -72.07770198199995,
                -13.49576885599987
              ],
              [
                -72.08003535699999,
                -13.492657730999952
              ],
              [
                -72.08857823099993,
                -13.487994980999872
              ],
              [
                -72.08609098199992,
                -13.483777355999962
              ],
              [
                -72.07688235599989,
                -13.473849230999974
              ],
              [
                -72.07703923199989,
                -13.470750105999969
              ],
              [
                -72.07849073199992,
                -13.467023230999814
              ],
              [
                -72.08025610699997,
                -13.465022605999934
              ],
              [
                -72.08537885699997,
                -13.464580105999971
              ],
              [
                -72.08875485599998,
                -13.463426980999884
              ],
              [
                -72.09044960699998,
                -13.46065860699997
              ],
              [
                -72.08852885699986,
                -13.456252105999965
              ],
              [
                -72.08869835699994,
                -13.452862356999901
              ],
              [
                -72.08994123199983,
                -13.45144998099994
              ],
              [
                -72.09457373199996,
                -13.449416230999873
              ],
              [
                -72.10383885599998,
                -13.441676481999934
              ],
              [
                -72.10795510699995,
                -13.435052730999928
              ],
              [
                -72.10322523199994,
                -13.426774105999982
              ],
              [
                -72.09869535699994,
                -13.431034605999969
              ],
              [
                -72.09349998199986,
                -13.431464730999949
              ],
              [
                -72.08465010599991,
                -13.432999230999826
              ],
              [
                -72.07767435699998,
                -13.433751480999888
              ],
              [
                -72.07000998199999,
                -13.438337605999834
              ],
              [
                -72.06536085599998,
                -13.445562355999868
              ],
              [
                -72.06077485599997,
                -13.450965230999884
              ],
              [
                -72.05423248099999,
                -13.453076231999944
              ],
              [
                -72.05065435699993,
                -13.453669981999951
              ],
              [
                -72.04054298199998,
                -13.452224605999902
              ],
              [
                -72.03847060599986,
                -13.450003730999981
              ],
              [
                -72.03424410699984,
                -13.447109355999942
              ],
              [
                -72.03004298199994,
                -13.446222605999935
              ],
              [
                -72.02239448199992,
                -13.44563673099998
              ],
              [
                -72.0178672319999,
                -13.438848605999908
              ],
              [
                -72.01443885599991,
                -13.43952023099996
              ],
              [
                -72.01269485699993,
                -13.440982980999934
              ],
              [
                -72.00948798199988,
                -13.44177060599992
              ],
              [
                -72.00596723099994,
                -13.441222105999941
              ],
              [
                -72.00060323199995,
                -13.444038231999969
              ]
            ]
          ]
        ],
        "type": "MultiPolygon"
      },
      "type": "Feature",
      "properties": {
        "PROVINCIA": "ANTA",
        "DISTRITO": "CACHIMAYO",
        "name": "CACHIMAYO",
        "ID": "070308",
        "DEPARTAMEN": "CUSCO"
      }
    }
  ]
}
