{
  "type": "FeatureCollection",
  "features": [
    {
      "geometry": {
        "coordinates": [
          [
            [
              [
                -74.81380860881842,
                -9.037521477041594
              ],
              [
                -74.81266798399628,
                -9.040310602035674
              ],
              [
                -74.80971685877722,
                -9.047945352055649
              ],
              [
                -74.8090898588091,
                -9.052085977136073
              ],
              [
                -74.80746298481552,
                -9.076357477224406
              ],
              [
                -74.80874410996086,
                -9.079603476932277
              ],
              [
                -74.81102735908593,
                -9.08211522709206
              ],
              [
                -74.8133574839311,
                -9.088062477190874
              ],
              [
                -74.81692573414927,
                -9.09177735211614
              ],
              [
                -74.82722460911992,
                -9.09368160202871
              ],
              [
                -74.83034573486526,
                -9.094605476961021
              ],
              [
                -74.83323635888917,
                -9.09811722695207
              ],
              [
                -74.8370488591674,
                -9.109904351935995
              ],
              [
                -74.83837885891558,
                -9.111398477018383
              ],
              [
                -74.84115623401073,
                -9.11209572692951
              ],
              [
                -74.8434746089942,
                -9.115080102051763
              ],
              [
                -74.84323823394806,
                -9.118300727000644
              ],
              [
                -74.83681248378792,
                -9.118294977962933
              ],
              [
                -74.83090235885521,
                -9.117488226820342
              ],
              [
                -74.83034573396299,
                -9.12060747718482
              ],
              [
                -74.83199998418502,
                -9.12225385179454
              ],
              [
                -74.83223623390882,
                -9.124914102956097
              ],
              [
                -74.83075785919681,
                -9.128857476801329
              ],
              [
                -74.83023048378345,
                -9.135376976953808
              ],
              [
                -74.8326269842259,
                -9.13784960202571
              ],
              [
                -74.83763873508826,
                -9.140183601807678
              ],
              [
                -74.83808985894399,
                -9.141242226833867
              ],
              [
                -74.83744735911552,
                -9.145837851919339
              ],
              [
                -74.83562498380655,
                -9.14714847704164
              ],
              [
                -74.83316798390729,
                -9.146874977163407
              ],
              [
                -74.83081835919899,
                -9.142976601922044
              ],
              [
                -74.83028323418199,
                -9.143093726928043
              ],
              [
                -74.82881248416004,
                -9.145300726843175
              ],
              [
                -74.82689648518061,
                -9.144656227169492
              ],
              [
                -74.82747660888293,
                -9.140929727182765
              ],
              [
                -74.82559960877927,
                -9.139962851777568
              ],
              [
                -74.82294536008845,
                -9.141371101876416
              ],
              [
                -74.81944335894002,
                -9.142888727074762
              ],
              [
                -74.81422448494163,
                -9.143718727853354
              ],
              [
                -74.80676935910657,
                -9.143642603147441
              ],
              [
                -74.80283398484482,
                -9.141904352078996
              ],
              [
                -74.80113285982486,
                -9.14307810201467
              ],
              [
                -74.79829510903585,
                -9.141421852032977
              ],
              [
                -74.79396873494858,
                -9.14230660218368
              ],
              [
                -74.78714060908584,
                -9.138078102172074
              ],
              [
                -74.78455273393882,
                -9.137896476983656
              ],
              [
                -74.78369135898606,
                -9.141748101959422
              ],
              [
                -74.77857223486393,
                -9.141564477029192
              ],
              [
                -74.777458983994,
                -9.143453101870193
              ],
              [
                -74.77522260907494,
                -9.143896477016824
              ],
              [
                -74.7711953587762,
                -9.155281226872091
              ],
              [
                -74.77117198418466,
                -9.156212977931432
              ],
              [
                -74.77098823383989,
                -9.160173852147977
              ],
              [
                -74.77236135910823,
                -9.161830101830958
              ],
              [
                -74.77106435914902,
                -9.16449810312713
              ],
              [
                -74.76753323409855,
                -9.168783227139897
              ],
              [
                -74.76310748382792,
                -9.168996102052006
              ],
              [
                -74.76048248385376,
                -9.170080102122938
              ],
              [
                -74.75889648513561,
                -9.17106447685785
              ],
              [
                -74.75771285898583,
                -9.174853478045463
              ],
              [
                -74.75644710913019,
                -9.17663672685677
              ],
              [
                -74.75498248399305,
                -9.17753122705227
              ],
              [
                -74.7550117338078,
                -9.180839852796169
              ],
              [
                -74.75001560887205,
                -9.185232477176044
              ],
              [
                -74.74508598412552,
                -9.18489447705224
              ],
              [
                -74.73920510906294,
                -9.190654352138722
              ],
              [
                -74.73526560886665,
                -9.19248822707641
              ],
              [
                -74.73156060889124,
                -9.197197226792696
              ],
              [
                -74.72935548404587,
                -9.19909372814459
              ],
              [
                -74.72576948491405,
                -9.200703101909596
              ],
              [
                -74.7212519840487,
                -9.203748102080965
              ],
              [
                -74.71441598412991,
                -9.211394477200884
              ],
              [
                -74.70809960919473,
                -9.215585977838032
              ],
              [
                -74.70027935905273,
                -9.223404353115825
              ],
              [
                -74.69836523402756,
                -9.22650385214888
              ],
              [
                -74.69662498401124,
                -9.234154352206701
              ],
              [
                -74.69383985915397,
                -9.237888728163625
              ],
              [
                -74.68880473380375,
                -9.242488228155935
              ],
              [
                -74.68237310878112,
                -9.245701226979918
              ],
              [
                -74.67704685917778,
                -9.248915978045375
              ],
              [
                -74.67397260894609,
                -9.251726602050894
              ],
              [
                -74.66482623408086,
                -9.254080101903583
              ],
              [
                -74.66187310886261,
                -9.255804727074178
              ],
              [
                -74.65695135894845,
                -9.259706976873645
              ],
              [
                -74.64779685898031,
                -9.263605476802638
              ],
              [
                -74.64114448412204,
                -9.264060601871563
              ],
              [
                -74.62435935921428,
                -9.259910103107245
              ],
              [
                -74.62042173411174,
                -9.25679497701401
              ],
              [
                -74.61770698400653,
                -9.252830101880193
              ],
              [
                -74.61377735909053,
                -9.24994922810572
              ],
              [
                -74.6104199838203,
                -9.248679727049648
              ],
              [
                -74.60662110901654,
                -9.248240228077577
              ],
              [
                -74.60642185899997,
                -9.248384601999874
              ],
              [
                -74.60271485899983,
                -9.250162101999877
              ],
              [
                -74.60005273399992,
                -9.255794976999937
              ],
              [
                -74.59848823399994,
                -9.257058601999915
              ],
              [
                -74.5966347339999,
                -9.258152351999854
              ],
              [
                -74.59512298399989,
                -9.260962852999967
              ],
              [
                -74.59407810899995,
                -9.262345726999968
              ],
              [
                -74.5899042339999,
                -9.267171726999948
              ],
              [
                -74.58926373399993,
                -9.271773476999954
              ],
              [
                -74.59046060899993,
                -9.27570985299991
              ],
              [
                -74.59145298399989,
                -9.282412101999967
              ],
              [
                -74.59120898399993,
                -9.291093726999975
              ],
              [
                -74.58715023399998,
                -9.295576226999913
              ],
              [
                -74.58943935899998,
                -9.303176351999923
              ],
              [
                -74.59393510899991,
                -9.309467601999927
              ],
              [
                -74.60052573399997,
                -9.313459101999968
              ],
              [
                -74.60233460899997,
                -9.316553351999914
              ],
              [
                -74.60309623399996,
                -9.31826697699995
              ],
              [
                -74.60709498399996,
                -9.321504101999892
              ],
              [
                -74.60937985899989,
                -9.326930851999862
              ],
              [
                -74.61071285899999,
                -9.32950147799994
              ],
              [
                -74.61208223399996,
                -9.333972976999974
              ],
              [
                -74.6155683589999,
                -9.339878977999945
              ],
              [
                -74.61871023399982,
                -9.34292560199998
              ],
              [
                -74.62089998399989,
                -9.343925226999886
              ],
              [
                -74.62051910899999,
                -9.346019851999927
              ],
              [
                -74.62413698399996,
                -9.349637601999973
              ],
              [
                -74.62537460899995,
                -9.350208851999867
              ],
              [
                -74.62585073399998,
                -9.354969226999913
              ],
              [
                -74.62718360899987,
                -9.358967977999953
              ],
              [
                -74.62661235899992,
                -9.36306185199993
              ],
              [
                -74.62737398399997,
                -9.364775476999966
              ],
              [
                -74.63032535899993,
                -9.36696522799997
              ],
              [
                -74.63622823399993,
                -9.36944060199994
              ],
              [
                -74.63994123399993,
                -9.368583851999915
              ],
              [
                -74.64251185899997,
                -9.366394101999958
              ],
              [
                -74.64472760899991,
                -9.366794851999884
              ],
              [
                -74.64698660899995,
                -9.366489226999931
              ],
              [
                -74.65031885899998,
                -9.367155727999886
              ],
              [
                -74.65631685899996,
                -9.370202351999978
              ],
              [
                -74.65841135899996,
                -9.375153102999889
              ],
              [
                -74.65831623399998,
                -9.380103851999934
              ],
              [
                -74.65783398399998,
                -9.38201335299982
              ],
              [
                -74.66012510899998,
                -9.384673727999939
              ],
              [
                -74.66593273399991,
                -9.387720351999917
              ],
              [
                -74.66888410899998,
                -9.388672477999762
              ],
              [
                -74.67275135899985,
                -9.388882976999923
              ],
              [
                -74.67413510899996,
                -9.390728102999958
              ],
              [
                -74.67813260899993,
                -9.400106851999908
              ],
              [
                -74.68090010899994,
                -9.402028726999959
              ],
              [
                -74.68213010899996,
                -9.403181851999875
              ],
              [
                -74.68328323399993,
                -9.40717935299989
              ],
              [
                -74.68474385899992,
                -9.408870602999855
              ],
              [
                -74.68697323399982,
                -9.408870602999855
              ],
              [
                -74.68989448399992,
                -9.410177476999877
              ],
              [
                -74.69120135899988,
                -9.410408102999952
              ],
              [
                -74.69381510899996,
                -9.412099351999927
              ],
              [
                -74.69635198399999,
                -9.417941851999899
              ],
              [
                -74.69958073399988,
                -9.417019351999954
              ],
              [
                -74.70496198399997,
                -9.416711851999935
              ],
              [
                -74.70796023399998,
                -9.415174352999884
              ],
              [
                -74.70919023399989,
                -9.413252477999947
              ],
              [
                -74.71203460899994,
                -9.408870601999922
              ],
              [
                -74.71280335899996,
                -9.407256226999948
              ],
              [
                -74.71487898399994,
                -9.401106227999946
              ],
              [
                -74.71741585899997,
                -9.397877476999952
              ],
              [
                -74.71680085899999,
                -9.394802476999871
              ],
              [
                -74.71941460899995,
                -9.392803727999876
              ],
              [
                -74.72202835899992,
                -9.39134310199995
              ],
              [
                -74.72325835899994,
                -9.391112477999854
              ],
              [
                -74.7254877339999,
                -9.390420602999882
              ],
              [
                -74.72975173399993,
                -9.389939351999942
              ],
              [
                -74.73423048399997,
                -9.389980476999881
              ],
              [
                -74.74021098399999,
                -9.39222072799987
              ],
              [
                -74.74513285899991,
                -9.39274022799998
              ],
              [
                -74.74797073399998,
                -9.393953101999955
              ],
              [
                -74.75097660899996,
                -9.396488226999907
              ],
              [
                -74.75607235899997,
                -9.397585976999892
              ],
              [
                -74.75833198399988,
                -9.399822227999834
              ],
              [
                -74.76110935899993,
                -9.405060601999935
              ],
              [
                -74.76801173399991,
                -9.410255851999977
              ],
              [
                -74.76941798399992,
                -9.412287101999937
              ],
              [
                -74.77314648399988,
                -9.414792976999934
              ],
              [
                -74.77812885999992,
                -9.417607476999933
              ],
              [
                -74.7829902339999,
                -9.424748101999967
              ],
              [
                -74.78847660899999,
                -9.428962852999973
              ],
              [
                -74.79408985899983,
                -9.431769476999875
              ],
              [
                -74.80030273399996,
                -9.435507851999887
              ],
              [
                -74.80579298399994,
                -9.439648352999939
              ],
              [
                -74.80851760999997,
                -9.440744227999971
              ],
              [
                -74.8140176089999,
                -9.44857035299998
              ],
              [
                -74.81685548399997,
                -9.449378851999882
              ],
              [
                -74.82392185899988,
                -9.44915435199988
              ],
              [
                -74.82768160899991,
                -9.452830101999893
              ],
              [
                -74.83195123499996,
                -9.453576226999928
              ],
              [
                -74.83569923399995,
                -9.451857476999976
              ],
              [
                -74.83882423399996,
                -9.450451227999963
              ],
              [
                -74.84235348399994,
                -9.447080101999916
              ],
              [
                -74.84560348399998,
                -9.44539847699997
              ],
              [
                -74.84786135899992,
                -9.446830101999922
              ],
              [
                -74.85375198499997,
                -9.448361352999882
              ],
              [
                -74.85566010899993,
                -9.446878851999884
              ],
              [
                -74.85731448499996,
                -9.445503852999877
              ],
              [
                -74.85890235899996,
                -9.443958977999955
              ],
              [
                -74.85937498399988,
                -9.443912102999832
              ],
              [
                -74.86132810899994,
                -9.44438285299998
              ],
              [
                -74.86221285999994,
                -9.443415976999972
              ],
              [
                -74.8628163599999,
                -9.440359352999963
              ],
              [
                -74.86686723399987,
                -9.439230476999967
              ],
              [
                -74.86835548399989,
                -9.439546852999968
              ],
              [
                -74.86804298399989,
                -9.440298851999898
              ],
              [
                -74.86599810899997,
                -9.442847601999972
              ],
              [
                -74.86983398399991,
                -9.443083976999958
              ],
              [
                -74.87335160899994,
                -9.442046852999965
              ],
              [
                -74.87281835899995,
                -9.439730476999955
              ],
              [
                -74.87845698399991,
                -9.439126976999944
              ],
              [
                -74.88138673399993,
                -9.437201227999935
              ],
              [
                -74.88240823399991,
                -9.435175726999944
              ],
              [
                -74.88560548399994,
                -9.435691351999878
              ],
              [
                -74.88665823399992,
                -9.436279351999872
              ],
              [
                -74.88701560899995,
                -9.436361226999963
              ],
              [
                -74.88774810899997,
                -9.43548435199989
              ],
              [
                -74.88987698499989,
                -9.435972602999811
              ],
              [
                -74.89158598399996,
                -9.438333977999946
              ],
              [
                -74.8901209839999,
                -9.441816352999979
              ],
              [
                -74.89067773399995,
                -9.442060602999959
              ],
              [
                -74.89256248399994,
                -9.44199810299989
              ],
              [
                -74.89417973399992,
                -9.4408496019999
              ],
              [
                -74.89629310999999,
                -9.440154351999865
              ],
              [
                -74.90258785999998,
                -9.44359372799994
              ],
              [
                -74.90408398399995,
                -9.443873102999873
              ],
              [
                -74.90759373499992,
                -9.444562476999977
              ],
              [
                -74.90852348399994,
                -9.446044977999975
              ],
              [
                -74.90882035899989,
                -9.447509726999954
              ],
              [
                -74.91062110899998,
                -9.449601601999916
              ],
              [
                -74.91147660899986,
                -9.450144477999913
              ],
              [
                -74.91323810899996,
                -9.448498101999917
              ],
              [
                -74.91310935899998,
                -9.448054726999942
              ],
              [
                -74.91435948399999,
                -9.446789101999912
              ],
              [
                -74.91477935899991,
                -9.447404352999968
              ],
              [
                -74.91480273399998,
                -9.45238872799996
              ],
              [
                -74.91709185999997,
                -9.455662102999895
              ],
              [
                -74.92042585899992,
                -9.455490226999927
              ],
              [
                -74.92202735999984,
                -9.457310601999893
              ],
              [
                -74.92264648399998,
                -9.457581852999965
              ],
              [
                -74.92447660999989,
                -9.457482476999814
              ],
              [
                -74.92520910899992,
                -9.460259727999926
              ],
              [
                -74.9289316089999,
                -9.459210851999899
              ],
              [
                -74.93113673499994,
                -9.461181602999886
              ],
              [
                -74.93263285899991,
                -9.463978476999955
              ],
              [
                -74.93386135899993,
                -9.466962851999938
              ],
              [
                -74.93479098399996,
                -9.468619101999934
              ],
              [
                -74.93559185899994,
                -9.469224602999873
              ],
              [
                -74.93813285899995,
                -9.465941351999902
              ],
              [
                -74.93857623399998,
                -9.467505851999931
              ],
              [
                -74.93933785899992,
                -9.468040976999816
              ],
              [
                -74.93992573399998,
                -9.467298851999942
              ],
              [
                -74.94356448499997,
                -9.46456835299989
              ],
              [
                -74.94378710899991,
                -9.462486352999917
              ],
              [
                -74.94245123399998,
                -9.462224601999935
              ],
              [
                -74.94526560899993,
                -9.458958977999941
              ],
              [
                -74.94943160899993,
                -9.460636726999951
              ],
              [
                -74.95198048499998,
                -9.461617226999977
              ],
              [
                -74.9561544849999,
                -9.462130852999906
              ],
              [
                -74.9626992339999,
                -9.46368747699995
              ],
              [
                -74.96252148399998,
                -9.466955102999918
              ],
              [
                -74.9585019839999,
                -9.470144476999963
              ],
              [
                -74.9562832339999,
                -9.470699226999955
              ],
              [
                -74.95226373399998,
                -9.469242226999881
              ],
              [
                -74.94949023399988,
                -9.468548852999902
              ],
              [
                -74.94671873399983,
                -9.46972847699982
              ],
              [
                -74.94394535899994,
                -9.472499977999973
              ],
              [
                -74.94235160899996,
                -9.477490102999866
              ],
              [
                -74.94359960899993,
                -9.483935601999974
              ],
              [
                -74.94402148399996,
                -9.491259726999886
              ],
              [
                -74.94346485999989,
                -9.49382422799988
              ],
              [
                -74.94078898399994,
                -9.49984372699987
              ],
              [
                -74.94156835899992,
                -9.503968727999847
              ],
              [
                -74.94368748399995,
                -9.505306601999962
              ],
              [
                -74.9482578599999,
                -9.505642602999956
              ],
              [
                -74.95695510899998,
                -9.503968727999847
              ],
              [
                -74.97126760999993,
                -9.496755851999978
              ],
              [
                -74.9763632339999,
                -9.495199227999876
              ],
              [
                -74.98157423499998,
                -9.491347601999962
              ],
              [
                -74.98974610899995,
                -9.487667977999877
              ],
              [
                -74.99397260899997,
                -9.488009727999952
              ],
              [
                -74.99700198399995,
                -9.487066352999932
              ],
              [
                -74.99764260899997,
                -9.487365226999884
              ],
              [
                -74.99858010999998,
                -9.487591852999913
              ],
              [
                -74.99999998499993,
                -9.487392601999943
              ],
              [
                -75.00182423399997,
                -9.485456977999945
              ],
              [
                -75.00351760899997,
                -9.485031226999979
              ],
              [
                -75.00617973399994,
                -9.484470727999962
              ],
              [
                -75.00711923399996,
                -9.48456060299992
              ],
              [
                -75.00867385899988,
                -9.484687477999955
              ],
              [
                -75.01249035899991,
                -9.48874035199998
              ],
              [
                -75.01383985899992,
                -9.48940997799997
              ],
              [
                -75.01756248399994,
                -9.487980477999827
              ],
              [
                -75.01995110899986,
                -9.489173852999954
              ],
              [
                -75.02293360999988,
                -9.488775352999937
              ],
              [
                -75.02668748399998,
                -9.48711910299994
              ],
              [
                -75.02661135999989,
                -9.48570897799982
              ],
              [
                -75.02793948399994,
                -9.48574610299994
              ],
              [
                -75.03006048399999,
                -9.485790976999965
              ],
              [
                -75.03066985999999,
                -9.485681601999943
              ],
              [
                -75.03793360999993,
                -9.483165977999931
              ],
              [
                -75.04007810899992,
                -9.48456835199994
              ],
              [
                -75.04032810899992,
                -9.4827226029999
              ],
              [
                -75.04130473399988,
                -9.48208010199994
              ],
              [
                -75.042060484,
                -9.480126977999817
              ],
              [
                -75.04373223499994,
                -9.48126560199995
              ],
              [
                -75.04354885899994,
                -9.480787101999965
              ],
              [
                -75.04505860899997,
                -9.480380852999929
              ],
              [
                -75.04574610999993,
                -9.480615226999873
              ],
              [
                -75.04821098499997,
                -9.476281227999948
              ],
              [
                -75.04840035899991,
                -9.475486352999894
              ],
              [
                -75.04791985899993,
                -9.474726601999919
              ],
              [
                -75.04786723399997,
                -9.473767601999953
              ],
              [
                -75.04861523399984,
                -9.472365227999944
              ],
              [
                -75.0494843599999,
                -9.471669976999976
              ],
              [
                -75.05110160899994,
                -9.46935347699997
              ],
              [
                -75.05532035899995,
                -9.467833976999941
              ],
              [
                -75.05686910999992,
                -9.467986351999912
              ],
              [
                -75.05892185999994,
                -9.467570351999939
              ],
              [
                -75.06010348499996,
                -9.46671097799998
              ],
              [
                -75.06149223499989,
                -9.468736352999883
              ],
              [
                -75.06222448499994,
                -9.468998102999933
              ],
              [
                -75.06228710899995,
                -9.468519476999973
              ],
              [
                -75.06221673399989,
                -9.468111351999937
              ],
              [
                -75.06266798499996,
                -9.468158226999947
              ],
              [
                -75.0634374839999,
                -9.467542976999823
              ],
              [
                -75.06436910899998,
                -9.467007851999938
              ],
              [
                -75.06490235899997,
                -9.46658397799996
              ],
              [
                -75.06930485899994,
                -9.468201227999941
              ],
              [
                -75.07254098499999,
                -9.466681601999937
              ],
              [
                -75.07363085899993,
                -9.467820351999933
              ],
              [
                -75.07468360999997,
                -9.467314476999945
              ],
              [
                -75.07638473499998,
                -9.466871102999903
              ],
              [
                -75.07698048399993,
                -9.464183602999867
              ],
              [
                -75.07927735899995,
                -9.461660101999882
              ],
              [
                -75.07989448399991,
                -9.461009726999976
              ],
              [
                -75.08319135899995,
                -9.459931602999973
              ],
              [
                -75.08691410899996,
                -9.46125972699997
              ],
              [
                -75.09099223499993,
                -9.46189447699993
              ],
              [
                -75.09386535999982,
                -9.46314260299988
              ],
              [
                -75.09873235999999,
                -9.466640476999942
              ],
              [
                -75.09954098399993,
                -9.47130072699997
              ],
              [
                -75.10533198399997,
                -9.476931602999912
              ],
              [
                -75.10700973399997,
                -9.4810663519998
              ],
              [
                -75.10712498499993,
                -9.483652352999911
              ],
              [
                -75.10752923399997,
                -9.485199227999942
              ],
              [
                -75.10955860999997,
                -9.48726947699987
              ],
              [
                -75.11205273499996,
                -9.49192772799995
              ],
              [
                -75.11592773399997,
                -9.49508197699987
              ],
              [
                -75.11801173499993,
                -9.496636727999885
              ],
              [
                -75.12606048499993,
                -9.497376977999977
              ],
              [
                -75.12876560899991,
                -9.501019476999886
              ],
              [
                -75.13259173499995,
                -9.503306476999853
              ],
              [
                -75.13566598499995,
                -9.506359352999937
              ],
              [
                -75.14228123499998,
                -9.510630852999952
              ],
              [
                -75.14628510899996,
                -9.516431602999944
              ],
              [
                -75.15506048499998,
                -9.523603477999927
              ],
              [
                -75.16075198499988,
                -9.53062697699994
              ],
              [
                -75.16506248499996,
                -9.53718947699997
              ],
              [
                -75.173218733991,
                -9.546195353148619
              ],
              [
                -75.17352148391444,
                -9.544917978033538
              ],
              [
                -75.17852723516307,
                -9.53995697702453
              ],
              [
                -75.18351760983256,
                -9.538095728053577
              ],
              [
                -75.18875198418357,
                -9.534581977019968
              ],
              [
                -75.19443548410442,
                -9.533203103186622
              ],
              [
                -75.19659360985185,
                -9.53121872698398
              ],
              [
                -75.19905273482743,
                -9.522513727971045
              ],
              [
                -75.19913473392899,
                -9.515687478194593
              ],
              [
                -75.20127735983812,
                -9.511201227912068
              ],
              [
                -75.20426948392367,
                -9.507087853184544
              ],
              [
                -75.20503323488936,
                -9.504339852076043
              ],
              [
                -75.20553710915271,
                -9.496189477146402
              ],
              [
                -75.20854098480078,
                -9.490154352830473
              ],
              [
                -75.20691598519164,
                -9.484005853137944
              ],
              [
                -75.20596873518195,
                -9.476652353101258
              ],
              [
                -75.20667973505584,
                -9.472798853194263
              ],
              [
                -75.20158398488337,
                -9.462056601901338
              ],
              [
                -75.19792973499995,
                -9.452751976780803
              ],
              [
                -75.19109373402421,
                -9.43729885294539
              ],
              [
                -75.1869727339589,
                -9.425632851834393
              ],
              [
                -75.18460160999712,
                -9.417476602854833
              ],
              [
                -75.18314448413241,
                -9.407708977009406
              ],
              [
                -75.17943548397147,
                -9.395634602793507
              ],
              [
                -75.17588473404857,
                -9.378679726881103
              ],
              [
                -75.17651361007904,
                -9.37560747787552
              ],
              [
                -75.1849726101953,
                -9.367593727156589
              ],
              [
                -75.19660160978003,
                -9.35988085316393
              ],
              [
                -75.2003104839743,
                -9.358449226840605
              ],
              [
                -75.20516211010215,
                -9.355164101898026
              ],
              [
                -75.20932810907095,
                -9.351318352969884
              ],
              [
                -75.21453123508553,
                -9.345453102992735
              ],
              [
                -75.2180019840473,
                -9.34039447807362
              ],
              [
                -75.22216785915634,
                -9.33578710306108
              ],
              [
                -75.22974410985302,
                -9.330265603041028
              ],
              [
                -75.2359842337778,
                -9.327040976956653
              ],
              [
                -75.24575198510132,
                -9.322665976876578
              ],
              [
                -75.25021485905677,
                -9.32180472702862
              ],
              [
                -75.25409760880586,
                -9.323068351984205
              ],
              [
                -75.25808785916968,
                -9.323064477110563
              ],
              [
                -75.26045898389629,
                -9.32191410297537
              ],
              [
                -75.26329098403181,
                -9.319037102847233
              ],
              [
                -75.26531248414989,
                -9.318980477115929
              ],
              [
                -75.26861523478374,
                -9.318400351860532
              ],
              [
                -75.27197261018847,
                -9.318513728192386
              ],
              [
                -75.27648235912312,
                -9.3137988531509
              ],
              [
                -75.27780860999633,
                -9.309773476985868
              ],
              [
                -75.27774798404425,
                -9.307013727898493
              ],
              [
                -75.28138673398348,
                -9.306730477602457
              ],
              [
                -75.28272260912615,
                -9.309831976742544
              ],
              [
                -75.2863086102684,
                -9.311890601627624
              ],
              [
                -75.28862698442924,
                -9.31224222829104
              ],
              [
                -75.29447260989667,
                -9.31028322673086
              ],
              [
                -75.30106448524998,
                -9.307402353148234
              ],
              [
                -75.30615235974136,
                -9.304294977423012
              ],
              [
                -75.31169723519622,
                -9.30261722686015
              ],
              [
                -75.3133303495971,
                -9.301537673150904
              ],
              [
                -75.30930132294657,
                -9.299986803002241
              ],
              [
                -75.30428767990344,
                -9.297023652618122
              ],
              [
                -75.30332113484002,
                -9.293674115395334
              ],
              [
                -75.30389676745506,
                -9.290706164111839
              ],
              [
                -75.30013790318742,
                -9.289943544181881
              ],
              [
                -75.29261608940811,
                -9.283440504093448
              ],
              [
                -75.28837566819777,
                -9.282869601150708
              ],
              [
                -75.28577016230832,
                -9.2782769034294
              ],
              [
                -75.2825892471439,
                -9.277035007680581
              ],
              [
                -75.27969834552857,
                -9.276941554130076
              ],
              [
                -75.27651453945805,
                -9.271966334899616
              ],
              [
                -75.27400800380593,
                -9.270436663239423
              ],
              [
                -75.27188493604427,
                -9.266322108963664
              ],
              [
                -75.27248881892973,
                -9.262205475544874
              ],
              [
                -75.26810558909011,
                -9.250014747609669
              ],
              [
                -75.2689103393709,
                -9.243726427394904
              ],
              [
                -75.27185098067986,
                -9.239776111065737
              ],
              [
                -75.27251133129573,
                -9.23721665554632
              ],
              [
                -75.2719196937885,
                -9.233415226561988
              ],
              [
                -75.26669389863554,
                -9.232176220040174
              ],
              [
                -75.25668595493732,
                -9.232475958102896
              ],
              [
                -75.25425545909354,
                -9.229626273766769
              ],
              [
                -75.24895490377327,
                -9.226559229101838
              ],
              [
                -75.24360207529901,
                -9.222249214639533
              ],
              [
                -75.23888903789413,
                -9.21713444528973
              ],
              [
                -75.23660528010373,
                -9.21326094836553
              ],
              [
                -75.2329969986078,
                -9.209315181096144
              ],
              [
                -75.2313752325025,
                -9.204856311205674
              ],
              [
                -75.2312177510571,
                -9.200253849598823
              ],
              [
                -75.22489255317004,
                -9.19330849379503
              ],
              [
                -75.22260947095839,
                -9.19001980307661
              ],
              [
                -75.22069211445017,
                -9.183148312719538
              ],
              [
                -75.22091095167167,
                -9.18007741129486
              ],
              [
                -75.21914393759465,
                -9.178250648730852
              ],
              [
                -75.21281553452616,
                -9.177157726815324
              ],
              [
                -75.2124434244044,
                -9.170065927986684
              ],
              [
                -75.21553153339539,
                -9.16655464973826
              ],
              [
                -75.21479252146787,
                -9.16114468197594
              ],
              [
                -75.21633573877301,
                -9.15807299107297
              ],
              [
                -75.21648107344589,
                -9.155075245424825
              ],
              [
                -75.22030456532423,
                -9.151271032536954
              ],
              [
                -75.22875358152635,
                -9.147704345020315
              ],
              [
                -75.22802650572964,
                -9.146221418531582
              ],
              [
                -75.23067189052841,
                -9.141248020163005
              ],
              [
                -75.22905029666254,
                -9.13649665987873
              ],
              [
                -75.229416882804,
                -9.134522359909568
              ],
              [
                -75.23184453156858,
                -9.134301477164058
              ],
              [
                -75.23250447541454,
                -9.13093782753515
              ],
              [
                -75.23390089791724,
                -9.128816635561122
              ],
              [
                -75.23264483842092,
                -9.120482481645638
              ],
              [
                -75.23176071919761,
                -9.118435863026377
              ],
              [
                -75.23470250322623,
                -9.117117929844483
              ],
              [
                -75.23550914044199,
                -9.113169268769298
              ],
              [
                -75.23521311133601,
                -9.110464252088263
              ],
              [
                -75.23837449266284,
                -9.107610761783405
              ],
              [
                -75.2406542876297,
                -9.106585670408606
              ],
              [
                -75.24204973437196,
                -9.103221514232473
              ],
              [
                -75.24057642305667,
                -9.100151713782736
              ],
              [
                -75.23579463221881,
                -9.099789269958535
              ],
              [
                -75.23044159070696,
                -9.103375268896343
              ],
              [
                -75.22661608231743,
                -9.103012099457544
              ],
              [
                -75.22367442656406,
                -9.10440307941002
              ],
              [
                -75.22006995973788,
                -9.104624616099898
              ],
              [
                -75.21565537010508,
                -9.103311206346916
              ],
              [
                -75.21337400357322,
                -9.101777158690311
              ],
              [
                -75.21080016218878,
                -9.103240933456334
              ],
              [
                -75.20831425497454,
                -9.10175114728463
              ],
              [
                -75.20646673387614,
                -9.102990226835459
              ],
              [
                -75.20462110997698,
                -9.10655272721624
              ],
              [
                -75.19912698507238,
                -9.111505851975494
              ],
              [
                -75.19432810979072,
                -9.113398477114856
              ],
              [
                -75.19126173508943,
                -9.113572226831536
              ],
              [
                -75.18912498486549,
                -9.114785101987763
              ],
              [
                -75.18397461001587,
                -9.114445352094435
              ],
              [
                -75.1789472351486,
                -9.1149082271358
              ],
              [
                -75.17536323381859,
                -9.113238227190266
              ],
              [
                -75.17333985990376,
                -9.110197227000697
              ],
              [
                -75.1677849852021,
                -9.106636726956765
              ],
              [
                -75.16258198409906,
                -9.10549035204383
              ],
              [
                -75.15847848379155,
                -9.105945352135791
              ],
              [
                -75.15431248483878,
                -9.104345726955671
              ],
              [
                -75.15257223406098,
                -9.104455102082568
              ],
              [
                -75.14899411002165,
                -9.106474602219635
              ],
              [
                -75.1411288598137,
                -9.105328102016415
              ],
              [
                -75.13829098503425,
                -9.103773477938716
              ],
              [
                -75.13413285920831,
                -9.102574226968784
              ],
              [
                -75.130835985207,
                -9.103199226991364
              ],
              [
                -75.12759373409409,
                -9.105441352135756
              ],
              [
                -75.12360161019643,
                -9.106708976978894
              ],
              [
                -75.12019335917165,
                -9.106484352057123
              ],
              [
                -75.1138926090643,
                -9.109869102069752
              ],
              [
                -75.10776560879697,
                -9.110451226950431
              ],
              [
                -75.1019218588217,
                -9.108615226979396
              ],
              [
                -75.09539261000452,
                -9.107351602116921
              ],
              [
                -75.09168948482608,
                -9.107234352006401
              ],
              [
                -75.087119108825,
                -9.108845726831703
              ],
              [
                -75.082091734833,
                -9.107181601929483
              ],
              [
                -75.06884760992932,
                -9.107412101953685
              ],
              [
                -75.06474223502437,
                -9.10677935181252
              ],
              [
                -75.0579217351596,
                -9.106779352151193
              ],
              [
                -75.05283398400218,
                -9.1043106017936
              ],
              [
                -75.04779885880635,
                -9.103216852048888
              ],
              [
                -75.04409761017905,
                -9.101091851835577
              ],
              [
                -75.03802536005423,
                -9.100921852156262
              ],
              [
                -75.03449998393756,
                -9.100234352126563
              ],
              [
                -75.0316698591617,
                -9.101039102055893
              ],
              [
                -75.02866410991521,
                -9.099773476878
              ],
              [
                -75.02432035879411,
                -9.099257851790412
              ],
              [
                -75.0200429841421,
                -9.100460978189915
              ],
              [
                -75.01692185977407,
                -9.099548852008184
              ],
              [
                -75.01328323513002,
                -9.101330101781912
              ],
              [
                -75.00674410894601,
                -9.101556601859897
              ],
              [
                -75.00431835878072,
                -9.100408226896889
              ],
              [
                -75.00050385919673,
                -9.10196297696956
              ],
              [
                -74.99913085880974,
                -9.103447226802132
              ],
              [
                -74.99357623387345,
                -9.105400352111587
              ],
              [
                -74.98779298389195,
                -9.109371102199816
              ],
              [
                -74.98461135902119,
                -9.110519477050445
              ],
              [
                -74.98056060899319,
                -9.109652351975171
              ],
              [
                -74.97853123406162,
                -9.107642601907571
              ],
              [
                -74.97904885921753,
                -9.105400351896037
              ],
              [
                -74.97049023419328,
                -9.107931602156555
              ],
              [
                -74.96707223408924,
                -9.10758010216216
              ],
              [
                -74.96273823383484,
                -9.106955102177153
              ],
              [
                -74.95990035984642,
                -9.108673852220534
              ],
              [
                -74.9573516088002,
                -9.113566351781742
              ],
              [
                -74.9479746101016,
                -9.117933601984987
              ],
              [
                -74.94404685996687,
                -9.117415977106475
              ],
              [
                -74.93900973393352,
                -9.115517602073567
              ],
              [
                -74.936058735227,
                -9.115570351900146
              ],
              [
                -74.93350973521592,
                -9.11453910193677
              ],
              [
                -74.93171685898363,
                -9.112414101877448
              ],
              [
                -74.92396485878544,
                -9.11349610216763
              ],
              [
                -74.918929733889,
                -9.111423852010262
              ],
              [
                -74.91372660904301,
                -9.107974602219599
              ],
              [
                -74.90429685897857,
                -9.099689477042489
              ],
              [
                -74.9004746101279,
                -9.097335977061334
              ],
              [
                -74.89787310894951,
                -9.09388085215187
              ],
              [
                -74.89601948498785,
                -9.087095728016891
              ],
              [
                -74.8924941100056,
                -9.0836406020141
              ],
              [
                -74.88942773487037,
                -9.079677727016701
              ],
              [
                -74.88543748404902,
                -9.07351760219916
              ],
              [
                -74.88370510877479,
                -9.072140602205991
              ],
              [
                -74.87745698517574,
                -9.071216852182431
              ],
              [
                -74.87161323383407,
                -9.071042852021208
              ],
              [
                -74.86362498521726,
                -9.069429726995907
              ],
              [
                -74.85575785915148,
                -9.066324227016992
              ],
              [
                -74.84507623388191,
                -9.05930660206684
              ],
              [
                -74.84318560894923,
                -9.055605477103711
              ],
              [
                -74.84131060902092,
                -9.056505727129604
              ],
              [
                -74.84038685899804,
                -9.059597602053884
              ],
              [
                -74.83729498513816,
                -9.062589852115195
              ],
              [
                -74.8338397341667,
                -9.062736352107095
              ],
              [
                -74.83128323418202,
                -9.059548852211606
              ],
              [
                -74.83298823403612,
                -9.056603476950556
              ],
              [
                -74.83619923486634,
                -9.05526560202685
              ],
              [
                -74.83824410908608,
                -9.05548435215934
              ],
              [
                -74.83985173383815,
                -9.053804852149426
              ],
              [
                -74.83877935905235,
                -9.05129685179321
              ],
              [
                -74.82931248488671,
                -9.05141997712201
              ],
              [
                -74.82522260897429,
                -9.048474602147678
              ],
              [
                -74.82716998412866,
                -9.04051560221177
              ],
              [
                -74.82108598396809,
                -9.0436797268556
              ],
              [
                -74.82055073510998,
                -9.045943351987034
              ],
              [
                -74.8159492340535,
                -9.044410101895835
              ],
              [
                -74.81587698496281,
                -9.042851602190751
              ],
              [
                -74.81960160901633,
                -9.040662102081967
              ],
              [
                -74.81816410910301,
                -9.037863227061848
              ],
              [
                -74.81933398418374,
                -9.035623101794272
              ],
              [
                -74.82098823515025,
                -9.035378851787186
              ],
              [
                -74.82288673419544,
                -9.033773477080956
              ],
              [
                -74.81891998414824,
                -9.032337851934926
              ],
              [
                -74.81616998394674,
                -9.032800851794889
              ],
              [
                -74.81380860881842,
                -9.037521477041594
              ]
            ]
          ]
        ],
        "type": "MultiPolygon"
      },
      "type": "Feature",
      "properties": {
        "PROVINCIA": "PUERTO INCA",
        "DISTRITO": "PUERTO INCA",
        "name": "PUERTO INCA",
        "ID": "090802",
        "DEPARTAMEN": "HUANUCO"
      }
    }
  ]
}
