{
  "type": "FeatureCollection",
  "features": [
    {
      "geometry": {
        "coordinates": [
          [
            [
              [
                -74.7254877339999,
                -9.390420602999882
              ],
              [
                -74.72325835899994,
                -9.391112477999854
              ],
              [
                -74.72202835899992,
                -9.39134310199995
              ],
              [
                -74.71941460899995,
                -9.392803727999876
              ],
              [
                -74.71680085899999,
                -9.394802476999871
              ],
              [
                -74.71741585899997,
                -9.397877476999952
              ],
              [
                -74.71487898399994,
                -9.401106227999946
              ],
              [
                -74.71280335899996,
                -9.407256226999948
              ],
              [
                -74.71203460899994,
                -9.408870601999922
              ],
              [
                -74.70919023399989,
                -9.413252477999947
              ],
              [
                -74.70796023399998,
                -9.415174352999884
              ],
              [
                -74.70496198399997,
                -9.416711851999935
              ],
              [
                -74.70702160899998,
                -9.421250976999943
              ],
              [
                -74.7094201089999,
                -9.422210351999922
              ],
              [
                -74.70474310899988,
                -9.427247102999956
              ],
              [
                -74.70150523399997,
                -9.428925976999949
              ],
              [
                -74.70078560899992,
                -9.433003476999886
              ],
              [
                -74.69766760899995,
                -9.435641726999961
              ],
              [
                -74.69371023399998,
                -9.433842852999874
              ],
              [
                -74.68907073399998,
                -9.43489560199987
              ],
              [
                -74.67907960899993,
                -9.442597226999908
              ],
              [
                -74.67596148399997,
                -9.446914476999893
              ],
              [
                -74.67872123399997,
                -9.448055727999929
              ],
              [
                -74.68553373399999,
                -9.445885351999948
              ],
              [
                -74.68939223399997,
                -9.445704476999879
              ],
              [
                -74.69477685899994,
                -9.447673727999927
              ],
              [
                -74.69801348399989,
                -9.451311226999906
              ],
              [
                -74.70259535899999,
                -9.452637602999971
              ],
              [
                -74.70723760899989,
                -9.45577260199991
              ],
              [
                -74.71054010999995,
                -9.457053351999946
              ],
              [
                -74.7131008589999,
                -9.45667397799997
              ],
              [
                -74.71677448499992,
                -9.459084851999876
              ],
              [
                -74.71989810899998,
                -9.465478976999918
              ],
              [
                -74.7288207339999,
                -9.472412102999897
              ],
              [
                -74.73074998399994,
                -9.477235227999927
              ],
              [
                -74.73081023399993,
                -9.481817102999969
              ],
              [
                -74.73325560899997,
                -9.48685435199991
              ],
              [
                -74.73522260899989,
                -9.49247360299995
              ],
              [
                -74.73979123399988,
                -9.497256851999964
              ],
              [
                -74.74012848399991,
                -9.504646352999941
              ],
              [
                -74.7411097339999,
                -9.506853851999892
              ],
              [
                -74.74086435899994,
                -9.514396726999962
              ],
              [
                -74.74193748399995,
                -9.517340226999977
              ],
              [
                -74.74730335899989,
                -9.519486602999962
              ],
              [
                -74.75052285899994,
                -9.524607101999948
              ],
              [
                -74.74883635999998,
                -9.527305226999886
              ],
              [
                -74.74928523399984,
                -9.53290822799994
              ],
              [
                -74.74642185899995,
                -9.538351602999967
              ],
              [
                -74.7480546089999,
                -9.542912102999878
              ],
              [
                -74.74493748399982,
                -9.54819672799988
              ],
              [
                -74.74446098399983,
                -9.553129476999914
              ],
              [
                -74.74279410899993,
                -9.554529351999918
              ],
              [
                -74.74241798399999,
                -9.557957101999932
              ],
              [
                -74.74006623399998,
                -9.559790352999926
              ],
              [
                -74.73915435899994,
                -9.564951227999927
              ],
              [
                -74.73758598399996,
                -9.569146476999947
              ],
              [
                -74.73516998399998,
                -9.572706977999928
              ],
              [
                -74.7364003589999,
                -9.576054726999871
              ],
              [
                -74.74055335899999,
                -9.578690727999913
              ],
              [
                -74.74727560899998,
                -9.578690727999913
              ],
              [
                -74.7558489839999,
                -9.584049102999927
              ],
              [
                -74.75647573499998,
                -9.586854352999922
              ],
              [
                -74.75521873399998,
                -9.59275385299992
              ],
              [
                -74.75390260899997,
                -9.595200477999924
              ],
              [
                -74.75649560899984,
                -9.598549727999966
              ],
              [
                -74.75573935899996,
                -9.606544851999956
              ],
              [
                -74.76098848399988,
                -9.60578772699995
              ],
              [
                -74.76301285899996,
                -9.604462852999973
              ],
              [
                -74.76522560899997,
                -9.605020852999871
              ],
              [
                -74.76846373399997,
                -9.607384726999896
              ],
              [
                -74.77248573399993,
                -9.612379102999967
              ],
              [
                -74.77237773499996,
                -9.614323851999927
              ],
              [
                -74.77026560899998,
                -9.61613485199996
              ],
              [
                -74.7657036089999,
                -9.621876727999847
              ],
              [
                -74.76373435899995,
                -9.626640601999839
              ],
              [
                -74.76481485999994,
                -9.63571610299988
              ],
              [
                -74.7657872339999,
                -9.638309102999926
              ],
              [
                -74.77195598399999,
                -9.642238602999896
              ],
              [
                -74.77421448399997,
                -9.645655977999922
              ],
              [
                -74.77756373399995,
                -9.648356977999981
              ],
              [
                -74.78164698399996,
                -9.652962476999903
              ],
              [
                -74.7865951089999,
                -9.664509101999954
              ],
              [
                -74.78977248399991,
                -9.66639997699997
              ],
              [
                -74.79755148499999,
                -9.665643726999974
              ],
              [
                -74.80014448399993,
                -9.666724102999979
              ],
              [
                -74.80619485999995,
                -9.671802101999958
              ],
              [
                -74.80651898499997,
                -9.674286976999952
              ],
              [
                -74.80841873399993,
                -9.675505102999978
              ],
              [
                -74.81071373399993,
                -9.67474010299992
              ],
              [
                -74.81469173399995,
                -9.671680101999868
              ],
              [
                -74.81805773399998,
                -9.671068102999982
              ],
              [
                -74.82188273399998,
                -9.677188101999889
              ],
              [
                -74.82111773399993,
                -9.684226102999958
              ],
              [
                -74.81790473399985,
                -9.688816102999908
              ],
              [
                -74.81865048399999,
                -9.693575102999944
              ],
              [
                -74.82392560899984,
                -9.700293227999907
              ],
              [
                -74.82735748399995,
                -9.700885352999876
              ],
              [
                -74.82876773399983,
                -9.703963102999978
              ],
              [
                -74.82647273399994,
                -9.70732910199996
              ],
              [
                -74.82300235899999,
                -9.715198477999934
              ],
              [
                -74.82264773399999,
                -9.718345102999876
              ],
              [
                -74.82341273499986,
                -9.721864102999973
              ],
              [
                -74.82308060999998,
                -9.725297227999931
              ],
              [
                -74.82127073399982,
                -9.730661477999945
              ],
              [
                -74.81637473399991,
                -9.733568477999938
              ],
              [
                -74.81684360999998,
                -9.736433602999966
              ],
              [
                -74.8220566089999,
                -9.739570352999976
              ],
              [
                -74.82587110899988,
                -9.74122260299987
              ],
              [
                -74.83163473399998,
                -9.745630852999966
              ],
              [
                -74.83985748399988,
                -9.74736910199988
              ],
              [
                -74.84379885899995,
                -9.749148477999938
              ],
              [
                -74.84474410899992,
                -9.753819852999982
              ],
              [
                -74.8392433599999,
                -9.763922227999899
              ],
              [
                -74.84014248499994,
                -9.767730476999873
              ],
              [
                -74.84358048399992,
                -9.772649477999948
              ],
              [
                -74.84469123399998,
                -9.7774626019999
              ],
              [
                -74.84707135899993,
                -9.780477477999966
              ],
              [
                -74.84516723499996,
                -9.781905601999881
              ],
              [
                -74.84622510899999,
                -9.78529072699996
              ],
              [
                -74.84252273499999,
                -9.787459352999974
              ],
              [
                -74.83596398499998,
                -9.78550235299997
              ],
              [
                -74.83178548399991,
                -9.783122101999936
              ],
              [
                -74.82834748399995,
                -9.78338660299994
              ],
              [
                -74.82564998399994,
                -9.784973352999884
              ],
              [
                -74.82136573399987,
                -9.784920477999947
              ],
              [
                -74.81919723399994,
                -9.788041102999955
              ],
              [
                -74.81559960899989,
                -9.79542835299992
              ],
              [
                -74.82303235899991,
                -9.80049247799991
              ],
              [
                -74.82672023499998,
                -9.809740102999967
              ],
              [
                -74.82604373399994,
                -9.812574352999945
              ],
              [
                -74.82379423399988,
                -9.815912226999956
              ],
              [
                -74.82647910899993,
                -9.817980352999939
              ],
              [
                -74.82615260899996,
                -9.819685602999868
              ],
              [
                -74.83050635899997,
                -9.821572227999923
              ],
              [
                -74.83456998499992,
                -9.819395352999948
              ],
              [
                -74.83623898399998,
                -9.82004835299989
              ],
              [
                -74.83627523399997,
                -9.824656227999924
              ],
              [
                -74.83391685899988,
                -9.827050852999832
              ],
              [
                -74.83525935999995,
                -9.82886497699991
              ],
              [
                -74.83264698499988,
                -9.830787852999947
              ],
              [
                -74.83039860899993,
                -9.833807602999968
              ],
              [
                -74.8306463589999,
                -9.836279852999951
              ],
              [
                -74.83301860899991,
                -9.837185602999966
              ],
              [
                -74.83478698399995,
                -9.84253397699996
              ],
              [
                -74.83353610899991,
                -9.845035602999928
              ],
              [
                -74.83500260899996,
                -9.847105977999888
              ],
              [
                -74.84177435899994,
                -9.849176227999976
              ],
              [
                -74.84725210899995,
                -9.848141102999932
              ],
              [
                -74.85260035999988,
                -9.848356727999942
              ],
              [
                -74.85419623399997,
                -9.84620022799993
              ],
              [
                -74.85945835899997,
                -9.844518102999928
              ],
              [
                -74.86277948399993,
                -9.842275227999949
              ],
              [
                -74.86200310899994,
                -9.839342227999964
              ],
              [
                -74.86657510899994,
                -9.83485647799995
              ],
              [
                -74.86972373399993,
                -9.833605727999952
              ],
              [
                -74.86963748499994,
                -9.831104102999973
              ],
              [
                -74.87183198399998,
                -9.827463226999953
              ],
              [
                -74.87338060899992,
                -9.826951102999942
              ],
              [
                -74.87465348399991,
                -9.824223477999908
              ],
              [
                -74.87907835899989,
                -9.820465476999914
              ],
              [
                -74.88235148399991,
                -9.819738101999974
              ],
              [
                -74.8858669839999,
                -9.820041102999824
              ],
              [
                -74.88798848499994,
                -9.821313976999875
              ],
              [
                -74.89229210899998,
                -9.826163102999942
              ],
              [
                -74.89411048399995,
                -9.829133227999932
              ],
              [
                -74.89926423499998,
                -9.833789602999957
              ],
              [
                -74.90343873399996,
                -9.834401977999903
              ],
              [
                -74.90339185999989,
                -9.838888102999931
              ],
              [
                -74.95162448499991,
                -9.859909102999893
              ],
              [
                -74.98555285899988,
                -9.864063726999916
              ],
              [
                -74.99361598499996,
                -9.839797227999952
              ],
              [
                -74.9950659839999,
                -9.840818602999889
              ],
              [
                -74.99886885899997,
                -9.840057977999948
              ],
              [
                -75.00286323399996,
                -9.837246101999881
              ],
              [
                -75.0080064839999,
                -9.83691447699988
              ],
              [
                -75.01309348399991,
                -9.838103601999933
              ],
              [
                -75.01839060999998,
                -9.835824227999922
              ],
              [
                -75.02173535899988,
                -9.830939977999833
              ],
              [
                -75.02550460999998,
                -9.83157697699994
              ],
              [
                -75.03521098399995,
                -9.830795352999928
              ],
              [
                -75.03707360899995,
                -9.828813477999915
              ],
              [
                -75.04006135999998,
                -9.827372727999887
              ],
              [
                -75.04325973399995,
                -9.8228534779999
              ],
              [
                -75.04706985899998,
                -9.823671851999961
              ],
              [
                -75.05268648499998,
                -9.823029602999895
              ],
              [
                -75.05523473399995,
                -9.821596227999976
              ],
              [
                -75.0567743599999,
                -9.819207227999925
              ],
              [
                -75.05988085899997,
                -9.819693352999934
              ],
              [
                -75.06545110999991,
                -9.82470460299993
              ],
              [
                -75.06602423499999,
                -9.827803102999894
              ],
              [
                -75.06956885999989,
                -9.830196727999976
              ],
              [
                -75.07348810999991,
                -9.831256477999887
              ],
              [
                -75.07774448399994,
                -9.837576102999947
              ],
              [
                -75.08013473499989,
                -9.83919535299998
              ],
              [
                -75.08676985999989,
                -9.841876351999929
              ],
              [
                -75.09446785899985,
                -9.844477727999958
              ],
              [
                -75.1025904839999,
                -9.845911226999817
              ],
              [
                -75.10839848499995,
                -9.846253852999894
              ],
              [
                -75.11502148399995,
                -9.844878852999841
              ],
              [
                -75.12302348499998,
                -9.840751977999957
              ],
              [
                -75.13518548499997,
                -9.838611352999976
              ],
              [
                -75.14303510899992,
                -9.838607477999972
              ],
              [
                -75.14770510999995,
                -9.840521477999971
              ],
              [
                -75.15227535999992,
                -9.840740227999959
              ],
              [
                -75.16012498399988,
                -9.839974602999973
              ],
              [
                -75.16384298499992,
                -9.838786852999931
              ],
              [
                -75.16990798499995,
                -9.834019101999957
              ],
              [
                -75.17978260899991,
                -9.829771977999826
              ],
              [
                -75.18222473499992,
                -9.827648476999968
              ],
              [
                -75.18854235899994,
                -9.824038352999878
              ],
              [
                -75.20260560899987,
                -9.815369102999966
              ],
              [
                -75.21553123499996,
                -9.804062476999889
              ],
              [
                -75.22683735899994,
                -9.795319227999869
              ],
              [
                -75.24075060999996,
                -9.785835476999978
              ],
              [
                -75.24922848399984,
                -9.78220510299991
              ],
              [
                -75.25465035999991,
                -9.77900222799991
              ],
              [
                -75.25687685899993,
                -9.77858085299988
              ],
              [
                -75.26317160899993,
                -9.780178102999969
              ],
              [
                -75.2710376099999,
                -9.779495977999943
              ],
              [
                -75.27447810899992,
                -9.780124477999948
              ],
              [
                -75.27978010999993,
                -9.779185476999885
              ],
              [
                -75.28483010899998,
                -9.776056602999915
              ],
              [
                -75.2886269849999,
                -9.775759727999969
              ],
              [
                -75.29494535999999,
                -9.777587852999943
              ],
              [
                -75.29878910899998,
                -9.77773635299991
              ],
              [
                -75.30536298399994,
                -9.776453852999907
              ],
              [
                -75.30837735999995,
                -9.774700852999842
              ],
              [
                -75.31063860999996,
                -9.774671852999916
              ],
              [
                -75.31448435999988,
                -9.771003852999911
              ],
              [
                -75.32333785999998,
                -9.760902351999903
              ],
              [
                -75.32701760899994,
                -9.756314477999979
              ],
              [
                -75.32939848499996,
                -9.751753852999968
              ],
              [
                -75.33108598499996,
                -9.743962852999971
              ],
              [
                -75.33107810899992,
                -9.736175727999921
              ],
              [
                -75.32968160999991,
                -9.729611352999825
              ],
              [
                -75.3262948599999,
                -9.723353477999922
              ],
              [
                -75.30872260999996,
                -9.700316226999973
              ],
              [
                -75.30473823499995,
                -9.697728477999874
              ],
              [
                -75.29998635999988,
                -9.691488227999969
              ],
              [
                -75.28793360899988,
                -9.68017772799982
              ],
              [
                -75.27930473399994,
                -9.672398476999888
              ],
              [
                -75.26144335899994,
                -9.654089852999903
              ],
              [
                -75.24789448499996,
                -9.643564476999927
              ],
              [
                -75.23967573399995,
                -9.635818351999887
              ],
              [
                -75.23518748499998,
                -9.630777352999871
              ],
              [
                -75.2341913599999,
                -9.628609352999945
              ],
              [
                -75.22187110999988,
                -9.61884760299995
              ],
              [
                -75.21257223499993,
                -9.612722601999963
              ],
              [
                -75.20847848499994,
                -9.610722602999942
              ],
              [
                -75.20238673399996,
                -9.608818352999947
              ],
              [
                -75.19743548399993,
                -9.601583977999894
              ],
              [
                -75.19096285999996,
                -9.59663285199997
              ],
              [
                -75.18908785999997,
                -9.59260347799983
              ],
              [
                -75.18724010999995,
                -9.585427726999853
              ],
              [
                -75.18338285999994,
                -9.559931601999892
              ],
              [
                -75.18229685999995,
                -9.556419976999962
              ],
              [
                -75.17999223399994,
                -9.552755851999905
              ],
              [
                -75.1716757349999,
                -9.54466797799995
              ],
              [
                -75.16506248499996,
                -9.53718947699997
              ],
              [
                -75.16075198499988,
                -9.53062697699994
              ],
              [
                -75.15506048499998,
                -9.523603477999927
              ],
              [
                -75.14628510899996,
                -9.516431602999944
              ],
              [
                -75.14228123499998,
                -9.510630852999952
              ],
              [
                -75.13566598499995,
                -9.506359352999937
              ],
              [
                -75.13259173499995,
                -9.503306476999853
              ],
              [
                -75.12876560899991,
                -9.501019476999886
              ],
              [
                -75.12606048499993,
                -9.497376977999977
              ],
              [
                -75.11801173499993,
                -9.496636727999885
              ],
              [
                -75.11592773399997,
                -9.49508197699987
              ],
              [
                -75.11205273499996,
                -9.49192772799995
              ],
              [
                -75.10955860999997,
                -9.48726947699987
              ],
              [
                -75.10752923399997,
                -9.485199227999942
              ],
              [
                -75.10712498499993,
                -9.483652352999911
              ],
              [
                -75.10700973399997,
                -9.481066351999914
              ],
              [
                -75.10533198399997,
                -9.476931602999912
              ],
              [
                -75.09954098399993,
                -9.47130072699997
              ],
              [
                -75.09873235999999,
                -9.466640476999942
              ],
              [
                -75.09386535999982,
                -9.46314260299988
              ],
              [
                -75.09099223499993,
                -9.46189447699993
              ],
              [
                -75.08691410899996,
                -9.46125972699997
              ],
              [
                -75.08319135899995,
                -9.459931602999973
              ],
              [
                -75.07989448399991,
                -9.461009726999976
              ],
              [
                -75.07927735899995,
                -9.461660101999882
              ],
              [
                -75.07698048399993,
                -9.464183602999867
              ],
              [
                -75.07638473499998,
                -9.466871102999903
              ],
              [
                -75.07468360999997,
                -9.467314476999945
              ],
              [
                -75.07363085899993,
                -9.467820351999933
              ],
              [
                -75.07254098499999,
                -9.466681601999937
              ],
              [
                -75.06930485899994,
                -9.468201227999941
              ],
              [
                -75.06490235899997,
                -9.46658397799996
              ],
              [
                -75.06436910899998,
                -9.467007851999938
              ],
              [
                -75.0634374839999,
                -9.467542976999823
              ],
              [
                -75.06266798499996,
                -9.468158226999947
              ],
              [
                -75.06221673399989,
                -9.468111351999937
              ],
              [
                -75.06228710899995,
                -9.468519476999973
              ],
              [
                -75.06222448499994,
                -9.468998102999933
              ],
              [
                -75.06149223499989,
                -9.468736352999883
              ],
              [
                -75.06010348499996,
                -9.46671097799998
              ],
              [
                -75.05892185999994,
                -9.467570351999939
              ],
              [
                -75.05686910999992,
                -9.467986351999912
              ],
              [
                -75.05532035899995,
                -9.467833976999941
              ],
              [
                -75.05110160899994,
                -9.46935347699997
              ],
              [
                -75.0494843599999,
                -9.471669976999976
              ],
              [
                -75.04861523399984,
                -9.472365227999944
              ],
              [
                -75.04786723399997,
                -9.473767601999953
              ],
              [
                -75.04791985899993,
                -9.474726601999919
              ],
              [
                -75.04840035899991,
                -9.475486352999894
              ],
              [
                -75.04821098499997,
                -9.476281227999948
              ],
              [
                -75.04574610999993,
                -9.480615226999873
              ],
              [
                -75.04505860899997,
                -9.480380852999929
              ],
              [
                -75.04354885899994,
                -9.480787101999965
              ],
              [
                -75.04373223499994,
                -9.48126560199995
              ],
              [
                -75.042060484,
                -9.480126977999817
              ],
              [
                -75.04130473399988,
                -9.48208010199994
              ],
              [
                -75.04032810899992,
                -9.4827226029999
              ],
              [
                -75.04007810899992,
                -9.48456835199994
              ],
              [
                -75.03793360999993,
                -9.483165977999931
              ],
              [
                -75.03066985999999,
                -9.485681601999943
              ],
              [
                -75.03006048399999,
                -9.485790976999965
              ],
              [
                -75.02793948399994,
                -9.48574610299994
              ],
              [
                -75.02661135999989,
                -9.48570897799982
              ],
              [
                -75.02668748399998,
                -9.48711910299994
              ],
              [
                -75.02293360999988,
                -9.488775352999937
              ],
              [
                -75.01995110899986,
                -9.489173852999954
              ],
              [
                -75.01756248399994,
                -9.487980477999827
              ],
              [
                -75.01383985899992,
                -9.48940997799997
              ],
              [
                -75.01249035899991,
                -9.48874035199998
              ],
              [
                -75.00867385899988,
                -9.484687477999955
              ],
              [
                -75.00711923399996,
                -9.48456060299992
              ],
              [
                -75.00617973399994,
                -9.484470727999962
              ],
              [
                -75.00351760899997,
                -9.485031226999979
              ],
              [
                -75.00182423399997,
                -9.485456977999945
              ],
              [
                -74.99999998499993,
                -9.487392601999943
              ],
              [
                -74.99858010999998,
                -9.487591852999913
              ],
              [
                -74.99764260899997,
                -9.487365226999884
              ],
              [
                -74.99700198399995,
                -9.487066352999932
              ],
              [
                -74.99397260899997,
                -9.488009727999952
              ],
              [
                -74.98974610899995,
                -9.487667977999877
              ],
              [
                -74.98157423499998,
                -9.491347601999962
              ],
              [
                -74.9763632339999,
                -9.495199227999876
              ],
              [
                -74.97126760999993,
                -9.496755851999978
              ],
              [
                -74.95695510899998,
                -9.503968727999847
              ],
              [
                -74.9482578599999,
                -9.505642602999956
              ],
              [
                -74.94368748399995,
                -9.505306601999962
              ],
              [
                -74.94156835899992,
                -9.503968727999847
              ],
              [
                -74.94078898399994,
                -9.49984372699987
              ],
              [
                -74.94346485999989,
                -9.49382422799988
              ],
              [
                -74.94402148399996,
                -9.491259726999886
              ],
              [
                -74.94359960899993,
                -9.483935601999974
              ],
              [
                -74.94235160899996,
                -9.477490102999866
              ],
              [
                -74.94394535899994,
                -9.472499977999973
              ],
              [
                -74.94671873399983,
                -9.46972847699982
              ],
              [
                -74.94949023399988,
                -9.468548852999902
              ],
              [
                -74.95226373399998,
                -9.469242226999881
              ],
              [
                -74.9562832339999,
                -9.470699226999955
              ],
              [
                -74.9585019839999,
                -9.470144476999963
              ],
              [
                -74.96252148399998,
                -9.466955102999918
              ],
              [
                -74.9626992339999,
                -9.46368747699995
              ],
              [
                -74.9561544849999,
                -9.462130852999906
              ],
              [
                -74.95198048499998,
                -9.461617226999977
              ],
              [
                -74.94943160899993,
                -9.460636726999951
              ],
              [
                -74.94526560899993,
                -9.458958977999941
              ],
              [
                -74.94245123399998,
                -9.462224601999935
              ],
              [
                -74.94378710899991,
                -9.462486352999917
              ],
              [
                -74.94356448499997,
                -9.46456835299989
              ],
              [
                -74.93992573399998,
                -9.467298851999942
              ],
              [
                -74.93933785899992,
                -9.468040976999816
              ],
              [
                -74.93857623399998,
                -9.467505851999931
              ],
              [
                -74.93813285899995,
                -9.465941351999902
              ],
              [
                -74.93559185899994,
                -9.469224602999873
              ],
              [
                -74.93479098399996,
                -9.468619101999934
              ],
              [
                -74.93386135899993,
                -9.466962851999938
              ],
              [
                -74.93263285899991,
                -9.463978476999955
              ],
              [
                -74.93113673499994,
                -9.461181602999886
              ],
              [
                -74.9289316089999,
                -9.459210851999899
              ],
              [
                -74.92520910899992,
                -9.460259727999926
              ],
              [
                -74.92447660999989,
                -9.457482476999814
              ],
              [
                -74.92264648399998,
                -9.457581852999965
              ],
              [
                -74.92202735999984,
                -9.457310601999893
              ],
              [
                -74.92042585899992,
                -9.455490226999927
              ],
              [
                -74.91709185999997,
                -9.455662102999895
              ],
              [
                -74.91480273399998,
                -9.45238872799996
              ],
              [
                -74.91477935899991,
                -9.447404352999968
              ],
              [
                -74.91435948399999,
                -9.446789101999912
              ],
              [
                -74.91310935899998,
                -9.448054726999942
              ],
              [
                -74.91323810899996,
                -9.448498101999917
              ],
              [
                -74.91147660899986,
                -9.450144477999913
              ],
              [
                -74.91062110899998,
                -9.449601601999916
              ],
              [
                -74.90882035899989,
                -9.447509726999954
              ],
              [
                -74.90852348399994,
                -9.446044977999975
              ],
              [
                -74.90759373499992,
                -9.444562476999977
              ],
              [
                -74.90408398399995,
                -9.443873102999873
              ],
              [
                -74.90258785999998,
                -9.44359372799994
              ],
              [
                -74.89629310999999,
                -9.440154351999865
              ],
              [
                -74.89417973399992,
                -9.4408496019999
              ],
              [
                -74.89256248399994,
                -9.44199810299989
              ],
              [
                -74.89067773399995,
                -9.442060602999959
              ],
              [
                -74.8901209839999,
                -9.441816352999979
              ],
              [
                -74.89158598399996,
                -9.438333977999946
              ],
              [
                -74.88987698499989,
                -9.435972602999811
              ],
              [
                -74.88774810899997,
                -9.43548435199989
              ],
              [
                -74.88701560899995,
                -9.436361226999963
              ],
              [
                -74.88665823399992,
                -9.436279351999872
              ],
              [
                -74.88560548399994,
                -9.435691351999878
              ],
              [
                -74.88240823399991,
                -9.435175726999944
              ],
              [
                -74.88138673399993,
                -9.437201227999935
              ],
              [
                -74.87845698399991,
                -9.439126976999944
              ],
              [
                -74.87281835899995,
                -9.439730476999955
              ],
              [
                -74.87335160899994,
                -9.442046852999965
              ],
              [
                -74.86983398399991,
                -9.443083976999958
              ],
              [
                -74.86599810899997,
                -9.442847601999972
              ],
              [
                -74.86804298399989,
                -9.440298851999898
              ],
              [
                -74.86835548399989,
                -9.439546852999968
              ],
              [
                -74.86686723399987,
                -9.439230476999967
              ],
              [
                -74.8628163599999,
                -9.440359352999963
              ],
              [
                -74.86221285999994,
                -9.443415976999972
              ],
              [
                -74.86132810899994,
                -9.44438285299998
              ],
              [
                -74.85937498399988,
                -9.443912102999832
              ],
              [
                -74.85890235899996,
                -9.443958977999955
              ],
              [
                -74.85731448499996,
                -9.445503852999877
              ],
              [
                -74.85566010899993,
                -9.446878851999884
              ],
              [
                -74.85375198499997,
                -9.448361352999882
              ],
              [
                -74.84786135899992,
                -9.446830101999922
              ],
              [
                -74.84560348399998,
                -9.44539847699997
              ],
              [
                -74.84235348399994,
                -9.447080101999916
              ],
              [
                -74.83882423399996,
                -9.450451227999963
              ],
              [
                -74.83569923399995,
                -9.451857476999976
              ],
              [
                -74.83195123499996,
                -9.453576226999928
              ],
              [
                -74.82768160899991,
                -9.452830101999893
              ],
              [
                -74.82392185899988,
                -9.44915435199988
              ],
              [
                -74.81685548399997,
                -9.449378851999882
              ],
              [
                -74.8140176089999,
                -9.44857035299998
              ],
              [
                -74.80851760999997,
                -9.440744227999971
              ],
              [
                -74.80579298399994,
                -9.439648352999939
              ],
              [
                -74.80030273399996,
                -9.435507851999887
              ],
              [
                -74.79408985899983,
                -9.431769476999932
              ],
              [
                -74.78847660899999,
                -9.428962852999973
              ],
              [
                -74.7829902339999,
                -9.424748101999967
              ],
              [
                -74.77812885999992,
                -9.417607476999933
              ],
              [
                -74.77314648399988,
                -9.414792976999934
              ],
              [
                -74.76941798399992,
                -9.412287101999937
              ],
              [
                -74.76801173399991,
                -9.410255851999977
              ],
              [
                -74.76110935899993,
                -9.405060601999935
              ],
              [
                -74.75833198399988,
                -9.399822227999834
              ],
              [
                -74.75607235899997,
                -9.397585976999892
              ],
              [
                -74.75097660899996,
                -9.396488226999907
              ],
              [
                -74.74797073399998,
                -9.393953101999955
              ],
              [
                -74.74513285899991,
                -9.39274022799998
              ],
              [
                -74.74021098399999,
                -9.39222072799987
              ],
              [
                -74.73423048399997,
                -9.389980476999881
              ],
              [
                -74.72975173399993,
                -9.389939351999942
              ],
              [
                -74.7254877339999,
                -9.390420602999882
              ]
            ]
          ]
        ],
        "type": "MultiPolygon"
      },
      "type": "Feature",
      "properties": {
        "PROVINCIA": "PUERTO INCA",
        "DISTRITO": "YUYAPICHIS",
        "name": "YUYAPICHIS",
        "ID": "090805",
        "DEPARTAMEN": "HUANUCO"
      }
    }
  ]
}
