{
  "type": "FeatureCollection",
  "features": [
    {
      "geometry": {
        "coordinates": [
          [
            [
              [
                -76.62649798499996,
                -9.91918160299997
              ],
              [
                -76.62782223599999,
                -9.9213534779999
              ],
              [
                -76.63217573499998,
                -9.925574227999903
              ],
              [
                -76.63575198599995,
                -9.931486352999968
              ],
              [
                -76.63623823599994,
                -9.935923851999917
              ],
              [
                -76.63822073599988,
                -9.9403613529999
              ],
              [
                -76.64277348599984,
                -9.942482477999931
              ],
              [
                -76.64564848599997,
                -9.946736352999892
              ],
              [
                -76.64494536099994,
                -9.951785102999906
              ],
              [
                -76.64259573599998,
                -9.958152352999889
              ],
              [
                -76.65048823599989,
                -9.962304727999935
              ],
              [
                -76.65383786099994,
                -9.962816351999948
              ],
              [
                -76.65725373599997,
                -9.96051947799998
              ],
              [
                -76.66041410999998,
                -9.962449227999969
              ],
              [
                -76.66112711099998,
                -9.965248102999908
              ],
              [
                -76.66536136099995,
                -9.966277352999896
              ],
              [
                -76.66801948599988,
                -9.968720727999937
              ],
              [
                -76.66948436099995,
                -9.971595727999954
              ],
              [
                -76.67464061099997,
                -9.971921851999923
              ],
              [
                -76.67585336099995,
                -9.970056602999932
              ],
              [
                -76.67876361099997,
                -9.96985935299989
              ],
              [
                -76.68199223599993,
                -9.972591852999926
              ],
              [
                -76.68404298599995,
                -9.97541210299994
              ],
              [
                -76.68377736099995,
                -9.976914102999956
              ],
              [
                -76.6807207359999,
                -9.978720727999871
              ],
              [
                -76.67881848599995,
                -9.982788977999974
              ],
              [
                -76.68068361099995,
                -9.987353477999875
              ],
              [
                -76.68215423599992,
                -9.98793360299993
              ],
              [
                -76.68594536099988,
                -9.997607477999907
              ],
              [
                -76.68871486099988,
                -10.001507852999964
              ],
              [
                -76.68917773599992,
                -10.006550727999866
              ],
              [
                -76.69088673599992,
                -10.007273477999888
              ],
              [
                -76.69606636099996,
                -10.015798852999978
              ],
              [
                -76.69866011099998,
                -10.0179297279999
              ],
              [
                -76.70485161099998,
                -10.026476602999878
              ],
              [
                -76.70678123599998,
                -10.027587852999943
              ],
              [
                -76.70785548599997,
                -10.030511727999965
              ],
              [
                -76.71125786099992,
                -10.034164102999966
              ],
              [
                -76.71230661099986,
                -10.037359352999886
              ],
              [
                -76.71441586099996,
                -10.034248102999982
              ],
              [
                -76.71771286099988,
                -10.031953102999978
              ],
              [
                -76.7245488609999,
                -10.029738227999928
              ],
              [
                -76.72742386099992,
                -10.027933602999951
              ],
              [
                -76.73474611099994,
                -10.026644352999938
              ],
              [
                -76.74095698599996,
                -10.027828102999877
              ],
              [
                -76.74467386099997,
                -10.024236352999878
              ],
              [
                -76.74720898599998,
                -10.023433602999944
              ],
              [
                -76.74851948599996,
                -10.024490227999934
              ],
              [
                -76.75008198599988,
                -10.028419977999931
              ],
              [
                -76.75219536099996,
                -10.031587977999948
              ],
              [
                -76.75413861099997,
                -10.03217972799996
              ],
              [
                -76.75616598599998,
                -10.029728477999925
              ],
              [
                -76.75810948599991,
                -10.029347602999962
              ],
              [
                -76.76208011099999,
                -10.030363227999942
              ],
              [
                -76.76816411099998,
                -10.02981247799994
              ],
              [
                -76.7728124859999,
                -10.031798852999884
              ],
              [
                -76.77353123599988,
                -10.034417977999965
              ],
              [
                -76.77755073599991,
                -10.03888872799996
              ],
              [
                -76.78103711099999,
                -10.038958977999926
              ],
              [
                -76.78748636099988,
                -10.042478477999964
              ],
              [
                -76.79439061099998,
                -10.047361352999872
              ],
              [
                -76.79737298599991,
                -10.04776372799995
              ],
              [
                -76.80163861099999,
                -10.047265602999857
              ],
              [
                -76.81200723599989,
                -10.050893102999964
              ],
              [
                -76.81199023599999,
                -10.045824227999958
              ],
              [
                -76.8112968609999,
                -10.043990227999927
              ],
              [
                -76.81174223599999,
                -10.03933197799995
              ],
              [
                -76.81327923599997,
                -10.03556447799997
              ],
              [
                -76.81367573599994,
                -10.029824102999953
              ],
              [
                -76.81541011099989,
                -10.025214852999966
              ],
              [
                -76.81521286199984,
                -10.022539102999872
              ],
              [
                -76.82155661099989,
                -10.019367227999908
              ],
              [
                -76.82324223599994,
                -10.01703710299995
              ],
              [
                -76.82404686099989,
                -10.010998102999963
              ],
              [
                -76.81840823599998,
                -10.009396477999928
              ],
              [
                -76.81552536099991,
                -10.005980477999913
              ],
              [
                -76.81228911099993,
                -10.006115227999885
              ],
              [
                -76.80838473599994,
                -10.004650227999889
              ],
              [
                -76.8063458609999,
                -10.002388727999914
              ],
              [
                -76.80417186099999,
                -10.00230072799991
              ],
              [
                -76.80053511099999,
                -10.006513727999902
              ],
              [
                -76.79236723599996,
                -10.005833977999885
              ],
              [
                -76.788275361,
                -10.004470727999887
              ],
              [
                -76.78470698599995,
                -10.000843727999893
              ],
              [
                -76.77963473599993,
                -9.997374977999868
              ],
              [
                -76.77812298599991,
                -9.997078102999978
              ],
              [
                -76.77320511099998,
                -9.994062477999876
              ],
              [
                -76.77532811099996,
                -9.990765602999943
              ],
              [
                -76.77853323599993,
                -9.980962852999937
              ],
              [
                -76.77834761099996,
                -9.97804685299991
              ],
              [
                -76.7767187359999,
                -9.976078102999907
              ],
              [
                -76.77717973599994,
                -9.971656227999972
              ],
              [
                -76.77612286099998,
                -9.96845697799995
              ],
              [
                -76.77800973599989,
                -9.964714852999919
              ],
              [
                -76.77990823599993,
                -9.957017602999883
              ],
              [
                -76.77631836099994,
                -9.95673260299992
              ],
              [
                -76.7697069859999,
                -9.954226602999881
              ],
              [
                -76.7666229859999,
                -9.948453102999906
              ],
              [
                -76.76338473599986,
                -9.941109352999888
              ],
              [
                -76.75818361099994,
                -9.93819135299998
              ],
              [
                -76.7560429859999,
                -9.939054727999974
              ],
              [
                -76.7521464859999,
                -9.944537102999902
              ],
              [
                -76.74848236099996,
                -9.944103477999931
              ],
              [
                -76.74501761099992,
                -9.940976602999854
              ],
              [
                -76.74282036099993,
                -9.937505852999891
              ],
              [
                -76.73749611099993,
                -9.935261726999954
              ],
              [
                -76.73594923599995,
                -9.933927727999958
              ],
              [
                -76.73383398599998,
                -9.924054726999941
              ],
              [
                -76.73007623599995,
                -9.920705102999818
              ],
              [
                -76.73267773599997,
                -9.917972601999963
              ],
              [
                -76.73349023599997,
                -9.911828102999948
              ],
              [
                -76.72994723599999,
                -9.908755852999946
              ],
              [
                -76.72476948599996,
                -9.905376977999879
              ],
              [
                -76.72351173599998,
                -9.902390602999958
              ],
              [
                -76.72006048599997,
                -9.898357477999866
              ],
              [
                -76.71895111099991,
                -9.901648477999913
              ],
              [
                -76.71449598599997,
                -9.907402352999952
              ],
              [
                -76.71046286099988,
                -9.911781227999882
              ],
              [
                -76.70964648599994,
                -9.917550727999924
              ],
              [
                -76.70540423599994,
                -9.926574227999936
              ],
              [
                -76.70382036099988,
                -9.92848622799994
              ],
              [
                -76.70162886099996,
                -9.928599602999952
              ],
              [
                -76.69521486099984,
                -9.923945352999965
              ],
              [
                -76.68278511099999,
                -9.913253977999943
              ],
              [
                -76.6801229859999,
                -9.907859352999935
              ],
              [
                -76.6801229859999,
                -9.905281226999932
              ],
              [
                -76.67940423599993,
                -9.902011727999877
              ],
              [
                -76.67657811099997,
                -9.899322227999903
              ],
              [
                -76.67665036099999,
                -9.894601602999956
              ],
              [
                -76.67846486099995,
                -9.8909707279999
              ],
              [
                -76.67832036099998,
                -9.884581977999972
              ],
              [
                -76.67636136099998,
                -9.88072847799998
              ],
              [
                -76.67425586099995,
                -9.879093727999873
              ],
              [
                -76.66963673599992,
                -9.877398477999975
              ],
              [
                -76.66724411099995,
                -9.872374977999812
              ],
              [
                -76.66146673599985,
                -9.868132852999906
              ],
              [
                -76.64891798599984,
                -9.87127147699988
              ],
              [
                -76.64775586099995,
                -9.872083976999875
              ],
              [
                -76.64403911099993,
                -9.877892602999907
              ],
              [
                -76.64108010999996,
                -9.881695351999952
              ],
              [
                -76.64310161099996,
                -9.886298852999971
              ],
              [
                -76.65123636099997,
                -9.895025352999937
              ],
              [
                -76.65331248599989,
                -9.90245710299996
              ],
              [
                -76.65402148599998,
                -9.907537102999981
              ],
              [
                -76.65591211099996,
                -9.908955102999926
              ],
              [
                -76.65939261099999,
                -9.908857477999902
              ],
              [
                -76.65736523599998,
                -9.91384960299996
              ],
              [
                -76.65343361099997,
                -9.918869102999963
              ],
              [
                -76.65053123599989,
                -9.920023477999905
              ],
              [
                -76.64363473599997,
                -9.917804727999908
              ],
              [
                -76.63739661099993,
                -9.917609477999918
              ],
              [
                -76.63249223599996,
                -9.91800385199997
              ],
              [
                -76.63056635999993,
                -9.919396477999896
              ],
              [
                -76.62649798499996,
                -9.91918160299997
              ]
            ]
          ]
        ],
        "type": "MultiPolygon"
      },
      "type": "Feature",
      "properties": {
        "PROVINCIA": "LAURICOCHA",
        "DISTRITO": "RONDOS",
        "name": "RONDOS",
        "ID": "091006",
        "DEPARTAMEN": "HUANUCO"
      }
    }
  ]
}
