{
  "type": "FeatureCollection",
  "features": [
    {
      "geometry": {
        "coordinates": [
          [
            [
              [
                -71.44095610599987,
                -17.251716609999903
              ],
              [
                -71.44857023199995,
                -17.253128109999977
              ],
              [
                -71.45744323099996,
                -17.25216473499995
              ],
              [
                -71.46151810599997,
                -17.252967609999928
              ],
              [
                -71.46686335599992,
                -17.255479484999853
              ],
              [
                -71.46898498099995,
                -17.258678734999876
              ],
              [
                -71.46979998199998,
                -17.262656359999937
              ],
              [
                -71.47119998099998,
                -17.26522635999993
              ],
              [
                -71.4751299809999,
                -17.267086359999894
              ],
              [
                -71.47929998099988,
                -17.270246359999874
              ],
              [
                -71.48116998199998,
                -17.274686358999816
              ],
              [
                -71.48507998099984,
                -17.28089635999993
              ],
              [
                -71.4907989809999,
                -17.285005609999928
              ],
              [
                -71.49301148099983,
                -17.284187359999976
              ],
              [
                -71.49623110599993,
                -17.284769108999967
              ],
              [
                -71.49697873099996,
                -17.28106123499998
              ],
              [
                -71.50082398199999,
                -17.280797984999936
              ],
              [
                -71.5032577309999,
                -17.278196358999878
              ],
              [
                -71.50534073099988,
                -17.27439685999991
              ],
              [
                -71.50632473099995,
                -17.271049484999878
              ],
              [
                -71.50931548099993,
                -17.268609983999852
              ],
              [
                -71.51590723099991,
                -17.265943484999923
              ],
              [
                -71.5195998559999,
                -17.265260734999913
              ],
              [
                -71.52056123099999,
                -17.26687998499989
              ],
              [
                -71.52407073099982,
                -17.26532548499995
              ],
              [
                -71.52546698099997,
                -17.269550359999926
              ],
              [
                -71.52806848099993,
                -17.27124973499997
              ],
              [
                -71.52986910599998,
                -17.268121609999923
              ],
              [
                -71.52960210599997,
                -17.265127234999966
              ],
              [
                -71.53070073099985,
                -17.26052098399998
              ],
              [
                -71.53263848099994,
                -17.258878733999893
              ],
              [
                -71.53412623199995,
                -17.255531359999964
              ],
              [
                -71.53959660599998,
                -17.254022609999936
              ],
              [
                -71.54096985599989,
                -17.256059608999976
              ],
              [
                -71.54358673099995,
                -17.255092609999906
              ],
              [
                -71.54473873099988,
                -17.259092359999897
              ],
              [
                -71.54987335599998,
                -17.258317984999962
              ],
              [
                -71.5517807309999,
                -17.25959973499988
              ],
              [
                -71.55717473099998,
                -17.256132109999953
              ],
              [
                -71.55980685599997,
                -17.25869160999997
              ],
              [
                -71.56401823099998,
                -17.261568109999928
              ],
              [
                -71.56717673099996,
                -17.25951385999997
              ],
              [
                -71.56991573099998,
                -17.25443835899995
              ],
              [
                -71.57608798099989,
                -17.253559108999923
              ],
              [
                -71.59350585599998,
                -17.247928609999917
              ],
              [
                -71.59503935699996,
                -17.249637609999922
              ],
              [
                -71.5978393559999,
                -17.246398984999928
              ],
              [
                -71.60827635699997,
                -17.242771108999932
              ],
              [
                -71.61148835599988,
                -17.240882859999942
              ],
              [
                -71.61682885599998,
                -17.239084234999893
              ],
              [
                -71.63141635599993,
                -17.2327327349999
              ],
              [
                -71.63590235599986,
                -17.23151223499991
              ],
              [
                -71.64811710599992,
                -17.226348858999927
              ],
              [
                -71.65506748099983,
                -17.22385023399994
              ],
              [
                -71.65664673099985,
                -17.223770108999872
              ],
              [
                -71.66464235599989,
                -17.22038835999996
              ],
              [
                -71.67321773199996,
                -17.21736723399988
              ],
              [
                -71.67713160599993,
                -17.21654510899998
              ],
              [
                -71.68263248099998,
                -17.214437484999962
              ],
              [
                -71.68874360599989,
                -17.212961233999863
              ],
              [
                -71.69036860599988,
                -17.211988483999846
              ],
              [
                -71.70468898099995,
                -17.208194859999935
              ],
              [
                -71.71193685599991,
                -17.207019859999946
              ],
              [
                -71.71477510599993,
                -17.205921234999835
              ],
              [
                -71.72157285599997,
                -17.205095234999874
              ],
              [
                -71.72889710699997,
                -17.20255085999986
              ],
              [
                -71.73390185599999,
                -17.20211985899988
              ],
              [
                -71.7379913559999,
                -17.201147109999965
              ],
              [
                -71.74704748199991,
                -17.199832859999958
              ],
              [
                -71.75763698199984,
                -17.197881734999953
              ],
              [
                -71.76276398099992,
                -17.196607609999887
              ],
              [
                -71.7662277309999,
                -17.196662859999947
              ],
              [
                -71.76873773199992,
                -17.195749233999948
              ],
              [
                -71.77606960699995,
                -17.194732608999914
              ],
              [
                -71.78334810599989,
                -17.192537358999914
              ],
              [
                -71.7905197309999,
                -17.191333733999898
              ],
              [
                -71.80430598199996,
                -17.187263484999903
              ],
              [
                -71.81221773199991,
                -17.18431085999987
              ],
              [
                -71.82048798099987,
                -17.18038748499987
              ],
              [
                -71.82994848199996,
                -17.17669673399996
              ],
              [
                -71.83355710599994,
                -17.174896233999903
              ],
              [
                -71.83621973199996,
                -17.17113298499993
              ],
              [
                -71.83833310599994,
                -17.170263233999833
              ],
              [
                -71.84008023099994,
                -17.165765734999923
              ],
              [
                -71.84072873199995,
                -17.16146473499998
              ],
              [
                -71.83924098099993,
                -17.159191109999938
              ],
              [
                -71.83682248099996,
                -17.159637484999962
              ],
              [
                -71.83425135699991,
                -17.161958608999953
              ],
              [
                -71.83168035599994,
                -17.16171260899995
              ],
              [
                -71.82727810599982,
                -17.159143484999845
              ],
              [
                -71.82540135599999,
                -17.156026859999884
              ],
              [
                -71.82006073199994,
                -17.15568160999993
              ],
              [
                -71.81655123199994,
                -17.1517257349999
              ],
              [
                -71.80815110699996,
                -17.154050859999927
              ],
              [
                -71.80558010599998,
                -17.15291210999993
              ],
              [
                -71.79917148199996,
                -17.14808848499996
              ],
              [
                -71.79810335699995,
                -17.14457898399985
              ],
              [
                -71.79109198099991,
                -17.14109798499993
              ],
              [
                -71.78758235699996,
                -17.140256858999976
              ],
              [
                -71.78283685599996,
                -17.138082484999927
              ],
              [
                -71.77962498099998,
                -17.135463734999973
              ],
              [
                -71.77552048199982,
                -17.135562858999833
              ],
              [
                -71.77053073199988,
                -17.133287484999926
              ],
              [
                -71.76523585599983,
                -17.129014983999923
              ],
              [
                -71.75949098199993,
                -17.12317660999986
              ],
              [
                -71.7565536059999,
                -17.11914248399995
              ],
              [
                -71.75216673099993,
                -17.120927859999938
              ],
              [
                -71.74670410699986,
                -17.11978335999993
              ],
              [
                -71.74388873099997,
                -17.118442483999843
              ],
              [
                -71.74042510599992,
                -17.11425398399996
              ],
              [
                -71.73719023099994,
                -17.112697484999956
              ],
              [
                -71.72951510599995,
                -17.111959483999897
              ],
              [
                -71.72349548099999,
                -17.113370858999872
              ],
              [
                -71.72307585599998,
                -17.108678734999955
              ],
              [
                -71.72155760699997,
                -17.109268233999956
              ],
              [
                -71.72098535699996,
                -17.112169233999907
              ],
              [
                -71.71891023099994,
                -17.112058609999906
              ],
              [
                -71.71755223199995,
                -17.10879323499995
              ],
              [
                -71.71700285599997,
                -17.103010233999896
              ],
              [
                -71.71267698199995,
                -17.098245609999935
              ],
              [
                -71.70762635699998,
                -17.09570685999995
              ],
              [
                -71.70503998099991,
                -17.09518810999998
              ],
              [
                -71.69751735599993,
                -17.09761810999987
              ],
              [
                -71.69036098099997,
                -17.09848598399992
              ],
              [
                -71.68617248099997,
                -17.097896608999918
              ],
              [
                -71.6800079809999,
                -17.101617858999873
              ],
              [
                -71.67712398099997,
                -17.10257910999985
              ],
              [
                -71.67327885599985,
                -17.101493859999948
              ],
              [
                -71.66853335599995,
                -17.099168859999963
              ],
              [
                -71.66172035599988,
                -17.092908859999966
              ],
              [
                -71.65956110599996,
                -17.088258734999897
              ],
              [
                -71.65668485599997,
                -17.086198859999968
              ],
              [
                -71.65342710599998,
                -17.086416234999945
              ],
              [
                -71.65050510599997,
                -17.090812608999897
              ],
              [
                -71.64690398199991,
                -17.091638608999972
              ],
              [
                -71.64254760699998,
                -17.09114460899991
              ],
              [
                -71.63563535699996,
                -17.092029609999884
              ],
              [
                -71.62962335599991,
                -17.092132609999965
              ],
              [
                -71.62519835599988,
                -17.090681109999935
              ],
              [
                -71.62181848099993,
                -17.088056609999967
              ],
              [
                -71.61614985599994,
                -17.086396984999965
              ],
              [
                -71.59956360599995,
                -17.085567483999966
              ],
              [
                -71.59687048099994,
                -17.084323858999937
              ],
              [
                -71.59569548099995,
                -17.08031648399998
              ],
              [
                -71.59317785599995,
                -17.07674985899996
              ],
              [
                -71.59048460599996,
                -17.074293108999882
              ],
              [
                -71.58224485599993,
                -17.06922335999991
              ],
              [
                -71.57469923099984,
                -17.070762608999814
              ],
              [
                -71.56816098099995,
                -17.071655234999866
              ],
              [
                -71.56587985599992,
                -17.07259560999995
              ],
              [
                -71.56031035599989,
                -17.076421733999894
              ],
              [
                -71.54937748099991,
                -17.075843858999974
              ],
              [
                -71.54038235599995,
                -17.0764026089999
              ],
              [
                -71.53211210599994,
                -17.077817859999925
              ],
              [
                -71.52323910599995,
                -17.07821848499998
              ],
              [
                -71.51469423099991,
                -17.07922173499992
              ],
              [
                -71.50890348099995,
                -17.080875358999947
              ],
              [
                -71.50211335599994,
                -17.082160983999927
              ],
              [
                -71.49616235599996,
                -17.081815734999964
              ],
              [
                -71.49301148099983,
                -17.083118483999954
              ],
              [
                -71.48914335599994,
                -17.082258108999895
              ],
              [
                -71.48416898099998,
                -17.077552734999927
              ],
              [
                -71.48202523199996,
                -17.07719610999993
              ],
              [
                -71.47886660599983,
                -17.08193773399995
              ],
              [
                -71.47386935599997,
                -17.083785983999917
              ],
              [
                -71.46983335599998,
                -17.087562609999964
              ],
              [
                -71.4647142309999,
                -17.08935160999988
              ],
              [
                -71.45495610599994,
                -17.089643483999964
              ],
              [
                -71.44781498099991,
                -17.092512109999916
              ],
              [
                -71.44080335599995,
                -17.093595484999923
              ],
              [
                -71.43882748099998,
                -17.096336358999963
              ],
              [
                -71.43475348099986,
                -17.09926798499987
              ],
              [
                -71.43028260599993,
                -17.101350734999983
              ],
              [
                -71.42548373099999,
                -17.102876609999953
              ],
              [
                -71.41971585599998,
                -17.10652935899992
              ],
              [
                -71.41537485599997,
                -17.10486035899993
              ],
              [
                -71.41152948099995,
                -17.097993859999974
              ],
              [
                -71.40734098099995,
                -17.093326609999906
              ],
              [
                -71.40383910599996,
                -17.092021984999974
              ],
              [
                -71.39738460599995,
                -17.086255983999934
              ],
              [
                -71.39107510599996,
                -17.083646734999945
              ],
              [
                -71.3885346059999,
                -17.081655484999942
              ],
              [
                -71.3847579809999,
                -17.080694233999907
              ],
              [
                -71.37926485599996,
                -17.078224234999823
              ],
              [
                -71.37223810599988,
                -17.072898858999906
              ],
              [
                -71.36680598099991,
                -17.073093359999916
              ],
              [
                -71.36385348099998,
                -17.0724963589999
              ],
              [
                -71.35602573099999,
                -17.068502484999954
              ],
              [
                -71.34989923099994,
                -17.06261060999998
              ],
              [
                -71.34574885599989,
                -17.065362983999876
              ],
              [
                -71.34256748099995,
                -17.066253608999943
              ],
              [
                -71.33811185599995,
                -17.064859358999968
              ],
              [
                -71.33226010599992,
                -17.0599347349999
              ],
              [
                -71.32830048099987,
                -17.059469234999938
              ],
              [
                -71.32581335599997,
                -17.05639648499988
              ],
              [
                -71.3236466059999,
                -17.0617866099999
              ],
              [
                -71.31588748099989,
                -17.06528285899992
              ],
              [
                -71.31386560599992,
                -17.071510359999934
              ],
              [
                -71.31394960599988,
                -17.074127233999945
              ],
              [
                -71.31560510599996,
                -17.078607608999903
              ],
              [
                -71.31475073099989,
                -17.079999984999915
              ],
              [
                -71.31050873099991,
                -17.08093835899996
              ],
              [
                -71.30860898099996,
                -17.085374859999945
              ],
              [
                -71.30780798099994,
                -17.090143234999857
              ],
              [
                -71.30224610599998,
                -17.093851109999946
              ],
              [
                -71.30284123099995,
                -17.097396859999947
              ],
              [
                -71.30583947999997,
                -17.103668234999816
              ],
              [
                -71.30818935599996,
                -17.10644910899987
              ],
              [
                -71.31255335599991,
                -17.10988423499998
              ],
              [
                -71.3128357309999,
                -17.112464858999942
              ],
              [
                -71.31627660599986,
                -17.116113609999957
              ],
              [
                -71.31399535599985,
                -17.11930660899992
              ],
              [
                -71.31632998099991,
                -17.12473873499988
              ],
              [
                -71.3200988559999,
                -17.12664035999984
              ],
              [
                -71.32245635599992,
                -17.12892148399993
              ],
              [
                -71.32424160599993,
                -17.13314060999994
              ],
              [
                -71.32698060599989,
                -17.136486108999918
              ],
              [
                -71.3365021059999,
                -17.141574859999878
              ],
              [
                -71.34480285599989,
                -17.145156858999883
              ],
              [
                -71.35139460599993,
                -17.147413234999874
              ],
              [
                -71.35531610599998,
                -17.15127373399997
              ],
              [
                -71.35947423099992,
                -17.15632248499992
              ],
              [
                -71.37043760599994,
                -17.174171484999817
              ],
              [
                -71.37676998099994,
                -17.180746109999973
              ],
              [
                -71.38085935599992,
                -17.185708984999906
              ],
              [
                -71.39066310599998,
                -17.193525358999864
              ],
              [
                -71.39497773099993,
                -17.198982859999944
              ],
              [
                -71.39777735599995,
                -17.201480483999944
              ],
              [
                -71.40434785599996,
                -17.205630608999968
              ],
              [
                -71.40858973099989,
                -17.209682483999927
              ],
              [
                -71.41086885599992,
                -17.21259485999991
              ],
              [
                -71.41270498099988,
                -17.21810285999993
              ],
              [
                -71.41511073099997,
                -17.223547734999954
              ],
              [
                -71.42169948099996,
                -17.234630609999897
              ],
              [
                -71.42713160599999,
                -17.239406608999843
              ],
              [
                -71.43648173099996,
                -17.24405473499985
              ],
              [
                -71.44095610599987,
                -17.251716609999903
              ]
            ]
          ]
        ],
        "type": "MultiPolygon"
      },
      "type": "Feature",
      "properties": {
        "PROVINCIA": "ISLAY",
        "DISTRITO": "PUNTA DE BOMBON",
        "name": "PUNTA DE BOMBON",
        "ID": "040706",
        "DEPARTAMEN": "AREQUIPA"
      }
    }
  ]
}
