{
  "type": "FeatureCollection",
  "features": [
    {
      "geometry": {
        "coordinates": [
          [
            [
              [
                -79.83943748900003,
                -5.630027348999931
              ],
              [
                -79.83733786399989,
                -5.635562473999869
              ],
              [
                -79.83518161399996,
                -5.638033223999912
              ],
              [
                -79.83293548900002,
                -5.6454902239999
              ],
              [
                -79.83131836399997,
                -5.644367223999893
              ],
              [
                -79.82759961399995,
                -5.644939473999898
              ],
              [
                -79.82619736399982,
                -5.648708973999931
              ],
              [
                -79.82568936399991,
                -5.651029348999828
              ],
              [
                -79.82445511399976,
                -5.654683598999952
              ],
              [
                -79.82181048899986,
                -5.656300723999948
              ],
              [
                -79.82010348899985,
                -5.660193348999883
              ],
              [
                -79.81964061399992,
                -5.663636723999957
              ],
              [
                -79.81823236399993,
                -5.664634723999939
              ],
              [
                -79.81517573899998,
                -5.659597598999824
              ],
              [
                -79.81506248899984,
                -5.656066348999957
              ],
              [
                -79.81253911399995,
                -5.654248098999972
              ],
              [
                -79.81016798899998,
                -5.651211098999966
              ],
              [
                -79.80705473899985,
                -5.649146473999906
              ],
              [
                -79.80500973899996,
                -5.646414098999969
              ],
              [
                -79.79925986399985,
                -5.645859348999977
              ],
              [
                -79.79624411400005,
                -5.646439473999919
              ],
              [
                -79.79175011399991,
                -5.645554723999908
              ],
              [
                -79.7869336139999,
                -5.646587848999957
              ],
              [
                -79.78515423899995,
                -5.649759723999921
              ],
              [
                -79.78176948899994,
                -5.653535098999953
              ],
              [
                -79.78133598899996,
                -5.655833973999904
              ],
              [
                -79.77757223899994,
                -5.658853473999955
              ],
              [
                -79.77383011400002,
                -5.65865434899996
              ],
              [
                -79.77015423899991,
                -5.659214848999966
              ],
              [
                -79.76420898899994,
                -5.663792973999932
              ],
              [
                -79.76148823899985,
                -5.669040973999927
              ],
              [
                -79.75493748899993,
                -5.673341848999883
              ],
              [
                -79.75088673899984,
                -5.675242223999931
              ],
              [
                -79.74725198899989,
                -5.675093723999964
              ],
              [
                -79.74617573899991,
                -5.675220723999928
              ],
              [
                -79.74413473899989,
                -5.678017598999872
              ],
              [
                -79.74407036399998,
                -5.682355473999962
              ],
              [
                -79.74553323899988,
                -5.686035098999866
              ],
              [
                -79.75170311399995,
                -5.69124222399995
              ],
              [
                -79.75359961399982,
                -5.69122659899989
              ],
              [
                -79.75928711399985,
                -5.696255848999897
              ],
              [
                -79.76455661399984,
                -5.703822223999964
              ],
              [
                -79.76641611399987,
                -5.708251973999836
              ],
              [
                -79.76334573899993,
                -5.710027348999915
              ],
              [
                -79.7609823639998,
                -5.710191348999956
              ],
              [
                -79.75836723899994,
                -5.712042973999871
              ],
              [
                -79.74927148899991,
                -5.709673848999955
              ],
              [
                -79.74384173899989,
                -5.713531223999837
              ],
              [
                -79.74395311399996,
                -5.718937473999972
              ],
              [
                -79.7411562389999,
                -5.720705098999929
              ],
              [
                -79.73648048899997,
                -5.72143559899996
              ],
              [
                -79.73514836399994,
                -5.722447223999893
              ],
              [
                -79.72776761399996,
                -5.730123098999968
              ],
              [
                -79.72573636399994,
                -5.731025348999935
              ],
              [
                -79.72447848899986,
                -5.73315034899997
              ],
              [
                -79.72174023899987,
                -5.734705098999939
              ],
              [
                -79.71728123899982,
                -5.739347598999927
              ],
              [
                -79.71709961399995,
                -5.743826223999918
              ],
              [
                -79.72008398899987,
                -5.746623098999976
              ],
              [
                -79.71982811399994,
                -5.748646473999941
              ],
              [
                -79.71775386399992,
                -5.750388723999947
              ],
              [
                -79.71842186399994,
                -5.75438472399992
              ],
              [
                -79.72094136399994,
                -5.759206973999937
              ],
              [
                -79.72235348899994,
                -5.763972598999828
              ],
              [
                -79.72327148900001,
                -5.769466848999912
              ],
              [
                -79.72572461399994,
                -5.773345723999967
              ],
              [
                -79.72612298899986,
                -5.778480473999934
              ],
              [
                -79.72742973899989,
                -5.781941348999908
              ],
              [
                -79.72963473899983,
                -5.783134723999979
              ],
              [
                -79.73264261399993,
                -5.786404348999895
              ],
              [
                -79.73454686399981,
                -5.787404348999928
              ],
              [
                -79.73320698899988,
                -5.794517598999903
              ],
              [
                -79.7355214889999,
                -5.796911973999954
              ],
              [
                -79.73931636399993,
                -5.79958784899992
              ],
              [
                -79.73858986399978,
                -5.80153909899991
              ],
              [
                -79.73957223900004,
                -5.80573434899992
              ],
              [
                -79.73814848899991,
                -5.808833973999981
              ],
              [
                -79.73962698900004,
                -5.81188084899992
              ],
              [
                -79.74194536399983,
                -5.81446872399988
              ],
              [
                -79.74145111399997,
                -5.816568348999965
              ],
              [
                -79.7419257389999,
                -5.818972598999949
              ],
              [
                -79.74022848899989,
                -5.82085547399987
              ],
              [
                -79.7378027389999,
                -5.826726598999926
              ],
              [
                -79.73911523899989,
                -5.830011723999917
              ],
              [
                -79.73904098899988,
                -5.833001973999899
              ],
              [
                -79.73732811399998,
                -5.837650348999944
              ],
              [
                -79.73539261399998,
                -5.838636723999912
              ],
              [
                -79.73103511399995,
                -5.839007848999813
              ],
              [
                -79.72700586399992,
                -5.838052723999908
              ],
              [
                -79.72308986399992,
                -5.838769473999889
              ],
              [
                -79.71533398899999,
                -5.837609348999933
              ],
              [
                -79.712605489,
                -5.838007848999951
              ],
              [
                -79.7085058639999,
                -5.841685598999959
              ],
              [
                -79.70856248899997,
                -5.843800723999891
              ],
              [
                -79.7084628639999,
                -5.845347598999979
              ],
              [
                -79.70733198899995,
                -5.845798848999948
              ],
              [
                -79.70296286399991,
                -5.842826223999907
              ],
              [
                -79.69808986399971,
                -5.846394473999908
              ],
              [
                -79.6962266139999,
                -5.84659572399994
              ],
              [
                -79.6945468639999,
                -5.847259848999954
              ],
              [
                -79.68739248899988,
                -5.847613223999929
              ],
              [
                -79.68513086400003,
                -5.847013723999908
              ],
              [
                -79.68271098899993,
                -5.846445348999964
              ],
              [
                -79.67783986400002,
                -5.841542973999935
              ],
              [
                -79.67344536399986,
                -5.837763723999899
              ],
              [
                -79.66987698899993,
                -5.835456973999896
              ],
              [
                -79.66524223899995,
                -5.835390598999936
              ],
              [
                -79.66199998899992,
                -5.834152348999964
              ],
              [
                -79.65942573899991,
                -5.827220723999915
              ],
              [
                -79.65582811399997,
                -5.823878848999925
              ],
              [
                -79.6532499889999,
                -5.818427723999889
              ],
              [
                -79.65135548899991,
                -5.81604297399997
              ],
              [
                -79.64918361399998,
                -5.815830098999925
              ],
              [
                -79.64581836399998,
                -5.813914098999931
              ],
              [
                -79.63973048900004,
                -5.811828098999968
              ],
              [
                -79.63650386399996,
                -5.810035098999947
              ],
              [
                -79.63426361399996,
                -5.807814598999926
              ],
              [
                -79.63215236399992,
                -5.804410098999938
              ],
              [
                -79.631706989,
                -5.80114059899995
              ],
              [
                -79.63226361399995,
                -5.798783223999976
              ],
              [
                -79.63097261399992,
                -5.796380848999945
              ],
              [
                -79.62875986399996,
                -5.796021473999815
              ],
              [
                -79.62652148899986,
                -5.797570348999955
              ],
              [
                -79.62488286399991,
                -5.797294973999954
              ],
              [
                -79.62258398899985,
                -5.797572223999964
              ],
              [
                -79.62142973899995,
                -5.799812473999964
              ],
              [
                -79.62057036399995,
                -5.809705098999927
              ],
              [
                -79.62118548899986,
                -5.813867223999978
              ],
              [
                -79.6225683639999,
                -5.815785098999925
              ],
              [
                -79.62290036399986,
                -5.819562473999895
              ],
              [
                -79.62398048900002,
                -5.823539098999959
              ],
              [
                -79.62774998899988,
                -5.825919973999873
              ],
              [
                -79.63142773899989,
                -5.829029348999939
              ],
              [
                -79.63158011399997,
                -5.83458984899994
              ],
              [
                -79.62901948899986,
                -5.836720723999917
              ],
              [
                -79.62805073899995,
                -5.840210973999945
              ],
              [
                -79.627800739,
                -5.844820348999974
              ],
              [
                -79.62991986399993,
                -5.852880848999973
              ],
              [
                -79.63359961399976,
                -5.852439473999937
              ],
              [
                -79.63498048899987,
                -5.852160098999946
              ],
              [
                -79.63726948899989,
                -5.855509723999944
              ],
              [
                -79.63688086399998,
                -5.857949348999909
              ],
              [
                -79.63390036399994,
                -5.858777473999965
              ],
              [
                -79.63261911399997,
                -5.858869098999833
              ],
              [
                -79.62993948899987,
                -5.863019473999941
              ],
              [
                -79.62889061399994,
                -5.870269598999869
              ],
              [
                -79.625572239,
                -5.87580072399993
              ],
              [
                -79.62566986399986,
                -5.882789098999922
              ],
              [
                -79.62521098899987,
                -5.885240223999972
              ],
              [
                -79.62633011399976,
                -5.88691009899992
              ],
              [
                -79.62259961399991,
                -5.889849598999888
              ],
              [
                -79.61724998899984,
                -5.891461098999969
              ],
              [
                -79.61348048899981,
                -5.895070348999923
              ],
              [
                -79.61235936399993,
                -5.897912098999939
              ],
              [
                -79.61175973899992,
                -5.902619098999935
              ],
              [
                -79.61331048899984,
                -5.904298848999929
              ],
              [
                -79.61339436400004,
                -5.910142598999926
              ],
              [
                -79.61125573899994,
                -5.91569334899998
              ],
              [
                -79.60930661399976,
                -5.917831973999967
              ],
              [
                -79.61074411399989,
                -5.920107473999906
              ],
              [
                -79.6111073639999,
                -5.923462848999975
              ],
              [
                -79.60786723899986,
                -5.927843723999899
              ],
              [
                -79.60454298899998,
                -5.93361522399988
              ],
              [
                -79.60206261399992,
                -5.93602347399991
              ],
              [
                -79.60044923899983,
                -5.939570348999951
              ],
              [
                -79.598990238,
                -5.93689059899998
              ],
              [
                -79.59645123799999,
                -5.933910098999945
              ],
              [
                -79.59508011399998,
                -5.933628848999945
              ],
              [
                -79.59374998799984,
                -5.933810598999969
              ],
              [
                -79.59297073899995,
                -5.934460848999947
              ],
              [
                -79.59006048799995,
                -5.935900348999951
              ],
              [
                -79.58821098799984,
                -5.937990223999918
              ],
              [
                -79.58491986299998,
                -5.93773047399992
              ],
              [
                -79.58299023799998,
                -5.936980473999938
              ],
              [
                -79.58186136400002,
                -5.935759723999922
              ],
              [
                -79.58161898899994,
                -5.935320348999937
              ],
              [
                -79.57868948799984,
                -5.934730473999934
              ],
              [
                -79.57777923899994,
                -5.933939473999885
              ],
              [
                -79.57749998899993,
                -5.933880848999934
              ],
              [
                -79.57706048799997,
                -5.934269473999905
              ],
              [
                -79.57699998899994,
                -5.935509723999928
              ],
              [
                -79.57661911299988,
                -5.936119098999939
              ],
              [
                -79.57316011300003,
                -5.937140598999974
              ],
              [
                -79.57189073899997,
                -5.937769473999879
              ],
              [
                -79.56813086299996,
                -5.935970723999901
              ],
              [
                -79.565839864,
                -5.934589848999963
              ],
              [
                -79.56305073899989,
                -5.934099598999978
              ],
              [
                -79.56077923899988,
                -5.935060598999939
              ],
              [
                -79.55683011399992,
                -5.936380848999931
              ],
              [
                -79.55591986299999,
                -5.937999973999922
              ],
              [
                -79.55489848799994,
                -5.938490223999906
              ],
              [
                -79.55241986299984,
                -5.937460973999919
              ],
              [
                -79.5522402389999,
                -5.937269473999891
              ],
              [
                -79.55159961399983,
                -5.935429723999903
              ],
              [
                -79.55166986399996,
                -5.934001973999898
              ],
              [
                -79.55138086299985,
                -5.932539098999939
              ],
              [
                -79.54926761399997,
                -5.930529348999926
              ],
              [
                -79.54687886299996,
                -5.930080098999952
              ],
              [
                -79.54364061299998,
                -5.926300723999873
              ],
              [
                -79.54361136399996,
                -5.925320473999932
              ],
              [
                -79.54343748799988,
                -5.925179723999918
              ],
              [
                -79.54299023899989,
                -5.925097598999969
              ],
              [
                -79.5400391129998,
                -5.925019473999896
              ],
              [
                -79.5399492389999,
                -5.920289098999945
              ],
              [
                -79.53949023799993,
                -5.920269473999895
              ],
              [
                -79.53882036299984,
                -5.920759723999879
              ],
              [
                -79.53800973900002,
                -5.920730473999981
              ],
              [
                -79.53766986399995,
                -5.920869098999958
              ],
              [
                -79.53730073799989,
                -5.92183984899998
              ],
              [
                -79.53733011399993,
                -5.922367223999913
              ],
              [
                -79.53146098899987,
                -5.920439473999863
              ],
              [
                -79.53183986399995,
                -5.919550723999976
              ],
              [
                -79.53196098900003,
                -5.918060598999944
              ],
              [
                -79.53041986399995,
                -5.916900348999945
              ],
              [
                -79.52997073900002,
                -5.916019473999881
              ],
              [
                -79.52885936299998,
                -5.913820348999934
              ],
              [
                -79.52809273899987,
                -5.913155848999907
              ],
              [
                -79.52717973799992,
                -5.912820348999958
              ],
              [
                -79.52601948899985,
                -5.913419973999908
              ],
              [
                -79.52143948799988,
                -5.912769473999958
              ],
              [
                -79.520117239,
                -5.913060598999948
              ],
              [
                -79.5176093639999,
                -5.916189473999907
              ],
              [
                -79.51730073800002,
                -5.917019473999972
              ],
              [
                -79.51740048900001,
                -5.920060598999953
              ],
              [
                -79.51694923899981,
                -5.920269473999895
              ],
              [
                -79.515550739,
                -5.920109473999901
              ],
              [
                -79.51291986399991,
                -5.92036909899997
              ],
              [
                -79.512249988,
                -5.917210973999886
              ],
              [
                -79.51115036299996,
                -5.916240223999978
              ],
              [
                -79.5098496139999,
                -5.916560598999979
              ],
              [
                -79.50925973899996,
                -5.917660098999932
              ],
              [
                -79.50815036299991,
                -5.917029348999961
              ],
              [
                -79.50668948899983,
                -5.916810598999973
              ],
              [
                -79.50346098899985,
                -5.916699223999899
              ],
              [
                -79.50219923899982,
                -5.917640598999981
              ],
              [
                -79.50035936299992,
                -5.91813284899996
              ],
              [
                -79.49893948899984,
                -5.915189473999874
              ],
              [
                -79.49339061299992,
                -5.917369098999927
              ],
              [
                -79.49077148899994,
                -5.917849598999965
              ],
              [
                -79.48905073799995,
                -5.920880848999957
              ],
              [
                -79.48116986399998,
                -5.923199223999916
              ],
              [
                -79.47478911399986,
                -5.926400348999948
              ],
              [
                -79.4715703629999,
                -5.927410098999928
              ],
              [
                -79.46953911399999,
                -5.928679723999892
              ],
              [
                -79.46827923799992,
                -5.931480473999898
              ],
              [
                -79.46625973799996,
                -5.932929723999905
              ],
              [
                -79.46616798899993,
                -5.933160098999963
              ],
              [
                -79.46567973899994,
                -5.934712848999936
              ],
              [
                -79.46475973899993,
                -5.936599473999877
              ],
              [
                -79.46486911399984,
                -5.938580098999978
              ],
              [
                -79.46290036399984,
                -5.944419973999914
              ],
              [
                -79.45830073799993,
                -5.946679723999921
              ],
              [
                -79.45541011299997,
                -5.94742972399996
              ],
              [
                -79.451109363,
                -5.949330098999951
              ],
              [
                -79.44630661399998,
                -5.950816473999964
              ],
              [
                -79.44096098799992,
                -5.952978473999906
              ],
              [
                -79.43679098899986,
                -5.954695348999962
              ],
              [
                -79.43293948799999,
                -5.957039098999871
              ],
              [
                -79.42976948800003,
                -5.96103909899989
              ],
              [
                -79.42806236299992,
                -5.962009723999927
              ],
              [
                -79.42322073799988,
                -5.967009723999979
              ],
              [
                -79.42198048800003,
                -5.968359348999854
              ],
              [
                -79.42076948800002,
                -5.969419973999948
              ],
              [
                -79.41940036299997,
                -5.96991009899989
              ],
              [
                -79.41861073899992,
                -5.970103098999971
              ],
              [
                -79.41925873899999,
                -5.97087872499992
              ],
              [
                -79.42003998799987,
                -5.97156997399992
              ],
              [
                -79.42046098899982,
                -5.973083973999962
              ],
              [
                -79.41850586299995,
                -5.977806598999905
              ],
              [
                -79.41738286399993,
                -5.981917973999941
              ],
              [
                -79.41598811299991,
                -5.99079109999991
              ],
              [
                -79.41598436399988,
                -5.996595723999974
              ],
              [
                -79.41722423899995,
                -5.998934349999843
              ],
              [
                -79.41801611300002,
                -6.002987098999881
              ],
              [
                -79.41721111399994,
                -6.005238223999868
              ],
              [
                -79.41881911400003,
                -6.009261099999947
              ],
              [
                -79.42101461299995,
                -6.01259172399989
              ],
              [
                -79.42060336299994,
                -6.015402473999927
              ],
              [
                -79.41776273899984,
                -6.01990147399988
              ],
              [
                -79.41573536399989,
                -6.02160309899989
              ],
              [
                -79.41311611399988,
                -6.025713973999927
              ],
              [
                -79.41221311399994,
                -6.030147223999961
              ],
              [
                -79.41124423799988,
                -6.03100109899998
              ],
              [
                -79.40792748899992,
                -6.030065223999884
              ],
              [
                -79.40554661399995,
                -6.032626599999901
              ],
              [
                -79.40308373899995,
                -6.034022474999858
              ],
              [
                -79.40459998799992,
                -6.037585724999872
              ],
              [
                -79.40488986399993,
                -6.041526098999952
              ],
              [
                -79.40810811300003,
                -6.045926473999884
              ],
              [
                -79.40968436299988,
                -6.050146348999931
              ],
              [
                -79.40672886299984,
                -6.055351349999967
              ],
              [
                -79.40643161299994,
                -6.058046848999879
              ],
              [
                -79.40820773799999,
                -6.06164634899983
              ],
              [
                -79.40704298799994,
                -6.064124973999981
              ],
              [
                -79.40742236399984,
                -6.070164723999937
              ],
              [
                -79.40915948899988,
                -6.072567973999924
              ],
              [
                -79.40915948799989,
                -6.076256224999952
              ],
              [
                -79.40756436299989,
                -6.083048848999908
              ],
              [
                -79.40766861299988,
                -6.086088598999879
              ],
              [
                -79.4118207379999,
                -6.088375849999977
              ],
              [
                -79.41289148799984,
                -6.095697098999892
              ],
              [
                -79.41401136300004,
                -6.099660849999964
              ],
              [
                -79.41563486399991,
                -6.101642598999945
              ],
              [
                -79.416023489,
                -6.105748848999895
              ],
              [
                -79.41807423899985,
                -6.112378848999924
              ],
              [
                -79.41817186399993,
                -6.115008599999896
              ],
              [
                -79.41981298799993,
                -6.117643598999962
              ],
              [
                -79.42022298899991,
                -6.121275598999944
              ],
              [
                -79.42170698899997,
                -6.123681473999966
              ],
              [
                -79.42343836299995,
                -6.13107859899992
              ],
              [
                -79.42552223899997,
                -6.133638724999912
              ],
              [
                -79.42822661299982,
                -6.135649598999976
              ],
              [
                -79.42935923800002,
                -6.138261599999964
              ],
              [
                -79.4315422389999,
                -6.140437348999967
              ],
              [
                -79.42912298800002,
                -6.145091848999868
              ],
              [
                -79.42817773800004,
                -6.148095723999916
              ],
              [
                -79.42475923799992,
                -6.15063234999991
              ],
              [
                -79.4184192379999,
                -6.151991848999955
              ],
              [
                -79.41272036399982,
                -6.154579848999958
              ],
              [
                -79.40958336399996,
                -6.156697225000016
              ],
              [
                -79.40571136299985,
                -6.163084848999972
              ],
              [
                -79.40291723800004,
                -6.168513348999966
              ],
              [
                -79.40184548799994,
                -6.173506348999979
              ],
              [
                -79.40506448899998,
                -6.177317223999978
              ],
              [
                -79.40885961399994,
                -6.178582348999953
              ],
              [
                -79.41550486299991,
                -6.184576224999944
              ],
              [
                -79.41644986300003,
                -6.188807973999928
              ],
              [
                -79.418775864,
                -6.191751973999828
              ],
              [
                -79.42213136299989,
                -6.200066224999944
              ],
              [
                -79.43139048799986,
                -6.205041224999889
              ],
              [
                -79.43321536399986,
                -6.206444723999937
              ],
              [
                -79.43419548900005,
                -6.210243348999938
              ],
              [
                -79.4362052379999,
                -6.211898473999895
              ],
              [
                -79.43708148899992,
                -6.217177848999938
              ],
              [
                -79.43611498799999,
                -6.221591099999955
              ],
              [
                -79.439712364,
                -6.223561349999898
              ],
              [
                -79.44094423899986,
                -6.225695973999962
              ],
              [
                -79.43947936299998,
                -6.227980348999949
              ],
              [
                -79.43674023899996,
                -6.234168973999942
              ],
              [
                -79.43700586299997,
                -6.240007849999927
              ],
              [
                -79.44350511300001,
                -6.241236723999975
              ],
              [
                -79.44585948899987,
                -6.242466849999971
              ],
              [
                -79.45075461399995,
                -6.248102599999868
              ],
              [
                -79.45499773899985,
                -6.251047724999921
              ],
              [
                -79.45699336300004,
                -6.250978473999908
              ],
              [
                -79.45988223799998,
                -6.25549347499998
              ],
              [
                -79.4614774879999,
                -6.256321473999947
              ],
              [
                -79.46537486399995,
                -6.261854473999961
              ],
              [
                -79.46915111399994,
                -6.264277723999896
              ],
              [
                -79.46948186400004,
                -6.265860473999965
              ],
              [
                -79.471865364,
                -6.268715973999974
              ],
              [
                -79.4721113629999,
                -6.275216848999889
              ],
              [
                -79.4732983639999,
                -6.281641848999925
              ],
              [
                -79.47471286300004,
                -6.284027349999917
              ],
              [
                -79.47756936399986,
                -6.286821473999851
              ],
              [
                -79.47697873899995,
                -6.293046224999898
              ],
              [
                -79.47853873900004,
                -6.297226349999903
              ],
              [
                -79.479652364,
                -6.303255848999925
              ],
              [
                -79.48198111399995,
                -6.306308224999952
              ],
              [
                -79.47855661400001,
                -6.313190848999852
              ],
              [
                -79.47731186299995,
                -6.320338098999969
              ],
              [
                -79.47844786299999,
                -6.321943474999898
              ],
              [
                -79.48440623899995,
                -6.323339848999979
              ],
              [
                -79.48729261399978,
                -6.321716223999942
              ],
              [
                -79.492855738,
                -6.32314222399998
              ],
              [
                -79.49846986299991,
                -6.326956473999928
              ],
              [
                -79.50102948800003,
                -6.329849099999876
              ],
              [
                -79.50402823799999,
                -6.335680224999976
              ],
              [
                -79.5066786139999,
                -6.336573848999933
              ],
              [
                -79.51053248899984,
                -6.340763349999918
              ],
              [
                -79.5140488639999,
                -6.343638724999892
              ],
              [
                -79.51567923799996,
                -6.346880099999964
              ],
              [
                -79.52009736299988,
                -6.345176224999932
              ],
              [
                -79.52792748899998,
                -6.346327349999967
              ],
              [
                -79.53329411399983,
                -6.348419848999981
              ],
              [
                -79.534660364,
                -6.351157599000032
              ],
              [
                -79.5382627379999,
                -6.352121099999977
              ],
              [
                -79.54179686299983,
                -6.354307473999938
              ],
              [
                -79.54328248799993,
                -6.357212724999897
              ],
              [
                -79.54105748799998,
                -6.361109348999889
              ],
              [
                -79.54045936400001,
                -6.365664973999969
              ],
              [
                -79.53453436399991,
                -6.370478348999882
              ],
              [
                -79.53339448899999,
                -6.376871098999914
              ],
              [
                -79.53205473799989,
                -6.379375224999819
              ],
              [
                -79.53335711299991,
                -6.383051474999945
              ],
              [
                -79.53151361299996,
                -6.387243098999932
              ],
              [
                -79.52974411299982,
                -6.388954098999932
              ],
              [
                -79.52831423899983,
                -6.397813348999932
              ],
              [
                -79.52833786299993,
                -6.399812474999976
              ],
              [
                -79.53274998900002,
                -6.402826349999941
              ],
              [
                -79.53676173799988,
                -6.403453098999933
              ],
              [
                -79.53933011399982,
                -6.402863223999873
              ],
              [
                -79.54345311299983,
                -6.40566009999992
              ],
              [
                -79.54691411399995,
                -6.406628849999947
              ],
              [
                -79.55020698899989,
                -6.408429724999962
              ],
              [
                -79.55398823799993,
                -6.408160099999918
              ],
              [
                -79.56307811399984,
                -6.409451223999895
              ],
              [
                -79.56657036300004,
                -6.411874974999876
              ],
              [
                -79.57004486399984,
                -6.410402349999913
              ],
              [
                -79.57524998799983,
                -6.411412098999961
              ],
              [
                -79.57850586400002,
                -6.41047059999994
              ],
              [
                -79.58195698799983,
                -6.411808599999915
              ],
              [
                -79.584589864,
                -6.413933598999961
              ],
              [
                -79.58778123799982,
                -6.414050724999981
              ],
              [
                -79.59349998899995,
                -6.418769474999976
              ],
              [
                -79.59726761399992,
                -6.419863224999972
              ],
              [
                -79.59917773899997,
                -6.418892599999936
              ],
              [
                -79.60267761299991,
                -6.421244099999967
              ],
              [
                -79.6094003639999,
                -6.423480474999906
              ],
              [
                -79.61344336399992,
                -6.425292974999877
              ],
              [
                -79.61706636399992,
                -6.429683599999976
              ],
              [
                -79.62375786399991,
                -6.433726599999943
              ],
              [
                -79.62898436399996,
                -6.438326224999912
              ],
              [
                -79.63602348899985,
                -6.441251973999954
              ],
              [
                -79.63818361299985,
                -6.443064474999915
              ],
              [
                -79.6442479889999,
                -6.451289098999894
              ],
              [
                -79.64835936399999,
                -6.454355474999943
              ],
              [
                -79.65191411399996,
                -6.455400348999888
              ],
              [
                -79.6554667389999,
                -6.454703099999961
              ],
              [
                -79.65839448899987,
                -6.45491222499993
              ],
              [
                -79.66236723799989,
                -6.454076224999937
              ],
              [
                -79.66557223899991,
                -6.454634724999949
              ],
              [
                -79.67066011399982,
                -6.453519473999961
              ],
              [
                -79.67769923899994,
                -6.453937473999929
              ],
              [
                -79.68369336399996,
                -6.453169974999923
              ],
              [
                -79.68668948899995,
                -6.451498098999878
              ],
              [
                -79.69554098899994,
                -6.450800724999908
              ],
              [
                -79.69791011400002,
                -6.451427724999917
              ],
              [
                -79.7096191139999,
                -6.448919973999978
              ],
              [
                -79.7207011139999,
                -6.447734349999962
              ],
              [
                -79.72808786399992,
                -6.445921849999934
              ],
              [
                -79.73087498900003,
                -6.444458974999918
              ],
              [
                -79.73777536299997,
                -6.443273474999899
              ],
              [
                -79.74362886399996,
                -6.44006834899983
              ],
              [
                -79.75268948799993,
                -6.43937109999996
              ],
              [
                -79.759171864,
                -6.440136723999956
              ],
              [
                -79.76307436399986,
                -6.441531223999903
              ],
              [
                -79.77081048899993,
                -6.441949224999917
              ],
              [
                -79.77513086399983,
                -6.443691349999938
              ],
              [
                -79.77959161399997,
                -6.443205099999943
              ],
              [
                -79.78356448899996,
                -6.440833973999929
              ],
              [
                -79.79011523899999,
                -6.438185598999837
              ],
              [
                -79.79520311399989,
                -6.43386522499992
              ],
              [
                -79.79997448899996,
                -6.432073973999877
              ],
              [
                -79.80314848899985,
                -6.434828099999947
              ],
              [
                -79.80329686399989,
                -6.439132849999964
              ],
              [
                -79.80691598899983,
                -6.445640474999891
              ],
              [
                -79.80893748899985,
                -6.447826224999915
              ],
              [
                -79.8089766139999,
                -6.450882849999971
              ],
              [
                -79.80727261299978,
                -6.455555974999925
              ],
              [
                -79.8063876139999,
                -6.461781349999853
              ],
              [
                -79.80552398899994,
                -6.464039723999917
              ],
              [
                -79.80034311399993,
                -6.46818447499993
              ],
              [
                -79.79529286299993,
                -6.470008599999971
              ],
              [
                -79.79365811400004,
                -6.474269223999954
              ],
              [
                -79.78666411400002,
                -6.475572224999951
              ],
              [
                -79.78908011399989,
                -6.476755849999904
              ],
              [
                -79.79323048899982,
                -6.476572224999927
              ],
              [
                -79.79457423899999,
                -6.478648473999954
              ],
              [
                -79.79921486399991,
                -6.482433599999922
              ],
              [
                -79.80269536399993,
                -6.483900349999885
              ],
              [
                -79.80818948899986,
                -6.484144474999937
              ],
              [
                -79.81124223899985,
                -6.485425723999981
              ],
              [
                -79.81588286399995,
                -6.489210974999935
              ],
              [
                -79.81948636299978,
                -6.491410099999882
              ],
              [
                -79.82351561399992,
                -6.495683599999893
              ],
              [
                -79.82467561399989,
                -6.49910347499997
              ],
              [
                -79.82482236399994,
                -6.505388974999903
              ],
              [
                -79.82383886399992,
                -6.509241224999869
              ],
              [
                -79.82424873899998,
                -6.51612597399992
              ],
              [
                -79.82565236399995,
                -6.520804724999891
              ],
              [
                -79.82357823899997,
                -6.519990223999912
              ],
              [
                -79.8181191139999,
                -6.520597599999974
              ],
              [
                -79.8142558639999,
                -6.522511724999902
              ],
              [
                -79.81425786399996,
                -6.524837849999926
              ],
              [
                -79.81817386399996,
                -6.53464447399989
              ],
              [
                -79.82047261299982,
                -6.537728474999881
              ],
              [
                -79.823634739,
                -6.540554724999936
              ],
              [
                -79.82497261399993,
                -6.542693349999979
              ],
              [
                -79.82469536399992,
                -6.547554723999951
              ],
              [
                -79.82834961399993,
                -6.55437497500003
              ],
              [
                -79.82997848899987,
                -6.561414098999876
              ],
              [
                -79.82976173899988,
                -6.573343724999972
              ],
              [
                -79.8300507379999,
                -6.576765599999987
              ],
              [
                -79.83475786399998,
                -6.57892384999991
              ],
              [
                -79.83766223899988,
                -6.578300724999963
              ],
              [
                -79.83933198900002,
                -6.58365622499997
              ],
              [
                -79.8414999879999,
                -6.59285347499997
              ],
              [
                -79.8415356139999,
                -6.595797473999937
              ],
              [
                -79.84304111399985,
                -6.60480022500002
              ],
              [
                -79.84645573899985,
                -6.60723922499983
              ],
              [
                -79.84767298799989,
                -6.609752974999878
              ],
              [
                -79.84732611399983,
                -6.614283224999895
              ],
              [
                -79.84576561399979,
                -6.619917974999908
              ],
              [
                -79.84845311399982,
                -6.629796849999934
              ],
              [
                -79.84862498899992,
                -6.636730474999922
              ],
              [
                -79.84749786399993,
                -6.639937474999897
              ],
              [
                -79.85105473899989,
                -6.643388723999976
              ],
              [
                -79.84277148900003,
                -6.650339849999966
              ],
              [
                -79.83517373900003,
                -6.661568348999879
              ],
              [
                -79.82461573899997,
                -6.658424099999934
              ],
              [
                -79.82392186299978,
                -6.659193349999839
              ],
              [
                -79.81706048799987,
                -6.661691349999955
              ],
              [
                -79.81137661299988,
                -6.661589224999943
              ],
              [
                -79.80828436399992,
                -6.663194849999968
              ],
              [
                -79.80596511399995,
                -6.667000724999923
              ],
              [
                -79.79776686399993,
                -6.672551224999893
              ],
              [
                -79.79679886400004,
                -6.674271474999955
              ],
              [
                -79.79333198899997,
                -6.67565822499995
              ],
              [
                -79.79171486400003,
                -6.677623098999959
              ],
              [
                -79.78813086299994,
                -6.677970724999966
              ],
              [
                -79.78397261399988,
                -6.679472599999883
              ],
              [
                -79.78142973899998,
                -6.679587849999905
              ],
              [
                -79.78445698899992,
                -6.683349599999872
              ],
              [
                -79.79054486300004,
                -6.692031224999937
              ],
              [
                -79.80416798899984,
                -6.694078100000013
              ],
              [
                -79.81411523899999,
                -6.704644474999952
              ],
              [
                -79.82948048899988,
                -6.72171284999996
              ],
              [
                -79.83049023800004,
                -6.723117224999896
              ],
              [
                -79.83349398899986,
                -6.723287099999936
              ],
              [
                -79.83644536399999,
                -6.722044974999903
              ],
              [
                -79.8463359889999,
                -6.720685599999968
              ],
              [
                -79.84818948899988,
                -6.72134959999994
              ],
              [
                -79.85242973899989,
                -6.718529349999926
              ],
              [
                -79.86099998899994,
                -6.717816349999964
              ],
              [
                -79.86574023899993,
                -6.717863224999974
              ],
              [
                -79.86698636400001,
                -6.718861349999941
              ],
              [
                -79.87041598899992,
                -6.718515599999932
              ],
              [
                -79.87380273899993,
                -6.721001974999865
              ],
              [
                -79.87766211400003,
                -6.722070349999967
              ],
              [
                -79.87927736400002,
                -6.724072224999873
              ],
              [
                -79.88215423899993,
                -6.724005849999969
              ],
              [
                -79.88206836400002,
                -6.726212849999968
              ],
              [
                -79.88349223899996,
                -6.728080099999943
              ],
              [
                -79.89342573899978,
                -6.72882809999993
              ],
              [
                -79.89529686399999,
                -6.731144474999894
              ],
              [
                -79.89609173899998,
                -6.733767599999965
              ],
              [
                -79.89818748899995,
                -6.735369099999957
              ],
              [
                -79.8982031139999,
                -6.739199224999936
              ],
              [
                -79.89692186399992,
                -6.746206849999965
              ],
              [
                -79.89862886399999,
                -6.751931599999978
              ],
              [
                -79.89918148899994,
                -6.755496099999959
              ],
              [
                -79.9007363639999,
                -6.759230474999924
              ],
              [
                -79.90492973899984,
                -6.764423849999901
              ],
              [
                -79.90751173899986,
                -6.769581974999937
              ],
              [
                -79.91735461399998,
                -6.775212349999947
              ],
              [
                -79.94239648899992,
                -6.820499974999905
              ],
              [
                -79.94530273899989,
                -6.815722599999958
              ],
              [
                -79.94714061399998,
                -6.811068349999971
              ],
              [
                -79.95231836399984,
                -6.80198047499988
              ],
              [
                -79.9534472389999,
                -6.798076349999974
              ],
              [
                -79.95620311399983,
                -6.791650349999941
              ],
              [
                -79.96384761399997,
                -6.783798849999926
              ],
              [
                -79.96636323899992,
                -6.779706974999954
              ],
              [
                -79.96915423899992,
                -6.773915974999966
              ],
              [
                -79.972986364,
                -6.763097599999981
              ],
              [
                -79.97703323899998,
                -6.757533224999975
              ],
              [
                -79.97797123899988,
                -6.755434349999973
              ],
              [
                -79.98602923899989,
                -6.747052724999946
              ],
              [
                -79.9899823639999,
                -6.743705099999943
              ],
              [
                -79.99829098899983,
                -6.737390599999969
              ],
              [
                -80.00277536399989,
                -6.734578099999965
              ],
              [
                -80.0120448639999,
                -6.727296849999959
              ],
              [
                -80.02194536399992,
                -6.717503974999886
              ],
              [
                -80.03769536399983,
                -6.704392599999949
              ],
              [
                -80.04345698899988,
                -6.700540974999967
              ],
              [
                -80.05432036399998,
                -6.691201224999872
              ],
              [
                -80.0569472389999,
                -6.689498099999923
              ],
              [
                -80.06399798899992,
                -6.683542974999966
              ],
              [
                -80.07009373899996,
                -6.679447224999933
              ],
              [
                -80.07488673899996,
                -6.675523474999977
              ],
              [
                -80.09331048899998,
                -6.663343724999947
              ],
              [
                -80.10931261399992,
                -6.653179724999916
              ],
              [
                -80.117165989,
                -6.647386724999933
              ],
              [
                -80.13285348900001,
                -6.636650349999968
              ],
              [
                -80.13825198899991,
                -6.632599599999935
              ],
              [
                -80.1484667389999,
                -6.62595897499989
              ],
              [
                -80.16426173899993,
                -6.614751974
              ],
              [
                -80.17732036400002,
                -6.606037224999852
              ],
              [
                -80.19039436399987,
                -6.59821484999992
              ],
              [
                -80.200550739,
                -6.5930780999999
              ],
              [
                -80.22474224000001,
                -6.578912224999954
              ],
              [
                -80.24051173899988,
                -6.570072224999933
              ],
              [
                -80.25648236399985,
                -6.560833973999934
              ],
              [
                -80.26681836399996,
                -6.555564474999926
              ],
              [
                -80.27500186399988,
                -6.550740224999913
              ],
              [
                -80.2805333639999,
                -6.547853474999897
              ],
              [
                -80.28864261399991,
                -6.543081974999893
              ],
              [
                -80.3379609889999,
                -6.517982474
              ],
              [
                -80.35176174000003,
                -6.510808598999972
              ],
              [
                -80.365191364,
                -6.504421849999915
              ],
              [
                -80.37313861400003,
                -6.49999997499998
              ],
              [
                -80.39255861500004,
                -6.49008985
              ],
              [
                -80.40151761399994,
                -6.485298849999879
              ],
              [
                -80.40891986399993,
                -6.481779348999908
              ],
              [
                -80.41615836499994,
                -6.477753848999896
              ],
              [
                -80.4225566149999,
                -6.474576224999964
              ],
              [
                -80.4322382389999,
                -6.469165974999953
              ],
              [
                -80.46488673999994,
                -6.452007849999973
              ],
              [
                -80.46726561399987,
                -6.450562474999913
              ],
              [
                -80.48074798999994,
                -6.443775348999964
              ],
              [
                -80.50000198999999,
                -6.433417973999951
              ],
              [
                -80.51150973900002,
                -6.427892598999961
              ],
              [
                -80.52602923899985,
                -6.42026372499987
              ],
              [
                -80.55402936400003,
                -6.406421849999901
              ],
              [
                -80.57377748899984,
                -6.397527350000018
              ],
              [
                -80.5812578639999,
                -6.393824224999946
              ],
              [
                -80.58670311500003,
                -6.391540973999952
              ],
              [
                -80.60179098899982,
                -6.384433598999919
              ],
              [
                -80.6139766149999,
                -6.37818359900001
              ],
              [
                -80.62713286499996,
                -6.372080099999891
              ],
              [
                -80.62684173999986,
                -6.371425724999938
              ],
              [
                -80.60740823999981,
                -6.343431599999974
              ],
              [
                -80.59613473999997,
                -6.327246099999968
              ],
              [
                -80.59423236500004,
                -6.324496099999976
              ],
              [
                -80.58544923999978,
                -6.31158784999991
              ],
              [
                -80.57429686499995,
                -6.295623098999954
              ],
              [
                -80.55854298999992,
                -6.272488223999972
              ],
              [
                -80.54583398999989,
                -6.254734348999875
              ],
              [
                -80.53519923999988,
                -6.238962848999961
              ],
              [
                -80.53149798999988,
                -6.233472598999981
              ],
              [
                -80.50273236399994,
                -6.192394473999968
              ],
              [
                -80.49648048899985,
                -6.182292973999949
              ],
              [
                -80.48089448899998,
                -6.160070348999909
              ],
              [
                -80.46021098899996,
                -6.129765598999938
              ],
              [
                -80.45231448899995,
                -6.119015598999965
              ],
              [
                -80.37621873899997,
                -6.006968723999876
              ],
              [
                -80.3697676139999,
                -5.998689473999832
              ],
              [
                -80.36854886399988,
                -5.996634723999819
              ],
              [
                -80.36649411399986,
                -5.995646473999955
              ],
              [
                -80.36360736400002,
                -5.994431598999938
              ],
              [
                -80.35836323899991,
                -5.989564473999963
              ],
              [
                -80.35623048899993,
                -5.987665973999981
              ],
              [
                -80.35455861399998,
                -5.985914098999899
              ],
              [
                -80.35281048899992,
                -5.981580098999927
              ],
              [
                -80.351546864,
                -5.974201223999955
              ],
              [
                -80.35007223899993,
                -5.971544973999926
              ],
              [
                -80.3454902389999,
                -5.96719722399996
              ],
              [
                -80.34136911399992,
                -5.962562473999924
              ],
              [
                -80.33471286399998,
                -5.95390434899997
              ],
              [
                -80.32741411399991,
                -5.947441348999973
              ],
              [
                -80.32117973899989,
                -5.943259723999915
              ],
              [
                -80.31159961399987,
                -5.937728473999925
              ],
              [
                -80.30794536399992,
                -5.935277348999932
              ],
              [
                -80.29175386399987,
                -5.925998098999969
              ],
              [
                -80.27875198899994,
                -5.919992223999884
              ],
              [
                -80.26962698899996,
                -5.917027348999966
              ],
              [
                -80.25517973899991,
                -5.914441348999958
              ],
              [
                -80.24149411399998,
                -5.91033597399985
              ],
              [
                -80.23046873899989,
                -5.907673848999934
              ],
              [
                -80.21731448899988,
                -5.903873098999952
              ],
              [
                -80.21115623899982,
                -5.901363223999965
              ],
              [
                -80.20469336399992,
                -5.898093723999978
              ],
              [
                -80.19891411399993,
                -5.892999973999963
              ],
              [
                -80.19617773899984,
                -5.892087848999893
              ],
              [
                -80.19245111399971,
                -5.891904348999901
              ],
              [
                -80.18598823899998,
                -5.892466848999902
              ],
              [
                -80.17412698899977,
                -5.892771348999872
              ],
              [
                -80.16667573899974,
                -5.892390598999896
              ],
              [
                -80.15694336399986,
                -5.890794973999959
              ],
              [
                -80.14987111399984,
                -5.889343723999957
              ],
              [
                -80.14500586399998,
                -5.888742223999941
              ],
              [
                -80.14036723899972,
                -5.888361223999937
              ],
              [
                -80.1308632389999,
                -5.888665973999935
              ],
              [
                -80.12384761399994,
                -5.891310598999951
              ],
              [
                -80.12395511399995,
                -5.886736348999932
              ],
              [
                -80.12173436399996,
                -5.879503848999889
              ],
              [
                -80.12163086399994,
                -5.876591848999908
              ],
              [
                -80.12010161399996,
                -5.872218723999936
              ],
              [
                -80.11859373899983,
                -5.871611348999863
              ],
              [
                -80.11466798899983,
                -5.870818348999876
              ],
              [
                -80.11177923899982,
                -5.868298848999871
              ],
              [
                -80.10607223899984,
                -5.867449223999927
              ],
              [
                -80.10461323899983,
                -5.864869098999975
              ],
              [
                -80.100925739,
                -5.860458973999926
              ],
              [
                -80.09728511399987,
                -5.85782222399996
              ],
              [
                -80.09618361399993,
                -5.854687473999945
              ],
              [
                -80.0951386139999,
                -5.853482473999918
              ],
              [
                -80.09346873899983,
                -5.852929723999921
              ],
              [
                -80.09275586399991,
                -5.852394473999937
              ],
              [
                -80.09134961399991,
                -5.850519473999896
              ],
              [
                -80.09006448899999,
                -5.847070348999978
              ],
              [
                -80.08566411399988,
                -5.841880848999949
              ],
              [
                -80.08394136399988,
                -5.840738223999892
              ],
              [
                -80.0809961139999,
                -5.836355473999902
              ],
              [
                -80.07677923899996,
                -5.834658223999895
              ],
              [
                -80.07622073899995,
                -5.833941348999929
              ],
              [
                -80.07530273899977,
                -5.83149809899993
              ],
              [
                -80.07371286399996,
                -5.830499973999906
              ],
              [
                -80.06918748899994,
                -5.826937473999863
              ],
              [
                -80.06871098899995,
                -5.825544973999911
              ],
              [
                -80.06691598899994,
                -5.823109348999935
              ],
              [
                -80.06527736399983,
                -5.82144134899994
              ],
              [
                -80.05818161399998,
                -5.819095723999908
              ],
              [
                -80.05755073899991,
                -5.818361348999929
              ],
              [
                -80.05599998899993,
                -5.816351598999972
              ],
              [
                -80.05536136399985,
                -5.814478473999884
              ],
              [
                -80.052984364,
                -5.811244098999964
              ],
              [
                -80.06319336399986,
                -5.807904348999955
              ],
              [
                -80.06910936399987,
                -5.805371098999956
              ],
              [
                -80.07504098899994,
                -5.803400348999901
              ],
              [
                -80.07971286499986,
                -5.802314473999957
              ],
              [
                -80.08780473899998,
                -5.797310598999957
              ],
              [
                -80.09236894099996,
                -5.79509126499994
              ],
              [
                -80.09520607299987,
                -5.783120179999969
              ],
              [
                -80.09731660199998,
                -5.779185457999972
              ],
              [
                -80.09809653599984,
                -5.777133416999959
              ],
              [
                -80.09966572999991,
                -5.772830345999978
              ],
              [
                -80.10137684499983,
                -5.770146598999872
              ],
              [
                -80.10217478199979,
                -5.768112665999979
              ],
              [
                -80.10247418599994,
                -5.76723574399989
              ],
              [
                -80.10278970199994,
                -5.76061840999995
              ],
              [
                -80.10246632999991,
                -5.75975473699998
              ],
              [
                -80.10228157999984,
                -5.759138680999968
              ],
              [
                -80.10196325299995,
                -5.757945134999886
              ],
              [
                -80.10171509799977,
                -5.756924882999954
              ],
              [
                -80.10155007499986,
                -5.755981732999885
              ],
              [
                -80.10151873999985,
                -5.75554551599987
              ],
              [
                -80.101405533,
                -5.754230422999967
              ],
              [
                -80.10155551199989,
                -5.752518061999922
              ],
              [
                -80.10158318199979,
                -5.751209604999929
              ],
              [
                -80.10144324099991,
                -5.750606447999928
              ],
              [
                -80.10127089900004,
                -5.750246980999975
              ],
              [
                -80.1001270459999,
                -5.74868652299989
              ],
              [
                -80.0997310429999,
                -5.748025234999886
              ],
              [
                -80.099688029,
                -5.746870607999938
              ],
              [
                -80.10002568399995,
                -5.743907769999907
              ],
              [
                -80.09899342099993,
                -5.740622063999922
              ],
              [
                -80.09880582099993,
                -5.739668928999947
              ],
              [
                -80.09866695599999,
                -5.736086770999918
              ],
              [
                -80.09329339099997,
                -5.731177363999961
              ],
              [
                -80.0914876339998,
                -5.728283021999971
              ],
              [
                -80.09114738799997,
                -5.726861246999931
              ],
              [
                -80.09149494900004,
                -5.723651764999943
              ],
              [
                -80.09135087599992,
                -5.721936251999978
              ],
              [
                -80.090962053,
                -5.720293862999938
              ],
              [
                -80.09111471099993,
                -5.71656948499998
              ],
              [
                -80.08992104299983,
                -5.713382064999905
              ],
              [
                -80.09131976499992,
                -5.710639821999962
              ],
              [
                -80.0939158089999,
                -5.708757104999961
              ],
              [
                -80.09399166000003,
                -5.707188961999975
              ],
              [
                -80.09357898499991,
                -5.705154470999958
              ],
              [
                -80.09387388499988,
                -5.704297292999911
              ],
              [
                -80.09517055199996,
                -5.702607986999965
              ],
              [
                -80.0938248299999,
                -5.702765302999978
              ],
              [
                -80.09043849199986,
                -5.70281423299997
              ],
              [
                -80.08819976599989,
                -5.702358426999979
              ],
              [
                -80.08648499799995,
                -5.701767763999953
              ],
              [
                -80.0838041429999,
                -5.701103198999931
              ],
              [
                -80.08215227899984,
                -5.700711620999869
              ],
              [
                -80.08065372499982,
                -5.700446917999898
              ],
              [
                -80.07547310399991,
                -5.69883761299991
              ],
              [
                -80.07398353299993,
                -5.698609088999831
              ],
              [
                -80.07254822999994,
                -5.698326376999887
              ],
              [
                -80.06995777399999,
                -5.697625715999891
              ],
              [
                -80.06838637300001,
                -5.697749810999881
              ],
              [
                -80.06637196199995,
                -5.698211238999932
              ],
              [
                -80.06106673899984,
                -5.684399607999978
              ],
              [
                -80.06349289999986,
                -5.680555941999955
              ],
              [
                -80.06758945699988,
                -5.676736429999892
              ],
              [
                -80.06965962899994,
                -5.675238253999964
              ],
              [
                -80.07105335399996,
                -5.673253921999901
              ],
              [
                -80.06899192899994,
                -5.669303496999873
              ],
              [
                -80.0682625469999,
                -5.668054079999877
              ],
              [
                -80.06761091499988,
                -5.663367593999908
              ],
              [
                -80.06621393199987,
                -5.656141576999971
              ],
              [
                -80.0684053669998,
                -5.652165188999902
              ],
              [
                -80.06995891999986,
                -5.646170673999961
              ],
              [
                -80.06907621199997,
                -5.644827179999936
              ],
              [
                -80.06886215599985,
                -5.64317155599997
              ],
              [
                -80.0676497189998,
                -5.63911167699996
              ],
              [
                -80.0577042029999,
                -5.619557958999906
              ],
              [
                -80.05741152799993,
                -5.616279728999928
              ],
              [
                -80.05713142299993,
                -5.615033745999938
              ],
              [
                -80.05659663299991,
                -5.612108561999946
              ],
              [
                -80.05578816999991,
                -5.609556500999929
              ],
              [
                -80.05628377199992,
                -5.60453719599991
              ],
              [
                -80.05649438699999,
                -5.60269230699987
              ],
              [
                -80.05687172899985,
                -5.598215521999919
              ],
              [
                -80.0564865729998,
                -5.596306356999946
              ],
              [
                -80.05583985999982,
                -5.594233956999972
              ],
              [
                -80.0567045529998,
                -5.589857450999887
              ],
              [
                -80.05716902599994,
                -5.587334574999943
              ],
              [
                -80.05719159399985,
                -5.584512494999956
              ],
              [
                -80.05688174199997,
                -5.580676814999947
              ],
              [
                -80.05696517599995,
                -5.579311116999918
              ],
              [
                -80.05706691099977,
                -5.577791678999972
              ],
              [
                -80.05695106299993,
                -5.576841741999885
              ],
              [
                -80.05593484899987,
                -5.574370760999898
              ],
              [
                -80.05448987299997,
                -5.569040794999978
              ],
              [
                -80.05333943199997,
                -5.5658369329999
              ],
              [
                -80.05297173899993,
                -5.564307697999936
              ],
              [
                -80.04897661399986,
                -5.56525972399993
              ],
              [
                -80.04032811399998,
                -5.569384722999928
              ],
              [
                -80.03749411399997,
                -5.569880848999844
              ],
              [
                -80.03351561399995,
                -5.569583973999954
              ],
              [
                -80.03127936399994,
                -5.569484347999889
              ],
              [
                -80.02740036399996,
                -5.570726598999897
              ],
              [
                -80.02670311399993,
                -5.571025348999967
              ],
              [
                -80.02041798899984,
                -5.57356834899997
              ],
              [
                -80.01383011399992,
                -5.576343723999969
              ],
              [
                -80.01034961399978,
                -5.578035098999976
              ],
              [
                -80.00910548899986,
                -5.580769473999965
              ],
              [
                -80.00860936399994,
                -5.581464848999872
              ],
              [
                -80.00726761399994,
                -5.583205098999883
              ],
              [
                -80.006470739,
                -5.583951223999975
              ],
              [
                -80.0056757389998,
                -5.583205097999951
              ],
              [
                -80.00269336399992,
                -5.584347598999898
              ],
              [
                -79.9991913639999,
                -5.585359348999873
              ],
              [
                -79.98638673899995,
                -5.581017598999892
              ],
              [
                -79.98406248899994,
                -5.580441348999898
              ],
              [
                -79.98009573899998,
                -5.579998098999909
              ],
              [
                -79.97492186399984,
                -5.580244098999856
              ],
              [
                -79.96853847799986,
                -5.581165442999975
              ],
              [
                -79.96691598899974,
                -5.580169973999944
              ],
              [
                -79.96383598899996,
                -5.580808598999909
              ],
              [
                -79.96278911399986,
                -5.58139059899986
              ],
              [
                -79.96052348899991,
                -5.581623098999899
              ],
              [
                -79.96011723899994,
                -5.580984348999891
              ],
              [
                -79.96032036399987,
                -5.578537098999902
              ],
              [
                -79.96058011399998,
                -5.577384723999955
              ],
              [
                -79.96145311399994,
                -5.574300598999969
              ],
              [
                -79.96098436399984,
                -5.570179723999956
              ],
              [
                -79.95944536399986,
                -5.568351598999868
              ],
              [
                -79.95912886399981,
                -5.563490223999963
              ],
              [
                -79.95865623899994,
                -5.561343723999926
              ],
              [
                -79.95755473899993,
                -5.556919973999925
              ],
              [
                -79.95775386399998,
                -5.554763848999869
              ],
              [
                -79.95669723899994,
                -5.549732473999939
              ],
              [
                -79.95586136399982,
                -5.547179723999932
              ],
              [
                -79.95564061399983,
                -5.544251973999906
              ],
              [
                -79.95564061399983,
                -5.543205098999977
              ],
              [
                -79.955132864,
                -5.538638723999895
              ],
              [
                -79.95475786399982,
                -5.537314473999913
              ],
              [
                -79.95364648899994,
                -5.534701223999889
              ],
              [
                -79.95263086399984,
                -5.528777348999938
              ],
              [
                -79.95062886399984,
                -5.524535098999934
              ],
              [
                -79.94823236399998,
                -5.52119334899993
              ],
              [
                -79.9458729889999,
                -5.514996098999916
              ],
              [
                -79.94210936399998,
                -5.516462848999936
              ],
              [
                -79.93873636399996,
                -5.516664098999968
              ],
              [
                -79.93638098899993,
                -5.515037098999926
              ],
              [
                -79.93394336399996,
                -5.510992223999835
              ],
              [
                -79.93246098899988,
                -5.505367223999826
              ],
              [
                -79.92897073899985,
                -5.506292973999962
              ],
              [
                -79.92273636399995,
                -5.504808598999944
              ],
              [
                -79.92136311399992,
                -5.502173848999917
              ],
              [
                -79.91698236399992,
                -5.498720723999952
              ],
              [
                -79.91386523899985,
                -5.497718723999981
              ],
              [
                -79.90688673899984,
                -5.493414098999892
              ],
              [
                -79.90484586399975,
                -5.493414098999892
              ],
              [
                -79.90305486399996,
                -5.49144922399995
              ],
              [
                -79.9012968639999,
                -5.485394473999975
              ],
              [
                -79.90183986399973,
                -5.48131447399993
              ],
              [
                -79.89835173899985,
                -5.48038672399997
              ],
              [
                -79.89536323899995,
                -5.482132848999868
              ],
              [
                -79.88838086399988,
                -5.489267598999902
              ],
              [
                -79.88521673899993,
                -5.491429723999943
              ],
              [
                -79.88265036400003,
                -5.494081973999926
              ],
              [
                -79.88124986399998,
                -5.49689447399993
              ],
              [
                -79.87902736399997,
                -5.499273473999949
              ],
              [
                -79.87860936399989,
                -5.503433598999948
              ],
              [
                -79.87727348899989,
                -5.50764847399995
              ],
              [
                -79.87750586399989,
                -5.509636723999961
              ],
              [
                -79.87366211400001,
                -5.512642598999946
              ],
              [
                -79.87058586399985,
                -5.516302723999956
              ],
              [
                -79.86944723899995,
                -5.519226598999978
              ],
              [
                -79.86736523899992,
                -5.520634723999876
              ],
              [
                -79.86231248899992,
                -5.521287098999949
              ],
              [
                -79.85889261399984,
                -5.525960973999872
              ],
              [
                -79.8544042389999,
                -5.529855473999874
              ],
              [
                -79.85398636399998,
                -5.531818348999934
              ],
              [
                -79.85627536399983,
                -5.534455098999956
              ],
              [
                -79.85869723899992,
                -5.538921848999962
              ],
              [
                -79.86172261399997,
                -5.541712848999964
              ],
              [
                -79.86140623899973,
                -5.543562473999884
              ],
              [
                -79.86409573899994,
                -5.548683598999958
              ],
              [
                -79.86271486399994,
                -5.553199223999911
              ],
              [
                -79.86456448899992,
                -5.557800723999947
              ],
              [
                -79.86441986399984,
                -5.563419973999942
              ],
              [
                -79.86094723899993,
                -5.566734348999887
              ],
              [
                -79.85844336399998,
                -5.571347598999978
              ],
              [
                -79.8601384889999,
                -5.575290973999927
              ],
              [
                -79.85758598899986,
                -5.587494098999912
              ],
              [
                -79.85455473899992,
                -5.590894473999981
              ],
              [
                -79.85268173899993,
                -5.595099598999923
              ],
              [
                -79.85380661399984,
                -5.599105473999941
              ],
              [
                -79.85233986399999,
                -5.603581973999951
              ],
              [
                -79.84894123899988,
                -5.61091797399996
              ],
              [
                -79.8447051139998,
                -5.617865223999843
              ],
              [
                -79.84310348900004,
                -5.623390598999947
              ],
              [
                -79.8410214889999,
                -5.628361348999931
              ],
              [
                -79.83943748900003,
                -5.630027348999931
              ]
            ]
          ]
        ],
        "type": "MultiPolygon"
      },
      "type": "Feature",
      "properties": {
        "PROVINCIA": "LAMBAYEQUE",
        "name": "LAMBAYEQUE",
        "ID": "130300",
        "DEPARTAMEN": "LAMBAYEQUE"
      }
    }
  ]
}
