{
  "type": "FeatureCollection",
  "features": [
    {
      "geometry": {
        "coordinates": [
          [
            [
              [
                -79.82980073899984,
                -6.571103474999973
              ],
              [
                -79.8300507379999,
                -6.576765599999874
              ],
              [
                -79.83475786399998,
                -6.57892384999991
              ],
              [
                -79.83766223899988,
                -6.578300724999963
              ],
              [
                -79.8393319889999,
                -6.58365622499997
              ],
              [
                -79.8414999879999,
                -6.59285347499997
              ],
              [
                -79.8415356139999,
                -6.595797473999937
              ],
              [
                -79.84241011399996,
                -6.60135884999994
              ],
              [
                -79.84680473799995,
                -6.603017474999945
              ],
              [
                -79.85087886399998,
                -6.603451224999958
              ],
              [
                -79.86253998899991,
                -6.602515848999815
              ],
              [
                -79.86883173899986,
                -6.601321348999932
              ],
              [
                -79.87130061399995,
                -6.599847849999946
              ],
              [
                -79.87316986399998,
                -6.597453099999939
              ],
              [
                -79.877746114,
                -6.594003849999922
              ],
              [
                -79.89672661399993,
                -6.590191224999955
              ],
              [
                -79.89793948899995,
                -6.591056598999955
              ],
              [
                -79.90201173899999,
                -6.591056599999888
              ],
              [
                -79.90383186399998,
                -6.592617224999969
              ],
              [
                -79.91813286399992,
                -6.589843598999892
              ],
              [
                -79.93225973899985,
                -6.597210974999825
              ],
              [
                -79.93624611399997,
                -6.598683599999902
              ],
              [
                -79.93584023899996,
                -6.600990349999961
              ],
              [
                -79.93695448899996,
                -6.604611098999953
              ],
              [
                -79.93890411399991,
                -6.606059474999938
              ],
              [
                -79.94029673899996,
                -6.611184224999931
              ],
              [
                -79.94141073899993,
                -6.612242599999831
              ],
              [
                -79.94725973899989,
                -6.614192224999954
              ],
              [
                -79.95115898899985,
                -6.612409724999964
              ],
              [
                -79.95255148899997,
                -6.610181599999919
              ],
              [
                -79.95444548899997,
                -6.60973584899989
              ],
              [
                -79.96006848899992,
                -6.612584224999921
              ],
              [
                -79.96484898899996,
                -6.614386224999976
              ],
              [
                -79.96318798899995,
                -6.611767224999937
              ],
              [
                -79.9386659889999,
                -6.550785099999814
              ],
              [
                -79.93930861399997,
                -6.549949224999921
              ],
              [
                -79.94072073899991,
                -6.535613224999906
              ],
              [
                -79.94204386399997,
                -6.534819724999977
              ],
              [
                -79.94018748899998,
                -6.530679723999924
              ],
              [
                -79.93277923899984,
                -6.531429724999896
              ],
              [
                -79.93165236399994,
                -6.530042973999912
              ],
              [
                -79.92567186399992,
                -6.528656224999906
              ],
              [
                -79.92012698899998,
                -6.528222599999935
              ],
              [
                -79.91969386399995,
                -6.53013059999995
              ],
              [
                -79.91501173899997,
                -6.529003849999981
              ],
              [
                -79.91284573899998,
                -6.527443349999942
              ],
              [
                -79.90981248899999,
                -6.528222599999935
              ],
              [
                -79.90469923899997,
                -6.527876974999913
              ],
              [
                -79.90261911399989,
                -6.526316349999945
              ],
              [
                -79.89629298899996,
                -6.52770309999994
              ],
              [
                -79.89490611399998,
                -6.526749974999859
              ],
              [
                -79.88901173799997,
                -6.528570349999939
              ],
              [
                -79.88701948899995,
                -6.524583974999871
              ],
              [
                -79.88450586399989,
                -6.523630849999961
              ],
              [
                -79.87037886399997,
                -6.526576223999939
              ],
              [
                -79.86977148899996,
                -6.525449224999875
              ],
              [
                -79.86266598899994,
                -6.527529349999952
              ],
              [
                -79.86041211399998,
                -6.528656224999906
              ],
              [
                -79.85261136399998,
                -6.528484474999914
              ],
              [
                -79.85009961399999,
                -6.528915974999904
              ],
              [
                -79.84385936399997,
                -6.527962849999938
              ],
              [
                -79.84212511399994,
                -6.525623099999962
              ],
              [
                -79.83787886399995,
                -6.523371098999974
              ],
              [
                -79.83432611399996,
                -6.524496099999965
              ],
              [
                -79.82808598899999,
                -6.522937473999889
              ],
              [
                -79.82565236399995,
                -6.520804724999891
              ],
              [
                -79.82357823899997,
                -6.519990223999912
              ],
              [
                -79.8181191139999,
                -6.520597599999974
              ],
              [
                -79.8142558639999,
                -6.522511724999902
              ],
              [
                -79.81425786399996,
                -6.524837849999926
              ],
              [
                -79.81817386399996,
                -6.534644473999947
              ],
              [
                -79.82497261399993,
                -6.542693349999979
              ],
              [
                -79.82469536399992,
                -6.547554723999951
              ],
              [
                -79.82834961399993,
                -6.554374974999917
              ],
              [
                -79.82997848899998,
                -6.561414098999876
              ],
              [
                -79.82980073899984,
                -6.571103474999973
              ]
            ]
          ]
        ],
        "type": "MultiPolygon"
      },
      "type": "Feature",
      "properties": {
        "PROVINCIA": "LAMBAYEQUE",
        "DISTRITO": "MOCHUMI",
        "name": "MOCHUMI",
        "ID": "130305",
        "DEPARTAMEN": "LAMBAYEQUE"
      }
    }
  ]
}
