{
  "type": "FeatureCollection",
  "features": [
    {
      "geometry": {
        "coordinates": [
          [
            [
              [
                -79.94204386399997,
                -6.534819724999977
              ],
              [
                -79.94072073899991,
                -6.535613224999906
              ],
              [
                -79.93930861399997,
                -6.549949224999921
              ],
              [
                -79.9386659889999,
                -6.550785099999814
              ],
              [
                -79.96318798899995,
                -6.611767224999937
              ],
              [
                -79.96484898899996,
                -6.614386224999976
              ],
              [
                -79.94975511399997,
                -6.638286224999945
              ],
              [
                -79.95276173899993,
                -6.64099809999982
              ],
              [
                -79.95939261399997,
                -6.64099809999982
              ],
              [
                -79.98291598899993,
                -6.642572224999924
              ],
              [
                -79.99398823899998,
                -6.642992224999944
              ],
              [
                -80.02235548899984,
                -6.645103474999928
              ],
              [
                -80.02910736399991,
                -6.645441349999942
              ],
              [
                -80.04953511399998,
                -6.647099599999819
              ],
              [
                -80.07273048899992,
                -6.648445349999974
              ],
              [
                -80.10542573899994,
                -6.650765599999943
              ],
              [
                -80.1117461149999,
                -6.651437474999909
              ],
              [
                -80.11716598899983,
                -6.647386724999933
              ],
              [
                -80.1328534889999,
                -6.636650349999968
              ],
              [
                -80.13825198899991,
                -6.632599599999935
              ],
              [
                -80.1484667389999,
                -6.62595897499989
              ],
              [
                -80.16426173899993,
                -6.614751973999887
              ],
              [
                -80.17732036399985,
                -6.606037224999852
              ],
              [
                -80.19039436399999,
                -6.59821484999992
              ],
              [
                -80.20055073899994,
                -6.5930780999999
              ],
              [
                -80.22474223999996,
                -6.578912224999954
              ],
              [
                -80.24051173899988,
                -6.570072224999933
              ],
              [
                -80.25648236399996,
                -6.560833973999934
              ],
              [
                -80.26681836399996,
                -6.555564474999926
              ],
              [
                -80.27500186399999,
                -6.550740224999913
              ],
              [
                -80.2805333639999,
                -6.547853474999897
              ],
              [
                -80.28864261399991,
                -6.543081974999893
              ],
              [
                -80.3379609889999,
                -6.517982473999894
              ],
              [
                -80.35176173999992,
                -6.510808598999972
              ],
              [
                -80.36519136399983,
                -6.504421849999915
              ],
              [
                -80.37313861399997,
                -6.49999997499998
              ],
              [
                -80.39255861499998,
                -6.49008984999989
              ],
              [
                -80.40151761399994,
                -6.485298849999879
              ],
              [
                -80.40891986399993,
                -6.481779348999908
              ],
              [
                -80.4225566149999,
                -6.474576224999964
              ],
              [
                -80.4322382389999,
                -6.469165974999953
              ],
              [
                -80.46488673999994,
                -6.452007849999973
              ],
              [
                -80.46726561399998,
                -6.450562474999913
              ],
              [
                -80.48074798999994,
                -6.443775348999964
              ],
              [
                -80.50000198999999,
                -6.433417973999951
              ],
              [
                -80.51150973899996,
                -6.427892598999961
              ],
              [
                -80.52602923899985,
                -6.42026372499987
              ],
              [
                -80.55402936399997,
                -6.406421849999901
              ],
              [
                -80.57377748899995,
                -6.397527349999905
              ],
              [
                -80.5812578639999,
                -6.393824224999946
              ],
              [
                -80.58670311499998,
                -6.391540973999952
              ],
              [
                -80.60179098899982,
                -6.384433598999919
              ],
              [
                -80.6139766149999,
                -6.378183598999897
              ],
              [
                -80.62713286499996,
                -6.372080099999891
              ],
              [
                -80.62705861499995,
                -6.371869099999969
              ],
              [
                -80.61738286499991,
                -6.373468723999963
              ],
              [
                -80.54004686499997,
                -6.382724599999904
              ],
              [
                -80.50222848899995,
                -6.387248099999908
              ],
              [
                -80.49175386399992,
                -6.388123098999927
              ],
              [
                -80.43538473899991,
                -6.39517772499994
              ],
              [
                -80.36451173899997,
                -6.403884723999965
              ],
              [
                -80.33291011399996,
                -6.407515599999954
              ],
              [
                -80.30155073899994,
                -6.411394473999906
              ],
              [
                -80.29098823899994,
                -6.412796723999975
              ],
              [
                -80.21234961399995,
                -6.421708973999898
              ],
              [
                -80.18470698899995,
                -6.425339849999943
              ],
              [
                -80.1487284889999,
                -6.429630849999967
              ],
              [
                -80.09931823899996,
                -6.435773474999905
              ],
              [
                -80.0706659889999,
                -6.439037098999961
              ],
              [
                -80.04010161399998,
                -6.442990224999903
              ],
              [
                -80.01636911399993,
                -6.445556599999975
              ],
              [
                -79.97890823899996,
                -6.45203709999987
              ],
              [
                -79.94796486399997,
                -6.45644722399993
              ],
              [
                -79.93318548899998,
                -6.45894922399998
              ],
              [
                -79.92668161399996,
                -6.462001974999964
              ],
              [
                -79.91166598899997,
                -6.46825197499993
              ],
              [
                -79.90110536399999,
                -6.47439447499994
              ],
              [
                -79.9060391139999,
                -6.476810598999919
              ],
              [
                -79.9107226139999,
                -6.476341849999869
              ],
              [
                -79.91739848899988,
                -6.48363672499994
              ],
              [
                -79.92177348899997,
                -6.490956973999971
              ],
              [
                -79.92248398899994,
                -6.49567597499987
              ],
              [
                -79.92625586399993,
                -6.503564473999859
              ],
              [
                -79.92674611399997,
                -6.508326224999962
              ],
              [
                -79.93439261399999,
                -6.514279349999981
              ],
              [
                -79.93701361399997,
                -6.515119099999936
              ],
              [
                -79.94059573899989,
                -6.521085974999892
              ],
              [
                -79.9425742389999,
                -6.528115224999908
              ],
              [
                -79.94586136399994,
                -6.529298849999975
              ],
              [
                -79.94438473899999,
                -6.533414099999959
              ],
              [
                -79.94204386399997,
                -6.534819724999977
              ]
            ]
          ]
        ],
        "type": "MultiPolygon"
      },
      "type": "Feature",
      "properties": {
        "PROVINCIA": "LAMBAYEQUE",
        "DISTRITO": "MORROPE",
        "name": "MORROPE",
        "ID": "130306",
        "DEPARTAMEN": "LAMBAYEQUE"
      }
    }
  ]
}
