{
  "type": "FeatureCollection",
  "features": [
    {
      "geometry": {
        "coordinates": [
          [
            [
              [
                -73.01973635799988,
                -14.112623106999877
              ],
              [
                -73.01521448200003,
                -14.113003106999884
              ],
              [
                -73.0075473579999,
                -14.117160480999871
              ],
              [
                -73.00474485799992,
                -14.120521731999816
              ],
              [
                -73.00105473299993,
                -14.119441606999885
              ],
              [
                -72.99495123299988,
                -14.118919606999953
              ],
              [
                -72.99049985699997,
                -14.121099981999976
              ],
              [
                -72.98514523199987,
                -14.120120481999834
              ],
              [
                -72.98217160800004,
                -14.118234982
              ],
              [
                -72.98028910699998,
                -14.118336106999891
              ],
              [
                -72.97532010799989,
                -14.121633731999964
              ],
              [
                -72.9764494829999,
                -14.127234982
              ],
              [
                -72.97498248299985,
                -14.130414106999922
              ],
              [
                -72.97132123299986,
                -14.133385105999935
              ],
              [
                -72.96670035799997,
                -14.134293356999933
              ],
              [
                -72.9655291069999,
                -14.137092356999972
              ],
              [
                -72.96288885699983,
                -14.139593480999963
              ],
              [
                -72.953062482,
                -14.140645730999893
              ],
              [
                -72.94950910799997,
                -14.1431867309999
              ],
              [
                -72.9472461069999,
                -14.147276106999982
              ],
              [
                -72.94420885800002,
                -14.151067606999959
              ],
              [
                -72.94232298299994,
                -14.151206606999835
              ],
              [
                -72.93647460700004,
                -14.148193105999894
              ],
              [
                -72.93563310699994,
                -14.144754981999824
              ],
              [
                -72.93583685700003,
                -14.141156480999882
              ],
              [
                -72.9349712319999,
                -14.138349856999923
              ],
              [
                -72.92927935700004,
                -14.13625148199992
              ],
              [
                -72.92728585799983,
                -14.137694106999845
              ],
              [
                -72.92328710699991,
                -14.14305073099996
              ],
              [
                -72.92037098199995,
                -14.144766230999949
              ],
              [
                -72.91787898199982,
                -14.1450287319999
              ],
              [
                -72.91368235799996,
                -14.147291106999944
              ],
              [
                -72.91337398199994,
                -14.150091731999964
              ],
              [
                -72.9117151069999,
                -14.153618981999955
              ],
              [
                -72.90679698299994,
                -14.157750231999898
              ],
              [
                -72.90709273199991,
                -14.163192606999928
              ],
              [
                -72.907837857,
                -14.167070356999943
              ],
              [
                -72.90492260799977,
                -14.164796231999901
              ],
              [
                -72.90180673299989,
                -14.165085356999953
              ],
              [
                -72.89836960799988,
                -14.168715356
              ],
              [
                -72.89470760699993,
                -14.170289230999913
              ],
              [
                -72.89235385799986,
                -14.170393856999965
              ],
              [
                -72.89234185799984,
                -14.172068356999944
              ],
              [
                -72.89514673199994,
                -14.175684481999895
              ],
              [
                -72.89511523199991,
                -14.178293606999887
              ],
              [
                -72.8913116079998,
                -14.183763357000032
              ],
              [
                -72.88997610699994,
                -14.18821098199993
              ],
              [
                -72.88889110799988,
                -14.19633735699989
              ],
              [
                -72.88675360699995,
                -14.19988948199989
              ],
              [
                -72.8876094819999,
                -14.204257106999876
              ],
              [
                -72.88992848199985,
                -14.207402481999964
              ],
              [
                -72.8911229819999,
                -14.212337731999924
              ],
              [
                -72.894109357,
                -14.213657980999926
              ],
              [
                -72.89929610699988,
                -14.217398731999822
              ],
              [
                -72.90125598299994,
                -14.224550106999914
              ],
              [
                -72.89405810699992,
                -14.226768856999911
              ],
              [
                -72.88811798200004,
                -14.230802481999945
              ],
              [
                -72.88334185699983,
                -14.235496106999904
              ],
              [
                -72.88026373199989,
                -14.240519481999968
              ],
              [
                -72.87961310699995,
                -14.244634731999952
              ],
              [
                -72.87481635799992,
                -14.247556731999964
              ],
              [
                -72.87299435799997,
                -14.249766731999841
              ],
              [
                -72.87028348299987,
                -14.255095231999917
              ],
              [
                -72.86726073200003,
                -14.259114981999971
              ],
              [
                -72.86883610799993,
                -14.261084231999916
              ],
              [
                -72.87214735699996,
                -14.26338648199993
              ],
              [
                -72.87287110799991,
                -14.26896998199993
              ],
              [
                -72.86861323200003,
                -14.272197106999954
              ],
              [
                -72.8664743569999,
                -14.273064981999937
              ],
              [
                -72.86489523299997,
                -14.276142981999953
              ],
              [
                -72.86216523199988,
                -14.277481231999957
              ],
              [
                -72.85959560799989,
                -14.275500606999913
              ],
              [
                -72.85392160799984,
                -14.275072356999942
              ],
              [
                -72.85070985699991,
                -14.273841231999938
              ],
              [
                -72.847069857,
                -14.274296231999926
              ],
              [
                -72.84327735699992,
                -14.2773574819999
              ],
              [
                -72.83785585699997,
                -14.279736481999919
              ],
              [
                -72.83456548199985,
                -14.2781176069999
              ],
              [
                -72.83147973199988,
                -14.27907873199996
              ],
              [
                -72.82930448299993,
                -14.27667585699993
              ],
              [
                -72.82538410799992,
                -14.274702981999837
              ],
              [
                -72.82404348199987,
                -14.272097731999907
              ],
              [
                -72.81989535799983,
                -14.271819482000012
              ],
              [
                -72.81772010699996,
                -14.26880960699998
              ],
              [
                -72.814597607,
                -14.26575198199987
              ],
              [
                -72.81149210699982,
                -14.265547356999889
              ],
              [
                -72.80819535699987,
                -14.272055356999886
              ],
              [
                -72.80380885700004,
                -14.271693106999919
              ],
              [
                -72.80264948199994,
                -14.270057731999884
              ],
              [
                -72.80021610699987,
                -14.269431356999917
              ],
              [
                -72.79887310699985,
                -14.272050731999855
              ],
              [
                -72.79978248199996,
                -14.276080731999969
              ],
              [
                -72.79831273299993,
                -14.28157373199997
              ],
              [
                -72.80026435699995,
                -14.286102981999932
              ],
              [
                -72.79604823199998,
                -14.292294856999945
              ],
              [
                -72.7928439829999,
                -14.290873356999896
              ],
              [
                -72.78951923299996,
                -14.290415481999958
              ],
              [
                -72.786339107,
                -14.290945481999927
              ],
              [
                -72.78443585699989,
                -14.289837356999897
              ],
              [
                -72.77900173299997,
                -14.283754981999891
              ],
              [
                -72.77441598199988,
                -14.281300731999863
              ],
              [
                -72.77147073200001,
                -14.278638731999877
              ],
              [
                -72.76854298199987,
                -14.277769481999883
              ],
              [
                -72.76679685699992,
                -14.275042981999889
              ],
              [
                -72.76677348199985,
                -14.271802731999855
              ],
              [
                -72.76108398199983,
                -14.26960160699997
              ],
              [
                -72.76062885699992,
                -14.265593731999843
              ],
              [
                -72.76127935699992,
                -14.262863231999972
              ],
              [
                -72.75922660799989,
                -14.261611356999936
              ],
              [
                -72.75174685699989,
                -14.260727356999894
              ],
              [
                -72.74923935699991,
                -14.259650106999914
              ],
              [
                -72.7477441069999,
                -14.262367231999974
              ],
              [
                -72.74293748299982,
                -14.26485935699992
              ],
              [
                -72.73990973199989,
                -14.262179731999879
              ],
              [
                -72.73446535699998,
                -14.260227731999919
              ],
              [
                -72.730400358,
                -14.260466856999926
              ],
              [
                -72.72834960700004,
                -14.263124231999882
              ],
              [
                -72.72559373199982,
                -14.264619356999958
              ],
              [
                -72.72329023199984,
                -14.270086731999982
              ],
              [
                -72.71842360699998,
                -14.27095398199998
              ],
              [
                -72.71314748199995,
                -14.274158356999976
              ],
              [
                -72.70960598199986,
                -14.275555731999873
              ],
              [
                -72.710232357,
                -14.278278106999949
              ],
              [
                -72.71177410699983,
                -14.280566856999883
              ],
              [
                -72.71170198199991,
                -14.285168356999861
              ],
              [
                -72.71032873199988,
                -14.287481231999891
              ],
              [
                -72.71018410799991,
                -14.291504606999922
              ],
              [
                -72.70534160699998,
                -14.298780356999885
              ],
              [
                -72.70777498199988,
                -14.302056981999954
              ],
              [
                -72.70926860700001,
                -14.305959856999948
              ],
              [
                -72.707474607,
                -14.308691356999873
              ],
              [
                -72.70247473199993,
                -14.31145285699995
              ],
              [
                -72.70131823199989,
                -14.3156207319999
              ],
              [
                -72.69907773199986,
                -14.317716731999951
              ],
              [
                -72.69592160799994,
                -14.318776856999932
              ],
              [
                -72.69541573200001,
                -14.320511481999915
              ],
              [
                -72.69877523199989,
                -14.327069606999942
              ],
              [
                -72.70084560799995,
                -14.334174856999937
              ],
              [
                -72.70775048199982,
                -14.340690606999942
              ],
              [
                -72.70922135699993,
                -14.343020981999928
              ],
              [
                -72.70630398199984,
                -14.344009232000019
              ],
              [
                -72.70220160799988,
                -14.347086231999867
              ],
              [
                -72.69294048199993,
                -14.350314606999973
              ],
              [
                -72.68874335699985,
                -14.347730481999974
              ],
              [
                -72.68821548199986,
                -14.351785356999926
              ],
              [
                -72.68680160699995,
                -14.355986106999922
              ],
              [
                -72.6789186069999,
                -14.360250856999926
              ],
              [
                -72.6753419829999,
                -14.361654856999905
              ],
              [
                -72.67044823200001,
                -14.36217235699985
              ],
              [
                -72.66833085699989,
                -14.36014910699987
              ],
              [
                -72.66489248199986,
                -14.354009856999937
              ],
              [
                -72.65957860700001,
                -14.355914106999933
              ],
              [
                -72.65567310699998,
                -14.354831856999908
              ],
              [
                -72.65157935699995,
                -14.352949606999971
              ],
              [
                -72.64351373199997,
                -14.351941981999971
              ],
              [
                -72.64120223199984,
                -14.35254823199989
              ],
              [
                -72.63621560799999,
                -14.356226356999912
              ],
              [
                -72.63073998199991,
                -14.34850698199989
              ],
              [
                -72.62931660699991,
                -14.345079356999975
              ],
              [
                -72.62719698199993,
                -14.344045481999956
              ],
              [
                -72.62719698199993,
                -14.34120223199983
              ],
              [
                -72.63137310699989,
                -14.335749981999982
              ],
              [
                -72.632710857,
                -14.332434856999953
              ],
              [
                -72.63729298199996,
                -14.326812856999936
              ],
              [
                -72.63747960700005,
                -14.324670856999887
              ],
              [
                -72.63614198299985,
                -14.321472106999977
              ],
              [
                -72.63624860699997,
                -14.319017856999949
              ],
              [
                -72.63351398199984,
                -14.31702435699998
              ],
              [
                -72.6312648569999,
                -14.316743231999965
              ],
              [
                -72.62881135700002,
                -14.314340856999877
              ],
              [
                -72.62789123199991,
                -14.311912856999982
              ],
              [
                -72.62332935699993,
                -14.307298731999936
              ],
              [
                -72.62327473199986,
                -14.302792731999887
              ],
              [
                -72.62444910699986,
                -14.29858698199996
              ],
              [
                -72.62264673199985,
                -14.2947443569999
              ],
              [
                -72.62183510700004,
                -14.290459731999874
              ],
              [
                -72.62398823199993,
                -14.28351548199987
              ],
              [
                -72.61965285699995,
                -14.283447356999943
              ],
              [
                -72.61642798199983,
                -14.284113856999909
              ],
              [
                -72.6137469819999,
                -14.280545606999908
              ],
              [
                -72.61411698200004,
                -14.26710448199998
              ],
              [
                -72.61110348199992,
                -14.258787106999932
              ],
              [
                -72.60786135699988,
                -14.255470731999878
              ],
              [
                -72.607060607,
                -14.250488231999952
              ],
              [
                -72.602058607,
                -14.247164106999946
              ],
              [
                -72.600923857,
                -14.243240231999948
              ],
              [
                -72.60079298199992,
                -14.238505856999893
              ],
              [
                -72.59925585699983,
                -14.23828510699991
              ],
              [
                -72.59740410699993,
                -14.241900981999947
              ],
              [
                -72.59380660799997,
                -14.241507856999931
              ],
              [
                -72.59128910699997,
                -14.243113231999928
              ],
              [
                -72.5881699819999,
                -14.243177731999936
              ],
              [
                -72.58452735699996,
                -14.244675731999962
              ],
              [
                -72.57610160699994,
                -14.25291998199998
              ],
              [
                -72.56989260699993,
                -14.254576231999977
              ],
              [
                -72.56643560699996,
                -14.251947231999964
              ],
              [
                -72.56137110699996,
                -14.24603123199995
              ],
              [
                -72.56170135799994,
                -14.242789106999908
              ],
              [
                -72.55992385699994,
                -14.240490231999956
              ],
              [
                -72.55441598199985,
                -14.238716856999929
              ],
              [
                -72.5507753569999,
                -14.236044980999964
              ],
              [
                -72.5485606069999,
                -14.232830106999927
              ],
              [
                -72.54607423199985,
                -14.230945356999882
              ],
              [
                -72.54085548199998,
                -14.229638731999955
              ],
              [
                -72.53666998199998,
                -14.225388731999942
              ],
              [
                -72.53492185699986,
                -14.22467573199998
              ],
              [
                -72.53328910800002,
                -14.226234356999896
              ],
              [
                -72.52729685700001,
                -14.225128855999913
              ],
              [
                -72.52541598199997,
                -14.223712856999896
              ],
              [
                -72.52354923199988,
                -14.22429923199985
              ],
              [
                -72.51892710699991,
                -14.222354606999886
              ],
              [
                -72.51676410699991,
                -14.220578856999964
              ],
              [
                -72.51342898199982,
                -14.216177981999977
              ],
              [
                -72.51045598199994,
                -14.210933731999944
              ],
              [
                -72.5077127319999,
                -14.207151981999857
              ],
              [
                -72.50097598199983,
                -14.207043231999933
              ],
              [
                -72.49589160699998,
                -14.208200731999966
              ],
              [
                -72.49308098200004,
                -14.207760231999828
              ],
              [
                -72.4905631069999,
                -14.202733606999857
              ],
              [
                -72.48433723199992,
                -14.2002171069999
              ],
              [
                -72.47975648199997,
                -14.201673856999832
              ],
              [
                -72.47748173199994,
                -14.206214981999949
              ],
              [
                -72.47475835700004,
                -14.208934356999976
              ],
              [
                -72.47292073199986,
                -14.21367560699997
              ],
              [
                -72.46691910699997,
                -14.215972106999914
              ],
              [
                -72.46105660699993,
                -14.222226731999967
              ],
              [
                -72.45583885699989,
                -14.222944856999959
              ],
              [
                -72.45399610699991,
                -14.224280356999884
              ],
              [
                -72.45141260699984,
                -14.228020105999974
              ],
              [
                -72.44764298199988,
                -14.226592981999943
              ],
              [
                -72.44344260699995,
                -14.22637760699996
              ],
              [
                -72.442311732,
                -14.230254855999931
              ],
              [
                -72.43975385700003,
                -14.232651231999967
              ],
              [
                -72.44050773199996,
                -14.235182231999943
              ],
              [
                -72.43963035699994,
                -14.239403356999901
              ],
              [
                -72.43853760699994,
                -14.24087960699984
              ],
              [
                -72.43914773199987,
                -14.245078606999982
              ],
              [
                -72.43702223199995,
                -14.248189106999973
              ],
              [
                -72.43507810700004,
                -14.253839981999874
              ],
              [
                -72.43067785699992,
                -14.257564731999878
              ],
              [
                -72.4289332319999,
                -14.26034085699996
              ],
              [
                -72.4277921069999,
                -14.268297731999837
              ],
              [
                -72.42500123199983,
                -14.27022773199991
              ],
              [
                -72.42352035699986,
                -14.27364510699988
              ],
              [
                -72.42124223199994,
                -14.274670356999877
              ],
              [
                -72.41918373199996,
                -14.277826981999965
              ],
              [
                -72.41714148199992,
                -14.279606481999906
              ],
              [
                -72.40955298199998,
                -14.280423106999876
              ],
              [
                -72.40480098199993,
                -14.283669231999966
              ],
              [
                -72.40300210700002,
                -14.290461356999913
              ],
              [
                -72.39901523199984,
                -14.292483231999881
              ],
              [
                -72.39423098199995,
                -14.290347356999916
              ],
              [
                -72.39197073199989,
                -14.292072231999896
              ],
              [
                -72.38990235699998,
                -14.297979481999903
              ],
              [
                -72.3870812319999,
                -14.298970231999874
              ],
              [
                -72.3771141069999,
                -14.299173856999971
              ],
              [
                -72.37378398199996,
                -14.292853481999884
              ],
              [
                -72.3717727319999,
                -14.287496106999981
              ],
              [
                -72.37149610699993,
                -14.284785231999933
              ],
              [
                -72.36739423199998,
                -14.284868981999978
              ],
              [
                -72.36384885699982,
                -14.286962106999965
              ],
              [
                -72.35970523200001,
                -14.293476356999975
              ],
              [
                -72.35720635699982,
                -14.30287410699998
              ],
              [
                -72.35344723199984,
                -14.30396335699993
              ],
              [
                -72.35094535699989,
                -14.303705106999871
              ],
              [
                -72.34469023199995,
                -14.306039356999918
              ],
              [
                -72.34481423199992,
                -14.30905423199988
              ],
              [
                -72.34276335699985,
                -14.31275910699992
              ],
              [
                -72.341841982,
                -14.318082106999896
              ],
              [
                -72.34338473199983,
                -14.320910106999975
              ],
              [
                -72.34261323199996,
                -14.323456981999982
              ],
              [
                -72.33926373199995,
                -14.325316356999906
              ],
              [
                -72.33891260699983,
                -14.326731981999899
              ],
              [
                -72.34366123199999,
                -14.328043106999928
              ],
              [
                -72.34640323199994,
                -14.32952373199987
              ],
              [
                -72.35155835699987,
                -14.32903023199998
              ],
              [
                -72.35347773199987,
                -14.329907606999939
              ],
              [
                -72.357292982,
                -14.334984356999882
              ],
              [
                -72.36306123199995,
                -14.343593981999902
              ],
              [
                -72.365113232,
                -14.347763731999976
              ],
              [
                -72.368468732,
                -14.350917981999828
              ],
              [
                -72.36858398200002,
                -14.354658231999963
              ],
              [
                -72.365425732,
                -14.36329198199985
              ],
              [
                -72.36529035699982,
                -14.365592356999912
              ],
              [
                -72.37092860699994,
                -14.36870473199997
              ],
              [
                -72.36998135699992,
                -14.377229731999932
              ],
              [
                -72.36722985699998,
                -14.38070285699996
              ],
              [
                -72.36650823199994,
                -14.388009981999971
              ],
              [
                -72.36712373199998,
                -14.393780607
              ],
              [
                -72.3673671069999,
                -14.406369231999975
              ],
              [
                -72.36658473199998,
                -14.419791732000022
              ],
              [
                -72.3689646069999,
                -14.425588106999953
              ],
              [
                -72.36928585700002,
                -14.427611856999931
              ],
              [
                -72.36626960699994,
                -14.430440356999895
              ],
              [
                -72.36388923199996,
                -14.428704106999874
              ],
              [
                -72.36167285699992,
                -14.428607856999975
              ],
              [
                -72.35984185699994,
                -14.430342231999873
              ],
              [
                -72.35762535699996,
                -14.435963856999933
              ],
              [
                -72.35739623199993,
                -14.439994481999918
              ],
              [
                -72.36249610699991,
                -14.44635160699994
              ],
              [
                -72.36388473199997,
                -14.449472606999905
              ],
              [
                -72.36310548199987,
                -14.456620481999948
              ],
              [
                -72.36392110699978,
                -14.45975748199993
              ],
              [
                -72.36548960699997,
                -14.461765106999849
              ],
              [
                -72.3685566069999,
                -14.46380910699986
              ],
              [
                -72.3779011069999,
                -14.466119606999882
              ],
              [
                -72.38186473199994,
                -14.467474481999886
              ],
              [
                -72.38388285699983,
                -14.46935123299994
              ],
              [
                -72.38887110699983,
                -14.477574231999881
              ],
              [
                -72.3930819819999,
                -14.481849606999958
              ],
              [
                -72.39494723199988,
                -14.48301160699998
              ],
              [
                -72.39927535699996,
                -14.484169981999912
              ],
              [
                -72.40857135699986,
                -14.483730481999885
              ],
              [
                -72.42052585699992,
                -14.480535732999954
              ],
              [
                -72.42746098199996,
                -14.479023481999889
              ],
              [
                -72.44049810699988,
                -14.481748106999817
              ],
              [
                -72.4414698569999,
                -14.483180731999937
              ],
              [
                -72.44049723199998,
                -14.488858856999911
              ],
              [
                -72.4427001069999,
                -14.494598356999973
              ],
              [
                -72.44685898199992,
                -14.499216356999966
              ],
              [
                -72.45164335699985,
                -14.502292106999903
              ],
              [
                -72.4597592319999,
                -14.504466106999928
              ],
              [
                -72.46389360699993,
                -14.510231106999981
              ],
              [
                -72.46754498199988,
                -14.513548856999876
              ],
              [
                -72.47036035699995,
                -14.517276231999915
              ],
              [
                -72.47317260700004,
                -14.519543356999975
              ],
              [
                -72.48149485699992,
                -14.524463356999945
              ],
              [
                -72.48292610699986,
                -14.52713423299997
              ],
              [
                -72.48708048199995,
                -14.529027981999945
              ],
              [
                -72.49163948199987,
                -14.53353998199998
              ],
              [
                -72.49408960699992,
                -14.538284981999936
              ],
              [
                -72.49420123199991,
                -14.545634731999826
              ],
              [
                -72.49703723199991,
                -14.548586356999976
              ],
              [
                -72.50291023199992,
                -14.551661982999974
              ],
              [
                -72.5005653569998,
                -14.557102607999923
              ],
              [
                -72.49884335699994,
                -14.558741231999875
              ],
              [
                -72.493834107,
                -14.566101856999978
              ],
              [
                -72.48793873199992,
                -14.569066607999957
              ],
              [
                -72.48470148199993,
                -14.573598856999979
              ],
              [
                -72.48405398199992,
                -14.576222732999895
              ],
              [
                -72.48398585699988,
                -14.582015857999977
              ],
              [
                -72.47781785699988,
                -14.585150856999917
              ],
              [
                -72.47490623200002,
                -14.589003856999966
              ],
              [
                -72.47148823200001,
                -14.589138732999913
              ],
              [
                -72.46942973199987,
                -14.591175856999882
              ],
              [
                -72.46844198199994,
                -14.599632231999976
              ],
              [
                -72.46742448199996,
                -14.601984857999923
              ],
              [
                -72.46169948199991,
                -14.605869606999931
              ],
              [
                -72.46218485699984,
                -14.613910981999936
              ],
              [
                -72.46489248199998,
                -14.620745856999974
              ],
              [
                -72.4654616069999,
                -14.625020856999981
              ],
              [
                -72.46520948199992,
                -14.634426107999957
              ],
              [
                -72.46371010699977,
                -14.63885610799997
              ],
              [
                -72.46377823199998,
                -14.642502356999955
              ],
              [
                -72.46565248199988,
                -14.644887731999972
              ],
              [
                -72.4667429819998,
                -14.65194160699997
              ],
              [
                -72.46912835699987,
                -14.656064856999876
              ],
              [
                -72.47040535699978,
                -14.659850482999957
              ],
              [
                -72.47177123199998,
                -14.661398856999881
              ],
              [
                -72.47709660699996,
                -14.658203106999963
              ],
              [
                -72.48281098199993,
                -14.664869357999976
              ],
              [
                -72.48507685699991,
                -14.665341231999946
              ],
              [
                -72.48925785699998,
                -14.664441107000016
              ],
              [
                -72.49713135699989,
                -14.6644592319999
              ],
              [
                -72.50173948199995,
                -14.663760232999948
              ],
              [
                -72.50566098199988,
                -14.664681481999878
              ],
              [
                -72.50770573200003,
                -14.668900481999913
              ],
              [
                -72.51115423199991,
                -14.671439232999944
              ],
              [
                -72.51919560699992,
                -14.6700211079999
              ],
              [
                -72.52292635699996,
                -14.667722731999902
              ],
              [
                -72.52539060699985,
                -14.66712873199998
              ],
              [
                -72.533180357,
                -14.669370606999905
              ],
              [
                -72.53921510699996,
                -14.67289448199989
              ],
              [
                -72.54340360699996,
                -14.674646357999904
              ],
              [
                -72.5481796069999,
                -14.674575856999923
              ],
              [
                -72.5510253569999,
                -14.675201356999878
              ],
              [
                -72.55432123199984,
                -14.678421981999918
              ],
              [
                -72.56077573199991,
                -14.678380982999897
              ],
              [
                -72.56763460699989,
                -14.681862857999874
              ],
              [
                -72.57031248200002,
                -14.682736357999943
              ],
              [
                -72.57724760699989,
                -14.686616856999933
              ],
              [
                -72.58456423199988,
                -14.696201356999893
              ],
              [
                -72.58627323199988,
                -14.700225856999907
              ],
              [
                -72.58687585799993,
                -14.703268106999928
              ],
              [
                -72.58521273199989,
                -14.705978357999982
              ],
              [
                -72.58509823199984,
                -14.707862856999952
              ],
              [
                -72.58865360700003,
                -14.710107856999969
              ],
              [
                -72.59192660699978,
                -14.713619231999928
              ],
              [
                -72.595107982,
                -14.712759982999955
              ],
              [
                -72.59447473299991,
                -14.708804106999935
              ],
              [
                -72.59738923299994,
                -14.70599848199987
              ],
              [
                -72.60215760699992,
                -14.702789356999915
              ],
              [
                -72.60061648199996,
                -14.697812106999947
              ],
              [
                -72.600418107,
                -14.694642982999937
              ],
              [
                -72.59937285699993,
                -14.691678981999928
              ],
              [
                -72.59986873299982,
                -14.688976232999948
              ],
              [
                -72.60177610699998,
                -14.68754860699994
              ],
              [
                -72.60514073299993,
                -14.687033606999933
              ],
              [
                -72.60522460699985,
                -14.681958232999932
              ],
              [
                -72.60910798199984,
                -14.678983732999939
              ],
              [
                -72.61101535699999,
                -14.676129356999922
              ],
              [
                -72.61938473299989,
                -14.675894733
              ],
              [
                -72.6218108569999,
                -14.676332482999953
              ],
              [
                -72.62526698199986,
                -14.675465606999921
              ],
              [
                -72.62990573199988,
                -14.672294607999902
              ],
              [
                -72.6305542319999,
                -14.670704856999919
              ],
              [
                -72.63471223299985,
                -14.668666856999948
              ],
              [
                -72.6398086069999,
                -14.669197106999945
              ],
              [
                -72.64482110700004,
                -14.66728110799994
              ],
              [
                -72.65183260700002,
                -14.669033981999974
              ],
              [
                -72.65713498199989,
                -14.674010232999933
              ],
              [
                -72.661056482,
                -14.674081857999909
              ],
              [
                -72.66326898199992,
                -14.676186606999977
              ],
              [
                -72.66687010699997,
                -14.676757856999814
              ],
              [
                -72.66950985699998,
                -14.67604360699994
              ],
              [
                -72.67414098199993,
                -14.676988606999885
              ],
              [
                -72.679038983,
                -14.678778606999856
              ],
              [
                -72.68431848199992,
                -14.68250948299982
              ],
              [
                -72.68799585699992,
                -14.686607481999943
              ],
              [
                -72.69064335799993,
                -14.688655856999958
              ],
              [
                -72.69585423199987,
                -14.683874106999951
              ],
              [
                -72.6960907319999,
                -14.680964481999979
              ],
              [
                -72.69763185699986,
                -14.679063856999903
              ],
              [
                -72.70167535699994,
                -14.678470606999952
              ],
              [
                -72.70790860699992,
                -14.679242106999936
              ],
              [
                -72.71170810699988,
                -14.680192981999824
              ],
              [
                -72.71520998299991,
                -14.680073731999812
              ],
              [
                -72.71901698199986,
                -14.677460732999975
              ],
              [
                -72.72309873199998,
                -14.67725185699993
              ],
              [
                -72.7247086069998,
                -14.675900481999918
              ],
              [
                -72.72485335799985,
                -14.671052981999935
              ],
              [
                -72.7260666069999,
                -14.666189231999965
              ],
              [
                -72.72541810699988,
                -14.662633106999976
              ],
              [
                -72.72299960799995,
                -14.657297106999977
              ],
              [
                -72.72573848299999,
                -14.651627481999924
              ],
              [
                -72.72543335699982,
                -14.646276481999848
              ],
              [
                -72.72582248299983,
                -14.644025857999964
              ],
              [
                -72.72935485699992,
                -14.646550232999914
              ],
              [
                -72.73406985699984,
                -14.646458606999886
              ],
              [
                -72.74158473199992,
                -14.6449108569999
              ],
              [
                -72.74377435799988,
                -14.649703106999937
              ],
              [
                -72.74947360699991,
                -14.652914106999958
              ],
              [
                -72.75320435699996,
                -14.656935731999909
              ],
              [
                -72.7582854819999,
                -14.66104510699995
              ],
              [
                -72.76157373199993,
                -14.662916232999862
              ],
              [
                -72.76593785699987,
                -14.66421885699998
              ],
              [
                -72.77040860699987,
                -14.664712856999927
              ],
              [
                -72.77400973199985,
                -14.66407398199982
              ],
              [
                -72.77947998199983,
                -14.660707481999964
              ],
              [
                -72.78510285799985,
                -14.65530685799996
              ],
              [
                -72.78969573199998,
                -14.650213231999942
              ],
              [
                -72.79165648199995,
                -14.65496535699998
              ],
              [
                -72.79788973199993,
                -14.658967982999854
              ],
              [
                -72.8009872319999,
                -14.664356231999875
              ],
              [
                -72.80316923199996,
                -14.667077106999955
              ],
              [
                -72.80447398299998,
                -14.673255981999944
              ],
              [
                -72.80593110799987,
                -14.67556473299993
              ],
              [
                -72.81337735699992,
                -14.683252356999901
              ],
              [
                -72.81488035699977,
                -14.685836732999974
              ],
              [
                -72.81792435699998,
                -14.687434232999976
              ],
              [
                -72.82049560699977,
                -14.692534482999974
              ],
              [
                -72.82292935799995,
                -14.695291482999949
              ],
              [
                -72.825942983,
                -14.699990231999948
              ],
              [
                -72.828575107,
                -14.702628106999896
              ],
              [
                -72.82669073199986,
                -14.70814898299983
              ],
              [
                -72.82689660799986,
                -14.71201035799993
              ],
              [
                -72.83085635700002,
                -14.715467481999895
              ],
              [
                -72.83274835699996,
                -14.720339732999946
              ],
              [
                -72.832557732,
                -14.725496232999944
              ],
              [
                -72.83340435699989,
                -14.733064607999893
              ],
              [
                -72.83335873199985,
                -14.736281356999939
              ],
              [
                -72.83761598199993,
                -14.743897481999966
              ],
              [
                -72.83969873300003,
                -14.744985606999933
              ],
              [
                -72.84045410699991,
                -14.748958606999906
              ],
              [
                -72.84215560699982,
                -14.753688856999872
              ],
              [
                -72.84256748199982,
                -14.757659857999897
              ],
              [
                -72.8468246069998,
                -14.759823856999901
              ],
              [
                -72.8502061079999,
                -14.757557232999943
              ],
              [
                -72.85193460699992,
                -14.75220523199988
              ],
              [
                -72.85174635699997,
                -14.744262357999958
              ],
              [
                -72.85495723199989,
                -14.741808357999844
              ],
              [
                -72.85583698200003,
                -14.738699606999944
              ],
              [
                -72.85542648199998,
                -14.735326981999947
              ],
              [
                -72.85411798199982,
                -14.73300685700002
              ],
              [
                -72.85490848200004,
                -14.730334231999848
              ],
              [
                -72.85700285699994,
                -14.728126606999979
              ],
              [
                -72.86431260699999,
                -14.726675357999966
              ],
              [
                -72.86375473299995,
                -14.72337010699988
              ],
              [
                -72.8647526069999,
                -14.720164731999944
              ],
              [
                -72.8656369819999,
                -14.710684106999963
              ],
              [
                -72.8668792329999,
                -14.708312606999868
              ],
              [
                -72.86940135699996,
                -14.707371481999871
              ],
              [
                -72.87665948299991,
                -14.708521607999842
              ],
              [
                -72.88539910799989,
                -14.705970106999928
              ],
              [
                -72.887959733,
                -14.70402110699996
              ],
              [
                -72.890594857,
                -14.700670856999977
              ],
              [
                -72.89783873299984,
                -14.698802481999905
              ],
              [
                -72.90299560699992,
                -14.698843482999848
              ],
              [
                -72.90874223299994,
                -14.69824810699987
              ],
              [
                -72.91179385799984,
                -14.696761232999961
              ],
              [
                -72.91665123199994,
                -14.687467481999875
              ],
              [
                -72.91878998199996,
                -14.685161607999873
              ],
              [
                -72.92127448299993,
                -14.685537981999914
              ],
              [
                -72.92699635799988,
                -14.688436731999957
              ],
              [
                -72.93097410699983,
                -14.692039481999814
              ],
              [
                -72.93373248299997,
                -14.695455106999873
              ],
              [
                -72.93710348199983,
                -14.694473731999949
              ],
              [
                -72.94041748300003,
                -14.691570356999875
              ],
              [
                -72.94668410799983,
                -14.687909606999938
              ],
              [
                -72.94860385699997,
                -14.686177981999947
              ],
              [
                -72.95150248199991,
                -14.685199232999878
              ],
              [
                -72.95530660799989,
                -14.682683606999944
              ],
              [
                -72.95761910699991,
                -14.679564482999865
              ],
              [
                -72.96260735699991,
                -14.669162981999875
              ],
              [
                -72.97111485699992,
                -14.65967673199998
              ],
              [
                -72.97306248299986,
                -14.655970732999947
              ],
              [
                -72.97378360799985,
                -14.65256760799997
              ],
              [
                -72.97619998299984,
                -14.651535357999933
              ],
              [
                -72.97850773300001,
                -14.651749981999842
              ],
              [
                -72.98239398299995,
                -14.654209981999884
              ],
              [
                -72.98504523199995,
                -14.660310106999873
              ],
              [
                -72.9932567329999,
                -14.660896732999902
              ],
              [
                -72.9967292319999,
                -14.662750107999955
              ],
              [
                -72.99848885699993,
                -14.662468606999937
              ],
              [
                -73.00670435800004,
                -14.650857606999978
              ],
              [
                -73.00795360699976,
                -14.645860856999832
              ],
              [
                -73.00941223199999,
                -14.637388856999962
              ],
              [
                -73.01160573299978,
                -14.635586356999966
              ],
              [
                -73.01466610799986,
                -14.63090585699996
              ],
              [
                -73.01740035699987,
                -14.63071485699993
              ],
              [
                -73.01599048199984,
                -14.627495106999902
              ],
              [
                -73.01638360799996,
                -14.620780857999932
              ],
              [
                -73.01393535799997,
                -14.617817608
              ],
              [
                -73.01328548299983,
                -14.614343106999911
              ],
              [
                -73.014907107,
                -14.605287481999824
              ],
              [
                -73.01376560699987,
                -14.59911423199992
              ],
              [
                -73.01243560700004,
                -14.597076981999919
              ],
              [
                -73.01229423199982,
                -14.593709856999965
              ],
              [
                -73.01385048299989,
                -14.588673232999952
              ],
              [
                -73.01427485699992,
                -14.585390982999968
              ],
              [
                -73.01178485799994,
                -14.582306733
              ],
              [
                -73.00717048299998,
                -14.583396482999888
              ],
              [
                -72.99743910799992,
                -14.581401231999905
              ],
              [
                -72.996165733,
                -14.576053356999921
              ],
              [
                -72.99650535699993,
                -14.573195606999889
              ],
              [
                -72.99227148199992,
                -14.571449231999907
              ],
              [
                -72.99263673300004,
                -14.569757856999956
              ],
              [
                -72.99014273299991,
                -14.564021481999873
              ],
              [
                -72.99524610699984,
                -14.561453106999977
              ],
              [
                -72.99432148199998,
                -14.55564060699993
              ],
              [
                -72.99497735699998,
                -14.55058735699987
              ],
              [
                -72.98790823199994,
                -14.549226606999923
              ],
              [
                -72.98524373299995,
                -14.546654356999966
              ],
              [
                -72.98433598299988,
                -14.54337698199987
              ],
              [
                -72.99076135799993,
                -14.54110848199997
              ],
              [
                -72.9948924819999,
                -14.53714710699984
              ],
              [
                -72.99640910699998,
                -14.533602356999893
              ],
              [
                -72.99445385699994,
                -14.531954856999846
              ],
              [
                -72.99508773199989,
                -14.526748481999903
              ],
              [
                -72.99352573299996,
                -14.524937607000027
              ],
              [
                -72.99117160799995,
                -14.519618106999872
              ],
              [
                -72.99452148199993,
                -14.514554731999965
              ],
              [
                -72.99644073199983,
                -14.512964731999944
              ],
              [
                -72.99576685799985,
                -14.507914981999932
              ],
              [
                -72.994680232,
                -14.504836481999973
              ],
              [
                -72.99504248199986,
                -14.501599482999893
              ],
              [
                -72.99397848299986,
                -14.49757023199993
              ],
              [
                -72.99665548299993,
                -14.493601106999904
              ],
              [
                -72.997761857,
                -14.482081106999942
              ],
              [
                -72.99583873200004,
                -14.480158106999966
              ],
              [
                -72.99244860800002,
                -14.47990535699995
              ],
              [
                -72.987276608,
                -14.472465857999964
              ],
              [
                -72.98905273199989,
                -14.468320356999982
              ],
              [
                -72.98780185699985,
                -14.465648106999879
              ],
              [
                -72.98800923199997,
                -14.463583231999905
              ],
              [
                -72.98663560699998,
                -14.461889106999877
              ],
              [
                -72.98773448299988,
                -14.457493481999904
              ],
              [
                -72.98320148199997,
                -14.45158698199998
              ],
              [
                -72.97976748299988,
                -14.449206106999952
              ],
              [
                -72.98076560799996,
                -14.446888731999877
              ],
              [
                -72.98013285699983,
                -14.444994231999885
              ],
              [
                -72.98050010799983,
                -14.441147606999948
              ],
              [
                -72.98640660799987,
                -14.437026731999879
              ],
              [
                -72.98800923199997,
                -14.4375303569999
              ],
              [
                -72.99217560699998,
                -14.436385731999962
              ],
              [
                -72.99874873300001,
                -14.432563606999906
              ],
              [
                -73.00238635699998,
                -14.43134910699996
              ],
              [
                -73.00462985799999,
                -14.425442731999851
              ],
              [
                -73.00909523199988,
                -14.4250353569999
              ],
              [
                -73.00998548299992,
                -14.423171731999958
              ],
              [
                -73.01316835699993,
                -14.421913356999937
              ],
              [
                -73.01396260799993,
                -14.418094231999874
              ],
              [
                -73.01629923299981,
                -14.416857981999897
              ],
              [
                -73.01913623199988,
                -14.413714856999889
              ],
              [
                -73.02126410799991,
                -14.409130231999825
              ],
              [
                -73.0219264829999,
                -14.403892856999903
              ],
              [
                -73.02149360699997,
                -14.39933548199997
              ],
              [
                -73.02552898199991,
                -14.394852231999892
              ],
              [
                -73.02972685799989,
                -14.393748481999978
              ],
              [
                -73.032834858,
                -14.390587231999973
              ],
              [
                -73.03806398199993,
                -14.390179356999909
              ],
              [
                -73.03897223299987,
                -14.380189856999891
              ],
              [
                -73.03884185699991,
                -14.376970731999904
              ],
              [
                -73.04342523299988,
                -14.370410731999982
              ],
              [
                -73.04484923299992,
                -14.365454856999918
              ],
              [
                -73.04475835799997,
                -14.362559356999895
              ],
              [
                -73.04805823199996,
                -14.35795460699984
              ],
              [
                -73.04735785799994,
                -14.356264481999972
              ],
              [
                -73.04864685799998,
                -14.352865856999983
              ],
              [
                -73.04605748199998,
                -14.348800606999873
              ],
              [
                -73.04752348199986,
                -14.345033231999821
              ],
              [
                -73.04976710799997,
                -14.344871981999972
              ],
              [
                -73.05504585699993,
                -14.34589723199997
              ],
              [
                -73.05897635799988,
                -14.345403481999881
              ],
              [
                -73.0633054829998,
                -14.342783231999817
              ],
              [
                -73.06733098199987,
                -14.341700981999963
              ],
              [
                -73.06966648299993,
                -14.335131106999938
              ],
              [
                -73.07210560799996,
                -14.332917231999886
              ],
              [
                -73.08083135799984,
                -14.33169435699989
              ],
              [
                -73.08264098199999,
                -14.328776106999953
              ],
              [
                -73.081799482,
                -14.325959481999917
              ],
              [
                -73.07968173300003,
                -14.323080231999938
              ],
              [
                -73.07853948299993,
                -14.319344356999977
              ],
              [
                -73.075004358,
                -14.316161981999926
              ],
              [
                -73.07259398299988,
                -14.310083606999967
              ],
              [
                -73.06979060799989,
                -14.309349981999958
              ],
              [
                -73.06967323199996,
                -14.30390660699993
              ],
              [
                -73.07030223299995,
                -14.299539231999972
              ],
              [
                -73.06778660700002,
                -14.295171981999943
              ],
              [
                -73.06998773199996,
                -14.293215356999895
              ],
              [
                -73.06991785799994,
                -14.289127606999955
              ],
              [
                -73.07050098299999,
                -14.283854356999939
              ],
              [
                -73.0699848569999,
                -14.281534232000013
              ],
              [
                -73.07075635799987,
                -14.276584607000018
              ],
              [
                -73.06909948199984,
                -14.273079731999928
              ],
              [
                -73.06642398199989,
                -14.273055856999974
              ],
              [
                -73.06079885699995,
                -14.271693231999961
              ],
              [
                -73.05660623299997,
                -14.26973660699997
              ],
              [
                -73.05328710799989,
                -14.268898106999927
              ],
              [
                -73.04766198199985,
                -14.264181356999927
              ],
              [
                -73.0457753579999,
                -14.263098356999876
              ],
              [
                -73.04186110799986,
                -14.255274606999933
              ],
              [
                -73.04258723299984,
                -14.25231535699993
              ],
              [
                -73.04835748199986,
                -14.248681606999924
              ],
              [
                -73.05073435699995,
                -14.246445356999914
              ],
              [
                -73.05253123299997,
                -14.242451356999936
              ],
              [
                -73.05277148299984,
                -14.237761731999967
              ],
              [
                -73.05218748299984,
                -14.233509731999959
              ],
              [
                -73.05734960699976,
                -14.222400356999856
              ],
              [
                -73.0630117319999,
                -14.219331981999972
              ],
              [
                -73.07019923199988,
                -14.212677731999918
              ],
              [
                -73.07239848300003,
                -14.209439481999937
              ],
              [
                -73.07634373299987,
                -14.206306606999874
              ],
              [
                -73.07461523299986,
                -14.203753856999981
              ],
              [
                -73.07455735799988,
                -14.200371980999932
              ],
              [
                -73.07246648299997,
                -14.193843981999976
              ],
              [
                -73.0726061069999,
                -14.189979606999827
              ],
              [
                -73.06949573299994,
                -14.188120356999889
              ],
              [
                -73.06831598299993,
                -14.186368606999906
              ],
              [
                -73.0701393569999,
                -14.17771685699995
              ],
              [
                -73.06860198199996,
                -14.174892481999848
              ],
              [
                -73.06886085699989,
                -14.17028010699994
              ],
              [
                -73.06864710799988,
                -14.16093448199996
              ],
              [
                -73.07310885800001,
                -14.157021856999961
              ],
              [
                -73.076083358,
                -14.155946481999877
              ],
              [
                -73.07553410799994,
                -14.153132106999976
              ],
              [
                -73.07802823299983,
                -14.149219481999978
              ],
              [
                -73.07908160800002,
                -14.146183356999984
              ],
              [
                -73.07562510699984,
                -14.144631981999964
              ],
              [
                -73.07326785700002,
                -14.145933731999833
              ],
              [
                -73.07089735799991,
                -14.145609356999898
              ],
              [
                -73.07014898199998,
                -14.14343860699995
              ],
              [
                -73.06467260800002,
                -14.1424397319999
              ],
              [
                -73.06286285800002,
                -14.138198731999921
              ],
              [
                -73.0568479829999,
                -14.137744481999903
              ],
              [
                -73.05315660799982,
                -14.13600285699988
              ],
              [
                -73.05252073199989,
                -14.132788981999965
              ],
              [
                -73.05490323299983,
                -14.129739981999933
              ],
              [
                -73.051968107,
                -14.126212731999942
              ],
              [
                -73.05186860799995,
                -14.124592106999955
              ],
              [
                -73.04985848199988,
                -14.122137231999886
              ],
              [
                -73.04257573300004,
                -14.119740731999855
              ],
              [
                -73.04002235699988,
                -14.117896230999918
              ],
              [
                -73.0357363569999,
                -14.118953106999982
              ],
              [
                -73.03283085799984,
                -14.116250855999851
              ],
              [
                -73.0313394829999,
                -14.11166385699994
              ],
              [
                -73.03111235799986,
                -14.10729185699995
              ],
              [
                -73.02636210799983,
                -14.110562106999964
              ],
              [
                -73.02262385799997,
                -14.110670230999972
              ],
              [
                -73.01973635799988,
                -14.112623106999877
              ]
            ]
          ]
        ],
        "type": "MultiPolygon"
      },
      "type": "Feature",
      "properties": {
        "PROVINCIA": "ANTABAMBA",
        "name": "ANTABAMBA",
        "ID": "030400",
        "DEPARTAMEN": "APURIMAC"
      }
    }
  ]
}
