{
  "type": "FeatureCollection",
  "features": [
    {
      "geometry": {
        "coordinates": [
          [
            [
              [
                -72.87961310699995,
                -14.244634731999952
              ],
              [
                -72.87481635799992,
                -14.247556731999964
              ],
              [
                -72.87299435799997,
                -14.249766731999841
              ],
              [
                -72.87028348299987,
                -14.255095231999917
              ],
              [
                -72.86726073199998,
                -14.259114981999971
              ],
              [
                -72.87214735699996,
                -14.26338648199993
              ],
              [
                -72.87308598299984,
                -14.267013731999896
              ],
              [
                -72.88070698199988,
                -14.267966856999976
              ],
              [
                -72.88323248199993,
                -14.268812481999873
              ],
              [
                -72.88650585699997,
                -14.268642606999947
              ],
              [
                -72.89215035699993,
                -14.270562481999889
              ],
              [
                -72.89415823199994,
                -14.271917981999877
              ],
              [
                -72.90115148299992,
                -14.269535106999967
              ],
              [
                -72.9067137319999,
                -14.273642481999843
              ],
              [
                -72.90947398299994,
                -14.280685731999938
              ],
              [
                -72.91597248199992,
                -14.283166356999857
              ],
              [
                -72.9202617329999,
                -14.286879606999946
              ],
              [
                -72.92183198299995,
                -14.289205981999885
              ],
              [
                -72.92721160699995,
                -14.292084731999978
              ],
              [
                -72.92768160799983,
                -14.296808731999931
              ],
              [
                -72.9266758569999,
                -14.30597485699991
              ],
              [
                -72.92674685699996,
                -14.30968910699994
              ],
              [
                -72.92765060799991,
                -14.312805231999903
              ],
              [
                -72.92802448199996,
                -14.317697481999971
              ],
              [
                -72.93516035699992,
                -14.321623731999921
              ],
              [
                -72.94632035799992,
                -14.323710981999966
              ],
              [
                -72.94949410699991,
                -14.328505856999868
              ],
              [
                -72.95052148199983,
                -14.332480481999937
              ],
              [
                -72.94689848199982,
                -14.338831981999931
              ],
              [
                -72.94035348299997,
                -14.344755856999939
              ],
              [
                -72.9363378569999,
                -14.349744106999935
              ],
              [
                -72.93569135799999,
                -14.352287106999938
              ],
              [
                -72.93268735799995,
                -14.354765606999933
              ],
              [
                -72.93171485699992,
                -14.360615231999873
              ],
              [
                -72.9264063569999,
                -14.36506260699997
              ],
              [
                -72.92667185699986,
                -14.37051948199985
              ],
              [
                -72.92819648199998,
                -14.372708606999879
              ],
              [
                -72.93386810699991,
                -14.374665981999897
              ],
              [
                -72.93544935699992,
                -14.375833356999976
              ],
              [
                -72.93898923299997,
                -14.373534981999967
              ],
              [
                -72.94368073199996,
                -14.371391106999909
              ],
              [
                -72.94611985699999,
                -14.372610356999928
              ],
              [
                -72.95210835699993,
                -14.370541731999822
              ],
              [
                -72.9552679819999,
                -14.371503356999881
              ],
              [
                -72.96285473199993,
                -14.377975106999884
              ],
              [
                -72.96932048199989,
                -14.379670356999895
              ],
              [
                -72.97628898199986,
                -14.382736481999927
              ],
              [
                -72.98353623199989,
                -14.384374106999815
              ],
              [
                -72.98532160699989,
                -14.386807106999925
              ],
              [
                -72.98966173299993,
                -14.388590356999941
              ],
              [
                -72.99411648199998,
                -14.39717173199989
              ],
              [
                -73.00109160799997,
                -14.39956223199988
              ],
              [
                -73.00234298199996,
                -14.404812356999969
              ],
              [
                -73.00594385799991,
                -14.408446106999975
              ],
              [
                -73.00857035799999,
                -14.409535606999953
              ],
              [
                -73.01053748299995,
                -14.412123981999969
              ],
              [
                -73.01139373299992,
                -14.414954481999871
              ],
              [
                -73.01396260799993,
                -14.418094231999874
              ],
              [
                -73.01629923299998,
                -14.416857981999897
              ],
              [
                -73.01913623199988,
                -14.413714856999889
              ],
              [
                -73.02126410799991,
                -14.409130231999825
              ],
              [
                -73.0219264829999,
                -14.403892856999903
              ],
              [
                -73.02149360699997,
                -14.39933548199997
              ],
              [
                -73.02552898199991,
                -14.394852231999892
              ],
              [
                -73.02972685799989,
                -14.393748481999978
              ],
              [
                -73.03283485799983,
                -14.390587231999973
              ],
              [
                -73.03806398199993,
                -14.390179356999965
              ],
              [
                -73.03897223299987,
                -14.380189856999891
              ],
              [
                -73.03884185699991,
                -14.376970731999904
              ],
              [
                -73.04342523299988,
                -14.370410731999982
              ],
              [
                -73.04484923299992,
                -14.365454856999918
              ],
              [
                -73.04475835799997,
                -14.362559356999895
              ],
              [
                -73.04805823199996,
                -14.35795460699984
              ],
              [
                -73.04735785799994,
                -14.356264481999972
              ],
              [
                -73.04864685799998,
                -14.35286585699987
              ],
              [
                -73.04605748199998,
                -14.348800606999873
              ],
              [
                -73.04752348199997,
                -14.345033231999821
              ],
              [
                -73.04976710799997,
                -14.344871981999972
              ],
              [
                -73.05504585699993,
                -14.34589723199997
              ],
              [
                -73.05897635799988,
                -14.345403481999881
              ],
              [
                -73.06330548299997,
                -14.342783231999817
              ],
              [
                -73.06733098199999,
                -14.341700981999963
              ],
              [
                -73.06966648299993,
                -14.335131106999938
              ],
              [
                -73.07210560799996,
                -14.332917231999886
              ],
              [
                -73.08083135799995,
                -14.33169435699989
              ],
              [
                -73.08264098199999,
                -14.328776106999953
              ],
              [
                -73.08179948199995,
                -14.325959481999917
              ],
              [
                -73.07968173299986,
                -14.323080231999938
              ],
              [
                -73.07853948299993,
                -14.319344356999977
              ],
              [
                -73.07500435799983,
                -14.316161981999926
              ],
              [
                -73.07259398299988,
                -14.310083606999967
              ],
              [
                -73.06979060799989,
                -14.309349981999958
              ],
              [
                -73.06398360799994,
                -14.310817856999961
              ],
              [
                -73.06210385699995,
                -14.310746606999942
              ],
              [
                -73.05827285799995,
                -14.31243598199984
              ],
              [
                -73.05472748299997,
                -14.311983856999916
              ],
              [
                -73.05192448299994,
                -14.313113731999977
              ],
              [
                -73.04968298299985,
                -14.316623856999968
              ],
              [
                -73.04673248199998,
                -14.316362106999975
              ],
              [
                -73.04468610699996,
                -14.31445848199985
              ],
              [
                -73.03863673299998,
                -14.313450731999978
              ],
              [
                -73.03607248199984,
                -14.309794731999887
              ],
              [
                -73.02998110799996,
                -14.306154231999926
              ],
              [
                -73.02678223299995,
                -14.306216606999953
              ],
              [
                -73.02158160699997,
                -14.310770356999967
              ],
              [
                -73.01913073199995,
                -14.311008356999935
              ],
              [
                -73.01546635699998,
                -14.309937481999953
              ],
              [
                -73.01018273199998,
                -14.307511856999895
              ],
              [
                -73.00713823299998,
                -14.304345856999873
              ],
              [
                -73.00285523299988,
                -14.301633231999972
              ],
              [
                -73.00111823199995,
                -14.29642223199994
              ],
              [
                -72.99788210799989,
                -14.292805481999892
              ],
              [
                -72.99273173199998,
                -14.290417106999826
              ],
              [
                -72.99152898199998,
                -14.288665106999815
              ],
              [
                -72.9923142319999,
                -14.282549856999935
              ],
              [
                -72.99668560699996,
                -14.280658231999894
              ],
              [
                -73.00532623299989,
                -14.275234356999931
              ],
              [
                -73.00612485799996,
                -14.272757731999889
              ],
              [
                -72.99853710699995,
                -14.269570356999964
              ],
              [
                -72.99483785699994,
                -14.26890435699994
              ],
              [
                -72.99286523299986,
                -14.266353481999886
              ],
              [
                -72.99141323299989,
                -14.266756481999948
              ],
              [
                -72.98679698199993,
                -14.265679481999939
              ],
              [
                -72.98508448299998,
                -14.264271231999942
              ],
              [
                -72.98295085699993,
                -14.259483856999964
              ],
              [
                -72.9770111069999,
                -14.256814231999954
              ],
              [
                -72.97107623299996,
                -14.260675231999926
              ],
              [
                -72.96793535699993,
                -14.261883231999946
              ],
              [
                -72.96329135799994,
                -14.261306606999938
              ],
              [
                -72.96040773199996,
                -14.260274606999928
              ],
              [
                -72.9557932319999,
                -14.261429731999897
              ],
              [
                -72.9505428569999,
                -14.258817731999898
              ],
              [
                -72.94699148199999,
                -14.259424606999914
              ],
              [
                -72.94283310699996,
                -14.259060356999896
              ],
              [
                -72.94004848299988,
                -14.258050606999916
              ],
              [
                -72.93783935799996,
                -14.255844606999915
              ],
              [
                -72.93442510699992,
                -14.255175106999957
              ],
              [
                -72.92689748299995,
                -14.251016731999982
              ],
              [
                -72.92237485799996,
                -14.251229231999957
              ],
              [
                -72.91870773199992,
                -14.252475106999952
              ],
              [
                -72.90838185699988,
                -14.24837598199997
              ],
              [
                -72.90561973299998,
                -14.24537098199994
              ],
              [
                -72.90106685699993,
                -14.245249606999835
              ],
              [
                -72.89673060799998,
                -14.242120356999976
              ],
              [
                -72.89138085699994,
                -14.240025731999879
              ],
              [
                -72.88902548199991,
                -14.236820356999885
              ],
              [
                -72.88491010699994,
                -14.233874856999876
              ],
              [
                -72.88026373199989,
                -14.240519481999968
              ],
              [
                -72.87961310699995,
                -14.244634731999952
              ]
            ]
          ]
        ],
        "type": "MultiPolygon"
      },
      "type": "Feature",
      "properties": {
        "PROVINCIA": "ANTABAMBA",
        "DISTRITO": "SABAINO",
        "name": "SABAINO",
        "ID": "030407",
        "DEPARTAMEN": "APURIMAC"
      }
    }
  ]
}
