{
  "type": "FeatureCollection",
  "features": [
    {
      "geometry": {
        "coordinates": [
          [
            [
              [
                -75.16570148399995,
                -12.190413479999961
              ],
              [
                -75.16937998499986,
                -12.192999979999911
              ],
              [
                -75.17423998399988,
                -12.194689979999964
              ],
              [
                -75.17770998499986,
                -12.196909979999873
              ],
              [
                -75.18014998399997,
                -12.200310104999915
              ],
              [
                -75.18479923399997,
                -12.204173854999965
              ],
              [
                -75.19358785999998,
                -12.204251979999924
              ],
              [
                -75.1975759849999,
                -12.205676604999951
              ],
              [
                -75.20486160999991,
                -12.206343479999873
              ],
              [
                -75.20730660999999,
                -12.207271479999918
              ],
              [
                -75.21004898499996,
                -12.209962104999875
              ],
              [
                -75.21340823399998,
                -12.210068354999976
              ],
              [
                -75.21758560899997,
                -12.20688322999996
              ],
              [
                -75.22225198499996,
                -12.206346854999879
              ],
              [
                -75.22771998499996,
                -12.207269979999978
              ],
              [
                -75.23076998399989,
                -12.196199979999847
              ],
              [
                -75.23386998399997,
                -12.192560104999927
              ],
              [
                -75.23581998499992,
                -12.186699979999958
              ],
              [
                -75.23844998499993,
                -12.183419979999883
              ],
              [
                -75.23950998499998,
                -12.17958985499996
              ],
              [
                -75.24148998499993,
                -12.176819979999948
              ],
              [
                -75.24161998499994,
                -12.174939979999976
              ],
              [
                -75.23952735899996,
                -12.173171854999964
              ],
              [
                -75.22824998499993,
                -12.17213085499992
              ],
              [
                -75.22649998499998,
                -12.164888729999973
              ],
              [
                -75.2238926099999,
                -12.164392604999932
              ],
              [
                -75.21825385999989,
                -12.164669979999871
              ],
              [
                -75.21453123499992,
                -12.163785104999931
              ],
              [
                -75.21276173499996,
                -12.162511729999949
              ],
              [
                -75.21033785999998,
                -12.157232479999948
              ],
              [
                -75.20883598399996,
                -12.156548854999926
              ],
              [
                -75.20318023399989,
                -12.164448354999934
              ],
              [
                -75.19895510999999,
                -12.169478479999952
              ],
              [
                -75.19522398499998,
                -12.17497010499983
              ],
              [
                -75.1897214849999,
                -12.180769979999923
              ],
              [
                -75.18492535899992,
                -12.183632854999928
              ],
              [
                -75.18176510899991,
                -12.186941729999944
              ],
              [
                -75.17808435899991,
                -12.189246854999908
              ],
              [
                -75.17382210899996,
                -12.190661854999917
              ],
              [
                -75.16570148399995,
                -12.190413479999961
              ]
            ]
          ]
        ],
        "type": "MultiPolygon"
      },
      "type": "Feature",
      "properties": {
        "PROVINCIA": "HUANCAYO",
        "DISTRITO": "HUACRAPUQUIO",
        "name": "HUACRAPUQUIO",
        "ID": "110114",
        "DEPARTAMEN": "JUNIN"
      }
    }
  ]
}
