{
  "type": "FeatureCollection",
  "features": [
    {
      "geometry": {
        "coordinates": [
          [
            [
              [
                -75.08457423499988,
                -12.056216354999947
              ],
              [
                -75.07460660999999,
                -12.060146729999872
              ],
              [
                -75.07378735899988,
                -12.06874960499988
              ],
              [
                -75.07097335999993,
                -12.07213597999987
              ],
              [
                -75.06949485899992,
                -12.075522354999919
              ],
              [
                -75.07007585899993,
                -12.08291085499991
              ],
              [
                -75.06875248399996,
                -12.08598872999994
              ],
              [
                -75.06584160899996,
                -12.089481729999932
              ],
              [
                -75.06581548399993,
                -12.093871104999948
              ],
              [
                -75.06991685899993,
                -12.098796479999976
              ],
              [
                -75.07130760899997,
                -12.102386479999893
              ],
              [
                -75.0767308589999,
                -12.101976104999892
              ],
              [
                -75.08046323399998,
                -12.100432854999838
              ],
              [
                -75.08498798499994,
                -12.099942729999952
              ],
              [
                -75.08806923399993,
                -12.10079522999996
              ],
              [
                -75.09116898499991,
                -12.104794854999966
              ],
              [
                -75.09181885899994,
                -12.107494479999957
              ],
              [
                -75.09451873399996,
                -12.111844104999875
              ],
              [
                -75.09869235899998,
                -12.113024104999965
              ],
              [
                -75.09944273499997,
                -12.11405910499991
              ],
              [
                -75.0991426089999,
                -12.119257854999887
              ],
              [
                -75.09821823499993,
                -12.123092854999982
              ],
              [
                -75.09931810899997,
                -12.127592479999919
              ],
              [
                -75.10436760899995,
                -12.135191604999932
              ],
              [
                -75.10666160999995,
                -12.140269729999943
              ],
              [
                -75.11005110999992,
                -12.143762729999935
              ],
              [
                -75.12434998399988,
                -12.153197229999932
              ],
              [
                -75.13020398399993,
                -12.15581697999994
              ],
              [
                -75.13482898499996,
                -12.158857229999967
              ],
              [
                -75.14550860899993,
                -12.154264729999966
              ],
              [
                -75.15080085999995,
                -12.15452385499998
              ],
              [
                -75.15676173499998,
                -12.158921854999903
              ],
              [
                -75.16411910999994,
                -12.166775854999969
              ],
              [
                -75.16567248499996,
                -12.17126922999995
              ],
              [
                -75.16489910999991,
                -12.175284604999831
              ],
              [
                -75.16303573399995,
                -12.18074922999989
              ],
              [
                -75.16358410899994,
                -12.1843134799999
              ],
              [
                -75.16570148399995,
                -12.190413479999961
              ],
              [
                -75.17382210899996,
                -12.190661854999917
              ],
              [
                -75.17808435899991,
                -12.189246854999908
              ],
              [
                -75.18176510899991,
                -12.186941729999944
              ],
              [
                -75.18492535899992,
                -12.183632854999928
              ],
              [
                -75.1897214849999,
                -12.180769979999923
              ],
              [
                -75.19522398499998,
                -12.17497010499983
              ],
              [
                -75.19895510999999,
                -12.169478479999952
              ],
              [
                -75.20318023399989,
                -12.164448354999934
              ],
              [
                -75.20883598399996,
                -12.156548854999926
              ],
              [
                -75.21030323499997,
                -12.151510729999927
              ],
              [
                -75.20975585999997,
                -12.14654497999993
              ],
              [
                -75.20915185999996,
                -12.14117860499988
              ],
              [
                -75.20764848499994,
                -12.1371406049999
              ],
              [
                -75.20257610999994,
                -12.135814479999965
              ],
              [
                -75.20016410999995,
                -12.132714854999904
              ],
              [
                -75.19851760899985,
                -12.127587854999888
              ],
              [
                -75.19734998499996,
                -12.125829979999935
              ],
              [
                -75.1938199839999,
                -12.123819979999894
              ],
              [
                -75.18996998399996,
                -12.125449979999928
              ],
              [
                -75.18240998399989,
                -12.124039979999907
              ],
              [
                -75.17746010899998,
                -12.121368979999886
              ],
              [
                -75.18594173399998,
                -12.108123354999861
              ],
              [
                -75.18266598499991,
                -12.104958979999935
              ],
              [
                -75.18134960899994,
                -12.104958979999935
              ],
              [
                -75.17854298399993,
                -12.101787104999971
              ],
              [
                -75.17636335999998,
                -12.094470729999898
              ],
              [
                -75.17172460999996,
                -12.088427729999864
              ],
              [
                -75.16885360899994,
                -12.086119104999966
              ],
              [
                -75.16682423499998,
                -12.086054729999887
              ],
              [
                -75.16158010899994,
                -12.081564479999884
              ],
              [
                -75.16050198499988,
                -12.078564479999898
              ],
              [
                -75.15721035899998,
                -12.076997354999946
              ],
              [
                -75.15010710899992,
                -12.069260479999969
              ],
              [
                -75.14729098399988,
                -12.063802728999974
              ],
              [
                -75.1433493589999,
                -12.060147104999885
              ],
              [
                -75.13842385899994,
                -12.060266104999812
              ],
              [
                -75.13268935899993,
                -12.054912229999957
              ],
              [
                -75.13095323399983,
                -12.05259035499995
              ],
              [
                -75.12465823499997,
                -12.047855478999963
              ],
              [
                -75.12082448399997,
                -12.045851229999926
              ],
              [
                -75.11747260899989,
                -12.04636322999994
              ],
              [
                -75.11487348399999,
                -12.048535604999927
              ],
              [
                -75.1136812339999,
                -12.051731104999874
              ],
              [
                -75.11034998499997,
                -12.05541922999987
              ],
              [
                -75.1009136099999,
                -12.059236979999923
              ],
              [
                -75.09558898399996,
                -12.057549979999976
              ],
              [
                -75.08803410899998,
                -12.057193104999897
              ],
              [
                -75.08457423499988,
                -12.056216354999947
              ]
            ]
          ]
        ],
        "type": "MultiPolygon"
      },
      "type": "Feature",
      "properties": {
        "PROVINCIA": "HUANCAYO",
        "DISTRITO": "SAPALLANGA",
        "name": "SAPALLANGA",
        "ID": "110133",
        "DEPARTAMEN": "JUNIN"
      }
    }
  ]
}
