{
  "type": "FeatureCollection",
  "features": [
    {
      "geometry": {
        "coordinates": [
          [
            [
              [
                -75.33477910999989,
                -12.936174354999821
              ],
              [
                -75.33515898399997,
                -12.94241485599997
              ],
              [
                -75.33783673499994,
                -12.945092730999932
              ],
              [
                -75.34145960899991,
                -12.950574230999962
              ],
              [
                -75.34309785999994,
                -12.954732730999865
              ],
              [
                -75.34142810999998,
                -12.958954230999836
              ],
              [
                -75.34306635999991,
                -12.962954980999939
              ],
              [
                -75.34958748499992,
                -12.96560160599995
              ],
              [
                -75.34958748499992,
                -12.970232480999982
              ],
              [
                -75.3535569849999,
                -12.97313073099997
              ],
              [
                -75.35465960999994,
                -12.975745605999975
              ],
              [
                -75.35859735999992,
                -12.976218105999976
              ],
              [
                -75.35825098499998,
                -12.979494480999904
              ],
              [
                -75.35960560999996,
                -12.980912105999948
              ],
              [
                -75.36096035999998,
                -12.985480105999898
              ],
              [
                -75.35866060899991,
                -12.989134605999936
              ],
              [
                -75.35500610999998,
                -12.992095855999821
              ],
              [
                -75.3541572339999,
                -12.996876480999958
              ],
              [
                -75.35667585999994,
                -13.001861980999877
              ],
              [
                -75.36080273399989,
                -13.005894480999928
              ],
              [
                -75.36300798499991,
                -13.011911605999899
              ],
              [
                -75.36678848499992,
                -13.016479605999848
              ],
              [
                -75.36785960999998,
                -13.023706604999973
              ],
              [
                -75.36948748499992,
                -13.024476104999962
              ],
              [
                -75.3738561099999,
                -13.02890635599988
              ],
              [
                -75.375089485,
                -13.03190985599997
              ],
              [
                -75.37434660999998,
                -13.036755230999972
              ],
              [
                -75.37458435999997,
                -13.039755730999957
              ],
              [
                -75.37788185999995,
                -13.042132480999896
              ],
              [
                -75.38106073499995,
                -13.041330355999946
              ],
              [
                -75.38471473499999,
                -13.036517605999904
              ],
              [
                -75.39279523399995,
                -13.037171230999888
              ],
              [
                -75.39588498499995,
                -13.036190855999962
              ],
              [
                -75.40048985999994,
                -13.031407854999827
              ],
              [
                -75.40206435999994,
                -13.030754230999833
              ],
              [
                -75.40708223499996,
                -13.030909980999922
              ],
              [
                -75.41723635999989,
                -13.033404980999933
              ],
              [
                -75.4228066089999,
                -13.032244480999964
              ],
              [
                -75.4258818589999,
                -13.033520980999981
              ],
              [
                -75.42866698399996,
                -13.036828354999955
              ],
              [
                -75.43258473499992,
                -13.038523605999899
              ],
              [
                -75.43458260999995,
                -13.032045105999885
              ],
              [
                -75.43580973399986,
                -13.029818980999892
              ],
              [
                -75.43980535999998,
                -13.02762147999988
              ],
              [
                -75.44277348399999,
                -13.02762148099987
              ],
              [
                -75.44930898399997,
                -13.030989230999978
              ],
              [
                -75.45393248499994,
                -13.030104480999967
              ],
              [
                -75.45555923499995,
                -13.026594104999958
              ],
              [
                -75.46072485999997,
                -13.023654479999948
              ],
              [
                -75.46534823399998,
                -13.020229730999972
              ],
              [
                -75.46877310999992,
                -13.020343855999897
              ],
              [
                -75.47208373499996,
                -13.021513979999838
              ],
              [
                -75.47665010899993,
                -13.024681855999916
              ],
              [
                -75.48001773499993,
                -13.025081480999972
              ],
              [
                -75.4824721089999,
                -13.022455855999965
              ],
              [
                -75.48450010999994,
                -13.015598980999812
              ],
              [
                -75.49167685899988,
                -13.010721605999947
              ],
              [
                -75.49913360999994,
                -13.01105810599995
              ],
              [
                -75.50089560999999,
                -13.010675104999905
              ],
              [
                -75.50349773499988,
                -13.008036480999976
              ],
              [
                -75.50556460999991,
                -13.010697480999966
              ],
              [
                -75.5077864839999,
                -13.012040979999938
              ],
              [
                -75.51380623499989,
                -13.019042480999872
              ],
              [
                -75.51812085999995,
                -13.02346035599993
              ],
              [
                -75.52273885999995,
                -13.025567105999926
              ],
              [
                -75.52660923499997,
                -13.028329730999872
              ],
              [
                -75.53076385999992,
                -13.028860105999968
              ],
              [
                -75.53531635899992,
                -13.035092105999922
              ],
              [
                -75.53465335999994,
                -13.037169480999921
              ],
              [
                -75.53743785999995,
                -13.040042355999958
              ],
              [
                -75.54022235999997,
                -13.044329605999962
              ],
              [
                -75.54764098499993,
                -13.048969730999943
              ],
              [
                -75.54979535999996,
                -13.05582385599996
              ],
              [
                -75.56102698499996,
                -13.062250480999921
              ],
              [
                -75.56739285999998,
                -13.062511229999927
              ],
              [
                -75.57014773499992,
                -13.063553479999825
              ],
              [
                -75.57608548499996,
                -13.062711230999923
              ],
              [
                -75.57943586,
                -13.060151855999948
              ],
              [
                -75.5840893599999,
                -13.058941980999919
              ],
              [
                -75.58743973499998,
                -13.059826105999889
              ],
              [
                -75.58938673499995,
                -13.063931605999926
              ],
              [
                -75.59046448499998,
                -13.064200230999973
              ],
              [
                -75.60102773499995,
                -13.062571605999949
              ],
              [
                -75.60544835999991,
                -13.06396760499996
              ],
              [
                -75.60875248499985,
                -13.066015104999906
              ],
              [
                -75.61079985999999,
                -13.062478480999971
              ],
              [
                -75.61121873499997,
                -13.05977960599995
              ],
              [
                -75.61294035999998,
                -13.058290479999926
              ],
              [
                -75.61545323499996,
                -13.053776605999929
              ],
              [
                -75.61719135999988,
                -13.048982479999893
              ],
              [
                -75.61372848499997,
                -13.043693355999892
              ],
              [
                -75.61170510999989,
                -13.042513730999929
              ],
              [
                -75.60893160999984,
                -13.04335160599993
              ],
              [
                -75.60295110999988,
                -13.04140435599993
              ],
              [
                -75.60016985899989,
                -13.039755855999886
              ],
              [
                -75.59757035999996,
                -13.03656060599991
              ],
              [
                -75.59238860999994,
                -13.036878855999873
              ],
              [
                -75.5883124849999,
                -13.03319923099997
              ],
              [
                -75.58359373499991,
                -13.030316355999844
              ],
              [
                -75.57639060999998,
                -13.030142605999856
              ],
              [
                -75.57496873499991,
                -13.029033230999971
              ],
              [
                -75.56879485999997,
                -13.027808604999905
              ],
              [
                -75.56713285999996,
                -13.026546855999982
              ],
              [
                -75.56107423499998,
                -13.026441355999964
              ],
              [
                -75.55766798499997,
                -13.025562479999962
              ],
              [
                -75.55492573399988,
                -13.02387885599984
              ],
              [
                -75.55290035999991,
                -13.021269480999933
              ],
              [
                -75.5466698599999,
                -13.014925730999948
              ],
              [
                -75.54152735999992,
                -13.007466855999951
              ],
              [
                -75.53952923499997,
                -13.000572230999921
              ],
              [
                -75.53997660999994,
                -12.997994105999965
              ],
              [
                -75.53903710999992,
                -12.99471485499987
              ],
              [
                -75.53995635999996,
                -12.989507855999932
              ],
              [
                -75.53584410999997,
                -12.976923730999829
              ],
              [
                -75.53579510999992,
                -12.971538480999925
              ],
              [
                -75.53794923499999,
                -12.965688229999955
              ],
              [
                -75.53801923499992,
                -12.963153980999948
              ],
              [
                -75.53248560999992,
                -12.963124730999937
              ],
              [
                -75.52619860999994,
                -12.96659985599996
              ],
              [
                -75.52426360899989,
                -12.96342972999986
              ],
              [
                -75.51858198499997,
                -12.961515604999931
              ],
              [
                -75.51366998499998,
                -12.960965604999899
              ],
              [
                -75.50957735999992,
                -12.961871105999933
              ],
              [
                -75.50939623499988,
                -12.96002398099995
              ],
              [
                -75.51189523399995,
                -12.956728229999953
              ],
              [
                -75.51301798499998,
                -12.953323730999898
              ],
              [
                -75.51236610999996,
                -12.948687854999946
              ],
              [
                -75.50961360999992,
                -12.947130479999942
              ],
              [
                -75.50751298499995,
                -12.94463148099993
              ],
              [
                -75.50331160999997,
                -12.943653605999941
              ],
              [
                -75.50294948499999,
                -12.939633355999945
              ],
              [
                -75.50573810999998,
                -12.930202229999963
              ],
              [
                -75.50537610899994,
                -12.925928604999854
              ],
              [
                -75.50693348499993,
                -12.920423480999887
              ],
              [
                -75.50436198499989,
                -12.918431480999914
              ],
              [
                -75.5045648599999,
                -12.913045980999925
              ],
              [
                -75.49961023499992,
                -12.910148354999876
              ],
              [
                -75.49320673499989,
                -12.90739598099998
              ],
              [
                -75.4899617339999,
                -12.907251105999876
              ],
              [
                -75.48703535999988,
                -12.909684855999899
              ],
              [
                -75.48451460999996,
                -12.909482104999938
              ],
              [
                -75.47955998499998,
                -12.905657480999935
              ],
              [
                -75.47701035899996,
                -12.904817230999868
              ],
              [
                -75.47614110899991,
                -12.90177497999997
              ],
              [
                -75.47770573499997,
                -12.898703730999955
              ],
              [
                -75.47841835999998,
                -12.89206560599996
              ],
              [
                -75.47607735999998,
                -12.888890105999906
              ],
              [
                -75.47552098399996,
                -12.885992729999941
              ],
              [
                -75.47807073499996,
                -12.881843605999904
              ],
              [
                -75.48001273399996,
                -12.875399104999929
              ],
              [
                -75.47995948499994,
                -12.86931698099994
              ],
              [
                -75.47659823399988,
                -12.86504885599993
              ],
              [
                -75.47094398499996,
                -12.862421105999942
              ],
              [
                -75.46574298499996,
                -12.863426480999976
              ],
              [
                -75.46273835899996,
                -12.86198248099987
              ],
              [
                -75.46128710899995,
                -12.860048854999945
              ],
              [
                -75.45728860899987,
                -12.858552355999961
              ],
              [
                -75.45351773499988,
                -12.860720729999855
              ],
              [
                -75.45130210999997,
                -12.861097855999958
              ],
              [
                -75.44743685999998,
                -12.858693730999903
              ],
              [
                -75.44295873499993,
                -12.858976605999942
              ],
              [
                -75.43815073499991,
                -12.853602854999963
              ],
              [
                -75.43407623399997,
                -12.851638980999894
              ],
              [
                -75.43197660999994,
                -12.852988730999925
              ],
              [
                -75.43002710999997,
                -12.857937604999961
              ],
              [
                -75.42620298499997,
                -12.860187105999955
              ],
              [
                -75.42099223499997,
                -12.860831979999887
              ],
              [
                -75.41757110999998,
                -12.86219647999991
              ],
              [
                -75.41518860999992,
                -12.864459855999883
              ],
              [
                -75.41390998499992,
                -12.863588605999894
              ],
              [
                -75.41375110999991,
                -12.86066610499995
              ],
              [
                -75.41146398499995,
                -12.857457730999954
              ],
              [
                -75.41187685999995,
                -12.853995230999828
              ],
              [
                -75.4110511099999,
                -12.851707979999958
              ],
              [
                -75.40523773499996,
                -12.850183230999903
              ],
              [
                -75.39812210999997,
                -12.84773723099994
              ],
              [
                -75.39008510999997,
                -12.84786422999997
              ],
              [
                -75.3867674849999,
                -12.845799105999959
              ],
              [
                -75.38047535899995,
                -12.843897229999982
              ],
              [
                -75.37811248399993,
                -12.850722980999876
              ],
              [
                -75.37596860999997,
                -12.855098479999981
              ],
              [
                -75.37356198499998,
                -12.858161355999925
              ],
              [
                -75.37001785999996,
                -12.864068355999905
              ],
              [
                -75.36800510999996,
                -12.864374605999842
              ],
              [
                -75.36542348499995,
                -12.866781230999948
              ],
              [
                -75.36150585999997,
                -12.86799223099996
              ],
              [
                -75.35885110899989,
                -12.870017354999902
              ],
              [
                -75.35766823399996,
                -12.87241673099993
              ],
              [
                -75.35783723499992,
                -12.87599885599991
              ],
              [
                -75.35432273499993,
                -12.877553355999908
              ],
              [
                -75.35276823499998,
                -12.880527104999942
              ],
              [
                -75.35597860999997,
                -12.88248723099997
              ],
              [
                -75.3571951099999,
                -12.884345854999879
              ],
              [
                -75.36138560899997,
                -12.88772522999983
              ],
              [
                -75.36050698399993,
                -12.89059772999991
              ],
              [
                -75.35824273499998,
                -12.892997105999939
              ],
              [
                -75.35546098399988,
                -12.899115230999882
              ],
              [
                -75.35499923499987,
                -12.90439635499996
              ],
              [
                -75.35241685899996,
                -12.90838310599986
              ],
              [
                -75.34833948499994,
                -12.910195230999932
              ],
              [
                -75.34608335899998,
                -12.917720230999976
              ],
              [
                -75.34775060899989,
                -12.92119960499997
              ],
              [
                -75.3545426099999,
                -12.928045980999968
              ],
              [
                -75.34868560899997,
                -12.931177355999978
              ],
              [
                -75.34110448499996,
                -12.933627854999884
              ],
              [
                -75.3366479849999,
                -12.936511355999926
              ],
              [
                -75.33477910999989,
                -12.936174354999821
              ]
            ]
          ]
        ],
        "type": "MultiPolygon"
      },
      "type": "Feature",
      "properties": {
        "PROVINCIA": "CASTROVIRREYNA",
        "DISTRITO": "AURAHUA",
        "name": "AURAHUA",
        "ID": "080403",
        "DEPARTAMEN": "HUANCAVELICA"
      }
    }
  ]
}
