{
  "type": "FeatureCollection",
  "features": [
    {
      "geometry": {
        "coordinates": [
          [
            [
              [
                -75.3640234849999,
                -13.19126760599994
              ],
              [
                -75.36496098399994,
                -13.194267605999812
              ],
              [
                -75.36777148499988,
                -13.198386730999914
              ],
              [
                -75.36472460999994,
                -13.204115230999946
              ],
              [
                -75.36490235999997,
                -13.205246105999947
              ],
              [
                -75.37296873399993,
                -13.21689848099993
              ],
              [
                -75.37828123499992,
                -13.22046285599987
              ],
              [
                -75.37851760999996,
                -13.230128855999851
              ],
              [
                -75.37615823499988,
                -13.232546855999885
              ],
              [
                -75.37571485999996,
                -13.238714855999888
              ],
              [
                -75.37128710899998,
                -13.246089855999912
              ],
              [
                -75.37268548499998,
                -13.248867230999963
              ],
              [
                -75.37376560899997,
                -13.255679730999873
              ],
              [
                -75.37627923499986,
                -13.258271480999952
              ],
              [
                -75.37549998399993,
                -13.260650355999928
              ],
              [
                -75.3776132349999,
                -13.267023480999853
              ],
              [
                -75.37956448399996,
                -13.274580105999974
              ],
              [
                -75.3820957349999,
                -13.276113230999897
              ],
              [
                -75.3815097349999,
                -13.278960980999898
              ],
              [
                -75.3845292339999,
                -13.285974605999968
              ],
              [
                -75.38622073499994,
                -13.291966855999817
              ],
              [
                -75.38891210999998,
                -13.295181605999971
              ],
              [
                -75.39079698499995,
                -13.296253855999964
              ],
              [
                -75.39303710999997,
                -13.300031230999934
              ],
              [
                -75.39562698499992,
                -13.30255073099994
              ],
              [
                -75.39846873499994,
                -13.306867355999884
              ],
              [
                -75.40074023499994,
                -13.307298855999875
              ],
              [
                -75.40360735899998,
                -13.310222605999968
              ],
              [
                -75.40729485999998,
                -13.31264073099993
              ],
              [
                -75.41215423499995,
                -13.313970730999927
              ],
              [
                -75.41601948399995,
                -13.317183480999915
              ],
              [
                -75.41595310999998,
                -13.322058605999871
              ],
              [
                -75.41831248499994,
                -13.324892605999878
              ],
              [
                -75.42239648499998,
                -13.324601605999874
              ],
              [
                -75.42582610999989,
                -13.328505855999879
              ],
              [
                -75.42817773499996,
                -13.33258010599991
              ],
              [
                -75.43062698499995,
                -13.333380855999906
              ],
              [
                -75.43297660999991,
                -13.336505730999932
              ],
              [
                -75.43607223499998,
                -13.33680860599992
              ],
              [
                -75.44019723399998,
                -13.341232480999963
              ],
              [
                -75.44080073499998,
                -13.34323823099993
              ],
              [
                -75.44385160999991,
                -13.344470730999944
              ],
              [
                -75.44574023399997,
                -13.34735348099997
              ],
              [
                -75.44362698499998,
                -13.353496105999909
              ],
              [
                -75.44421485999993,
                -13.35673248099988
              ],
              [
                -75.44617185999994,
                -13.361123105999923
              ],
              [
                -75.44586135999992,
                -13.362714855999968
              ],
              [
                -75.44871873499994,
                -13.370179730999894
              ],
              [
                -75.44909173499997,
                -13.372347605999948
              ],
              [
                -75.44550973499997,
                -13.378267605999952
              ],
              [
                -75.44299998499997,
                -13.384494105999977
              ],
              [
                -75.44311723399989,
                -13.392107480999925
              ],
              [
                -75.44440235999991,
                -13.393849605999947
              ],
              [
                -75.44516985999991,
                -13.398767605999979
              ],
              [
                -75.44872260999995,
                -13.40179885599997
              ],
              [
                -75.44983785999995,
                -13.405496106999976
              ],
              [
                -75.45341010999994,
                -13.409331980999923
              ],
              [
                -75.45505073399988,
                -13.412593730999959
              ],
              [
                -75.45985148499983,
                -13.416654355999981
              ],
              [
                -75.45903510999995,
                -13.419558605999896
              ],
              [
                -75.46205273499999,
                -13.422970730999964
              ],
              [
                -75.46382810999995,
                -13.42359948099994
              ],
              [
                -75.46655273499988,
                -13.42779098099993
              ],
              [
                -75.46458785999994,
                -13.43101373099995
              ],
              [
                -75.46577535999995,
                -13.432160105999913
              ],
              [
                -75.47162110999994,
                -13.426966855999922
              ],
              [
                -75.47627535999999,
                -13.425439480999955
              ],
              [
                -75.48100385999999,
                -13.420917980999945
              ],
              [
                -75.48300198499993,
                -13.417460980999977
              ],
              [
                -75.48633010999998,
                -13.413900355999886
              ],
              [
                -75.48665823499994,
                -13.407869105999964
              ],
              [
                -75.48864848499994,
                -13.404708980999942
              ],
              [
                -75.48901948499991,
                -13.401064480999935
              ],
              [
                -75.49139260899989,
                -13.396068356999933
              ],
              [
                -75.49824998399998,
                -13.391152355999964
              ],
              [
                -75.49981048399997,
                -13.389080105999938
              ],
              [
                -75.4976852339999,
                -13.386908230999893
              ],
              [
                -75.49235023499989,
                -13.378501731999961
              ],
              [
                -75.49299673499996,
                -13.376427355999908
              ],
              [
                -75.49655273499991,
                -13.373194730999955
              ],
              [
                -75.49639110999993,
                -13.367322105999904
              ],
              [
                -75.50039148499991,
                -13.35541760599989
              ],
              [
                -75.50324385999994,
                -13.352765105999822
              ],
              [
                -75.49913060999995,
                -13.346857855999929
              ],
              [
                -75.50139960999991,
                -13.341955605999942
              ],
              [
                -75.50047660999996,
                -13.336907480999969
              ],
              [
                -75.50123460999987,
                -13.33419123099992
              ],
              [
                -75.50167673399994,
                -13.328253355999948
              ],
              [
                -75.50126873499994,
                -13.323390980999875
              ],
              [
                -75.50020835999993,
                -13.318654730999981
              ],
              [
                -75.49887860999996,
                -13.316303355999935
              ],
              [
                -75.49455298499998,
                -13.314483855999924
              ],
              [
                -75.48875623499998,
                -13.31038360599996
              ],
              [
                -75.48133373399992,
                -13.30727335599994
              ],
              [
                -75.47249723499993,
                -13.305435355999975
              ],
              [
                -75.47087136,
                -13.303738730999953
              ],
              [
                -75.4688921099999,
                -13.298719730999892
              ],
              [
                -75.4669126099999,
                -13.295750605999956
              ],
              [
                -75.46274198499998,
                -13.293135105999909
              ],
              [
                -75.45934910999989,
                -13.287712980999913
              ],
              [
                -75.45496573499997,
                -13.28380373099992
              ],
              [
                -75.45213810999996,
                -13.276522605999958
              ],
              [
                -75.45235023499998,
                -13.270018980999964
              ],
              [
                -75.45021873499996,
                -13.26666010599996
              ],
              [
                -75.44556610899991,
                -13.264395730999922
              ],
              [
                -75.43790273499991,
                -13.26417285599996
              ],
              [
                -75.43037310999989,
                -13.26078673099994
              ],
              [
                -75.4252938599999,
                -13.260029355999961
              ],
              [
                -75.41491273499992,
                -13.262123355999961
              ],
              [
                -75.41188298399999,
                -13.260875855999927
              ],
              [
                -75.41076910999993,
                -13.259049105999964
              ],
              [
                -75.40916523399994,
                -13.2503611059999
              ],
              [
                -75.41010098499999,
                -13.245861105999893
              ],
              [
                -75.41152660899996,
                -13.242742355999951
              ],
              [
                -75.40965248399993,
                -13.237527230999945
              ],
              [
                -75.40953823399997,
                -13.230139230999896
              ],
              [
                -75.40576798499995,
                -13.222941605999893
              ],
              [
                -75.40672010999992,
                -13.21437298099994
              ],
              [
                -75.40915735999988,
                -13.212354605999849
              ],
              [
                -75.41102348499993,
                -13.208850980999955
              ],
              [
                -75.41075685999988,
                -13.206299355999931
              ],
              [
                -75.41327035999996,
                -13.201839855999822
              ],
              [
                -75.41201360999997,
                -13.197841355999913
              ],
              [
                -75.41250860999997,
                -13.193956730999957
              ],
              [
                -75.4140319849999,
                -13.190719730999888
              ],
              [
                -75.41365110999999,
                -13.188815605999821
              ],
              [
                -75.41125185899989,
                -13.185578605999865
              ],
              [
                -75.41243235999997,
                -13.179866105999963
              ],
              [
                -75.41395573499989,
                -13.16798435599992
              ],
              [
                -75.41140423499996,
                -13.16360485599995
              ],
              [
                -75.4074818599999,
                -13.16067248099995
              ],
              [
                -75.40595823499996,
                -13.156673730999955
              ],
              [
                -75.40694860899993,
                -13.154198355999938
              ],
              [
                -75.40631835999989,
                -13.14851373099998
              ],
              [
                -75.40418898499996,
                -13.149675980999973
              ],
              [
                -75.40080148399994,
                -13.148577355999919
              ],
              [
                -75.39738360999996,
                -13.148455355999943
              ],
              [
                -75.39369098499998,
                -13.14607498099997
              ],
              [
                -75.38828948499997,
                -13.149645480999936
              ],
              [
                -75.38523773499998,
                -13.153582230999973
              ],
              [
                -75.38374248499997,
                -13.157824105999907
              ],
              [
                -75.38169598499996,
                -13.161401355999942
              ],
              [
                -75.38005685999997,
                -13.162034605999963
              ],
              [
                -75.37255010999996,
                -13.162779730999944
              ],
              [
                -75.36897373499988,
                -13.165033605999952
              ],
              [
                -75.36042385899998,
                -13.165163980999978
              ],
              [
                -75.35900785999996,
                -13.165818230999946
              ],
              [
                -75.35934360899995,
                -13.17162498099998
              ],
              [
                -75.35855473399988,
                -13.17474610599993
              ],
              [
                -75.36049223499998,
                -13.181037105999962
              ],
              [
                -75.36305660899995,
                -13.186304730999893
              ],
              [
                -75.3640234849999,
                -13.19126760599994
              ]
            ]
          ]
        ],
        "type": "MultiPolygon"
      },
      "type": "Feature",
      "properties": {
        "PROVINCIA": "CASTROVIRREYNA",
        "DISTRITO": "MOLLEPAMPA",
        "name": "MOLLEPAMPA",
        "ID": "080414",
        "DEPARTAMEN": "HUANCAVELICA"
      }
    }
  ]
}
