{
  "type": "FeatureCollection",
  "features": [
    {
      "geometry": {
        "coordinates": [
          [
            [
              [
                -77.14166123699988,
                -9.833231976999912
              ],
              [
                -77.14656836099994,
                -9.831935601999874
              ],
              [
                -77.15047461199993,
                -9.83181835299996
              ],
              [
                -77.15309961199995,
                -9.830908227999942
              ],
              [
                -77.15683186199993,
                -9.82764397799997
              ],
              [
                -77.16218561099998,
                -9.827049227999964
              ],
              [
                -77.16710773599993,
                -9.829386227999976
              ],
              [
                -77.16813423699995,
                -9.831027352999968
              ],
              [
                -77.17427323599992,
                -9.831258102999925
              ],
              [
                -77.17817536099994,
                -9.833950976999915
              ],
              [
                -77.1847463609999,
                -9.836938477999922
              ],
              [
                -77.18713473599996,
                -9.83621285299995
              ],
              [
                -77.18881286099992,
                -9.83403360299991
              ],
              [
                -77.19690623599996,
                -9.832199102999937
              ],
              [
                -77.20031948599996,
                -9.832161227999961
              ],
              [
                -77.20282336199989,
                -9.83110122699992
              ],
              [
                -77.20533323599983,
                -9.828494477999982
              ],
              [
                -77.20509798599988,
                -9.822651602999883
              ],
              [
                -77.20659473599994,
                -9.821206227999937
              ],
              [
                -77.20968411099994,
                -9.824532227999896
              ],
              [
                -77.21518073599998,
                -9.824718227999938
              ],
              [
                -77.21693711199998,
                -9.82393297799996
              ],
              [
                -77.22035323599994,
                -9.817460601999926
              ],
              [
                -77.22153911099991,
                -9.811318227999891
              ],
              [
                -77.22572473599985,
                -9.806639851999876
              ],
              [
                -77.2350667369999,
                -9.806174976999955
              ],
              [
                -77.23883961099989,
                -9.808904852999888
              ],
              [
                -77.24269848599994,
                -9.808375977999901
              ],
              [
                -77.2438477359999,
                -9.805732476999935
              ],
              [
                -77.24203486199985,
                -9.803382477999946
              ],
              [
                -77.24124723599988,
                -9.799395852999965
              ],
              [
                -77.24129936199995,
                -9.791516102999879
              ],
              [
                -77.23880898699991,
                -9.787718352999889
              ],
              [
                -77.23848423599998,
                -9.785320727999931
              ],
              [
                -77.23929673699996,
                -9.780400477999876
              ],
              [
                -77.24339211099988,
                -9.778102602999923
              ],
              [
                -77.24558361099992,
                -9.77383147799992
              ],
              [
                -77.2449361109999,
                -9.771642477999933
              ],
              [
                -77.24215286099991,
                -9.76862110299993
              ],
              [
                -77.23975373699994,
                -9.762524727999846
              ],
              [
                -77.23765736099995,
                -9.755829852999966
              ],
              [
                -77.23501448599995,
                -9.754292977999967
              ],
              [
                -77.23337236099997,
                -9.74993922699997
              ],
              [
                -77.23079161199996,
                -9.747485102999974
              ],
              [
                -77.23241086099989,
                -9.745094226999925
              ],
              [
                -77.23082973599998,
                -9.741512102999934
              ],
              [
                -77.23043748699996,
                -9.737061227999902
              ],
              [
                -77.23357036099998,
                -9.728944227999932
              ],
              [
                -77.23566836199996,
                -9.727401602999976
              ],
              [
                -77.23598461199998,
                -9.72500985299996
              ],
              [
                -77.23375098599996,
                -9.722558852999896
              ],
              [
                -77.23345461099984,
                -9.719198602999882
              ],
              [
                -77.23202023599998,
                -9.716157727999928
              ],
              [
                -77.22777298699992,
                -9.713389227999926
              ],
              [
                -77.22957348699998,
                -9.707096977999925
              ],
              [
                -77.23159711099999,
                -9.705233602999954
              ],
              [
                -77.24033548699992,
                -9.702905602999977
              ],
              [
                -77.24300573699998,
                -9.701083851999954
              ],
              [
                -77.25063086199992,
                -9.691861726999946
              ],
              [
                -77.25143961199996,
                -9.688626727999974
              ],
              [
                -77.25200761199989,
                -9.684784726999965
              ],
              [
                -77.24979473699995,
                -9.68262072799996
              ],
              [
                -77.2490604859999,
                -9.67981097799992
              ],
              [
                -77.25253161199998,
                -9.676221727999973
              ],
              [
                -77.25449548599994,
                -9.675472227999933
              ],
              [
                -77.25430523599994,
                -9.66977697699997
              ],
              [
                -77.25624398699995,
                -9.666809726999873
              ],
              [
                -77.26016523699991,
                -9.662927477999915
              ],
              [
                -77.26544198599998,
                -9.659667727999931
              ],
              [
                -77.26360636199996,
                -9.656267102999948
              ],
              [
                -77.26525161099994,
                -9.653122602999929
              ],
              [
                -77.26970573599988,
                -9.64873885299994
              ],
              [
                -77.26627261099998,
                -9.646759351999947
              ],
              [
                -77.26567348599997,
                -9.64529035199996
              ],
              [
                -77.26748361099999,
                -9.635027351999895
              ],
              [
                -77.27386061099992,
                -9.634230102999936
              ],
              [
                -77.27552136199995,
                -9.628806102999931
              ],
              [
                -77.27921011199999,
                -9.624313976999872
              ],
              [
                -77.28145298699991,
                -9.622664102999977
              ],
              [
                -77.28371048599985,
                -9.61785335299993
              ],
              [
                -77.28297873699995,
                -9.61244847699993
              ],
              [
                -77.28509523599985,
                -9.60872660299998
              ],
              [
                -77.28570336199988,
                -9.599360976999947
              ],
              [
                -77.28762511199989,
                -9.597560851999845
              ],
              [
                -77.28872936199997,
                -9.59251497799994
              ],
              [
                -77.29179473699992,
                -9.586969602999886
              ],
              [
                -77.2946734869999,
                -9.58476997699995
              ],
              [
                -77.29579261099997,
                -9.581397976999938
              ],
              [
                -77.29978148699996,
                -9.578485477999834
              ],
              [
                -77.30288061099998,
                -9.579088101999957
              ],
              [
                -77.30811711199988,
                -9.579037227999834
              ],
              [
                -77.30983148699988,
                -9.572061351999935
              ],
              [
                -77.30327611099983,
                -9.560340226999926
              ],
              [
                -77.30107223599998,
                -9.557532727999899
              ],
              [
                -77.30080561099999,
                -9.55500597699995
              ],
              [
                -77.3056203619999,
                -9.549419227999977
              ],
              [
                -77.30908148699984,
                -9.54231847699998
              ],
              [
                -77.30938673599996,
                -9.54016210299983
              ],
              [
                -77.30534836199996,
                -9.537600227999974
              ],
              [
                -77.30466848599991,
                -9.535275351999871
              ],
              [
                -77.30631511099995,
                -9.531652727999926
              ],
              [
                -77.30647648699994,
                -9.52796747699989
              ],
              [
                -77.30984611099996,
                -9.52491372799983
              ],
              [
                -77.3096298619999,
                -9.52102185299998
              ],
              [
                -77.31123848699997,
                -9.517014476999918
              ],
              [
                -77.3103391119999,
                -9.514734477999923
              ],
              [
                -77.30667061199995,
                -9.512277727999958
              ],
              [
                -77.29902898599994,
                -9.509651102999896
              ],
              [
                -77.29462361099996,
                -9.506096101999901
              ],
              [
                -77.29195311199999,
                -9.505726601999982
              ],
              [
                -77.28940448699996,
                -9.509695352999927
              ],
              [
                -77.2866384859999,
                -9.50978785299992
              ],
              [
                -77.28047673599997,
                -9.511132351999947
              ],
              [
                -77.27794386199992,
                -9.510629477999942
              ],
              [
                -77.27508323699993,
                -9.513329976999898
              ],
              [
                -77.27249861099995,
                -9.512147101999915
              ],
              [
                -77.2651179859999,
                -9.510988727999973
              ],
              [
                -77.26079598699988,
                -9.509144477999882
              ],
              [
                -77.25750148599997,
                -9.506695476999937
              ],
              [
                -77.25442961099998,
                -9.502581851999935
              ],
              [
                -77.2522022359999,
                -9.502366227999971
              ],
              [
                -77.24952573699994,
                -9.50430635299989
              ],
              [
                -77.24871923699993,
                -9.506080602999873
              ],
              [
                -77.24573536199995,
                -9.508078602999888
              ],
              [
                -77.24214273599989,
                -9.512802977999911
              ],
              [
                -77.23802911099995,
                -9.513395852999963
              ],
              [
                -77.23714886099998,
                -9.507521727999915
              ],
              [
                -77.23368248699995,
                -9.506785477999927
              ],
              [
                -77.23084373599988,
                -9.50520447799994
              ],
              [
                -77.22587498699994,
                -9.504136727999878
              ],
              [
                -77.22252661199991,
                -9.506982852999897
              ],
              [
                -77.2151006119999,
                -9.506374476999952
              ],
              [
                -77.21093448599999,
                -9.518233102999943
              ],
              [
                -77.20528736099993,
                -9.51662410199998
              ],
              [
                -77.20176561099998,
                -9.51366385199998
              ],
              [
                -77.19928173599999,
                -9.514545976999955
              ],
              [
                -77.19523798599994,
                -9.511477852999974
              ],
              [
                -77.19208048699994,
                -9.508274851999886
              ],
              [
                -77.19197423599991,
                -9.506149477999884
              ],
              [
                -77.18922511099993,
                -9.503115352999941
              ],
              [
                -77.18519211199992,
                -9.503880727999956
              ],
              [
                -77.17767736199994,
                -9.503364601999976
              ],
              [
                -77.17316823699991,
                -9.500929851999956
              ],
              [
                -77.17104061099991,
                -9.497031477999883
              ],
              [
                -77.16637361099993,
                -9.495713727999942
              ],
              [
                -77.16221436099988,
                -9.495349977999922
              ],
              [
                -77.15731836099997,
                -9.494164101999957
              ],
              [
                -77.15226761099996,
                -9.493941351999979
              ],
              [
                -77.14930661199992,
                -9.494619102999934
              ],
              [
                -77.15149998599986,
                -9.497236351999959
              ],
              [
                -77.14977536099997,
                -9.50407997699989
              ],
              [
                -77.15037886099998,
                -9.507222602999946
              ],
              [
                -77.15225786099995,
                -9.510681727999895
              ],
              [
                -77.15255861099996,
                -9.513535101999935
              ],
              [
                -77.15582223599989,
                -9.517220726999938
              ],
              [
                -77.15783786199995,
                -9.52076947699993
              ],
              [
                -77.15748048699999,
                -9.52466010199987
              ],
              [
                -77.16006636099996,
                -9.527607477999936
              ],
              [
                -77.15961723599992,
                -9.531542977999948
              ],
              [
                -77.16129298599992,
                -9.534371102999955
              ],
              [
                -77.16129098699997,
                -9.536820351999893
              ],
              [
                -77.16275198599993,
                -9.538956477999818
              ],
              [
                -77.16506636099996,
                -9.545003852999969
              ],
              [
                -77.1653769859999,
                -9.549656226999957
              ],
              [
                -77.16891598699988,
                -9.556269476999944
              ],
              [
                -77.16925786099995,
                -9.558507852999867
              ],
              [
                -77.17220511199997,
                -9.559275352999975
              ],
              [
                -77.17193748599993,
                -9.563037226999882
              ],
              [
                -77.17421098699992,
                -9.56545510199993
              ],
              [
                -77.17520111099998,
                -9.567953102999923
              ],
              [
                -77.17396673699989,
                -9.572904351999966
              ],
              [
                -77.17528711199998,
                -9.578644476999955
              ],
              [
                -77.17457798699985,
                -9.581730476999894
              ],
              [
                -77.17435548599991,
                -9.588212852999902
              ],
              [
                -77.17512698599995,
                -9.594779351999932
              ],
              [
                -77.17658211099996,
                -9.597382851999953
              ],
              [
                -77.17713086099997,
                -9.604908227999886
              ],
              [
                -77.17856448599991,
                -9.608460976999936
              ],
              [
                -77.18223823599993,
                -9.613101601999972
              ],
              [
                -77.18354686099997,
                -9.618453102999979
              ],
              [
                -77.18819536099988,
                -9.6244784779999
              ],
              [
                -77.19196873699991,
                -9.627763727999934
              ],
              [
                -77.19707036199998,
                -9.630804852999972
              ],
              [
                -77.20014648599994,
                -9.631787101999976
              ],
              [
                -77.20230748599994,
                -9.633847726999932
              ],
              [
                -77.20152923599994,
                -9.637722602999872
              ],
              [
                -77.19984373599993,
                -9.641322226999932
              ],
              [
                -77.19929098699993,
                -9.646056602999977
              ],
              [
                -77.19603323699994,
                -9.648037101999876
              ],
              [
                -77.19098211099998,
                -9.648576602999924
              ],
              [
                -77.18782611099988,
                -9.652255852999872
              ],
              [
                -77.18766986099996,
                -9.656007852999892
              ],
              [
                -77.18623823699988,
                -9.661648476999972
              ],
              [
                -77.18252348599992,
                -9.664701227999956
              ],
              [
                -77.17818748599996,
                -9.666091852999898
              ],
              [
                -77.1754277369999,
                -9.668757852999931
              ],
              [
                -77.17305273599993,
                -9.673392602999911
              ],
              [
                -77.16035736099997,
                -9.674123102999943
              ],
              [
                -77.15816798599991,
                -9.674806602999922
              ],
              [
                -77.15130273599988,
                -9.671287102999884
              ],
              [
                -77.14813286199995,
                -9.671261727999934
              ],
              [
                -77.14198048699996,
                -9.676253852999935
              ],
              [
                -77.14112498599997,
                -9.677986352999937
              ],
              [
                -77.13507998599982,
                -9.684277352999914
              ],
              [
                -77.1327656119999,
                -9.688468727999975
              ],
              [
                -77.13466598599996,
                -9.695343726999909
              ],
              [
                -77.13827536199989,
                -9.699831977999963
              ],
              [
                -77.13600786099994,
                -9.704230476999896
              ],
              [
                -77.13792186099994,
                -9.713138726999944
              ],
              [
                -77.1366406119999,
                -9.716519476999906
              ],
              [
                -77.13651761099993,
                -9.719890601999964
              ],
              [
                -77.13768161099995,
                -9.72097660299994
              ],
              [
                -77.13910736199989,
                -9.729039102999877
              ],
              [
                -77.13781448599997,
                -9.733814477999942
              ],
              [
                -77.1388573619999,
                -9.737003852999976
              ],
              [
                -77.1369746119999,
                -9.743199227999924
              ],
              [
                -77.13666798699995,
                -9.749283227999967
              ],
              [
                -77.13782223599998,
                -9.753289102999872
              ],
              [
                -77.13663473599996,
                -9.761187477999954
              ],
              [
                -77.13562886099993,
                -9.764962852999872
              ],
              [
                -77.13579986099995,
                -9.768702977999965
              ],
              [
                -77.13396286099993,
                -9.773687477999943
              ],
              [
                -77.13651011199994,
                -9.778321977999951
              ],
              [
                -77.13907936099997,
                -9.788814227999978
              ],
              [
                -77.13711361099996,
                -9.791679227999964
              ],
              [
                -77.13511736199996,
                -9.79769510299991
              ],
              [
                -77.13297311099996,
                -9.802636852999967
              ],
              [
                -77.13420686099994,
                -9.807279352999956
              ],
              [
                -77.13987398599988,
                -9.819115352999972
              ],
              [
                -77.14200948699994,
                -9.821989351999889
              ],
              [
                -77.14117536099991,
                -9.825504352999928
              ],
              [
                -77.14166123699988,
                -9.833231976999912
              ]
            ]
          ]
        ],
        "type": "MultiPolygon"
      },
      "type": "Feature",
      "properties": {
        "PROVINCIA": "HUARI",
        "DISTRITO": "CHAVIN DE HUANTAR",
        "name": "CHAVIN DE HUANTAR",
        "ID": "020803",
        "DEPARTAMEN": "ANCASH"
      }
    }
  ]
}
