{
  "type": "FeatureCollection",
  "features": [
    {
      "geometry": {
        "coordinates": [
          [
            [
              [
                -70.51797848099989,
                -13.897044981999898
              ],
              [
                -70.51545122999994,
                -13.900605480999957
              ],
              [
                -70.51305660499997,
                -13.901099605999889
              ],
              [
                -70.50986522999989,
                -13.905472605999876
              ],
              [
                -70.50846685499994,
                -13.910361355999896
              ],
              [
                -70.51151760499994,
                -13.916025356999967
              ],
              [
                -70.51699410499998,
                -13.920488231999911
              ],
              [
                -70.51829697999995,
                -13.918798856999842
              ],
              [
                -70.5225312309999,
                -13.917519480999943
              ],
              [
                -70.53008010499997,
                -13.917285105999895
              ],
              [
                -70.53471285499984,
                -13.921019480999973
              ],
              [
                -70.54127147999998,
                -13.924355355999865
              ],
              [
                -70.54250797999998,
                -13.925705106999885
              ],
              [
                -70.54305910499994,
                -13.930492105999917
              ],
              [
                -70.54594960499998,
                -13.934259606999888
              ],
              [
                -70.55036685599998,
                -13.936143356999878
              ],
              [
                -70.55478385499998,
                -13.936565480999832
              ],
              [
                -70.55809672999999,
                -13.938481731999843
              ],
              [
                -70.56092235499995,
                -13.941599731999816
              ],
              [
                -70.56309835599995,
                -13.946309106999934
              ],
              [
                -70.56657360499997,
                -13.951440730999934
              ],
              [
                -70.56969148099995,
                -13.954850981999925
              ],
              [
                -70.57488810499996,
                -13.96209360599994
              ],
              [
                -70.57712910499998,
                -13.965991106999923
              ],
              [
                -70.58593535499995,
                -13.972846106999839
              ],
              [
                -70.58791197999983,
                -13.976611605999892
              ],
              [
                -70.58968122999994,
                -13.97819185599991
              ],
              [
                -70.59547947999988,
                -13.979924355999913
              ],
              [
                -70.60685010499992,
                -13.979244230999939
              ],
              [
                -70.61281110499993,
                -13.979729105999922
              ],
              [
                -70.61672248099984,
                -13.984031730999959
              ],
              [
                -70.62089460599998,
                -13.98703048199991
              ],
              [
                -70.62264172999994,
                -13.991802355999937
              ],
              [
                -70.63075135499992,
                -13.997226106999904
              ],
              [
                -70.63242022999998,
                -13.999964106999869
              ],
              [
                -70.63343560499999,
                -14.003640606999966
              ],
              [
                -70.63805260499998,
                -14.006170231999931
              ],
              [
                -70.64355473099994,
                -14.007369731999972
              ],
              [
                -70.64399798099993,
                -14.009560106999913
              ],
              [
                -70.63911760499997,
                -14.014099355999974
              ],
              [
                -70.63488122999996,
                -14.016535106999982
              ],
              [
                -70.6340339809999,
                -14.018282606999946
              ],
              [
                -70.63350447999989,
                -14.023842730999945
              ],
              [
                -70.62902985499994,
                -14.027390605999926
              ],
              [
                -70.62908272999988,
                -14.028661605999957
              ],
              [
                -70.63231297999988,
                -14.033374481999886
              ],
              [
                -70.6340339809999,
                -14.039570106999975
              ],
              [
                -70.63347797999984,
                -14.043197481999982
              ],
              [
                -70.63604623099997,
                -14.04822810699983
              ],
              [
                -70.64131510499993,
                -14.051828980999971
              ],
              [
                -70.6415534809999,
                -14.058289355999875
              ],
              [
                -70.64217535499995,
                -14.060836856999913
              ],
              [
                -70.6467164799999,
                -14.070389356999897
              ],
              [
                -70.64859635499982,
                -14.072878231999937
              ],
              [
                -70.64965535599998,
                -14.076028980999979
              ],
              [
                -70.65259435499996,
                -14.075578856999925
              ],
              [
                -70.65614222999994,
                -14.077776480999944
              ],
              [
                -70.66111998099996,
                -14.076320230999897
              ],
              [
                -70.66530335499988,
                -14.080397731999938
              ],
              [
                -70.67173723099995,
                -14.08209223199998
              ],
              [
                -70.67539898099994,
                -14.083851731999914
              ],
              [
                -70.67801235499991,
                -14.082568856999899
              ],
              [
                -70.68365197999998,
                -14.081986356999948
              ],
              [
                -70.68598185599996,
                -14.082542356999852
              ],
              [
                -70.68939735599992,
                -14.086937481999882
              ],
              [
                -70.69480247999996,
                -14.086735356999952
              ],
              [
                -70.69875847999998,
                -14.088769856999875
              ],
              [
                -70.70222435499994,
                -14.088410355999883
              ],
              [
                -70.70342185599998,
                -14.085642606999954
              ],
              [
                -70.70610560499983,
                -14.083072606999849
              ],
              [
                -70.71241598099988,
                -14.080215481999971
              ],
              [
                -70.71632035499988,
                -14.076913855999976
              ],
              [
                -70.71985060599997,
                -14.074981481999885
              ],
              [
                -70.72285310499996,
                -14.074739355999952
              ],
              [
                -70.7262628549999,
                -14.076209356999982
              ],
              [
                -70.72986210599998,
                -14.079048605999958
              ],
              [
                -70.73493935499988,
                -14.079565981999963
              ],
              [
                -70.73974860599992,
                -14.07814810699989
              ],
              [
                -70.74467272999993,
                -14.07784148199994
              ],
              [
                -70.74992260599998,
                -14.075867981999977
              ],
              [
                -70.75603110499986,
                -14.078417730999888
              ],
              [
                -70.76281748099996,
                -14.080159855999966
              ],
              [
                -70.76703273099992,
                -14.079968356999927
              ],
              [
                -70.77015585499998,
                -14.082669981999913
              ],
              [
                -70.77414110499984,
                -14.080428105999886
              ],
              [
                -70.7825332299999,
                -14.08255498099993
              ],
              [
                -70.78781648099988,
                -14.081354481999881
              ],
              [
                -70.78981835599996,
                -14.078816355999948
              ],
              [
                -70.79309185499994,
                -14.075927731999855
              ],
              [
                -70.79588285499995,
                -14.072119106999935
              ],
              [
                -70.80756510599991,
                -14.069092230999956
              ],
              [
                -70.81623285599989,
                -14.068143481999982
              ],
              [
                -70.82037272999986,
                -14.068445356999973
              ],
              [
                -70.82235635499995,
                -14.071377731999974
              ],
              [
                -70.82947173099996,
                -14.076336856999944
              ],
              [
                -70.83132610599995,
                -14.070773980999945
              ],
              [
                -70.83061523099991,
                -14.065214856999944
              ],
              [
                -70.83259710599992,
                -14.060662230999924
              ],
              [
                -70.84210685499994,
                -14.058181981999894
              ],
              [
                -70.84818722999995,
                -14.055551480999952
              ],
              [
                -70.85008473099992,
                -14.052532856999846
              ],
              [
                -70.85068835599998,
                -14.04826360699991
              ],
              [
                -70.85287898099995,
                -14.040919231999851
              ],
              [
                -70.85883872999995,
                -14.034377980999977
              ],
              [
                -70.86181423099993,
                -14.026227606999896
              ],
              [
                -70.86121047999995,
                -14.023208981999971
              ],
              [
                -70.85784685599992,
                -14.020190356999876
              ],
              [
                -70.85353460499994,
                -14.012859356999968
              ],
              [
                -70.84935160499992,
                -14.011263856999904
              ],
              [
                -70.84445347999986,
                -14.011089480999885
              ],
              [
                -70.84166860499994,
                -14.009886106999886
              ],
              [
                -70.84046535499994,
                -14.007273231999875
              ],
              [
                -70.84586310599997,
                -14.003113231999919
              ],
              [
                -70.85009185599989,
                -14.00252873099987
              ],
              [
                -70.85198285499996,
                -14.000500230999933
              ],
              [
                -70.85236098099989,
                -13.996065230999932
              ],
              [
                -70.84991998099997,
                -13.989395355999932
              ],
              [
                -70.8475477309999,
                -13.986713730999895
              ],
              [
                -70.84589747999996,
                -13.982725606999963
              ],
              [
                -70.84393772999988,
                -13.975368105999962
              ],
              [
                -70.84675698099994,
                -13.969935981999924
              ],
              [
                -70.84679135599993,
                -13.965053980999926
              ],
              [
                -70.84562248099996,
                -13.962200355999812
              ],
              [
                -70.84019035599982,
                -13.956424481999932
              ],
              [
                -70.83819623099993,
                -13.952230105999888
              ],
              [
                -70.83847110499994,
                -13.95082048199987
              ],
              [
                -70.83565210499995,
                -13.945422730999951
              ],
              [
                -70.83303910599983,
                -13.938099731999955
              ],
              [
                -70.83154485599994,
                -13.936134981999828
              ],
              [
                -70.82731885599992,
                -13.934079231999931
              ],
              [
                -70.82434935499998,
                -13.931223855999974
              ],
              [
                -70.81991210499996,
                -13.929408230999968
              ],
              [
                -70.81686847999998,
                -13.924256731999947
              ],
              [
                -70.81104335499992,
                -13.918603230999906
              ],
              [
                -70.80967285599996,
                -13.912264230999881
              ],
              [
                -70.81070072999995,
                -13.905068855999957
              ],
              [
                -70.81418423099996,
                -13.901128356999891
              ],
              [
                -70.81846735499994,
                -13.89861573199994
              ],
              [
                -70.82709048099997,
                -13.897701980999898
              ],
              [
                -70.83085960599988,
                -13.895075106999968
              ],
              [
                -70.83028847999998,
                -13.890906231999907
              ],
              [
                -70.82562473099989,
                -13.878730355999949
              ],
              [
                -70.82841948099997,
                -13.875729481999883
              ],
              [
                -70.83162610599999,
                -13.865256605999946
              ],
              [
                -70.83127298099998,
                -13.85893173099987
              ],
              [
                -70.83339110599991,
                -13.85575460699988
              ],
              [
                -70.8387453549999,
                -13.852812731999848
              ],
              [
                -70.84504085599997,
                -13.852136105999818
              ],
              [
                -70.85351335599995,
                -13.85375410699993
              ],
              [
                -70.85830860599987,
                -13.848723606999897
              ],
              [
                -70.86127972999992,
                -13.843310605999932
              ],
              [
                -70.86307422999982,
                -13.84231035599987
              ],
              [
                -70.86898735499994,
                -13.842016231999935
              ],
              [
                -70.87228222999988,
                -13.840927731999955
              ],
              [
                -70.87781285499983,
                -13.836573855999973
              ],
              [
                -70.88122535499991,
                -13.832837730999927
              ],
              [
                -70.88125485499995,
                -13.831543230999898
              ],
              [
                -70.87843073099998,
                -13.827983605999918
              ],
              [
                -70.8784064809999,
                -13.822629981999967
              ],
              [
                -70.88025360599988,
                -13.818074106999973
              ],
              [
                -70.87931597999994,
                -13.815672605999964
              ],
              [
                -70.87519810599991,
                -13.812626981999927
              ],
              [
                -70.87382748099986,
                -13.80909235699994
              ],
              [
                -70.86517135599996,
                -13.80353785699998
              ],
              [
                -70.86250235499995,
                -13.800291856999934
              ],
              [
                -70.85652060599989,
                -13.800287355999899
              ],
              [
                -70.85392648099992,
                -13.798604981999972
              ],
              [
                -70.8511396049999,
                -13.80118635699995
              ],
              [
                -70.84995073099986,
                -13.808082355999943
              ],
              [
                -70.85027085599995,
                -13.81278623199995
              ],
              [
                -70.84706448099996,
                -13.816970731999959
              ],
              [
                -70.84335347999996,
                -13.817945356999871
              ],
              [
                -70.84045685599995,
                -13.820162106999874
              ],
              [
                -70.83891997999996,
                -13.819958980999957
              ],
              [
                -70.83617772999997,
                -13.822191355999905
              ],
              [
                -70.83497072999995,
                -13.824327980999954
              ],
              [
                -70.8302246049999,
                -13.825998105999929
              ],
              [
                -70.82840035599997,
                -13.827630855999928
              ],
              [
                -70.82655473099993,
                -13.8272363559999
              ],
              [
                -70.82387310599995,
                -13.824767606999899
              ],
              [
                -70.81966397999992,
                -13.823708980999982
              ],
              [
                -70.81790623099988,
                -13.820525356999838
              ],
              [
                -70.8143652309999,
                -13.820326231999957
              ],
              [
                -70.81104297999991,
                -13.821787106999977
              ],
              [
                -70.80642185599999,
                -13.821439605999899
              ],
              [
                -70.80441410599997,
                -13.820165981999935
              ],
              [
                -70.80007622999989,
                -13.822423855999887
              ],
              [
                -70.79631447999992,
                -13.822150356999884
              ],
              [
                -70.79449410599995,
                -13.818058606999841
              ],
              [
                -70.79025585499994,
                -13.816732481999964
              ],
              [
                -70.78725585599994,
                -13.817662106999876
              ],
              [
                -70.78263672999998,
                -13.816839855999888
              ],
              [
                -70.77852147999988,
                -13.815066356999978
              ],
              [
                -70.77373047999998,
                -13.815572230999976
              ],
              [
                -70.7721913549999,
                -13.81447660699996
              ],
              [
                -70.76837497999998,
                -13.81433210699987
              ],
              [
                -70.75725585599986,
                -13.815978480999945
              ],
              [
                -70.7519141059999,
                -13.81648248199997
              ],
              [
                -70.74925585499989,
                -13.818031231999953
              ],
              [
                -70.74283397999994,
                -13.82010160699997
              ],
              [
                -70.7359238549999,
                -13.824248106999903
              ],
              [
                -70.73260935599995,
                -13.823414105999916
              ],
              [
                -70.72912298099993,
                -13.824990231999948
              ],
              [
                -70.72860347999995,
                -13.826341855999885
              ],
              [
                -70.72386322999995,
                -13.829107480999937
              ],
              [
                -70.72136135599999,
                -13.829341855999928
              ],
              [
                -70.71831247999995,
                -13.832615231999966
              ],
              [
                -70.71306235599997,
                -13.836757856999895
              ],
              [
                -70.71063472999992,
                -13.841578106999918
              ],
              [
                -70.70950973099986,
                -13.840480480999872
              ],
              [
                -70.70855835499998,
                -13.828099731999941
              ],
              [
                -70.70650985499998,
                -13.823950855999954
              ],
              [
                -70.70421735499991,
                -13.82151498199994
              ],
              [
                -70.70280310499999,
                -13.817086231999951
              ],
              [
                -70.70302647999995,
                -13.81332723199995
              ],
              [
                -70.69885822999998,
                -13.80316760699992
              ],
              [
                -70.69945347999993,
                -13.801083356999868
              ],
              [
                -70.70518498099995,
                -13.792560855999909
              ],
              [
                -70.70574310499995,
                -13.787871605999896
              ],
              [
                -70.70790172999995,
                -13.782512605999955
              ],
              [
                -70.71225135599985,
                -13.776600731999906
              ],
              [
                -70.71350872999989,
                -13.773320731999945
              ],
              [
                -70.7149301049999,
                -13.772309356999926
              ],
              [
                -70.71941272999999,
                -13.77209060599995
              ],
              [
                -70.72181822999994,
                -13.771024605999969
              ],
              [
                -70.72159948099988,
                -13.769111231999943
              ],
              [
                -70.71840148099994,
                -13.765776480999875
              ],
              [
                -70.71982285499996,
                -13.76301585699997
              ],
              [
                -70.72231023099988,
                -13.761457856999925
              ],
              [
                -70.72170885599996,
                -13.757385106999948
              ],
              [
                -70.72389560499988,
                -13.755170980999878
              ],
              [
                -70.72641022999994,
                -13.747134855999946
              ],
              [
                -70.73105697999995,
                -13.7413947309999
              ],
              [
                -70.73474710499988,
                -13.739016730999879
              ],
              [
                -70.73495410499999,
                -13.734280981999916
              ],
              [
                -70.72751710599994,
                -13.734087730999931
              ],
              [
                -70.7244378559999,
                -13.73339423199991
              ],
              [
                -70.71800210499998,
                -13.729871230999947
              ],
              [
                -70.71592160599994,
                -13.72762423099988
              ],
              [
                -70.71314760499985,
                -13.727457731999891
              ],
              [
                -70.70820985499995,
                -13.730176355999959
              ],
              [
                -70.70252310599989,
                -13.73086985599997
              ],
              [
                -70.69916647999997,
                -13.738248730999942
              ],
              [
                -70.70144122999989,
                -13.74363035599987
              ],
              [
                -70.69785297999994,
                -13.74794448199998
              ],
              [
                -70.69885222999983,
                -13.751563605999934
              ],
              [
                -70.69540348099991,
                -13.75458135699995
              ],
              [
                -70.68563210599996,
                -13.751240356999915
              ],
              [
                -70.68185998099995,
                -13.747755606999874
              ],
              [
                -70.67984822999995,
                -13.74373198099994
              ],
              [
                -70.6776568549999,
                -13.74272623099995
              ],
              [
                -70.67320210499992,
                -13.743983606999905
              ],
              [
                -70.66896310499999,
                -13.741720355999973
              ],
              [
                -70.66781347999995,
                -13.738558980999926
              ],
              [
                -70.66558610499993,
                -13.73863085599993
              ],
              [
                -70.66328697999995,
                -13.744486480999853
              ],
              [
                -70.65322148099995,
                -13.747727855999926
              ],
              [
                -70.64978310499998,
                -13.752763606999906
              ],
              [
                -70.64786160499995,
                -13.753863481999872
              ],
              [
                -70.64772722999993,
                -13.756934481999963
              ],
              [
                -70.64972335499988,
                -13.76455410699998
              ],
              [
                -70.65137385499997,
                -13.767797730999973
              ],
              [
                -70.65517397999997,
                -13.770100855999829
              ],
              [
                -70.65670960499983,
                -13.774188981999941
              ],
              [
                -70.64995360599994,
                -13.776204231999884
              ],
              [
                -70.64755447999994,
                -13.781424730999902
              ],
              [
                -70.64788072999994,
                -13.788334230999965
              ],
              [
                -70.64488672999994,
                -13.796049855999968
              ],
              [
                -70.64258347999998,
                -13.797853980999832
              ],
              [
                -70.63830360499998,
                -13.797335731999851
              ],
              [
                -70.63575073099986,
                -13.795761980999941
              ],
              [
                -70.63154747999988,
                -13.794629606999933
              ],
              [
                -70.62805435499996,
                -13.794725481999876
              ],
              [
                -70.62342885599998,
                -13.793823480999947
              ],
              [
                -70.61563647999986,
                -13.795147731999919
              ],
              [
                -70.60919910499996,
                -13.793239230999916
              ],
              [
                -70.60471447999998,
                -13.79316760599994
              ],
              [
                -70.5963376059999,
                -13.7905266059999
              ],
              [
                -70.59432197999996,
                -13.791411731999972
              ],
              [
                -70.59192210599997,
                -13.794405481999945
              ],
              [
                -70.5875479799999,
                -13.79857335599985
              ],
              [
                -70.58478310499993,
                -13.79873848199992
              ],
              [
                -70.58275060599988,
                -13.802966730999913
              ],
              [
                -70.57978647999994,
                -13.804058730999941
              ],
              [
                -70.57808772999994,
                -13.809154980999892
              ],
              [
                -70.57404460499998,
                -13.811601981999956
              ],
              [
                -70.57108148099991,
                -13.818114856999955
              ],
              [
                -70.56689985599996,
                -13.818426481999893
              ],
              [
                -70.5658846049999,
                -13.823108856999966
              ],
              [
                -70.56331910499989,
                -13.82726910699995
              ],
              [
                -70.56011760599995,
                -13.827143981999882
              ],
              [
                -70.55622947999996,
                -13.830995855999845
              ],
              [
                -70.55059585499993,
                -13.832937355999888
              ],
              [
                -70.54895172999989,
                -13.839303230999917
              ],
              [
                -70.55085547999994,
                -13.85780660699993
              ],
              [
                -70.54865835499993,
                -13.865312106999852
              ],
              [
                -70.54833185599995,
                -13.870014106999975
              ],
              [
                -70.54578485599995,
                -13.87190810699991
              ],
              [
                -70.54464197999988,
                -13.876283606999834
              ],
              [
                -70.54101747999994,
                -13.881148856999971
              ],
              [
                -70.53605422999988,
                -13.882846855999844
              ],
              [
                -70.53556435599995,
                -13.884969355999942
              ],
              [
                -70.53827460499991,
                -13.88934485599998
              ],
              [
                -70.53719710499996,
                -13.89306735599996
              ],
              [
                -70.53758885499985,
                -13.899075480999954
              ],
              [
                -70.53193785499991,
                -13.897885606999978
              ],
              [
                -70.52557247999994,
                -13.894046980999974
              ],
              [
                -70.52044597999998,
                -13.894569356999966
              ],
              [
                -70.51797848099989,
                -13.897044981999898
              ]
            ]
          ]
        ],
        "type": "MultiPolygon"
      },
      "type": "Feature",
      "properties": {
        "PROVINCIA": "CARABAYA",
        "DISTRITO": "CORANI",
        "name": "CORANI",
        "ID": "200305",
        "DEPARTAMEN": "PUNO"
      }
    }
  ]
}
