{
  "type": "FeatureCollection",
  "features": [
    {
      "geometry": {
        "coordinates": [
          [
            [
              [
                -70.39950035499999,
                -13.371643605999964
              ],
              [
                -70.39856960499998,
                -13.374276105999911
              ],
              [
                -70.39555422999996,
                -13.374775605999957
              ],
              [
                -70.39440022999997,
                -13.371574855999881
              ],
              [
                -70.39058972999999,
                -13.36634898099993
              ],
              [
                -70.38680098099985,
                -13.364454605999981
              ],
              [
                -70.38416635499982,
                -13.364802855999926
              ],
              [
                -70.38009447999997,
                -13.36684985599993
              ],
              [
                -70.37280010499995,
                -13.368809480999971
              ],
              [
                -70.36848885499995,
                -13.369484480999915
              ],
              [
                -70.36366410499994,
                -13.374064480999891
              ],
              [
                -70.36354085499988,
                -13.376629105999939
              ],
              [
                -70.36139047999995,
                -13.38180048099997
              ],
              [
                -70.35833872999996,
                -13.384477605999962
              ],
              [
                -70.35718385499996,
                -13.38762148099994
              ],
              [
                -70.35397585499993,
                -13.388583980999897
              ],
              [
                -70.35004535499996,
                -13.392851980999978
              ],
              [
                -70.34342072999993,
                -13.394813480999915
              ],
              [
                -70.34016385499996,
                -13.396293980999928
              ],
              [
                -70.33368710499997,
                -13.402326480999932
              ],
              [
                -70.33018710499994,
                -13.406204231999936
              ],
              [
                -70.32996985499989,
                -13.408955980999906
              ],
              [
                -70.32290947999996,
                -13.406964605999974
              ],
              [
                -70.31867347999997,
                -13.403705980999916
              ],
              [
                -70.31548710499993,
                -13.40269223099989
              ],
              [
                -70.30259747999997,
                -13.402873230999944
              ],
              [
                -70.29083022999987,
                -13.40584223199994
              ],
              [
                -70.28347510499998,
                -13.410657731999947
              ],
              [
                -70.2821541049999,
                -13.416712480999877
              ],
              [
                -70.28534660499992,
                -13.42150123099998
              ],
              [
                -70.28525485499995,
                -13.423978230999921
              ],
              [
                -70.28358885499995,
                -13.428833480999913
              ],
              [
                -70.28185097999994,
                -13.430462855999906
              ],
              [
                -70.27734697999989,
                -13.430913480999891
              ],
              [
                -70.27243710499988,
                -13.425973230999887
              ],
              [
                -70.27080785499993,
                -13.425321480999969
              ],
              [
                -70.26810285499994,
                -13.427428480999936
              ],
              [
                -70.26412810499994,
                -13.428069605999951
              ],
              [
                -70.25773710499988,
                -13.427095605999853
              ],
              [
                -70.25534747999995,
                -13.428616355999907
              ],
              [
                -70.25100272999993,
                -13.435169731999906
              ],
              [
                -70.24803372999986,
                -13.438174855999932
              ],
              [
                -70.2452819799999,
                -13.44219385599996
              ],
              [
                -70.24242160499995,
                -13.442374855999901
              ],
              [
                -70.23643172999994,
                -13.447261230999914
              ],
              [
                -70.23522072999992,
                -13.45157298099997
              ],
              [
                -70.23083572999991,
                -13.455224105999832
              ],
              [
                -70.23026697999995,
                -13.456655230999957
              ],
              [
                -70.22505622999984,
                -13.460398230999942
              ],
              [
                -70.22289122999996,
                -13.463388730999895
              ],
              [
                -70.22189235499997,
                -13.469891981999922
              ],
              [
                -70.22178372999997,
                -13.475612855999884
              ],
              [
                -70.21928547899995,
                -13.479269730999931
              ],
              [
                -70.2168958549999,
                -13.479414480999935
              ],
              [
                -70.21439747899996,
                -13.478111105999915
              ],
              [
                -70.20911135499995,
                -13.478617980999843
              ],
              [
                -70.2070113549999,
                -13.48071810599987
              ],
              [
                -70.20530960499997,
                -13.485859355999935
              ],
              [
                -70.20617860499993,
                -13.490276605999895
              ],
              [
                -70.20592510499984,
                -13.49266623199992
              ],
              [
                -70.20074760499989,
                -13.495888481999884
              ],
              [
                -70.2023406049999,
                -13.49806110599991
              ],
              [
                -70.2086108549999,
                -13.499265355999967
              ],
              [
                -70.21445597999991,
                -13.501584855999965
              ],
              [
                -70.21765685499992,
                -13.502280606999875
              ],
              [
                -70.22234222999998,
                -13.500610606999885
              ],
              [
                -70.22558947999988,
                -13.50218785599992
              ],
              [
                -70.23190622999994,
                -13.50661723099995
              ],
              [
                -70.23389335499996,
                -13.512068856999917
              ],
              [
                -70.23899610499984,
                -13.520882980999943
              ],
              [
                -70.24753185499998,
                -13.530485605999957
              ],
              [
                -70.25077910499988,
                -13.532990605999942
              ],
              [
                -70.2546758549999,
                -13.534892605999914
              ],
              [
                -70.27193285499993,
                -13.535449355999901
              ],
              [
                -70.2744379799999,
                -13.537119480999877
              ],
              [
                -70.2755048549999,
                -13.540552230999936
              ],
              [
                -70.27879847999998,
                -13.541433605999941
              ],
              [
                -70.28348397999997,
                -13.544634480999946
              ],
              [
                -70.2873806049999,
                -13.548206480999909
              ],
              [
                -70.2908598549999,
                -13.547928105999972
              ],
              [
                -70.29563797999992,
                -13.549830105999945
              ],
              [
                -70.30278197999996,
                -13.54996923199991
              ],
              [
                -70.30565822999989,
                -13.551128980999977
              ],
              [
                -70.30756022999998,
                -13.555721605999906
              ],
              [
                -70.31048272999993,
                -13.558133855999927
              ],
              [
                -70.31572085499988,
                -13.559187980999923
              ],
              [
                -70.32048547999995,
                -13.56151673099987
              ],
              [
                -70.32470785499999,
                -13.561399356999914
              ],
              [
                -70.33024735499993,
                -13.564352106999877
              ],
              [
                -70.33307822999996,
                -13.569550105999951
              ],
              [
                -70.33332222999991,
                -13.57355223199994
              ],
              [
                -70.33729997999995,
                -13.579018480999878
              ],
              [
                -70.33681197999988,
                -13.58238623099993
              ],
              [
                -70.33843397999988,
                -13.586913855999967
              ],
              [
                -70.34308585499997,
                -13.592061355999931
              ],
              [
                -70.34381035499996,
                -13.595035480999968
              ],
              [
                -70.3429714799999,
                -13.59755210599991
              ],
              [
                -70.3436959799999,
                -13.600869355999862
              ],
              [
                -70.34903410499999,
                -13.605711980999956
              ],
              [
                -70.35105510499994,
                -13.610020605999864
              ],
              [
                -70.35559247999993,
                -13.610058730999981
              ],
              [
                -70.36302785499998,
                -13.61318548099996
              ],
              [
                -70.36745097999994,
                -13.618790605999948
              ],
              [
                -70.36954760499998,
                -13.624555230999874
              ],
              [
                -70.37196910499995,
                -13.629618105999896
              ],
              [
                -70.36954760499998,
                -13.636735730999874
              ],
              [
                -70.37284960499994,
                -13.644073355999922
              ],
              [
                -70.36778660499994,
                -13.649576605999982
              ],
              [
                -70.36543860599988,
                -13.65647398099992
              ],
              [
                -70.36573222999994,
                -13.659922605999895
              ],
              [
                -70.36910735499993,
                -13.666819855999904
              ],
              [
                -70.36595222999995,
                -13.671442730999956
              ],
              [
                -70.36665260499996,
                -13.673888230999978
              ],
              [
                -70.36597160499991,
                -13.679222731999857
              ],
              [
                -70.3627639799999,
                -13.68217410699998
              ],
              [
                -70.36246897999985,
                -13.688635981999937
              ],
              [
                -70.36340747999998,
                -13.690137480999908
              ],
              [
                -70.36683947999995,
                -13.689922981999928
              ],
              [
                -70.36683947999995,
                -13.69335498199996
              ],
              [
                -70.36820697999997,
                -13.69646523199998
              ],
              [
                -70.36745622999985,
                -13.702363980999905
              ],
              [
                -70.37078097999995,
                -13.70391923099993
              ],
              [
                -70.37155847999998,
                -13.707163480999952
              ],
              [
                -70.37488322999991,
                -13.707592480999892
              ],
              [
                -70.37895872999997,
                -13.709683855999913
              ],
              [
                -70.3823103549999,
                -13.71255273099996
              ],
              [
                -70.38525972999997,
                -13.716440606999981
              ],
              [
                -70.38635897999995,
                -13.72062335599992
              ],
              [
                -70.39188297999988,
                -13.721451981999905
              ],
              [
                -70.39373197999998,
                -13.720653230999972
              ],
              [
                -70.39615772999997,
                -13.717733980999924
              ],
              [
                -70.39899447999994,
                -13.712964606999947
              ],
              [
                -70.39891235499982,
                -13.709757730999911
              ],
              [
                -70.40098635499999,
                -13.702110855999933
              ],
              [
                -70.40492747999997,
                -13.697351105999928
              ],
              [
                -70.40619722999992,
                -13.693824230999951
              ],
              [
                -70.41038185499997,
                -13.69014935599995
              ],
              [
                -70.4090338549999,
                -13.687652981999975
              ],
              [
                -70.40879672999989,
                -13.684869605999893
              ],
              [
                -70.40987010499998,
                -13.681686856999875
              ],
              [
                -70.41403897999987,
                -13.67446010599997
              ],
              [
                -70.41729660499993,
                -13.674622355999873
              ],
              [
                -70.42094110499994,
                -13.671202480999966
              ],
              [
                -70.42562172999999,
                -13.67094035699995
              ],
              [
                -70.43116347999995,
                -13.675208980999912
              ],
              [
                -70.43744160499989,
                -13.67499685599995
              ],
              [
                -70.4408616049999,
                -13.675583481999922
              ],
              [
                -70.4441691049999,
                -13.67399835599997
              ],
              [
                -70.44767648099992,
                -13.67131485699997
              ],
              [
                -70.44861247999995,
                -13.669479980999938
              ],
              [
                -70.45201997999999,
                -13.66677160699993
              ],
              [
                -70.45706248099992,
                -13.66491185599989
              ],
              [
                -70.46276060599996,
                -13.661181730999886
              ],
              [
                -70.46594010499985,
                -13.660739355999965
              ],
              [
                -70.47456597999997,
                -13.660573480999915
              ],
              [
                -70.48516410499997,
                -13.65629835599998
              ],
              [
                -70.49060472999992,
                -13.651282855999852
              ],
              [
                -70.49257010499991,
                -13.64807348099987
              ],
              [
                -70.49321160499989,
                -13.644440605999932
              ],
              [
                -70.49535347999989,
                -13.63831473099998
              ],
              [
                -70.49480210499996,
                -13.636111605999929
              ],
              [
                -70.4966779799999,
                -13.634528230999933
              ],
              [
                -70.49851723099994,
                -13.628033355999946
              ],
              [
                -70.50163260499994,
                -13.62509010599996
              ],
              [
                -70.50449423099991,
                -13.623632230999874
              ],
              [
                -70.51145935499989,
                -13.625737981999919
              ],
              [
                -70.51664260499996,
                -13.626709855999877
              ],
              [
                -70.51882797999991,
                -13.62805323099991
              ],
              [
                -70.52279110599994,
                -13.62892510599994
              ],
              [
                -70.52643710499996,
                -13.631619981999904
              ],
              [
                -70.53307522999995,
                -13.62771635599995
              ],
              [
                -70.54018897999998,
                -13.625140356999964
              ],
              [
                -70.54312160499995,
                -13.623218230999896
              ],
              [
                -70.54343873099998,
                -13.61638198099996
              ],
              [
                -70.54815472999991,
                -13.615391230999876
              ],
              [
                -70.5482736049999,
                -13.611109355999872
              ],
              [
                -70.55026947999994,
                -13.60915535599986
              ],
              [
                -70.55727997999992,
                -13.608412730999873
              ],
              [
                -70.5628886049999,
                -13.60129423099994
              ],
              [
                -70.56483010499994,
                -13.600269480999941
              ],
              [
                -70.57200285499994,
                -13.599999855999954
              ],
              [
                -70.5736746049999,
                -13.599083105999966
              ],
              [
                -70.57351285499993,
                -13.591910355999971
              ],
              [
                -70.57286185499999,
                -13.588096730999894
              ],
              [
                -70.57165572999992,
                -13.58602360599997
              ],
              [
                -70.56964722999999,
                -13.587205105999942
              ],
              [
                -70.56037273099992,
                -13.58661435599987
              ],
              [
                -70.55836423099993,
                -13.583335855999962
              ],
              [
                -70.55425873099995,
                -13.580795730999853
              ],
              [
                -70.55027122999991,
                -13.576837605999913
              ],
              [
                -70.54660872999989,
                -13.578225980999946
              ],
              [
                -70.54362547999989,
                -13.577635230999931
              ],
              [
                -70.54172372999994,
                -13.574488980999945
              ],
              [
                -70.54242873099992,
                -13.572741730999951
              ],
              [
                -70.54267398099995,
                -13.567101230999981
              ],
              [
                -70.54215285499998,
                -13.55977473099989
              ],
              [
                -70.54304185499984,
                -13.557015730999979
              ],
              [
                -70.54594960499998,
                -13.553169730999969
              ],
              [
                -70.54659773099996,
                -13.549843355999883
              ],
              [
                -70.54590647999999,
                -13.545437105999838
              ],
              [
                -70.54249010499984,
                -13.54000223199995
              ],
              [
                -70.53982760499997,
                -13.532619605999969
              ],
              [
                -70.53403172999998,
                -13.525270106999926
              ],
              [
                -70.51987385499996,
                -13.513967605999824
              ],
              [
                -70.50940422999992,
                -13.50897073099992
              ],
              [
                -70.50447872999996,
                -13.505909980999888
              ],
              [
                -70.49576060499993,
                -13.501425480999899
              ],
              [
                -70.48996622999994,
                -13.501077105999968
              ],
              [
                -70.48879472999982,
                -13.500380730999893
              ],
              [
                -70.48477347999989,
                -13.490913230999922
              ],
              [
                -70.48258872999997,
                -13.487651980999829
              ],
              [
                -70.47479960499987,
                -13.47805798099995
              ],
              [
                -70.47141160599995,
                -13.476348230999974
              ],
              [
                -70.46910022999992,
                -13.474258605999921
              ],
              [
                -70.46881523099995,
                -13.472010355999885
              ],
              [
                -70.46621885499991,
                -13.466184356999861
              ],
              [
                -70.46393910499984,
                -13.463366355999938
              ],
              [
                -70.4594746059999,
                -13.459820105999881
              ],
              [
                -70.45662497999996,
                -13.456558730999859
              ],
              [
                -70.45624497999995,
                -13.451587605999862
              ],
              [
                -70.45261797999996,
                -13.447918355999946
              ],
              [
                -70.4531613559999,
                -13.445457355999963
              ],
              [
                -70.45741222999999,
                -13.444274730999894
              ],
              [
                -70.46866272999995,
                -13.443028230999971
              ],
              [
                -70.47099610499993,
                -13.442325105999885
              ],
              [
                -70.47182698099994,
                -13.439927980999869
              ],
              [
                -70.47045260499982,
                -13.437818481999955
              ],
              [
                -70.46767197999998,
                -13.435836855999867
              ],
              [
                -70.46233435599993,
                -13.425800980999952
              ],
              [
                -70.45916297999997,
                -13.423443356999826
              ],
              [
                -70.45812623099994,
                -13.421542605999946
              ],
              [
                -70.45709372999994,
                -13.416324230999976
              ],
              [
                -70.45268322999993,
                -13.413334730999907
              ],
              [
                -70.45076422999989,
                -13.410842855999874
              ],
              [
                -70.45095597999995,
                -13.402117355999849
              ],
              [
                -70.44868672999996,
                -13.397770606999927
              ],
              [
                -70.44315735499993,
                -13.395820980999872
              ],
              [
                -70.44255010499995,
                -13.393359855999904
              ],
              [
                -70.44523485499997,
                -13.388054230999956
              ],
              [
                -70.44708860499998,
                -13.385752981999872
              ],
              [
                -70.44603397999992,
                -13.38166198099998
              ],
              [
                -70.44836710499999,
                -13.374694355999964
              ],
              [
                -70.45236235599998,
                -13.36852573099992
              ],
              [
                -70.45044460499992,
                -13.36449860599987
              ],
              [
                -70.44440385499996,
                -13.364562480999837
              ],
              [
                -70.44060047999994,
                -13.363156230999834
              ],
              [
                -70.43404835499996,
                -13.362101480999968
              ],
              [
                -70.4320027309999,
                -13.358010230999923
              ],
              [
                -70.4290303549999,
                -13.357850605999943
              ],
              [
                -70.42631360499985,
                -13.359608480999896
              ],
              [
                -70.42266997999991,
                -13.358713480999938
              ],
              [
                -70.41886635499998,
                -13.35893723099997
              ],
              [
                -70.41723647999993,
                -13.361813730999927
              ],
              [
                -70.41275260499992,
                -13.36400423099991
              ],
              [
                -70.40661210499997,
                -13.367918355999961
              ],
              [
                -70.40454960499994,
                -13.370097980999901
              ],
              [
                -70.39950035499999,
                -13.371643605999964
              ]
            ]
          ]
        ],
        "type": "MultiPolygon"
      },
      "type": "Feature",
      "properties": {
        "PROVINCIA": "CARABAYA",
        "DISTRITO": "SAN GABAN",
        "name": "SAN GABAN",
        "ID": "200309",
        "DEPARTAMEN": "PUNO"
      }
    }
  ]
}
