{
  "type": "FeatureCollection",
  "features": [
    {
      "geometry": {
        "coordinates": [
          [
            [
              [
                -73.08526173299998,
                -3.812601596999912
              ],
              [
                -73.08360348299988,
                -3.816421846999958
              ],
              [
                -73.08047060799993,
                -3.821564472999967
              ],
              [
                -73.07641610699994,
                -3.832785846999911
              ],
              [
                -73.0572012319999,
                -3.896914096999922
              ],
              [
                -73.04738085799988,
                -3.913630846999922
              ],
              [
                -73.03670185799996,
                -3.923424722999812
              ],
              [
                -73.02579435799993,
                -3.931419722999976
              ],
              [
                -73.01409573299992,
                -3.93662497199989
              ],
              [
                -73.00183785799999,
                -3.937740221999888
              ],
              [
                -72.99278323199991,
                -3.943771471999924
              ],
              [
                -72.99314060799998,
                -3.967603472999883
              ],
              [
                -72.9922617329999,
                -3.988269472999946
              ],
              [
                -72.99482810799998,
                -4.022958971999856
              ],
              [
                -72.99281460799995,
                -4.04632234699983
              ],
              [
                -72.98887410799995,
                -4.052518346999932
              ],
              [
                -72.97597460699996,
                -4.065197222999927
              ],
              [
                -72.96979685699995,
                -4.069195347999823
              ],
              [
                -72.96603123199998,
                -4.070792597999969
              ],
              [
                -72.96245123199998,
                -4.070767597999975
              ],
              [
                -72.94286310799998,
                -4.067768846999911
              ],
              [
                -72.93299648299995,
                -4.068531846999974
              ],
              [
                -72.92271698199994,
                -4.070695347999958
              ],
              [
                -72.9062812329999,
                -4.080624971999953
              ],
              [
                -72.89908310699997,
                -4.085385722999945
              ],
              [
                -72.88197848199991,
                -4.094546847999879
              ],
              [
                -72.8715927319999,
                -4.101980597999898
              ],
              [
                -72.8551503569999,
                -4.114197221999973
              ],
              [
                -72.84653023199996,
                -4.124526971999956
              ],
              [
                -72.84149610799989,
                -4.135978472999966
              ],
              [
                -72.82353910699999,
                -4.155435721999936
              ],
              [
                -72.81240298199987,
                -4.173281846999942
              ],
              [
                -72.80332423199991,
                -4.194671847999871
              ],
              [
                -72.79201698199995,
                -4.218628347999811
              ],
              [
                -72.78136910799992,
                -4.234976596999957
              ],
              [
                -72.76909573299997,
                -4.240613222999855
              ],
              [
                -72.76148248299995,
                -4.244668097999977
              ],
              [
                -72.75443948199995,
                -4.24895122199996
              ],
              [
                -72.74815248199997,
                -4.254574597999863
              ],
              [
                -72.74683985799999,
                -4.25695122299993
              ],
              [
                -72.74689685799996,
                -4.264232222999908
              ],
              [
                -72.74751385699994,
                -4.273138722999931
              ],
              [
                -72.75055273299995,
                -4.283546847999844
              ],
              [
                -72.75083823199992,
                -4.286259472999916
              ],
              [
                -72.75021010699993,
                -4.295396597999911
              ],
              [
                -72.74870898199998,
                -4.302029347999905
              ],
              [
                -72.74795073299987,
                -4.316397222999967
              ],
              [
                -72.74915848299997,
                -4.338030972999945
              ],
              [
                -72.75449398199999,
                -4.366379847999951
              ],
              [
                -72.75656248199982,
                -4.382718722999925
              ],
              [
                -72.75700185699992,
                -4.401669971999979
              ],
              [
                -72.75778323199984,
                -4.414363222999953
              ],
              [
                -72.75884960699995,
                -4.420394472999874
              ],
              [
                -72.76573635699992,
                -4.446085972999924
              ],
              [
                -72.77977960799996,
                -4.480503097999929
              ],
              [
                -72.78338085799993,
                -4.488455097999918
              ],
              [
                -72.78789235799991,
                -4.492366972999946
              ],
              [
                -72.79577310699995,
                -4.496193097999878
              ],
              [
                -72.81144135799997,
                -4.498540972999933
              ],
              [
                -72.82258598299995,
                -4.498095722999949
              ],
              [
                -72.84026360799999,
                -4.494533222999962
              ],
              [
                -72.84613273199994,
                -4.492543846999922
              ],
              [
                -72.85503323199998,
                -4.48901559799998
              ],
              [
                -72.85995510699996,
                -4.486046846999898
              ],
              [
                -72.87015735699998,
                -4.485998722999909
              ],
              [
                -72.88201748199998,
                -4.487002097999891
              ],
              [
                -72.88603810799998,
                -4.484689597999932
              ],
              [
                -72.9020238579999,
                -4.470026347999976
              ],
              [
                -72.90572848199992,
                -4.468113222999932
              ],
              [
                -72.92546873299995,
                -4.467070347999879
              ],
              [
                -72.93467773299994,
                -4.467095722999943
              ],
              [
                -72.93908010799998,
                -4.468009721999977
              ],
              [
                -72.94794073199989,
                -4.471504847999881
              ],
              [
                -72.95598373299998,
                -4.475519347999978
              ],
              [
                -72.9698446079999,
                -4.488112847999957
              ],
              [
                -72.97759960799993,
                -4.493263722999927
              ],
              [
                -73.00676573199996,
                -4.507851596999956
              ],
              [
                -73.01469923299993,
                -4.515316346999953
              ],
              [
                -73.02582948199989,
                -4.529581597999879
              ],
              [
                -73.03076485699995,
                -4.538796472999934
              ],
              [
                -73.03500198199998,
                -4.554062472999931
              ],
              [
                -73.03531060799986,
                -4.600064472999975
              ],
              [
                -73.03461810699991,
                -4.626203597999847
              ],
              [
                -73.03524273199992,
                -4.632538722999925
              ],
              [
                -73.03729335699995,
                -4.635656222999899
              ],
              [
                -73.04532573199992,
                -4.644406472999947
              ],
              [
                -73.06040235799992,
                -4.667361347999872
              ],
              [
                -73.06325773299994,
                -4.669731347999971
              ],
              [
                -73.09759960799994,
                -4.683490222999978
              ],
              [
                -73.12943948299994,
                -4.695544972999812
              ],
              [
                -73.13504110799988,
                -4.697970722999969
              ],
              [
                -73.14232335699995,
                -4.702291222999975
              ],
              [
                -73.15560348299994,
                -4.709708972999977
              ],
              [
                -73.16034335799998,
                -4.708424097999966
              ],
              [
                -73.16405523299994,
                -4.706082722999952
              ],
              [
                -73.17050973299996,
                -4.700820347999922
              ],
              [
                -73.18112110799996,
                -4.686449222999954
              ],
              [
                -73.18381423199997,
                -4.684667597999976
              ],
              [
                -73.18966585799996,
                -4.683761722999975
              ],
              [
                -73.20169148299993,
                -4.680345722999959
              ],
              [
                -73.21716398299992,
                -4.673956972999918
              ],
              [
                -73.23033973299994,
                -4.666757847999975
              ],
              [
                -73.24707035799992,
                -4.656464847999871
              ],
              [
                -73.26236323299997,
                -4.645373097999936
              ],
              [
                -73.26966010799993,
                -4.638835972999914
              ],
              [
                -73.28215623299985,
                -4.618412097999965
              ],
              [
                -73.28940323199993,
                -4.608671972999957
              ],
              [
                -73.31155860799998,
                -4.594302722999942
              ],
              [
                -73.32256473299998,
                -4.584317972999884
              ],
              [
                -73.33276173299998,
                -4.570431597999971
              ],
              [
                -73.34034760799989,
                -4.557818347999955
              ],
              [
                -73.34470310799992,
                -4.552544972999897
              ],
              [
                -73.35239448299996,
                -4.542228472999909
              ],
              [
                -73.3621601079999,
                -4.522939472999894
              ],
              [
                -73.38245148299995,
                -4.503639471999975
              ],
              [
                -73.38873323299998,
                -4.497015222999892
              ],
              [
                -73.39047998299998,
                -4.492639972999882
              ],
              [
                -73.3913968579999,
                -4.488531347999924
              ],
              [
                -73.39530273299988,
                -4.479252097999904
              ],
              [
                -73.3995507329999,
                -4.473744097999884
              ],
              [
                -73.41163173299992,
                -4.465206472999967
              ],
              [
                -73.41570235799992,
                -4.46338359799995
              ],
              [
                -73.41973760799993,
                -4.463684472999887
              ],
              [
                -73.42235173299997,
                -4.462889097999891
              ],
              [
                -73.42780585799989,
                -4.457920471999898
              ],
              [
                -73.43418548299996,
                -4.448471722999898
              ],
              [
                -73.43521773299994,
                -4.446356222999839
              ],
              [
                -73.43453848199988,
                -4.444924722999872
              ],
              [
                -73.4298361079999,
                -4.441727097999888
              ],
              [
                -73.4256422329999,
                -4.436854972999924
              ],
              [
                -73.42318210799993,
                -4.432199596999908
              ],
              [
                -73.42056148299991,
                -4.424193346999971
              ],
              [
                -73.42374998299994,
                -4.410508096999934
              ],
              [
                -73.42125398299999,
                -4.393718847999935
              ],
              [
                -73.42023310799993,
                -4.37987147299998
              ],
              [
                -73.42164473299994,
                -4.368578347999915
              ],
              [
                -73.42360535799997,
                -4.362382722999882
              ],
              [
                -73.42680973299997,
                -4.35621472299988
              ],
              [
                -73.44915873299993,
                -4.324697346999926
              ],
              [
                -73.44992473299999,
                -4.319907972999943
              ],
              [
                -73.44879448299992,
                -4.315048221999916
              ],
              [
                -73.4428046079999,
                -4.30634597299985
              ],
              [
                -73.42517398299998,
                -4.289619471999913
              ],
              [
                -73.40984248299986,
                -4.277696971999944
              ],
              [
                -73.38813260799992,
                -4.265121347999866
              ],
              [
                -73.38061935699989,
                -4.259995472999947
              ],
              [
                -73.37865323299997,
                -4.25718684799989
              ],
              [
                -73.37886398299997,
                -4.252341847999958
              ],
              [
                -73.38880860699999,
                -4.244376972999873
              ],
              [
                -73.40029298299993,
                -4.238546847999942
              ],
              [
                -73.39206635799997,
                -4.213345721999872
              ],
              [
                -73.39048823299987,
                -4.207939472999954
              ],
              [
                -73.38697073299988,
                -4.193677721999961
              ],
              [
                -73.38551373299993,
                -4.177580097999964
              ],
              [
                -73.38530660799995,
                -4.167462972999942
              ],
              [
                -73.38523048299987,
                -4.145849596999938
              ],
              [
                -73.38570310799997,
                -4.139642472999981
              ],
              [
                -73.3850409829999,
                -4.128146472999958
              ],
              [
                -73.38610935799994,
                -4.110904346999973
              ],
              [
                -73.38571485799997,
                -4.10575197299994
              ],
              [
                -73.38309035799989,
                -4.102046847999873
              ],
              [
                -73.35250973199999,
                -4.079740222999931
              ],
              [
                -73.32704685699991,
                -4.062201221999942
              ],
              [
                -73.32338585699989,
                -4.060432846999902
              ],
              [
                -73.31723685799994,
                -4.060296846999961
              ],
              [
                -73.31071135799993,
                -4.059363221999945
              ],
              [
                -73.30040035799993,
                -4.059445346999837
              ],
              [
                -73.29457473199983,
                -4.057144471999948
              ],
              [
                -73.28852798299994,
                -4.052343847999964
              ],
              [
                -73.28561560799989,
                -4.049317096999971
              ],
              [
                -73.28030473299987,
                -4.040265597999962
              ],
              [
                -73.27965085699992,
                -4.023433596999951
              ],
              [
                -73.27909423299997,
                -4.013888721999876
              ],
              [
                -73.27955898299996,
                -4.010556596999947
              ],
              [
                -73.28275598199991,
                -3.999961472999871
              ],
              [
                -73.28288285799994,
                -3.993318346999899
              ],
              [
                -73.27675585799994,
                -3.97612497199998
              ],
              [
                -73.27492235699992,
                -3.968912096999873
              ],
              [
                -73.26601373299997,
                -3.946326221999925
              ],
              [
                -73.26426398299992,
                -3.940212722999945
              ],
              [
                -73.26374998199998,
                -3.930304721999903
              ],
              [
                -73.26418598299995,
                -3.922898472999975
              ],
              [
                -73.26226410799995,
                -3.913257846999954
              ],
              [
                -73.25851023299992,
                -3.906714971999975
              ],
              [
                -73.25509223299991,
                -3.902462846999924
              ],
              [
                -73.24734035799997,
                -3.89510747199995
              ],
              [
                -73.24016260799993,
                -3.888898471999937
              ],
              [
                -73.23481298299998,
                -3.881087721999961
              ],
              [
                -73.22740473299984,
                -3.873732471999972
              ],
              [
                -73.22387348299998,
                -3.868220721999933
              ],
              [
                -73.22024073299997,
                -3.859839846999876
              ],
              [
                -73.21682273199986,
                -3.853525346999959
              ],
              [
                -73.21056685699995,
                -3.845138721999888
              ],
              [
                -73.20361760799989,
                -3.837552846999813
              ],
              [
                -73.19051223299994,
                -3.825943347999896
              ],
              [
                -73.17514573299991,
                -3.81162897199988
              ],
              [
                -73.1715312319999,
                -3.809473096999966
              ],
              [
                -73.1428617329999,
                -3.814749971999959
              ],
              [
                -73.11702373299994,
                -3.816238221999868
              ],
              [
                -73.08526173299998,
                -3.812601596999912
              ]
            ]
          ]
        ],
        "type": "MultiPolygon"
      },
      "type": "Feature",
      "properties": {
        "PROVINCIA": "MAYNAS",
        "DISTRITO": "FERNANDO LORES",
        "name": "FERNANDO LORES",
        "ID": "150103",
        "DEPARTAMEN": "LORETO"
      }
    }
  ]
}
