{
  "type": "FeatureCollection",
  "features": [
    {
      "geometry": {
        "coordinates": [
          [
            [
              [
                -79.27466461299997,
                -6.15846047499997
              ],
              [
                -79.2739529879999,
                -6.164865849999956
              ],
              [
                -79.27264598799997,
                -6.168794724999884
              ],
              [
                -79.2693693629999,
                -6.17300784899993
              ],
              [
                -79.26572548899986,
                -6.17929947499988
              ],
              [
                -79.26329961299996,
                -6.191968723999821
              ],
              [
                -79.26193911299993,
                -6.195270349999873
              ],
              [
                -79.259348489,
                -6.198885849999954
              ],
              [
                -79.25789661399995,
                -6.206031473999928
              ],
              [
                -79.25412948899998,
                -6.216549474999965
              ],
              [
                -79.24916748899994,
                -6.221776849999969
              ],
              [
                -79.2491028629999,
                -6.224439348999965
              ],
              [
                -79.25226148799999,
                -6.226687973999958
              ],
              [
                -79.25541798799992,
                -6.226623099999927
              ],
              [
                -79.25890036299995,
                -6.225492223999936
              ],
              [
                -79.27016098799993,
                -6.225313848999861
              ],
              [
                -79.27268498899997,
                -6.225764224999978
              ],
              [
                -79.27904836399995,
                -6.229257723999922
              ],
              [
                -79.27917211399989,
                -6.231194098999936
              ],
              [
                -79.27642498899996,
                -6.232238098999971
              ],
              [
                -79.27587173799992,
                -6.234415223999974
              ],
              [
                -79.27638923799998,
                -6.239858224999978
              ],
              [
                -79.27804898799997,
                -6.243141973999968
              ],
              [
                -79.28088648799991,
                -6.246050849999961
              ],
              [
                -79.28308148899998,
                -6.252011348999929
              ],
              [
                -79.28473823799993,
                -6.25449609899988
              ],
              [
                -79.29202236299989,
                -6.259702973999936
              ],
              [
                -79.29460998899987,
                -6.263075848999961
              ],
              [
                -79.30048748799999,
                -6.267469724999955
              ],
              [
                -79.30633473799998,
                -6.27026772499994
              ],
              [
                -79.30844061299996,
                -6.27005359899988
              ],
              [
                -79.31234373899997,
                -6.265271473999974
              ],
              [
                -79.31995123799999,
                -6.26298659899993
              ],
              [
                -79.32178936399998,
                -6.263057973999878
              ],
              [
                -79.32903486299989,
                -6.266270223999925
              ],
              [
                -79.33235298799997,
                -6.268858598999941
              ],
              [
                -79.33508011399994,
                -6.272927224999876
              ],
              [
                -79.34168773799996,
                -6.278066474999946
              ],
              [
                -79.34568948899988,
                -6.283138224999902
              ],
              [
                -79.34466298799998,
                -6.287738599999955
              ],
              [
                -79.35036973799998,
                -6.295510848999925
              ],
              [
                -79.3515356129999,
                -6.29774759999998
              ],
              [
                -79.35195973899982,
                -6.302736349999918
              ],
              [
                -79.35356136299998,
                -6.304291223999883
              ],
              [
                -79.3590819879999,
                -6.304717724999932
              ],
              [
                -79.36381361299988,
                -6.303553474999944
              ],
              [
                -79.37104723799996,
                -6.299579723999955
              ],
              [
                -79.37497336399997,
                -6.29950834999994
              ],
              [
                -79.37897086299989,
                -6.300698098999931
              ],
              [
                -79.38184648799995,
                -6.300589349999939
              ],
              [
                -79.38508636299997,
                -6.298297348999881
              ],
              [
                -79.38794136399997,
                -6.298294849999877
              ],
              [
                -79.39241473799996,
                -6.302292349999959
              ],
              [
                -79.39674536299992,
                -6.304457598999875
              ],
              [
                -79.39993386399993,
                -6.309002473999954
              ],
              [
                -79.40562073799993,
                -6.312071973999934
              ],
              [
                -79.40898836399992,
                -6.312103974999957
              ],
              [
                -79.41195011399986,
                -6.309525848999897
              ],
              [
                -79.41609036299997,
                -6.308597973999952
              ],
              [
                -79.42265773799994,
                -6.310430098999973
              ],
              [
                -79.42429948899996,
                -6.313904098999956
              ],
              [
                -79.42767848899996,
                -6.317401973999949
              ],
              [
                -79.42802911299992,
                -6.318954974999826
              ],
              [
                -79.42634586299994,
                -6.322898474999874
              ],
              [
                -79.42656398899993,
                -6.328897474999906
              ],
              [
                -79.43180861399992,
                -6.335992224999927
              ],
              [
                -79.43400773899998,
                -6.340268598999955
              ],
              [
                -79.43681548899997,
                -6.343171474999963
              ],
              [
                -79.44068211399997,
                -6.350381223999875
              ],
              [
                -79.44543486299989,
                -6.355078598999967
              ],
              [
                -79.44315623899985,
                -6.357945348999863
              ],
              [
                -79.44424798799992,
                -6.36157422399998
              ],
              [
                -79.45179286299998,
                -6.365802723999934
              ],
              [
                -79.45370898899989,
                -6.368693348999898
              ],
              [
                -79.45845111399996,
                -6.37209184999989
              ],
              [
                -79.4623867389999,
                -6.371586099999888
              ],
              [
                -79.46638673899992,
                -6.373224599999901
              ],
              [
                -79.46815236299989,
                -6.374929723999969
              ],
              [
                -79.47336523899992,
                -6.376402349999978
              ],
              [
                -79.4757148629999,
                -6.378040974999976
              ],
              [
                -79.47805861399996,
                -6.381380848999925
              ],
              [
                -79.48431048799995,
                -6.385558598999921
              ],
              [
                -79.48891798899996,
                -6.386611349999896
              ],
              [
                -79.49334173799997,
                -6.388488224999946
              ],
              [
                -79.49710348799994,
                -6.388056599999913
              ],
              [
                -79.49925198899996,
                -6.39229497499997
              ],
              [
                -79.50149223799997,
                -6.392499973999975
              ],
              [
                -79.50370111299992,
                -6.394386723999958
              ],
              [
                -79.50727923799997,
                -6.395283223999968
              ],
              [
                -79.51305248899996,
                -6.399864849999972
              ],
              [
                -79.52121573799997,
                -6.401978723999889
              ],
              [
                -79.52374798799997,
                -6.401861349999933
              ],
              [
                -79.52833786299993,
                -6.399812474999976
              ],
              [
                -79.52831423899994,
                -6.397813348999932
              ],
              [
                -79.52974411299994,
                -6.388954098999932
              ],
              [
                -79.53151361299996,
                -6.387243098999932
              ],
              [
                -79.53335711299991,
                -6.383051474999945
              ],
              [
                -79.53205473799989,
                -6.379375224999819
              ],
              [
                -79.53339448899999,
                -6.376871098999914
              ],
              [
                -79.53453436399997,
                -6.370478348999882
              ],
              [
                -79.54045936399996,
                -6.365664973999969
              ],
              [
                -79.54105748799998,
                -6.361109348999889
              ],
              [
                -79.54333611399994,
                -6.358312098999932
              ],
              [
                -79.54279123899994,
                -6.355433599999969
              ],
              [
                -79.5382627379999,
                -6.352121099999977
              ],
              [
                -79.534660364,
                -6.351157598999919
              ],
              [
                -79.53329411399994,
                -6.348419848999981
              ],
              [
                -79.52792748899998,
                -6.346327349999967
              ],
              [
                -79.52009736299988,
                -6.345176224999932
              ],
              [
                -79.51567923799996,
                -6.346880099999964
              ],
              [
                -79.5140488639999,
                -6.343638724999892
              ],
              [
                -79.51053248899984,
                -6.340763349999918
              ],
              [
                -79.5066786139999,
                -6.336573848999933
              ],
              [
                -79.50402823799999,
                -6.335680224999976
              ],
              [
                -79.50102948799997,
                -6.329849099999876
              ],
              [
                -79.49846986299991,
                -6.326956473999928
              ],
              [
                -79.49285573799989,
                -6.32314222399998
              ],
              [
                -79.48729261399995,
                -6.321716223999942
              ],
              [
                -79.48440623899995,
                -6.323339848999979
              ],
              [
                -79.47844786299999,
                -6.321943474999898
              ],
              [
                -79.47731186299995,
                -6.320338098999969
              ],
              [
                -79.47855661399996,
                -6.313190848999852
              ],
              [
                -79.48198111399995,
                -6.306308224999952
              ],
              [
                -79.47965236399983,
                -6.303255848999925
              ],
              [
                -79.47853873899999,
                -6.297226349999903
              ],
              [
                -79.47697873899995,
                -6.293046224999898
              ],
              [
                -79.47756936399998,
                -6.286821473999851
              ],
              [
                -79.4732983639999,
                -6.281641848999925
              ],
              [
                -79.4721113629999,
                -6.275216848999889
              ],
              [
                -79.47186536399988,
                -6.268715973999974
              ],
              [
                -79.46915111399994,
                -6.264277723999896
              ],
              [
                -79.46537486399995,
                -6.261854473999961
              ],
              [
                -79.4614774879999,
                -6.256321473999947
              ],
              [
                -79.45988223799998,
                -6.25549347499998
              ],
              [
                -79.45699336299998,
                -6.250978473999965
              ],
              [
                -79.45499773899996,
                -6.251047724999921
              ],
              [
                -79.45075461399995,
                -6.248102599999868
              ],
              [
                -79.44585948899987,
                -6.242466849999971
              ],
              [
                -79.44350511299996,
                -6.241236723999975
              ],
              [
                -79.43700586299997,
                -6.240007849999927
              ],
              [
                -79.43674023899996,
                -6.234168973999942
              ],
              [
                -79.44094423899998,
                -6.225695973999962
              ],
              [
                -79.43971236399989,
                -6.223561349999898
              ],
              [
                -79.43611498799999,
                -6.221591099999955
              ],
              [
                -79.43708148899992,
                -6.217177848999938
              ],
              [
                -79.4362052379999,
                -6.211898473999895
              ],
              [
                -79.434195489,
                -6.210243348999938
              ],
              [
                -79.43321536399998,
                -6.206444723999937
              ],
              [
                -79.43139048799998,
                -6.205041224999889
              ],
              [
                -79.42213136299989,
                -6.200066224999944
              ],
              [
                -79.41877586399994,
                -6.191751973999828
              ],
              [
                -79.41644986299991,
                -6.188807973999928
              ],
              [
                -79.41550486299991,
                -6.184576224999944
              ],
              [
                -79.40885961399994,
                -6.178582348999953
              ],
              [
                -79.40506448899998,
                -6.177317223999978
              ],
              [
                -79.40184548799994,
                -6.173506348999979
              ],
              [
                -79.40291723799999,
                -6.168513348999966
              ],
              [
                -79.40571136299997,
                -6.163084848999972
              ],
              [
                -79.40958336399996,
                -6.156697224999903
              ],
              [
                -79.41272036399982,
                -6.154579848999958
              ],
              [
                -79.4184192379999,
                -6.151991848999955
              ],
              [
                -79.42475923799992,
                -6.15063234999991
              ],
              [
                -79.42817773799999,
                -6.148095723999916
              ],
              [
                -79.4315422389999,
                -6.140437348999967
              ],
              [
                -79.42935923799996,
                -6.138261599999964
              ],
              [
                -79.42822661299994,
                -6.135649598999976
              ],
              [
                -79.42343836299995,
                -6.13107859899992
              ],
              [
                -79.42170698899997,
                -6.123681473999966
              ],
              [
                -79.42022298899991,
                -6.121275598999944
              ],
              [
                -79.41981298799993,
                -6.117643598999962
              ],
              [
                -79.41817186399993,
                -6.115008599999896
              ],
              [
                -79.41807423899996,
                -6.112378848999924
              ],
              [
                -79.41602348899994,
                -6.105748848999895
              ],
              [
                -79.41563486399991,
                -6.101642598999945
              ],
              [
                -79.41401136299999,
                -6.099660849999964
              ],
              [
                -79.41289148799996,
                -6.095697098999892
              ],
              [
                -79.4118207379999,
                -6.088375849999977
              ],
              [
                -79.40766861299988,
                -6.086088598999879
              ],
              [
                -79.40677486399994,
                -6.083918849999975
              ],
              [
                -79.40249461299999,
                -6.085093848999918
              ],
              [
                -79.39535198899989,
                -6.084638723999944
              ],
              [
                -79.39335011399993,
                -6.084991598999977
              ],
              [
                -79.39030123799989,
                -6.083928723999975
              ],
              [
                -79.38832523899993,
                -6.081474223999919
              ],
              [
                -79.38636236299988,
                -6.077146348999975
              ],
              [
                -79.38412348799989,
                -6.076378223999882
              ],
              [
                -79.3820303629999,
                -6.074239473999967
              ],
              [
                -79.37834936299998,
                -6.074417598999958
              ],
              [
                -79.37188936399997,
                -6.076677224999969
              ],
              [
                -79.36743398799996,
                -6.077241099999981
              ],
              [
                -79.36458461299998,
                -6.076694098999837
              ],
              [
                -79.3611808629999,
                -6.077210224999931
              ],
              [
                -79.35734498899996,
                -6.078749223999978
              ],
              [
                -79.34833773799988,
                -6.080350848999956
              ],
              [
                -79.34672461299994,
                -6.085509598999863
              ],
              [
                -79.3478269879999,
                -6.090376849999871
              ],
              [
                -79.34522698799998,
                -6.094224848999943
              ],
              [
                -79.33903598899997,
                -6.096227849999934
              ],
              [
                -79.3393521139999,
                -6.100492723999935
              ],
              [
                -79.34063023799996,
                -6.104333848999943
              ],
              [
                -79.340089488,
                -6.110657098999923
              ],
              [
                -79.33884136399985,
                -6.11656434899993
              ],
              [
                -79.3379468629999,
                -6.125466848999963
              ],
              [
                -79.33882048899989,
                -6.131935723999959
              ],
              [
                -79.34087973899994,
                -6.135097474999952
              ],
              [
                -79.33975661299996,
                -6.138030224999909
              ],
              [
                -79.33605411399998,
                -6.140588723999883
              ],
              [
                -79.33289248899996,
                -6.144540724999956
              ],
              [
                -79.331415613,
                -6.145206349999967
              ],
              [
                -79.32814998899994,
                -6.14196147399997
              ],
              [
                -79.32260161299996,
                -6.139255848999937
              ],
              [
                -79.31614823799998,
                -6.139715098999886
              ],
              [
                -79.31232098899994,
                -6.138654224999868
              ],
              [
                -79.30905536399996,
                -6.140651098999967
              ],
              [
                -79.30668411299996,
                -6.141004723999913
              ],
              [
                -79.30326736299997,
                -6.146322973999872
              ],
              [
                -79.30329361399998,
                -6.154504223999936
              ],
              [
                -79.3010888629999,
                -6.15614734899998
              ],
              [
                -79.29565998899994,
                -6.153401724999981
              ],
              [
                -79.29268548799996,
                -6.154212973999961
              ],
              [
                -79.29060636299988,
                -6.155945349999968
              ],
              [
                -79.28176536399997,
                -6.15749934899992
              ],
              [
                -79.27712686399997,
                -6.157208098999888
              ],
              [
                -79.27466461299997,
                -6.15846047499997
              ]
            ]
          ]
        ],
        "type": "MultiPolygon"
      },
      "type": "Feature",
      "properties": {
        "PROVINCIA": "FERREÑAFE",
        "DISTRITO": "INCAHUASI",
        "name": "INCAHUASI",
        "ID": "130202",
        "DEPARTAMEN": "LAMBAYEQUE"
      }
    }
  ]
}
