{
  "type": "FeatureCollection",
  "features": [
    {
      "geometry": {
        "coordinates": [
          [
            [
              [
                -79.59078223899996,
                -6.627730849999978
              ],
              [
                -79.59001636399995,
                -6.632496224999898
              ],
              [
                -79.59229323899996,
                -6.634750849999932
              ],
              [
                -79.59356573899998,
                -6.640085973999931
              ],
              [
                -79.59521136399997,
                -6.640819224999916
              ],
              [
                -79.59757361299995,
                -6.639143849999869
              ],
              [
                -79.60113323899998,
                -6.638992223999935
              ],
              [
                -79.60656273899997,
                -6.642230849999919
              ],
              [
                -79.60809786299995,
                -6.643925598999942
              ],
              [
                -79.60809786399994,
                -6.648791974999938
              ],
              [
                -79.61013011299997,
                -6.654631599999959
              ],
              [
                -79.61122248799995,
                -6.65562347499997
              ],
              [
                -79.61692961299991,
                -6.65634584999998
              ],
              [
                -79.61878161299995,
                -6.654531099999929
              ],
              [
                -79.6243782379999,
                -6.651850849999903
              ],
              [
                -79.6219321129999,
                -6.658151974999896
              ],
              [
                -79.62026673899999,
                -6.664051348999976
              ],
              [
                -79.62121961399993,
                -6.673729724999873
              ],
              [
                -79.62238386299998,
                -6.678813849999926
              ],
              [
                -79.62644448899988,
                -6.68419734999992
              ],
              [
                -79.62511698899993,
                -6.686448599999949
              ],
              [
                -79.62531648899989,
                -6.690671849999887
              ],
              [
                -79.62435998899997,
                -6.693467723999959
              ],
              [
                -79.62429673899999,
                -6.699291099999925
              ],
              [
                -79.62542461399988,
                -6.701821724999945
              ],
              [
                -79.63067373899997,
                -6.698862598999824
              ],
              [
                -79.64111336299999,
                -6.694699724999907
              ],
              [
                -79.6474909879999,
                -6.694058599999948
              ],
              [
                -79.65400998899992,
                -6.69605547499998
              ],
              [
                -79.65780061399994,
                -6.69605547499998
              ],
              [
                -79.66149473899998,
                -6.710093099999938
              ],
              [
                -79.66146261399996,
                -6.712630849999925
              ],
              [
                -79.66369136399999,
                -6.71518747499988
              ],
              [
                -79.66513073899989,
                -6.713766849999956
              ],
              [
                -79.669881864,
                -6.712163099999941
              ],
              [
                -79.67232748899994,
                -6.708948224999972
              ],
              [
                -79.67924273899985,
                -6.704598849999968
              ],
              [
                -79.68434311299995,
                -6.700061724999898
              ],
              [
                -79.68938086399999,
                -6.694210349999935
              ],
              [
                -79.69297923799996,
                -6.689329098999963
              ],
              [
                -79.69585586299996,
                -6.687998474999915
              ],
              [
                -79.69860486399995,
                -6.688567724999871
              ],
              [
                -79.69775936299999,
                -6.684727599999917
              ],
              [
                -79.69800761399983,
                -6.679176849999919
              ],
              [
                -79.70070586399999,
                -6.678277349999917
              ],
              [
                -79.70422861299994,
                -6.682266974999891
              ],
              [
                -79.70846448899994,
                -6.684069349999902
              ],
              [
                -79.71440623899997,
                -6.68432622499995
              ],
              [
                -79.71949223899998,
                -6.683169974999942
              ],
              [
                -79.72238086399994,
                -6.68605859999991
              ],
              [
                -79.72607811399996,
                -6.687099599999897
              ],
              [
                -79.72827348899989,
                -6.686636849999957
              ],
              [
                -79.72966011299997,
                -6.689294974999939
              ],
              [
                -79.73659373899989,
                -6.687445349999905
              ],
              [
                -79.74791798899992,
                -6.68559759999988
              ],
              [
                -79.75300236399988,
                -6.684012099999961
              ],
              [
                -79.75681636399997,
                -6.682591849999937
              ],
              [
                -79.75889648899994,
                -6.683285099999921
              ],
              [
                -79.7612069889999,
                -6.682361474999823
              ],
              [
                -79.76374998799997,
                -6.682824224999933
              ],
              [
                -79.7651367389999,
                -6.681437474999939
              ],
              [
                -79.76975786399998,
                -6.681437474999939
              ],
              [
                -79.76954886399983,
                -6.672283224999944
              ],
              [
                -79.76860348799994,
                -6.669302724999966
              ],
              [
                -79.7590117389999,
                -6.657978474999936
              ],
              [
                -79.75711536299985,
                -6.650869098999976
              ],
              [
                -79.7567832389999,
                -6.644908223999948
              ],
              [
                -79.7620957389999,
                -6.640783223999961
              ],
              [
                -79.76172073899994,
                -6.638154349999979
              ],
              [
                -79.76246286299988,
                -6.628994224999929
              ],
              [
                -79.76412498899992,
                -6.625029349999977
              ],
              [
                -79.76788673899995,
                -6.621906223999929
              ],
              [
                -79.77015961399991,
                -6.616070098999955
              ],
              [
                -79.76490336299997,
                -6.608769224999946
              ],
              [
                -79.76290223899991,
                -6.603896599999928
              ],
              [
                -79.76159711399993,
                -6.594412724999927
              ],
              [
                -79.76011798899998,
                -6.591454349999935
              ],
              [
                -79.75681161399996,
                -6.588583099999937
              ],
              [
                -79.75561086399989,
                -6.585746474999894
              ],
              [
                -79.75242573899999,
                -6.587070349999919
              ],
              [
                -79.74221448899993,
                -6.589017849999948
              ],
              [
                -79.73812573899994,
                -6.590561348999927
              ],
              [
                -79.73487648799994,
                -6.590588348999972
              ],
              [
                -79.73200623899993,
                -6.586093474999927
              ],
              [
                -79.72859961399996,
                -6.585871099999906
              ],
              [
                -79.72518273899988,
                -6.588855474999946
              ],
              [
                -79.71909036399995,
                -6.590672723999944
              ],
              [
                -79.71608461299991,
                -6.589586474999919
              ],
              [
                -79.71351236399988,
                -6.59069672499993
              ],
              [
                -79.70851348899998,
                -6.590215099999966
              ],
              [
                -79.70457673899989,
                -6.586987099999874
              ],
              [
                -79.7014198629999,
                -6.588224599999933
              ],
              [
                -79.69791861399995,
                -6.586919223999928
              ],
              [
                -79.69331048899994,
                -6.582863224999926
              ],
              [
                -79.68747661399988,
                -6.582025349999867
              ],
              [
                -79.67999611399989,
                -6.573992224999927
              ],
              [
                -79.67418948899996,
                -6.573183599999879
              ],
              [
                -79.67165036399996,
                -6.573837849999904
              ],
              [
                -79.66834723899996,
                -6.573064724999824
              ],
              [
                -79.66716873899986,
                -6.571747724999909
              ],
              [
                -79.66339098899994,
                -6.562521348999894
              ],
              [
                -79.66333823899998,
                -6.555063724999968
              ],
              [
                -79.66041711299988,
                -6.550611849999939
              ],
              [
                -79.65643661399997,
                -6.550808599999868
              ],
              [
                -79.6525187389999,
                -6.553922223999962
              ],
              [
                -79.64503648899995,
                -6.554889973999877
              ],
              [
                -79.64339473899992,
                -6.557597849999866
              ],
              [
                -79.64332223899999,
                -6.561830349999923
              ],
              [
                -79.64200848899998,
                -6.56439547399998
              ],
              [
                -79.64241473899995,
                -6.56937897499995
              ],
              [
                -79.64147536299993,
                -6.572899224999958
              ],
              [
                -79.63818586399998,
                -6.578416973999936
              ],
              [
                -79.6343326139999,
                -6.580698224999935
              ],
              [
                -79.63187348799994,
                -6.58001134999995
              ],
              [
                -79.62937286299996,
                -6.581829474999893
              ],
              [
                -79.62732023899997,
                -6.586254599999961
              ],
              [
                -79.62487286299995,
                -6.593749474999925
              ],
              [
                -79.6243879889999,
                -6.601129474999937
              ],
              [
                -79.6211288639999,
                -6.602540848999922
              ],
              [
                -79.61569761399994,
                -6.600516349999907
              ],
              [
                -79.61361823899995,
                -6.597877223999944
              ],
              [
                -79.61099286299986,
                -6.596254724999937
              ],
              [
                -79.6075627379999,
                -6.599822349999954
              ],
              [
                -79.60474361299998,
                -6.600792349999949
              ],
              [
                -79.60338186399991,
                -6.602462348999893
              ],
              [
                -79.60458161299988,
                -6.610486224999875
              ],
              [
                -79.60437573899992,
                -6.617254724999952
              ],
              [
                -79.60279286399998,
                -6.618504224999924
              ],
              [
                -79.59883598799996,
                -6.618920724999953
              ],
              [
                -79.59691998899996,
                -6.620086974999879
              ],
              [
                -79.59267136399995,
                -6.624335599999938
              ],
              [
                -79.59078223899996,
                -6.627730849999978
              ]
            ]
          ]
        ],
        "type": "MultiPolygon"
      },
      "type": "Feature",
      "properties": {
        "PROVINCIA": "FERREÑAFE",
        "DISTRITO": "MANUEL ANTONIO MESONES MURO",
        "name": "MANUEL ANTONIO MESONES MURO",
        "ID": "130206",
        "DEPARTAMEN": "LAMBAYEQUE"
      }
    }
  ]
}
