{
  "type": "FeatureCollection",
  "features": [
    {
      "geometry": {
        "coordinates": [
          [
            [
              [
                -78.31761323799998,
                -9.682665976999886
              ],
              [
                -78.31932223699982,
                -9.681281227999818
              ],
              [
                -78.31881048699995,
                -9.676958852999917
              ],
              [
                -78.32256048799997,
                -9.674835977999976
              ],
              [
                -78.3188476119999,
                -9.673353477999967
              ],
              [
                -78.31780473699996,
                -9.669458977999966
              ],
              [
                -78.31900386199993,
                -9.66636135199991
              ],
              [
                -78.32112311199995,
                -9.666546852999886
              ],
              [
                -78.32181636299993,
                -9.661748102999923
              ],
              [
                -78.32333198799995,
                -9.661189476999823
              ],
              [
                -78.32662298699995,
                -9.657312477999938
              ],
              [
                -78.32822661199998,
                -9.658417977999932
              ],
              [
                -78.32984961299991,
                -9.65477147799993
              ],
              [
                -78.33424023799995,
                -9.655681601999902
              ],
              [
                -78.33483986199997,
                -9.653390602999878
              ],
              [
                -78.33349223799996,
                -9.650029351999933
              ],
              [
                -78.33457611199992,
                -9.648447227999952
              ],
              [
                -78.3378554869999,
                -9.647478476999936
              ],
              [
                -78.33898436199996,
                -9.644929727999966
              ],
              [
                -78.33812298699985,
                -9.642330102999892
              ],
              [
                -78.33923636199995,
                -9.63970897799993
              ],
              [
                -78.34103511199999,
                -9.640302727999938
              ],
              [
                -78.34385548799997,
                -9.63927347799995
              ],
              [
                -78.34309573799999,
                -9.63644135199985
              ],
              [
                -78.34431636299996,
                -9.63292772699998
              ],
              [
                -78.34944936299996,
                -9.633039102999874
              ],
              [
                -78.35162698799991,
                -9.629478477999896
              ],
              [
                -78.35637498799986,
                -9.626568351999879
              ],
              [
                -78.35775786199997,
                -9.624232476999964
              ],
              [
                -78.35975586299998,
                -9.62387497799989
              ],
              [
                -78.36326948699991,
                -9.625076227999898
              ],
              [
                -78.36344136199995,
                -9.62996485299982
              ],
              [
                -78.36702536199982,
                -9.629144477999887
              ],
              [
                -78.36575186199997,
                -9.625609352999959
              ],
              [
                -78.36372261299994,
                -9.62427535199987
              ],
              [
                -78.36322461299994,
                -9.621398602999875
              ],
              [
                -78.36485348799988,
                -9.62047072699994
              ],
              [
                -78.36152736299994,
                -9.613839851999955
              ],
              [
                -78.36259173799988,
                -9.611851601999945
              ],
              [
                -78.36179486199995,
                -9.60871097699993
              ],
              [
                -78.36431836299994,
                -9.607292977999862
              ],
              [
                -78.36443748699992,
                -9.604634726999905
              ],
              [
                -78.36745511299995,
                -9.60308785199993
              ],
              [
                -78.36664448699992,
                -9.59960160299994
              ],
              [
                -78.36497261199997,
                -9.599084102999939
              ],
              [
                -78.36614261299997,
                -9.595081976999893
              ],
              [
                -78.36857611299996,
                -9.594693352999968
              ],
              [
                -78.36808011299996,
                -9.58946685299992
              ],
              [
                -78.36982811199988,
                -9.587113102999922
              ],
              [
                -78.36586723699992,
                -9.58246485299992
              ],
              [
                -78.36655073799989,
                -9.578830101999927
              ],
              [
                -78.36582611199998,
                -9.574720726999885
              ],
              [
                -78.36781036199994,
                -9.569974602999878
              ],
              [
                -78.37094536299998,
                -9.565978477999977
              ],
              [
                -78.37000786299996,
                -9.563585977999935
              ],
              [
                -78.36640423699993,
                -9.561091851999947
              ],
              [
                -78.3679882379999,
                -9.555310476999978
              ],
              [
                -78.37450386299997,
                -9.550706976999948
              ],
              [
                -78.37430473699993,
                -9.548275352999838
              ],
              [
                -78.38207223699993,
                -9.545802727999956
              ],
              [
                -78.38357423699995,
                -9.54304885299996
              ],
              [
                -78.38171873699997,
                -9.541816227999902
              ],
              [
                -78.38152348799991,
                -9.538624976999927
              ],
              [
                -78.38770311299999,
                -9.535363227999937
              ],
              [
                -78.38725198699996,
                -9.529912102999958
              ],
              [
                -78.38567386299997,
                -9.528056602999982
              ],
              [
                -78.38543161199988,
                -9.523988227999894
              ],
              [
                -78.38449023799996,
                -9.520964852999953
              ],
              [
                -78.38513473699993,
                -9.518728476999911
              ],
              [
                -78.38912498799994,
                -9.51223435299994
              ],
              [
                -78.39243548699994,
                -9.507732476999934
              ],
              [
                -78.39130661299998,
                -9.505373101999965
              ],
              [
                -78.39414848799993,
                -9.504074227999979
              ],
              [
                -78.39572073799997,
                -9.50189260299993
              ],
              [
                -78.3930878619999,
                -9.498656101999927
              ],
              [
                -78.39345311299996,
                -9.49354297799988
              ],
              [
                -78.3922578619999,
                -9.490417977999869
              ],
              [
                -78.39497073799993,
                -9.490437476999887
              ],
              [
                -78.39784573799994,
                -9.487956977999943
              ],
              [
                -78.39823636299985,
                -9.48338672799997
              ],
              [
                -78.39637298699995,
                -9.482929726999885
              ],
              [
                -78.3959121129999,
                -9.477722602999904
              ],
              [
                -78.40044136199992,
                -9.476582101999952
              ],
              [
                -78.40244923699998,
                -9.478564476999964
              ],
              [
                -78.40410736299998,
                -9.475984352999888
              ],
              [
                -78.40193548699995,
                -9.470800727999972
              ],
              [
                -78.39773823699994,
                -9.47211522699996
              ],
              [
                -78.39714261199993,
                -9.466505976999883
              ],
              [
                -78.39896673799996,
                -9.464921852999908
              ],
              [
                -78.39522861199993,
                -9.462093726999967
              ],
              [
                -78.39332811299988,
                -9.463253851999923
              ],
              [
                -78.39285936299996,
                -9.45888472699994
              ],
              [
                -78.39124223699997,
                -9.457410102999972
              ],
              [
                -78.38671286299996,
                -9.4559121019999
              ],
              [
                -78.38514448799992,
                -9.458665977999942
              ],
              [
                -78.38088086199997,
                -9.455716852999899
              ],
              [
                -78.37960161199999,
                -9.451531226999975
              ],
              [
                -78.38011136199998,
                -9.445490227999926
              ],
              [
                -78.38290623699993,
                -9.437956976999942
              ],
              [
                -78.38728711299996,
                -9.43267772799993
              ],
              [
                -78.39199223799994,
                -9.42912497799989
              ],
              [
                -78.39600786299985,
                -9.427789102999952
              ],
              [
                -78.39940236299998,
                -9.431187477999913
              ],
              [
                -78.4042441119999,
                -9.434708976999957
              ],
              [
                -78.4073476129999,
                -9.435833976999959
              ],
              [
                -78.40672073699994,
                -9.431013726999936
              ],
              [
                -78.40725973799994,
                -9.429490227999906
              ],
              [
                -78.40655473699996,
                -9.425138727999922
              ],
              [
                -78.41014848799995,
                -9.426404352999953
              ],
              [
                -78.41182223799996,
                -9.424066351999954
              ],
              [
                -78.41560548699988,
                -9.423144476999937
              ],
              [
                -78.41532811199994,
                -9.420187477999889
              ],
              [
                -78.41780473799997,
                -9.417406226999901
              ],
              [
                -78.42114261299992,
                -9.418919976999916
              ],
              [
                -78.4246738629999,
                -9.417671851999955
              ],
              [
                -78.42371098699988,
                -9.41498247699991
              ],
              [
                -78.42794136299989,
                -9.411289101999955
              ],
              [
                -78.42786323699988,
                -9.404710976999922
              ],
              [
                -78.4293553629999,
                -9.402164102999961
              ],
              [
                -78.42721286299991,
                -9.399165977999871
              ],
              [
                -78.42621873699989,
                -9.395798852999917
              ],
              [
                -78.42717386299995,
                -9.393158226999901
              ],
              [
                -78.43298636299994,
                -9.388554727999974
              ],
              [
                -78.43221473799997,
                -9.38475385199996
              ],
              [
                -78.43243548799995,
                -9.381583976999877
              ],
              [
                -78.43068548699989,
                -9.381066351999948
              ],
              [
                -78.42891798799997,
                -9.373876976999952
              ],
              [
                -78.42777148799996,
                -9.371212851999928
              ],
              [
                -78.42369923799998,
                -9.370896477999963
              ],
              [
                -78.4230488629999,
                -9.369164101999957
              ],
              [
                -78.42004098699988,
                -9.36986522699982
              ],
              [
                -78.41545698799996,
                -9.368419976999974
              ],
              [
                -78.41306248799998,
                -9.369839851999927
              ],
              [
                -78.41020698699998,
                -9.367064476999872
              ],
              [
                -78.410013613,
                -9.362472601999912
              ],
              [
                -78.41391011299999,
                -9.359859352999877
              ],
              [
                -78.42185548799995,
                -9.361718726999982
              ],
              [
                -78.42418548699999,
                -9.361779351999928
              ],
              [
                -78.42330661299991,
                -9.358790977999945
              ],
              [
                -78.42727923699988,
                -9.360456977999945
              ],
              [
                -78.42670698799998,
                -9.356765602999872
              ],
              [
                -78.42789448699989,
                -9.349300727999946
              ],
              [
                -78.42678898699995,
                -9.351124976999927
              ],
              [
                -78.41735298799989,
                -9.35524072699991
              ],
              [
                -78.41172536199991,
                -9.35344097799998
              ],
              [
                -78.40983323799998,
                -9.350945601999967
              ],
              [
                -78.40381236299999,
                -9.347127851999971
              ],
              [
                -78.40072711199997,
                -9.341328726999905
              ],
              [
                -78.39934936199984,
                -9.337333977999947
              ],
              [
                -78.3978163619999,
                -9.336062476999928
              ],
              [
                -78.39836136299988,
                -9.341673851999872
              ],
              [
                -78.39663861199989,
                -9.342249977999927
              ],
              [
                -78.39633198699994,
                -9.346949226999925
              ],
              [
                -78.39506823699998,
                -9.349480601999915
              ],
              [
                -78.38941411199988,
                -9.358021476999966
              ],
              [
                -78.38520111199989,
                -9.380564476999893
              ],
              [
                -78.36137298799986,
                -9.429581976999941
              ],
              [
                -78.35530348799995,
                -9.438677476999942
              ],
              [
                -78.34838286199994,
                -9.449617226999976
              ],
              [
                -78.34525836299997,
                -9.453566351999882
              ],
              [
                -78.34115661299995,
                -9.456428977999963
              ],
              [
                -78.33726848699985,
                -9.458308976999888
              ],
              [
                -78.33573023799994,
                -9.459847226999898
              ],
              [
                -78.33562498799995,
                -9.465585976999876
              ],
              [
                -78.33132223799998,
                -9.470214851999913
              ],
              [
                -78.32891961299998,
                -9.474156477999884
              ],
              [
                -78.32503061299997,
                -9.477958851999915
              ],
              [
                -78.3135996129999,
                -9.48436135299994
              ],
              [
                -78.31278336299994,
                -9.490212851999956
              ],
              [
                -78.31099611199994,
                -9.491068352999946
              ],
              [
                -78.30479473699995,
                -9.48989047799995
              ],
              [
                -78.302923863,
                -9.490162102999932
              ],
              [
                -78.29935248799995,
                -9.493742601999884
              ],
              [
                -78.29989936299984,
                -9.49852797699998
              ],
              [
                -78.29261873699988,
                -9.501194101999943
              ],
              [
                -78.29145648699989,
                -9.5021512269999
              ],
              [
                -78.2936099879999,
                -9.505740351999975
              ],
              [
                -78.29417873799997,
                -9.51032597699998
              ],
              [
                -78.29367836299997,
                -9.515823852999915
              ],
              [
                -78.2994893629999,
                -9.519754726999906
              ],
              [
                -78.30037798699993,
                -9.522557602999939
              ],
              [
                -78.29976261299998,
                -9.524779476999981
              ],
              [
                -78.30007023699994,
                -9.529017977999956
              ],
              [
                -78.29883973699998,
                -9.53038522699984
              ],
              [
                -78.29856636299996,
                -9.533598352999945
              ],
              [
                -78.29597361299989,
                -9.544526351999878
              ],
              [
                -78.29358586199999,
                -9.548669852999979
              ],
              [
                -78.29484861299989,
                -9.553720852999902
              ],
              [
                -78.29609086199991,
                -9.556147476999968
              ],
              [
                -78.30072811199994,
                -9.560655726999926
              ],
              [
                -78.30211011199998,
                -9.562992477999956
              ],
              [
                -78.30143686199995,
                -9.57024222699988
              ],
              [
                -78.29994361299993,
                -9.57341572699994
              ],
              [
                -78.2991842369999,
                -9.577301976999877
              ],
              [
                -78.30248023699994,
                -9.57879960299988
              ],
              [
                -78.30588461199989,
                -9.57837410299993
              ],
              [
                -78.30869886199997,
                -9.5789994779999
              ],
              [
                -78.31218298799985,
                -9.58103185199991
              ],
              [
                -78.31496248799994,
                -9.584525976999942
              ],
              [
                -78.31782123699998,
                -9.586828977999971
              ],
              [
                -78.32185736199995,
                -9.58779685199994
              ],
              [
                -78.32433748699998,
                -9.590358352999942
              ],
              [
                -78.32525148699995,
                -9.594433101999869
              ],
              [
                -78.32120661299996,
                -9.599086476999958
              ],
              [
                -78.31992223799989,
                -9.608029476999945
              ],
              [
                -78.31779886199996,
                -9.612775852999903
              ],
              [
                -78.31802286199996,
                -9.616071226999907
              ],
              [
                -78.31655736199991,
                -9.619854977999978
              ],
              [
                -78.31110136299998,
                -9.62444122799991
              ],
              [
                -78.30477973699988,
                -9.627249351999922
              ],
              [
                -78.30409698699998,
                -9.636537102999966
              ],
              [
                -78.30490823799994,
                -9.645945352999888
              ],
              [
                -78.3047266129999,
                -9.652439477999962
              ],
              [
                -78.30317773699994,
                -9.658884727999975
              ],
              [
                -78.30434373799994,
                -9.666052727999954
              ],
              [
                -78.30901686299995,
                -9.673069476999899
              ],
              [
                -78.31677286299998,
                -9.680289976999973
              ],
              [
                -78.31761323799998,
                -9.682665976999886
              ]
            ]
          ]
        ],
        "type": "MultiPolygon"
      },
      "type": "Feature",
      "properties": {
        "PROVINCIA": "CASMA",
        "DISTRITO": "COMANDANTE NOEL",
        "name": "COMANDANTE NOEL",
        "ID": "020503",
        "DEPARTAMEN": "ANCASH"
      }
    }
  ]
}
