{
  "type": "FeatureCollection",
  "features": [
    {
      "geometry": {
        "coordinates": [
          [
            [
              [
                -78.55194923699992,
                -7.726091850999978
              ],
              [
                -78.54810348799998,
                -7.729947350999964
              ],
              [
                -78.5452207379999,
                -7.737802725999927
              ],
              [
                -78.54260161299993,
                -7.741339850999964
              ],
              [
                -78.53762298799995,
                -7.744925725999906
              ],
              [
                -78.53472261199994,
                -7.745289100999969
              ],
              [
                -78.53305073799999,
                -7.747673850999888
              ],
              [
                -78.52537486299991,
                -7.749193350999974
              ],
              [
                -78.51928323699997,
                -7.75151560099988
              ],
              [
                -78.51364648699996,
                -7.754554725999981
              ],
              [
                -78.50709373799998,
                -7.75654097599994
              ],
              [
                -78.50499998799995,
                -7.755039100999852
              ],
              [
                -78.50194723799996,
                -7.756394475999969
              ],
              [
                -78.50070311299999,
                -7.760056600999974
              ],
              [
                -78.50144723699998,
                -7.762806600999852
              ],
              [
                -78.50171673799997,
                -7.77245122599993
              ],
              [
                -78.50239848799998,
                -7.778031225999939
              ],
              [
                -78.50147848799998,
                -7.784958975999814
              ],
              [
                -78.50260161299991,
                -7.791462849999959
              ],
              [
                -78.50174023699998,
                -7.796011724999914
              ],
              [
                -78.5017266129999,
                -7.804281225999887
              ],
              [
                -78.50324998799994,
                -7.808708975999878
              ],
              [
                -78.50493548799994,
                -7.810455100999945
              ],
              [
                -78.51003323799995,
                -7.818826225999885
              ],
              [
                -78.51056748799994,
                -7.822384350999926
              ],
              [
                -78.50935186299995,
                -7.82975322599998
              ],
              [
                -78.51132386299997,
                -7.831947975999981
              ],
              [
                -78.50992436299998,
                -7.835701100999927
              ],
              [
                -78.50134673699995,
                -7.844575600999917
              ],
              [
                -78.49140573699987,
                -7.844370850999951
              ],
              [
                -78.48986386199994,
                -7.844656475999955
              ],
              [
                -78.48069023699992,
                -7.843927100999906
              ],
              [
                -78.4780622369999,
                -7.844947475999959
              ],
              [
                -78.47736911199996,
                -7.848363225999947
              ],
              [
                -78.47983073799998,
                -7.854174350999926
              ],
              [
                -78.48041511199989,
                -7.858515350999937
              ],
              [
                -78.48167761199988,
                -7.861711225999954
              ],
              [
                -78.48473236299998,
                -7.865710850999903
              ],
              [
                -78.4920279879999,
                -7.871495725999921
              ],
              [
                -78.49454436199994,
                -7.873996475999888
              ],
              [
                -78.4919278619999,
                -7.877179850999937
              ],
              [
                -78.49022523799988,
                -7.880885725999974
              ],
              [
                -78.48974511199987,
                -7.887298725999926
              ],
              [
                -78.4884921119999,
                -7.892320975999951
              ],
              [
                -78.48840773699999,
                -7.896150975999944
              ],
              [
                -78.48330561299997,
                -7.900713475999964
              ],
              [
                -78.47913286299996,
                -7.902740225999878
              ],
              [
                -78.47776186299984,
                -7.908489475999943
              ],
              [
                -78.47846011299998,
                -7.911031350999963
              ],
              [
                -78.48683473799991,
                -7.910897225999975
              ],
              [
                -78.49369886199997,
                -7.91314772599992
              ],
              [
                -78.50371361299995,
                -7.917836225999963
              ],
              [
                -78.50817711299993,
                -7.916410975999895
              ],
              [
                -78.51016511299991,
                -7.917048600999919
              ],
              [
                -78.51177786299996,
                -7.921624600999905
              ],
              [
                -78.51331573699991,
                -7.923950100999946
              ],
              [
                -78.51695411299988,
                -7.926425725999877
              ],
              [
                -78.5206953629999,
                -7.932087975999934
              ],
              [
                -78.52283986299994,
                -7.933917975999918
              ],
              [
                -78.5289568629999,
                -7.935435600999881
              ],
              [
                -78.53060736299994,
                -7.935035100999812
              ],
              [
                -78.53266211199997,
                -7.931998100999976
              ],
              [
                -78.53708598799989,
                -7.932097600999953
              ],
              [
                -78.54084173799998,
                -7.93335160099997
              ],
              [
                -78.54351361299996,
                -7.932892600999821
              ],
              [
                -78.5523043629999,
                -7.925650100999917
              ],
              [
                -78.5535248619999,
                -7.924212725999894
              ],
              [
                -78.5600298629999,
                -7.92341497599989
              ],
              [
                -78.56744048799993,
                -7.92368760099987
              ],
              [
                -78.57074611299998,
                -7.926982600999963
              ],
              [
                -78.57461911299998,
                -7.926470725999934
              ],
              [
                -78.57824798799993,
                -7.929167975999917
              ],
              [
                -78.58107223799993,
                -7.92988085099995
              ],
              [
                -78.58464648799992,
                -7.929466850999972
              ],
              [
                -78.58780261199985,
                -7.930794975999902
              ],
              [
                -78.58999023799993,
                -7.934740225999917
              ],
              [
                -78.59244723799992,
                -7.936298850999947
              ],
              [
                -78.59460548799996,
                -7.93920510099997
              ],
              [
                -78.59877923799996,
                -7.940367225999921
              ],
              [
                -78.60356448799996,
                -7.943611350999959
              ],
              [
                -78.60524798799997,
                -7.94729097599992
              ],
              [
                -78.6119023629999,
                -7.953546850999885
              ],
              [
                -78.61215623699997,
                -7.95651360099987
              ],
              [
                -78.61545511199995,
                -7.958339850999891
              ],
              [
                -78.61698636199992,
                -7.960165975999928
              ],
              [
                -78.62080473799995,
                -7.961488225999972
              ],
              [
                -78.62322461299993,
                -7.961456975999965
              ],
              [
                -78.62858986299995,
                -7.963431600999911
              ],
              [
                -78.63212298799982,
                -7.965566350999893
              ],
              [
                -78.63514848799997,
                -7.969216850999885
              ],
              [
                -78.63945898799989,
                -7.969810600999892
              ],
              [
                -78.64186136299998,
                -7.974831975999962
              ],
              [
                -78.64383398699988,
                -7.977111350999905
              ],
              [
                -78.64760736299996,
                -7.978181600999903
              ],
              [
                -78.6503339869999,
                -7.981757850999941
              ],
              [
                -78.65215436299997,
                -7.982066350999901
              ],
              [
                -78.65333598799992,
                -7.985046850999936
              ],
              [
                -78.65747661299997,
                -7.988414100999933
              ],
              [
                -78.66128123699991,
                -7.989060600999949
              ],
              [
                -78.66935348699997,
                -7.988853476999964
              ],
              [
                -78.67424023799992,
                -7.990371100999937
              ],
              [
                -78.67953911299998,
                -7.996275350999952
              ],
              [
                -78.68230986299989,
                -7.996657350999953
              ],
              [
                -78.68340686199997,
                -7.99466760099989
              ],
              [
                -78.68417311299993,
                -7.98702710099991
              ],
              [
                -78.68666861299994,
                -7.981792725999981
              ],
              [
                -78.69055561199991,
                -7.978499975999966
              ],
              [
                -78.69307036299989,
                -7.975128850999909
              ],
              [
                -78.69439236299996,
                -7.972105975999909
              ],
              [
                -78.69122736199989,
                -7.968867975999956
              ],
              [
                -78.69020486299996,
                -7.96648210099994
              ],
              [
                -78.69010748799997,
                -7.959372975999941
              ],
              [
                -78.68869536199992,
                -7.950316350999969
              ],
              [
                -78.68979186299998,
                -7.946104600999888
              ],
              [
                -78.68348448799998,
                -7.94448885099996
              ],
              [
                -78.68015523799994,
                -7.942242975999932
              ],
              [
                -78.6795793629999,
                -7.940759975999981
              ],
              [
                -78.67455373799993,
                -7.93946860099993
              ],
              [
                -78.6719116129999,
                -7.935954475999949
              ],
              [
                -78.66776561299997,
                -7.932578100999933
              ],
              [
                -78.66440773799997,
                -7.929058350999981
              ],
              [
                -78.65688661199994,
                -7.926122975999874
              ],
              [
                -78.65747373799991,
                -7.919488475999913
              ],
              [
                -78.65954098799989,
                -7.915287100999933
              ],
              [
                -78.65930823799994,
                -7.912835225999913
              ],
              [
                -78.65650748799999,
                -7.907445100999951
              ],
              [
                -78.65124961299989,
                -7.904591725999978
              ],
              [
                -78.64794686199991,
                -7.8997034759999
              ],
              [
                -78.64908086299994,
                -7.894488975999934
              ],
              [
                -78.65159298799995,
                -7.890561475999959
              ],
              [
                -78.65205473799989,
                -7.887511475999929
              ],
              [
                -78.65436736199985,
                -7.880943850999813
              ],
              [
                -78.65402161299994,
                -7.878533725999944
              ],
              [
                -78.6513023629999,
                -7.874708225999882
              ],
              [
                -78.64792036299997,
                -7.868181975999846
              ],
              [
                -78.64797323699997,
                -7.864350850999926
              ],
              [
                -78.65226761199995,
                -7.860525350999978
              ],
              [
                -78.65214048799999,
                -7.8579336009999
              ],
              [
                -78.65219198799997,
                -7.853968225999893
              ],
              [
                -78.64905048699984,
                -7.849255975999938
              ],
              [
                -78.64639823799996,
                -7.846268975999976
              ],
              [
                -78.64006686299996,
                -7.841066475999924
              ],
              [
                -78.63617548699995,
                -7.835196725999936
              ],
              [
                -78.63261523799997,
                -7.83145510099996
              ],
              [
                -78.62671873699998,
                -7.828611475999935
              ],
              [
                -78.62599036199998,
                -7.826990225999907
              ],
              [
                -78.62924898699998,
                -7.82005585099995
              ],
              [
                -78.63112886199997,
                -7.818421225999941
              ],
              [
                -78.63741161199988,
                -7.817532350999954
              ],
              [
                -78.64074648799993,
                -7.816499725999961
              ],
              [
                -78.64749386199992,
                -7.812576475999947
              ],
              [
                -78.65901523699989,
                -7.801417725999954
              ],
              [
                -78.66504148699988,
                -7.796993850999911
              ],
              [
                -78.66318998699984,
                -7.791983475999871
              ],
              [
                -78.65915973799997,
                -7.788747100999956
              ],
              [
                -78.65372186199988,
                -7.782588349999969
              ],
              [
                -78.6506616129999,
                -7.779693725999891
              ],
              [
                -78.64842736199995,
                -7.775644100999955
              ],
              [
                -78.64448448799999,
                -7.770056350999823
              ],
              [
                -78.63931498799997,
                -7.766654100999972
              ],
              [
                -78.63621023699994,
                -7.763633350999953
              ],
              [
                -78.63185548799999,
                -7.757064474999936
              ],
              [
                -78.62791798699999,
                -7.753039100999899
              ],
              [
                -78.62732036199998,
                -7.75129097599995
              ],
              [
                -78.61894923799997,
                -7.74612885099998
              ],
              [
                -78.61183398699995,
                -7.743152350999878
              ],
              [
                -78.60951361199994,
                -7.740011725999921
              ],
              [
                -78.60622848699995,
                -7.739378850999969
              ],
              [
                -78.60371486199995,
                -7.736951225999917
              ],
              [
                -78.6004453619999,
                -7.735169975999952
              ],
              [
                -78.60048236199992,
                -7.731591850999962
              ],
              [
                -78.59831636199988,
                -7.727050725999902
              ],
              [
                -78.59914648799997,
                -7.722771475999878
              ],
              [
                -78.60049786299999,
                -7.720755850999979
              ],
              [
                -78.5993066129999,
                -7.715343725999901
              ],
              [
                -78.59699611299999,
                -7.713468725999974
              ],
              [
                -78.59475198799998,
                -7.709749975999898
              ],
              [
                -78.59642773799993,
                -7.703468725999869
              ],
              [
                -78.5920351119999,
                -7.701701225999898
              ],
              [
                -78.58714648799992,
                -7.702613225999869
              ],
              [
                -78.58347261299997,
                -7.706515600999921
              ],
              [
                -78.5812187379999,
                -7.710921849999977
              ],
              [
                -78.57690423699995,
                -7.714449225999886
              ],
              [
                -78.57434573799992,
                -7.713421850999964
              ],
              [
                -78.57154886199999,
                -7.714562475999855
              ],
              [
                -78.57030661199997,
                -7.716201225999896
              ],
              [
                -78.56622461299997,
                -7.71874410099997
              ],
              [
                -78.56140423799991,
                -7.718753850999974
              ],
              [
                -78.5580097379999,
                -7.722927725999909
              ],
              [
                -78.5524902379999,
                -7.724929725999914
              ],
              [
                -78.55194923699992,
                -7.726091850999978
              ]
            ]
          ]
        ],
        "type": "MultiPolygon"
      },
      "type": "Feature",
      "properties": {
        "PROVINCIA": "OTUZCO",
        "DISTRITO": "OTUZCO",
        "name": "OTUZCO",
        "ID": "120401",
        "DEPARTAMEN": "LA LIBERTAD"
      }
    }
  ]
}
