{
  "type": "FeatureCollection",
  "features": [
    {
      "geometry": {
        "coordinates": [
          [
            [
              [
                -73.61967973299994,
                -14.016693356999838
              ],
              [
                -73.62005273299997,
                -14.020990105999886
              ],
              [
                -73.61805285799988,
                -14.022322231999965
              ],
              [
                -73.61832223399989,
                -14.026134731999946
              ],
              [
                -73.62185160899998,
                -14.02935348099993
              ],
              [
                -73.6216738579999,
                -14.032669981999959
              ],
              [
                -73.62849610899997,
                -14.035037105999947
              ],
              [
                -73.63333598299994,
                -14.033634731999939
              ],
              [
                -73.63552948299997,
                -14.03433198199997
              ],
              [
                -73.63767185799992,
                -14.03845123099984
              ],
              [
                -73.64076935899999,
                -14.040298856999925
              ],
              [
                -73.64157623299997,
                -14.042089856999894
              ],
              [
                -73.64490035799992,
                -14.043865356999902
              ],
              [
                -73.64798823299998,
                -14.044064481999953
              ],
              [
                -73.65260548299983,
                -14.045542981999972
              ],
              [
                -73.65649610799994,
                -14.047837856999934
              ],
              [
                -73.65840435799993,
                -14.051898481999956
              ],
              [
                -73.66041598299984,
                -14.052542981999977
              ],
              [
                -73.66791598299989,
                -14.05828910699995
              ],
              [
                -73.67042185799994,
                -14.061472605999938
              ],
              [
                -73.67462498299989,
                -14.06347848199988
              ],
              [
                -73.67647435799995,
                -14.069008731999872
              ],
              [
                -73.68046448299998,
                -14.07524598099991
              ],
              [
                -73.68206973299993,
                -14.076621855999974
              ],
              [
                -73.68702285899997,
                -14.077860231999978
              ],
              [
                -73.68968298299995,
                -14.080015731999879
              ],
              [
                -73.69679160799996,
                -14.077493231999881
              ],
              [
                -73.69816748299996,
                -14.073136356999896
              ],
              [
                -73.69582848299996,
                -14.067678605999959
              ],
              [
                -73.69376473299991,
                -14.064835230999961
              ],
              [
                -73.69320698399986,
                -14.062458980999907
              ],
              [
                -73.69635448299994,
                -14.0605943569999
              ],
              [
                -73.70000923299995,
                -14.056366356999945
              ],
              [
                -73.70086910799995,
                -14.054144856999926
              ],
              [
                -73.69879098299992,
                -14.048698730999945
              ],
              [
                -73.69893423299999,
                -14.04160435699987
              ],
              [
                -73.69835960799986,
                -14.036065105999853
              ],
              [
                -73.70002173299997,
                -14.028777106999826
              ],
              [
                -73.70039835799997,
                -14.02105060699995
              ],
              [
                -73.70234623299996,
                -14.016705356999921
              ],
              [
                -73.70304548299998,
                -14.01255998199997
              ],
              [
                -73.70134735799996,
                -14.000872731999891
              ],
              [
                -73.70000185899994,
                -13.995464480999885
              ],
              [
                -73.70022973299996,
                -13.992871980999894
              ],
              [
                -73.70233798299995,
                -13.990364856999918
              ],
              [
                -73.69914710899991,
                -13.984552981999911
              ],
              [
                -73.69645273299983,
                -13.980744855999944
              ],
              [
                -73.69505423399994,
                -13.976848981999922
              ],
              [
                -73.69420523299993,
                -13.969407356999966
              ],
              [
                -73.68508435899997,
                -13.96591923199992
              ],
              [
                -73.67917598399987,
                -13.96324510699992
              ],
              [
                -73.67090998299983,
                -13.962659981999934
              ],
              [
                -73.6650499829999,
                -13.958790106999913
              ],
              [
                -73.65762998299988,
                -13.958379981999883
              ],
              [
                -73.65050998299989,
                -13.956699981999975
              ],
              [
                -73.64849998299997,
                -13.953289980999841
              ],
              [
                -73.64815998299997,
                -13.951109981999934
              ],
              [
                -73.6470683579999,
                -13.954070355999932
              ],
              [
                -73.64221710799995,
                -13.962442481999972
              ],
              [
                -73.64162735799994,
                -13.966464605999931
              ],
              [
                -73.64265560799998,
                -13.969836606999877
              ],
              [
                -73.64193598299988,
                -13.973165231999928
              ],
              [
                -73.64276048299996,
                -13.978535981999869
              ],
              [
                -73.64077735799992,
                -13.980583981999871
              ],
              [
                -73.63112310799988,
                -13.9871132319999
              ],
              [
                -73.63027348299994,
                -13.991498106999813
              ],
              [
                -73.6258944839999,
                -13.994906231999892
              ],
              [
                -73.62719723299995,
                -14.000638731999913
              ],
              [
                -73.62574985799984,
                -14.003560606999827
              ],
              [
                -73.62528910799989,
                -14.00707810699987
              ],
              [
                -73.62335748299995,
                -14.008685605999915
              ],
              [
                -73.62141598299996,
                -14.016181606999965
              ],
              [
                -73.61967973299994,
                -14.016693356999838
              ]
            ]
          ]
        ],
        "type": "MultiPolygon"
      },
      "type": "Feature",
      "properties": {
        "PROVINCIA": "SUCRE",
        "DISTRITO": "PAICO",
        "name": "PAICO",
        "ID": "051105",
        "DEPARTAMEN": "AYACUCHO"
      }
    }
  ]
}
