{
  "type": "FeatureCollection",
  "features": [
    {
      "geometry": {
        "coordinates": [
          [
            [
              [
                -73.65459573299984,
                -13.939050730999952
              ],
              [
                -73.65345123299988,
                -13.943454106999923
              ],
              [
                -73.65003910799993,
                -13.945345731999964
              ],
              [
                -73.64815998299997,
                -13.951109981999934
              ],
              [
                -73.64849998299997,
                -13.953289980999841
              ],
              [
                -73.65050998299989,
                -13.956699981999975
              ],
              [
                -73.65762998299988,
                -13.958379981999883
              ],
              [
                -73.6650499829999,
                -13.958790106999913
              ],
              [
                -73.67090998299983,
                -13.962659981999934
              ],
              [
                -73.67917598399987,
                -13.96324510699992
              ],
              [
                -73.68508435899997,
                -13.96591923199992
              ],
              [
                -73.69420523299993,
                -13.969407356999966
              ],
              [
                -73.69505423399994,
                -13.976848981999922
              ],
              [
                -73.69645273299983,
                -13.980744855999944
              ],
              [
                -73.69914710899991,
                -13.984552981999911
              ],
              [
                -73.70233798299995,
                -13.990364856999918
              ],
              [
                -73.70022973299996,
                -13.992871980999894
              ],
              [
                -73.70000185899994,
                -13.995464480999885
              ],
              [
                -73.70134735799996,
                -14.000872731999891
              ],
              [
                -73.70304548299998,
                -14.01255998199997
              ],
              [
                -73.70234623299996,
                -14.016705356999921
              ],
              [
                -73.70039835799997,
                -14.02105060699995
              ],
              [
                -73.70002173299997,
                -14.028777106999826
              ],
              [
                -73.69835960799986,
                -14.036065105999853
              ],
              [
                -73.69893423299999,
                -14.04160435699987
              ],
              [
                -73.69879098299992,
                -14.048698730999945
              ],
              [
                -73.70086910799995,
                -14.054144856999926
              ],
              [
                -73.70000923299995,
                -14.056366356999945
              ],
              [
                -73.69635448299994,
                -14.0605943569999
              ],
              [
                -73.69320698399986,
                -14.062458980999907
              ],
              [
                -73.69376473299991,
                -14.064835230999961
              ],
              [
                -73.69582848299996,
                -14.067678605999959
              ],
              [
                -73.69816748299996,
                -14.073136356999896
              ],
              [
                -73.69679160799996,
                -14.077493231999881
              ],
              [
                -73.68968298299995,
                -14.080015731999879
              ],
              [
                -73.69750723299995,
                -14.083275856999876
              ],
              [
                -73.69954048299996,
                -14.084784606999904
              ],
              [
                -73.70072123299997,
                -14.087867356999823
              ],
              [
                -73.70019648299996,
                -14.091802856999948
              ],
              [
                -73.70374998299991,
                -14.09668560699987
              ],
              [
                -73.7145017329999,
                -14.095010231999936
              ],
              [
                -73.71649573299987,
                -14.093488481999941
              ],
              [
                -73.71450198299993,
                -14.088901106999913
              ],
              [
                -73.71797835799998,
                -14.082975481999881
              ],
              [
                -73.71987460799994,
                -14.080763231999981
              ],
              [
                -73.7280914829999,
                -14.074837606999893
              ],
              [
                -73.73249648299986,
                -14.073055231999945
              ],
              [
                -73.73567498299997,
                -14.072752481999942
              ],
              [
                -73.7369101079999,
                -14.065212856999949
              ],
              [
                -73.74365635899989,
                -14.053505231999907
              ],
              [
                -73.74503323299996,
                -14.050132856999937
              ],
              [
                -73.74499935799997,
                -14.046631481999952
              ],
              [
                -73.74152298299992,
                -14.04434023199991
              ],
              [
                -73.74012698299998,
                -14.04172673099987
              ],
              [
                -73.73962673299997,
                -14.035570356999926
              ],
              [
                -73.74357723299983,
                -14.034543231999976
              ],
              [
                -73.74723398299994,
                -14.03571110699994
              ],
              [
                -73.7515711079999,
                -14.034237231999953
              ],
              [
                -73.75582710799995,
                -14.031148105999875
              ],
              [
                -73.76087273299999,
                -14.030633355999953
              ],
              [
                -73.76554048299994,
                -14.025896855999974
              ],
              [
                -73.77042360799993,
                -14.022095106999927
              ],
              [
                -73.76994060799996,
                -14.021182731999943
              ],
              [
                -73.7646021079999,
                -14.017746231999979
              ],
              [
                -73.76359273299988,
                -14.01283110699984
              ],
              [
                -73.76144185799984,
                -14.007819480999956
              ],
              [
                -73.76283160799989,
                -14.00211673199982
              ],
              [
                -73.76196910899995,
                -13.997324606999882
              ],
              [
                -73.76062460799989,
                -13.994812731999957
              ],
              [
                -73.7615607329999,
                -13.991536855999982
              ],
              [
                -73.76427485799996,
                -13.989664855999933
              ],
              [
                -73.76670835799996,
                -13.986388980999948
              ],
              [
                -73.76567885799994,
                -13.982083606999879
              ],
              [
                -73.76567885799994,
                -13.977497356999947
              ],
              [
                -73.77148185799985,
                -13.970477606999964
              ],
              [
                -73.77325173299982,
                -13.963391731999877
              ],
              [
                -73.77133048399992,
                -13.959985605999975
              ],
              [
                -73.76565373299997,
                -13.956972606999898
              ],
              [
                -73.76150535799997,
                -13.951121231999878
              ],
              [
                -73.75949673299993,
                -13.950073231999966
              ],
              [
                -73.75779360799999,
                -13.947584105999965
              ],
              [
                -73.75364523299999,
                -13.943784980999965
              ],
              [
                -73.75319898299995,
                -13.936125606999951
              ],
              [
                -73.75094748299989,
                -13.928620355999954
              ],
              [
                -73.74958285799988,
                -13.926095856999893
              ],
              [
                -73.75108385899989,
                -13.9196822319999
              ],
              [
                -73.7501931079999,
                -13.917281980999917
              ],
              [
                -73.74611760899995,
                -13.920007356999974
              ],
              [
                -73.74240235799994,
                -13.921316355999863
              ],
              [
                -73.73880860899999,
                -13.92346285699989
              ],
              [
                -73.7327363579999,
                -13.92532810699987
              ],
              [
                -73.72934373399994,
                -13.928169981999929
              ],
              [
                -73.72445510799992,
                -13.929464856999857
              ],
              [
                -73.72216598299997,
                -13.928462855999896
              ],
              [
                -73.7246836079999,
                -13.921636731999968
              ],
              [
                -73.72310935799999,
                -13.91811323099995
              ],
              [
                -73.72358398299997,
                -13.91261523199995
              ],
              [
                -73.7196006079999,
                -13.910693481999942
              ],
              [
                -73.71542773299996,
                -13.910939355999972
              ],
              [
                -73.71251560799988,
                -13.909822230999964
              ],
              [
                -73.70976173299994,
                -13.90680860699996
              ],
              [
                -73.70426548299992,
                -13.903775356999972
              ],
              [
                -73.69980260799997,
                -13.899324230999923
              ],
              [
                -73.69893248299991,
                -13.89431085599989
              ],
              [
                -73.69585998299988,
                -13.890029981999874
              ],
              [
                -73.69384635799992,
                -13.885987106999949
              ],
              [
                -73.69130773299992,
                -13.887814981999952
              ],
              [
                -73.68908635799988,
                -13.890759856999978
              ],
              [
                -73.68647148299988,
                -13.89894698199987
              ],
              [
                -73.68474523299994,
                -13.902425106999885
              ],
              [
                -73.68546873399998,
                -13.905103230999885
              ],
              [
                -73.68246098299988,
                -13.909091856999964
              ],
              [
                -73.68111135799995,
                -13.913398356999949
              ],
              [
                -73.67915035799996,
                -13.916318356999966
              ],
              [
                -73.67041585799996,
                -13.920099481999898
              ],
              [
                -73.66749998299997,
                -13.922062481999944
              ],
              [
                -73.66302535799991,
                -13.92371485699988
              ],
              [
                -73.65950648299997,
                -13.926885106999919
              ],
              [
                -73.65882223299997,
                -13.928714855999885
              ],
              [
                -73.65647073299988,
                -13.92995123199995
              ],
              [
                -73.65563473299983,
                -13.933683606999864
              ],
              [
                -73.65616410799993,
                -13.936124981999967
              ],
              [
                -73.65459573299984,
                -13.939050730999952
              ]
            ]
          ]
        ],
        "type": "MultiPolygon"
      },
      "type": "Feature",
      "properties": {
        "PROVINCIA": "SUCRE",
        "DISTRITO": "SAN SALVADOR DE QUIJE",
        "name": "SAN SALVADOR DE QUIJE",
        "ID": "051104",
        "DEPARTAMEN": "AYACUCHO"
      }
    }
  ]
}
