{
  "type": "FeatureCollection",
  "features": [
    {
      "geometry": {
        "coordinates": [
          [
            [
              [
                -69.4375111039999,
                -14.476977106999925
              ],
              [
                -69.43735860499999,
                -14.482358731999966
              ],
              [
                -69.43479410399988,
                -14.48674448199995
              ],
              [
                -69.43474797899995,
                -14.49027098199997
              ],
              [
                -69.43282247999991,
                -14.492734231999918
              ],
              [
                -69.43233672899993,
                -14.496567856999945
              ],
              [
                -69.43508935399996,
                -14.500420606999967
              ],
              [
                -69.43232872899989,
                -14.505524356999956
              ],
              [
                -69.43268772899995,
                -14.509237606999932
              ],
              [
                -69.43517135499991,
                -14.512804856999878
              ],
              [
                -69.43593722999998,
                -14.519058732999952
              ],
              [
                -69.43750022899997,
                -14.523237606999942
              ],
              [
                -69.43970135399991,
                -14.525885231999894
              ],
              [
                -69.44129635399992,
                -14.530223606999925
              ],
              [
                -69.44439035399995,
                -14.53306260799991
              ],
              [
                -69.43865522899995,
                -14.541384856999912
              ],
              [
                -69.43488185499996,
                -14.54331898199996
              ],
              [
                -69.43099460399992,
                -14.548761231999947
              ],
              [
                -69.43052047899994,
                -14.55181410699987
              ],
              [
                -69.42837772899992,
                -14.557749356999977
              ],
              [
                -69.4294774789999,
                -14.560043856999926
              ],
              [
                -69.43196160499991,
                -14.56102985699988
              ],
              [
                -69.43630397899994,
                -14.565068856999858
              ],
              [
                -69.43675910399992,
                -14.56726860699996
              ],
              [
                -69.43398485399996,
                -14.573604607999982
              ],
              [
                -69.43314747999989,
                -14.57918723299997
              ],
              [
                -69.43466447899982,
                -14.58188135699993
              ],
              [
                -69.43495572899991,
                -14.587415481999813
              ],
              [
                -69.43896060399999,
                -14.590643481999905
              ],
              [
                -69.44334172899994,
                -14.590861981999979
              ],
              [
                -69.44697035399997,
                -14.597415356999932
              ],
              [
                -69.45212372899994,
                -14.59497710699992
              ],
              [
                -69.45515010499997,
                -14.59068785699992
              ],
              [
                -69.46061497899996,
                -14.587400481999907
              ],
              [
                -69.46268322899994,
                -14.587139106999928
              ],
              [
                -69.47454897899985,
                -14.588924481999982
              ],
              [
                -69.4762253539999,
                -14.590274356999942
              ],
              [
                -69.48053622899988,
                -14.58977360699987
              ],
              [
                -69.48615347999998,
                -14.59070973199988
              ],
              [
                -69.49277210399987,
                -14.592690981999965
              ],
              [
                -69.49806122899997,
                -14.595992356999886
              ],
              [
                -69.49959085499995,
                -14.599945606999881
              ],
              [
                -69.50335597899993,
                -14.603077481999946
              ],
              [
                -69.50556322899996,
                -14.60706310799992
              ],
              [
                -69.50677197899995,
                -14.607370107999941
              ],
              [
                -69.50951572899993,
                -14.604568731999962
              ],
              [
                -69.51444672999997,
                -14.601575606999916
              ],
              [
                -69.51615435499997,
                -14.601614106999818
              ],
              [
                -69.5246156049999,
                -14.603686232999848
              ],
              [
                -69.52801172899996,
                -14.607235731999879
              ],
              [
                -69.52991110399995,
                -14.611514356999976
              ],
              [
                -69.53455435399997,
                -14.610267232999888
              ],
              [
                -69.53887135499986,
                -14.611360856999966
              ],
              [
                -69.54493435399996,
                -14.618344856999897
              ],
              [
                -69.54479997999994,
                -14.621107732999974
              ],
              [
                -69.54635422899992,
                -14.624446231999968
              ],
              [
                -69.54890597899993,
                -14.626902107999967
              ],
              [
                -69.55502660499991,
                -14.628437106999968
              ],
              [
                -69.56732522899995,
                -14.628302731999952
              ],
              [
                -69.57488485399995,
                -14.629204481999864
              ],
              [
                -69.57826197899988,
                -14.628941231999931
              ],
              [
                -69.58175585399994,
                -14.627220731999955
              ],
              [
                -69.6122069789999,
                -14.661820356999954
              ],
              [
                -69.61352547899992,
                -14.661820356999954
              ],
              [
                -69.61909760399993,
                -14.658394481999892
              ],
              [
                -69.62029097899989,
                -14.655476606999969
              ],
              [
                -69.6225722289999,
                -14.654880857999899
              ],
              [
                -69.62550972999992,
                -14.647595731999843
              ],
              [
                -69.62742835399996,
                -14.644358107999835
              ],
              [
                -69.62822460399997,
                -14.640503856999942
              ],
              [
                -69.63095897899996,
                -14.636699231999955
              ],
              [
                -69.63149410499994,
                -14.634216856999899
              ],
              [
                -69.63333197899993,
                -14.632900356999926
              ],
              [
                -69.63344922999994,
                -14.62998823199996
              ],
              [
                -69.6354453539999,
                -14.625861356999906
              ],
              [
                -69.63914060399998,
                -14.623124981999979
              ],
              [
                -69.64165435499996,
                -14.619781232999912
              ],
              [
                -69.64362497899998,
                -14.61965823199995
              ],
              [
                -69.64574810399989,
                -14.617384731999948
              ],
              [
                -69.65353135399994,
                -14.615394481999942
              ],
              [
                -69.65470897899996,
                -14.611234356999887
              ],
              [
                -69.65713285399988,
                -14.608646482999916
              ],
              [
                -69.65812710499989,
                -14.605091856999877
              ],
              [
                -69.65711910499988,
                -14.602384731999962
              ],
              [
                -69.65846097999997,
                -14.596314481999912
              ],
              [
                -69.65733597899998,
                -14.593554731999916
              ],
              [
                -69.65755072999997,
                -14.589373106999972
              ],
              [
                -69.65966797899995,
                -14.588160106999965
              ],
              [
                -69.65969922899995,
                -14.585128856999972
              ],
              [
                -69.65857622899995,
                -14.583720732999893
              ],
              [
                -69.66005472999996,
                -14.580279356999938
              ],
              [
                -69.66003122899997,
                -14.572070356999973
              ],
              [
                -69.66127347899999,
                -14.57057048299987
              ],
              [
                -69.66135347999995,
                -14.567433606999941
              ],
              [
                -69.66025972999995,
                -14.55596285699994
              ],
              [
                -69.66121485499986,
                -14.55205273199988
              ],
              [
                -69.65958197899994,
                -14.549999981999974
              ],
              [
                -69.66042972899999,
                -14.548421857999926
              ],
              [
                -69.66109185399989,
                -14.541843606999919
              ],
              [
                -69.6624296039999,
                -14.541749981999942
              ],
              [
                -69.66651372999996,
                -14.537039106999941
              ],
              [
                -69.66737485399989,
                -14.533080106999932
              ],
              [
                -69.6666406039999,
                -14.531040981999979
              ],
              [
                -69.67023635499987,
                -14.528828231999967
              ],
              [
                -69.67209947899994,
                -14.523624606999931
              ],
              [
                -69.67478185499982,
                -14.522031606999974
              ],
              [
                -69.67910297899994,
                -14.521290856999883
              ],
              [
                -69.68289510499983,
                -14.51938598299995
              ],
              [
                -69.69096147999994,
                -14.517818731999967
              ],
              [
                -69.68912935399999,
                -14.508563606999871
              ],
              [
                -69.68580322999992,
                -14.49937423199998
              ],
              [
                -69.68562010399995,
                -14.496961856999974
              ],
              [
                -69.68260022999993,
                -14.490058981999937
              ],
              [
                -69.6799332299999,
                -14.486058606999961
              ],
              [
                -69.67761797899993,
                -14.480768981999972
              ],
              [
                -69.66962735499993,
                -14.469744982999941
              ],
              [
                -69.66589110399997,
                -14.467118481999933
              ],
              [
                -69.66396735499995,
                -14.46249423199987
              ],
              [
                -69.66108185399986,
                -14.46123648199989
              ],
              [
                -69.65952822999992,
                -14.458757981999895
              ],
              [
                -69.65978047899983,
                -14.453333731999976
              ],
              [
                -69.66215647899998,
                -14.450509231999945
              ],
              [
                -69.65929647899992,
                -14.449039606999975
              ],
              [
                -69.65653522999997,
                -14.44883760699986
              ],
              [
                -69.65192172899992,
                -14.447372731999963
              ],
              [
                -69.64905935499996,
                -14.444965106999973
              ],
              [
                -69.64666847899991,
                -14.444308356999898
              ],
              [
                -69.63766047999997,
                -14.443281231999947
              ],
              [
                -69.63372060399996,
                -14.440603981999914
              ],
              [
                -69.6313297289999,
                -14.440654606999942
              ],
              [
                -69.62696885499997,
                -14.438499481999884
              ],
              [
                -69.62321410499999,
                -14.438314231999982
              ],
              [
                -69.61345397899987,
                -14.435197731999892
              ],
              [
                -69.61092285399997,
                -14.433532481999976
              ],
              [
                -69.61021560399996,
                -14.431562481999947
              ],
              [
                -69.60767322899994,
                -14.429777731999877
              ],
              [
                -69.60076985399996,
                -14.427386731999945
              ],
              [
                -69.59896835399991,
                -14.425719856999933
              ],
              [
                -69.5940012289999,
                -14.4232279819999
              ],
              [
                -69.59030460499991,
                -14.419083106999892
              ],
              [
                -69.58924960399986,
                -14.416431606999879
              ],
              [
                -69.58618885399983,
                -14.417590481999923
              ],
              [
                -69.58189322999993,
                -14.420571356999915
              ],
              [
                -69.58195210499991,
                -14.42554135699993
              ],
              [
                -69.5804359789999,
                -14.427217606999875
              ],
              [
                -69.57604860399988,
                -14.426051606999977
              ],
              [
                -69.57052422899994,
                -14.426051606999977
              ],
              [
                -69.56323622899998,
                -14.429244356999959
              ],
              [
                -69.56159972899997,
                -14.429257856999925
              ],
              [
                -69.55546485399992,
                -14.425835981999967
              ],
              [
                -69.54993797899988,
                -14.42646110699991
              ],
              [
                -69.54654635399993,
                -14.426284731999885
              ],
              [
                -69.54285847899996,
                -14.420818731999873
              ],
              [
                -69.53971010399988,
                -14.419842231999894
              ],
              [
                -69.53629922899995,
                -14.417160106999972
              ],
              [
                -69.52794547899998,
                -14.416986606999899
              ],
              [
                -69.52562047899994,
                -14.415120481999963
              ],
              [
                -69.52326185499999,
                -14.41610923199994
              ],
              [
                -69.51608060399991,
                -14.422069481999813
              ],
              [
                -69.5132422289999,
                -14.427259731999982
              ],
              [
                -69.51024810399997,
                -14.426216856999929
              ],
              [
                -69.50971285399999,
                -14.424230356999885
              ],
              [
                -69.50668560499997,
                -14.421581981999964
              ],
              [
                -69.50498247899992,
                -14.42277935699991
              ],
              [
                -69.49828710399998,
                -14.418943356999876
              ],
              [
                -69.49534585399994,
                -14.418702481999958
              ],
              [
                -69.49110347999994,
                -14.41419923199993
              ],
              [
                -69.48859372999993,
                -14.41337310699987
              ],
              [
                -69.48599222999997,
                -14.40861135699987
              ],
              [
                -69.48311522899996,
                -14.414605481999956
              ],
              [
                -69.47928122899998,
                -14.41765610699997
              ],
              [
                -69.47314847899997,
                -14.420728481999959
              ],
              [
                -69.47017385399994,
                -14.425480481999955
              ],
              [
                -69.46628710399989,
                -14.428140607999978
              ],
              [
                -69.46481685399993,
                -14.430544481999902
              ],
              [
                -69.46444210499993,
                -14.434407106999913
              ],
              [
                -69.46488247899993,
                -14.44050898199987
              ],
              [
                -69.46400197899999,
                -14.442353481999817
              ],
              [
                -69.46117060499995,
                -14.444553231999919
              ],
              [
                -69.45743297999996,
                -14.4462717319999
              ],
              [
                -69.4536916049999,
                -14.452290857999856
              ],
              [
                -69.45251060399988,
                -14.458213106999949
              ],
              [
                -69.45015872999988,
                -14.460984231999873
              ],
              [
                -69.44942935399996,
                -14.465713606999941
              ],
              [
                -69.44777910399995,
                -14.469197356999928
              ],
              [
                -69.44442622899999,
                -14.470087856999953
              ],
              [
                -69.44052335399988,
                -14.475510106999877
              ],
              [
                -69.4375111039999,
                -14.476977106999925
              ]
            ]
          ]
        ],
        "type": "MultiPolygon"
      },
      "type": "Feature",
      "properties": {
        "PROVINCIA": "SANDIA",
        "DISTRITO": "CUYOCUYO",
        "name": "CUYOCUYO",
        "ID": "200803",
        "DEPARTAMEN": "PUNO"
      }
    }
  ]
}
