{
  "type": "FeatureCollection",
  "features": [
    {
      "geometry": {
        "coordinates": [
          [
            [
              [
                -69.34830335399994,
                -14.623440606999907
              ],
              [
                -69.35424147899982,
                -14.620832356999927
              ],
              [
                -69.35795985399989,
                -14.618432106999933
              ],
              [
                -69.36251060399985,
                -14.616420232999928
              ],
              [
                -69.36665897899996,
                -14.61546298199994
              ],
              [
                -69.37205585399994,
                -14.610315606999905
              ],
              [
                -69.37380422899992,
                -14.610343356999977
              ],
              [
                -69.37825785399991,
                -14.612618731999873
              ],
              [
                -69.38439022899996,
                -14.614366856999936
              ],
              [
                -69.39131497899996,
                -14.617583481999873
              ],
              [
                -69.4040668539999,
                -14.618259982999973
              ],
              [
                -69.41272710399988,
                -14.621109732999969
              ],
              [
                -69.41770585399996,
                -14.619801231999872
              ],
              [
                -69.42045585399995,
                -14.617439357999956
              ],
              [
                -69.42442560499995,
                -14.616141981999874
              ],
              [
                -69.42622185499982,
                -14.612848731999975
              ],
              [
                -69.43595772899988,
                -14.61155135699994
              ],
              [
                -69.44102635399997,
                -14.613208356999962
              ],
              [
                -69.44467460399994,
                -14.611627356999918
              ],
              [
                -69.44499897999992,
                -14.606868481999982
              ],
              [
                -69.44697035399997,
                -14.597415356999932
              ],
              [
                -69.44334172899994,
                -14.590861981999979
              ],
              [
                -69.43896060399999,
                -14.590643481999905
              ],
              [
                -69.43495572899991,
                -14.587415481999813
              ],
              [
                -69.43466447899982,
                -14.58188135699993
              ],
              [
                -69.43314747999989,
                -14.57918723299997
              ],
              [
                -69.43398485399996,
                -14.573604607999982
              ],
              [
                -69.43675910399992,
                -14.56726860699996
              ],
              [
                -69.43630397899994,
                -14.565068856999858
              ],
              [
                -69.43196160499991,
                -14.56102985699988
              ],
              [
                -69.4294774789999,
                -14.560043856999926
              ],
              [
                -69.42837772899992,
                -14.557749356999977
              ],
              [
                -69.43052047899994,
                -14.55181410699987
              ],
              [
                -69.43099460399992,
                -14.548761231999947
              ],
              [
                -69.43488185499996,
                -14.54331898199996
              ],
              [
                -69.43865522899995,
                -14.541384856999912
              ],
              [
                -69.44439035399995,
                -14.53306260799991
              ],
              [
                -69.44129635399992,
                -14.530223606999925
              ],
              [
                -69.43970135399991,
                -14.525885231999894
              ],
              [
                -69.43750022899997,
                -14.523237606999942
              ],
              [
                -69.43593722999998,
                -14.519058732999952
              ],
              [
                -69.43517135499991,
                -14.512804856999878
              ],
              [
                -69.43268772899995,
                -14.509237606999932
              ],
              [
                -69.43232872899989,
                -14.505524356999956
              ],
              [
                -69.43508935399996,
                -14.500420606999967
              ],
              [
                -69.43233672899993,
                -14.496567856999945
              ],
              [
                -69.43282247999991,
                -14.492734231999918
              ],
              [
                -69.43474797899995,
                -14.49027098199997
              ],
              [
                -69.43479410399988,
                -14.48674448199995
              ],
              [
                -69.43735860499999,
                -14.482358731999966
              ],
              [
                -69.4375111039999,
                -14.476977106999925
              ],
              [
                -69.43395885399997,
                -14.475970856999822
              ],
              [
                -69.43251660399983,
                -14.477389731999892
              ],
              [
                -69.42827085399989,
                -14.478107731999955
              ],
              [
                -69.42425697899995,
                -14.475621106999938
              ],
              [
                -69.42133947899998,
                -14.470334481999942
              ],
              [
                -69.41626835399995,
                -14.466790481999965
              ],
              [
                -69.41311322899992,
                -14.465378481999949
              ],
              [
                -69.41178972899996,
                -14.458851981999942
              ],
              [
                -69.40882710399995,
                -14.452688356999943
              ],
              [
                -69.40807222899991,
                -14.44507935699994
              ],
              [
                -69.40262860399991,
                -14.440887356999838
              ],
              [
                -69.40068172999997,
                -14.43854310699993
              ],
              [
                -69.40203260499999,
                -14.435106106999967
              ],
              [
                -69.40461635399998,
                -14.433514981999906
              ],
              [
                -69.4092183539999,
                -14.426572981999925
              ],
              [
                -69.40895385399995,
                -14.419586981999942
              ],
              [
                -69.4082264789999,
                -14.417404856999951
              ],
              [
                -69.40248035399992,
                -14.41675023199997
              ],
              [
                -69.40100235399984,
                -14.415392981999844
              ],
              [
                -69.40100235399984,
                -14.411622981999926
              ],
              [
                -69.39999910399996,
                -14.407816231999902
              ],
              [
                -69.39322685399998,
                -14.39936923199997
              ],
              [
                -69.39304635399998,
                -14.396386981999967
              ],
              [
                -69.39151235399987,
                -14.392876981999905
              ],
              [
                -69.39647835399995,
                -14.38731285699987
              ],
              [
                -69.39665410399994,
                -14.380307606999963
              ],
              [
                -69.39478622899986,
                -14.378044856999963
              ],
              [
                -69.3900808539999,
                -14.377613856999915
              ],
              [
                -69.38810522999995,
                -14.37596148199998
              ],
              [
                -69.38763835399988,
                -14.372225856999876
              ],
              [
                -69.3858782289999,
                -14.370142606999934
              ],
              [
                -69.38126435399988,
                -14.36859210699987
              ],
              [
                -69.38182922999982,
                -14.365567231999876
              ],
              [
                -69.38401860399995,
                -14.361874856999918
              ],
              [
                -69.38368647999994,
                -14.35821885699994
              ],
              [
                -69.38254497899999,
                -14.355712856999958
              ],
              [
                -69.37869435399995,
                -14.355150856999956
              ],
              [
                -69.37560035399986,
                -14.352160856999888
              ],
              [
                -69.37281797899993,
                -14.35132210699993
              ],
              [
                -69.37209347899994,
                -14.347104856999977
              ],
              [
                -69.37037435399998,
                -14.344568856999956
              ],
              [
                -69.36873772899992,
                -14.339258481999934
              ],
              [
                -69.36522460399988,
                -14.338944106999975
              ],
              [
                -69.36020047899984,
                -14.334769481999956
              ],
              [
                -69.34712260399994,
                -14.334769481999956
              ],
              [
                -69.34228310399988,
                -14.331592356999977
              ],
              [
                -69.33814547899993,
                -14.327639481999938
              ],
              [
                -69.33725035399993,
                -14.324366731999874
              ],
              [
                -69.33397085399986,
                -14.321617856999978
              ],
              [
                -69.32972247899988,
                -14.320657231999974
              ],
              [
                -69.32655660399996,
                -14.317371106999872
              ],
              [
                -69.32474610399998,
                -14.31110548199996
              ],
              [
                -69.32204297899989,
                -14.308710981999923
              ],
              [
                -69.3220624789999,
                -14.306165981999925
              ],
              [
                -69.32015435399995,
                -14.303882856999962
              ],
              [
                -69.31816410399995,
                -14.298873106999963
              ],
              [
                -69.31077347899992,
                -14.294164106999972
              ],
              [
                -69.30993935399994,
                -14.291636731999915
              ],
              [
                -69.30552922899989,
                -14.288249981999911
              ],
              [
                -69.30175785399996,
                -14.286816356999964
              ],
              [
                -69.29850785399998,
                -14.283695356999942
              ],
              [
                -69.29528510399996,
                -14.28312498199989
              ],
              [
                -69.29135547899989,
                -14.279656230999933
              ],
              [
                -69.29044335399993,
                -14.275310606999938
              ],
              [
                -69.28814260399992,
                -14.277476606999926
              ],
              [
                -69.28625785399993,
                -14.28109960699993
              ],
              [
                -69.28313285399992,
                -14.283412106999947
              ],
              [
                -69.28015035399994,
                -14.287255856999934
              ],
              [
                -69.27687310399995,
                -14.288587856999982
              ],
              [
                -69.27556447899997,
                -14.290845731999923
              ],
              [
                -69.27448635399992,
                -14.296634731999916
              ],
              [
                -69.27408010399989,
                -14.311318356999891
              ],
              [
                -69.27104935399996,
                -14.313739981999902
              ],
              [
                -69.27035572899985,
                -14.315839731999915
              ],
              [
                -69.27034135399998,
                -14.321914981999953
              ],
              [
                -69.26961522899995,
                -14.326164981999966
              ],
              [
                -69.27021735399995,
                -14.329582606999963
              ],
              [
                -69.26945585399989,
                -14.333513856999957
              ],
              [
                -69.27042985399993,
                -14.346068856999977
              ],
              [
                -69.27395372899991,
                -14.352886481999974
              ],
              [
                -69.27730060399989,
                -14.356374856999935
              ],
              [
                -69.2796557289999,
                -14.360182106999844
              ],
              [
                -69.28395885399993,
                -14.369354981999948
              ],
              [
                -69.28796085399995,
                -14.374118356999816
              ],
              [
                -69.29472535399992,
                -14.385292231999927
              ],
              [
                -69.29619510399993,
                -14.388780606999887
              ],
              [
                -69.29950985399995,
                -14.392672481999966
              ],
              [
                -69.30274410399994,
                -14.398015106999935
              ],
              [
                -69.30313310399998,
                -14.401556356999947
              ],
              [
                -69.29987835399999,
                -14.405507106999892
              ],
              [
                -69.29926422999995,
                -14.40925310699987
              ],
              [
                -69.29672597899992,
                -14.411873231999948
              ],
              [
                -69.29691022899988,
                -14.416233356999896
              ],
              [
                -69.29115810399992,
                -14.419958981999969
              ],
              [
                -69.28917260399987,
                -14.424953606999964
              ],
              [
                -69.29093297899993,
                -14.431176481999955
              ],
              [
                -69.2893567289999,
                -14.436089356999958
              ],
              [
                -69.29152335399993,
                -14.443434231999959
              ],
              [
                -69.29062322899989,
                -14.449967356999878
              ],
              [
                -69.29091360399997,
                -14.4531612319999
              ],
              [
                -69.2923943539999,
                -14.457313356999919
              ],
              [
                -69.2925396039999,
                -14.460971856999947
              ],
              [
                -69.29413647899997,
                -14.463846356999909
              ],
              [
                -69.29521085399995,
                -14.467882232999898
              ],
              [
                -69.29548772899994,
                -14.475455481999973
              ],
              [
                -69.29653722999984,
                -14.479446356999972
              ],
              [
                -69.29643085399994,
                -14.485542731999885
              ],
              [
                -69.29757560399997,
                -14.486793981999938
              ],
              [
                -69.30191497999982,
                -14.486421231999941
              ],
              [
                -69.30383172899997,
                -14.487113481999927
              ],
              [
                -69.30431085399988,
                -14.491692481999962
              ],
              [
                -69.30758535399985,
                -14.497070106999956
              ],
              [
                -69.3091296039999,
                -14.504098231999876
              ],
              [
                -69.30705297899993,
                -14.508251231999964
              ],
              [
                -69.30801135399992,
                -14.511046606999969
              ],
              [
                -69.30681335399993,
                -14.51597160699987
              ],
              [
                -69.30817110399983,
                -14.519911607999916
              ],
              [
                -69.3148266039999,
                -14.521162856999979
              ],
              [
                -69.31519922899992,
                -14.523505606999834
              ],
              [
                -69.3135221039999,
                -14.525928231999899
              ],
              [
                -69.31511935399988,
                -14.528164481999909
              ],
              [
                -69.31559860399994,
                -14.531172731999959
              ],
              [
                -69.31724910399998,
                -14.533967981999979
              ],
              [
                -69.31681697899995,
                -14.541971481999951
              ],
              [
                -69.31563747899997,
                -14.546775606999972
              ],
              [
                -69.31295660399991,
                -14.54956373199991
              ],
              [
                -69.31332110399995,
                -14.552051606999896
              ],
              [
                -69.31683847899995,
                -14.555397231999962
              ],
              [
                -69.32346560399998,
                -14.558721606999939
              ],
              [
                -69.32479535399989,
                -14.563139606999925
              ],
              [
                -69.32185710399995,
                -14.566528231999882
              ],
              [
                -69.32380872899995,
                -14.571160856999938
              ],
              [
                -69.32811960399994,
                -14.571975857999973
              ],
              [
                -69.33320247899997,
                -14.576415356999973
              ],
              [
                -69.33221597899995,
                -14.580554606999954
              ],
              [
                -69.32966372899989,
                -14.584843981999938
              ],
              [
                -69.32717572899992,
                -14.59250048199982
              ],
              [
                -69.32766922899998,
                -14.594280606999916
              ],
              [
                -69.3256263539999,
                -14.59695523199997
              ],
              [
                -69.32480047899998,
                -14.601415232999955
              ],
              [
                -69.3285943549999,
                -14.609470606999878
              ],
              [
                -69.32828285399995,
                -14.61329860699982
              ],
              [
                -69.33132122899991,
                -14.615920856999878
              ],
              [
                -69.34088060399995,
                -14.619222856999897
              ],
              [
                -69.34830335399994,
                -14.623440606999907
              ]
            ]
          ]
        ],
        "type": "MultiPolygon"
      },
      "type": "Feature",
      "properties": {
        "PROVINCIA": "SANDIA",
        "DISTRITO": "QUIACA",
        "name": "QUIACA",
        "ID": "200807",
        "DEPARTAMEN": "PUNO"
      }
    }
  ]
}
