{
  "type": "FeatureCollection",
  "features": [
    {
      "geometry": {
        "coordinates": [
          [
            [
              [
                -76.8646309859999,
                -10.981703103999962
              ],
              [
                -76.86138073599989,
                -10.98138497899987
              ],
              [
                -76.85606061099998,
                -10.982328978999817
              ],
              [
                -76.85256386099996,
                -10.98466722899991
              ],
              [
                -76.85022561099998,
                -10.985096353999893
              ],
              [
                -76.84479811099999,
                -10.98955835399994
              ],
              [
                -76.84061486099989,
                -10.98942972899988
              ],
              [
                -76.83907036099993,
                -10.984731603999933
              ],
              [
                -76.83576673599998,
                -10.983787728999971
              ],
              [
                -76.8336019859999,
                -10.984608603999959
              ],
              [
                -76.82848436099994,
                -10.981298853999931
              ],
              [
                -76.82210473599997,
                -10.979727103999892
              ],
              [
                -76.82011361099995,
                -10.97831397899995
              ],
              [
                -76.81548898599993,
                -10.978956228999891
              ],
              [
                -76.81259861199999,
                -10.982103603999974
              ],
              [
                -76.81224798599999,
                -10.984134727999901
              ],
              [
                -76.80919448599997,
                -10.988590978999923
              ],
              [
                -76.80823098699989,
                -10.993665103999945
              ],
              [
                -76.80854286099998,
                -10.999465103999967
              ],
              [
                -76.80810248599994,
                -11.002271978999943
              ],
              [
                -76.80527636099998,
                -11.006254228999978
              ],
              [
                -76.80007373599989,
                -11.00863072899989
              ],
              [
                -76.79756873599996,
                -11.010750353999867
              ],
              [
                -76.79297661099997,
                -11.018033228999911
              ],
              [
                -76.78755273599995,
                -11.02254685399987
              ],
              [
                -76.78662886099994,
                -11.02590622899993
              ],
              [
                -76.78695123599994,
                -11.033705103999978
              ],
              [
                -76.78424498599992,
                -11.037881977999973
              ],
              [
                -76.78419386099995,
                -11.041279103999955
              ],
              [
                -76.78244723599994,
                -11.045746102999942
              ],
              [
                -76.78452623599992,
                -11.052928603999874
              ],
              [
                -76.78774461099994,
                -11.057103853999934
              ],
              [
                -76.78822311099992,
                -11.061714103999975
              ],
              [
                -76.78983223599994,
                -11.068846853999958
              ],
              [
                -76.7932682359999,
                -11.076371103999918
              ],
              [
                -76.79809586099992,
                -11.077632353999888
              ],
              [
                -76.79844386099995,
                -11.080633353999872
              ],
              [
                -76.8004879859999,
                -11.082677353999884
              ],
              [
                -76.81227448599998,
                -11.087070228999835
              ],
              [
                -76.8141446109999,
                -11.089462353999977
              ],
              [
                -76.8149101109999,
                -11.09433985399994
              ],
              [
                -76.81484048599992,
                -11.098726228999965
              ],
              [
                -76.82288661099989,
                -11.102901478999911
              ],
              [
                -76.8257572359999,
                -11.103684353999938
              ],
              [
                -76.82898636099992,
                -11.10344922899992
              ],
              [
                -76.83428911099992,
                -11.103833978999887
              ],
              [
                -76.8366386109999,
                -11.102226603999952
              ],
              [
                -76.840390486,
                -11.094480978999968
              ],
              [
                -76.84599223599997,
                -11.094693353999958
              ],
              [
                -76.8494569859999,
                -11.090794978999895
              ],
              [
                -76.85439261099998,
                -11.089796853999928
              ],
              [
                -76.85797073599991,
                -11.090607478999914
              ],
              [
                -76.86157223599992,
                -11.08958985399994
              ],
              [
                -76.86589023599998,
                -11.086920353999972
              ],
              [
                -76.87015161099998,
                -11.087470228999962
              ],
              [
                -76.87439061199996,
                -11.083507853999947
              ],
              [
                -76.87853711099996,
                -11.082762103999869
              ],
              [
                -76.89183686099983,
                -11.084102353999924
              ],
              [
                -76.89578898599996,
                -11.0856144789999
              ],
              [
                -76.89994723599995,
                -11.085305228999971
              ],
              [
                -76.90757661099997,
                -11.087607728999899
              ],
              [
                -76.92302148699997,
                -11.082984353999962
              ],
              [
                -76.92752148599999,
                -11.082623103999936
              ],
              [
                -76.94267998599992,
                -11.078249978999963
              ],
              [
                -76.94595998599988,
                -11.081499978999886
              ],
              [
                -76.94827998599999,
                -11.0821699789999
              ],
              [
                -76.95133998599988,
                -11.087019978999933
              ],
              [
                -76.95289998599998,
                -11.087459978999902
              ],
              [
                -76.96204998699989,
                -11.093309978999969
              ],
              [
                -76.97292998599994,
                -11.097019978999981
              ],
              [
                -76.9785299859999,
                -11.100409978999892
              ],
              [
                -76.98471998599996,
                -11.101209978999918
              ],
              [
                -76.98870998599995,
                -11.10375997899996
              ],
              [
                -76.9922399859999,
                -11.107149978999814
              ],
              [
                -76.99412998599996,
                -11.110999978999928
              ],
              [
                -76.99758998599998,
                -11.11258997899995
              ],
              [
                -77.00190998599993,
                -11.11657997899988
              ],
              [
                -77.00358998699994,
                -11.117019978999963
              ],
              [
                -77.0094399859999,
                -11.121559978999812
              ],
              [
                -77.01077998599993,
                -11.127599978999967
              ],
              [
                -77.01252998699988,
                -11.130309978999833
              ],
              [
                -77.01812998599996,
                -11.134779978999916
              ],
              [
                -77.02040998699994,
                -11.135209978999967
              ],
              [
                -77.03041998599997,
                -11.132450103999872
              ],
              [
                -77.03293998599992,
                -11.133769978999965
              ],
              [
                -77.03724998599984,
                -11.137279978999914
              ],
              [
                -77.04308998599987,
                -11.138369978999947
              ],
              [
                -77.04640998699995,
                -11.138369978999947
              ],
              [
                -77.05127648599989,
                -11.129579978999914
              ],
              [
                -77.05428486099993,
                -11.125297853999882
              ],
              [
                -77.05599773699998,
                -11.120378978999952
              ],
              [
                -77.05656861099999,
                -11.116448353999886
              ],
              [
                -77.05068348699996,
                -11.107642728999906
              ],
              [
                -77.05158386199992,
                -11.10204310399996
              ],
              [
                -77.05204073599998,
                -11.09576097899992
              ],
              [
                -77.04982998699995,
                -11.09343947899987
              ],
              [
                -77.0401182359999,
                -11.087346478999962
              ],
              [
                -77.03659573699997,
                -11.086533228999883
              ],
              [
                -77.03379748599997,
                -11.084298228999955
              ],
              [
                -77.03265436099997,
                -11.080421853999951
              ],
              [
                -77.0339941119999,
                -11.077078103999952
              ],
              [
                -77.03917673599989,
                -11.073136103999957
              ],
              [
                -77.04155261199992,
                -11.070580978999942
              ],
              [
                -77.04343548599996,
                -11.06520160399998
              ],
              [
                -77.04790236099996,
                -11.058294978999982
              ],
              [
                -77.05760098599995,
                -11.052111853999975
              ],
              [
                -77.06105273599991,
                -11.048301602999913
              ],
              [
                -77.06894236099998,
                -11.04534297899994
              ],
              [
                -77.07158723599997,
                -11.042563603999895
              ],
              [
                -77.075442362,
                -11.040949853999962
              ],
              [
                -77.08508036099988,
                -11.034539478999875
              ],
              [
                -77.09484473599997,
                -11.030535853999936
              ],
              [
                -77.09490023699988,
                -11.02925997899996
              ],
              [
                -77.09124023699991,
                -11.027219978999938
              ],
              [
                -77.09066023699995,
                -11.025319978999903
              ],
              [
                -77.08602023599991,
                -11.019289978999893
              ],
              [
                -77.0842501109999,
                -11.016019978999964
              ],
              [
                -77.07795273699998,
                -11.020060103999924
              ],
              [
                -77.07100448699998,
                -11.019790977999946
              ],
              [
                -77.06728373699997,
                -11.017325603999893
              ],
              [
                -77.06239761099982,
                -11.02109110399988
              ],
              [
                -77.05881136199991,
                -11.025887728999919
              ],
              [
                -77.05701823599998,
                -11.02714285399992
              ],
              [
                -77.04575386099992,
                -11.032935603999874
              ],
              [
                -77.03836986099992,
                -11.035794603999932
              ],
              [
                -77.02810436099992,
                -11.036242853999966
              ],
              [
                -77.02191811099993,
                -11.034404978999873
              ],
              [
                -77.01465598599992,
                -11.030729103999931
              ],
              [
                -77.01279686099991,
                -11.03092385399998
              ],
              [
                -77.00748361099994,
                -11.033866978999924
              ],
              [
                -77.00223873599998,
                -11.035480852999967
              ],
              [
                -76.99587323599997,
                -11.0367359789999
              ],
              [
                -76.99004686099988,
                -11.039824228999976
              ],
              [
                -76.98663873599997,
                -11.04332572899989
              ],
              [
                -76.97960073599995,
                -11.045746353999903
              ],
              [
                -76.97484898599998,
                -11.044401603999916
              ],
              [
                -76.97215936099997,
                -11.037677353999982
              ],
              [
                -76.9653007359999,
                -11.032656728999882
              ],
              [
                -76.95732136099997,
                -11.027994603999957
              ],
              [
                -76.9543964859999,
                -11.02281835399998
              ],
              [
                -76.95073173599991,
                -11.01786347899997
              ],
              [
                -76.94817648699996,
                -11.017325603999893
              ],
              [
                -76.94553173599996,
                -11.015487728999972
              ],
              [
                -76.94329023599988,
                -11.010332478999942
              ],
              [
                -76.94190061099994,
                -11.009211728999901
              ],
              [
                -76.93756073599991,
                -11.008472603999962
              ],
              [
                -76.93580411099998,
                -11.007284228999936
              ],
              [
                -76.93315923599988,
                -11.00257722799995
              ],
              [
                -76.92935161099996,
                -10.999476603999938
              ],
              [
                -76.92599411099991,
                -10.998369103999948
              ],
              [
                -76.91996098599998,
                -10.99375197899991
              ],
              [
                -76.91607986099984,
                -10.991997977999915
              ],
              [
                -76.91121673599997,
                -10.988472478999824
              ],
              [
                -76.90814536099998,
                -10.98401860399997
              ],
              [
                -76.90580661099989,
                -10.982296853999912
              ],
              [
                -76.90334886099993,
                -10.98388397899987
              ],
              [
                -76.90047986099995,
                -10.983794478999926
              ],
              [
                -76.89984186099991,
                -10.980831978999959
              ],
              [
                -76.89792461099995,
                -10.979222103999973
              ],
              [
                -76.89382223699994,
                -10.978005853999946
              ],
              [
                -76.88864523599989,
                -10.977742728999942
              ],
              [
                -76.88631423699997,
                -10.980611728999918
              ],
              [
                -76.88142811099993,
                -10.982090978999906
              ],
              [
                -76.87447898599999,
                -10.981102728999872
              ],
              [
                -76.86990748599993,
                -10.9826736039999
              ],
              [
                -76.86605211099999,
                -10.9827186039999
              ],
              [
                -76.8646309859999,
                -10.981703103999962
              ]
            ]
          ]
        ],
        "type": "MultiPolygon"
      },
      "type": "Feature",
      "properties": {
        "PROVINCIA": "HUAURA",
        "DISTRITO": "LEONCIO PRADO",
        "name": "LEONCIO PRADO",
        "ID": "140508",
        "DEPARTAMEN": "LIMA"
      }
    }
  ]
}
