{
  "type": "FeatureCollection",
  "features": [
    {
      "geometry": {
        "coordinates": [
          [
            [
              [
                -71.42046285599997,
                -14.112232481999968
              ],
              [
                -71.41682623099996,
                -14.11512110599989
              ],
              [
                -71.42274998099992,
                -14.118896481999968
              ],
              [
                -71.42633785599998,
                -14.123288981999963
              ],
              [
                -71.42736323099996,
                -14.127423856999883
              ],
              [
                -71.42744923099997,
                -14.131800731999931
              ],
              [
                -71.43041210599989,
                -14.138294981999934
              ],
              [
                -71.43685548099995,
                -14.143927731999952
              ],
              [
                -71.43547223099989,
                -14.145177231999924
              ],
              [
                -71.43371110599992,
                -14.1497797319999
              ],
              [
                -71.44091748099999,
                -14.152127855999936
              ],
              [
                -71.44009823099992,
                -14.156320606999941
              ],
              [
                -71.43764048099996,
                -14.160368731999938
              ],
              [
                -71.43532723099997,
                -14.166681731999859
              ],
              [
                -71.42843360599989,
                -14.177417981999895
              ],
              [
                -71.42747198099994,
                -14.180609105999963
              ],
              [
                -71.42909910599997,
                -14.183163106999928
              ],
              [
                -71.4358424809999,
                -14.188415856999939
              ],
              [
                -71.44251473099996,
                -14.187280106999935
              ],
              [
                -71.4529093559999,
                -14.178387856999962
              ],
              [
                -71.45560398099991,
                -14.175527231999979
              ],
              [
                -71.45958160599997,
                -14.173624856999936
              ],
              [
                -71.46020423099998,
                -14.17082335699996
              ],
              [
                -71.45933948099992,
                -14.166949481999893
              ],
              [
                -71.46148385599997,
                -14.163456106999945
              ],
              [
                -71.46712135599995,
                -14.157059481999966
              ],
              [
                -71.46848148099997,
                -14.150513731999979
              ],
              [
                -71.46865148099988,
                -14.145583230999875
              ],
              [
                -71.47189110599999,
                -14.140030480999883
              ],
              [
                -71.47214023099997,
                -14.131671856999901
              ],
              [
                -71.46722085599993,
                -14.128808356999969
              ],
              [
                -71.4606328569999,
                -14.121669356999917
              ],
              [
                -71.45943535599986,
                -14.119366856999932
              ],
              [
                -71.45920735599998,
                -14.11512360599994
              ],
              [
                -71.4614184809999,
                -14.110173856999836
              ],
              [
                -71.46091598099997,
                -14.1087416069999
              ],
              [
                -71.45563948099993,
                -14.106304480999938
              ],
              [
                -71.45099123099999,
                -14.10836473199987
              ],
              [
                -71.44332798099992,
                -14.10816373199998
              ],
              [
                -71.44101623099988,
                -14.10590248099993
              ],
              [
                -71.44033985599987,
                -14.10366598099995
              ],
              [
                -71.43775198099996,
                -14.101829981999913
              ],
              [
                -71.42877535599996,
                -14.106453230999932
              ],
              [
                -71.42447260599982,
                -14.106378856999982
              ],
              [
                -71.42046285599997,
                -14.112232481999968
              ]
            ]
          ]
        ],
        "type": "MultiPolygon"
      },
      "type": "Feature",
      "properties": {
        "PROVINCIA": "CANAS",
        "DISTRITO": "PAMPAMARCA",
        "name": "PAMPAMARCA",
        "ID": "070506",
        "DEPARTAMEN": "CUSCO"
      }
    }
  ]
}
