{
  "type": "FeatureCollection",
  "features": [
    {
      "geometry": {
        "coordinates": [
          [
            [
              [
                -77.67184761199997,
                -9.177005851999922
              ],
              [
                -77.67479298699993,
                -9.17674810199992
              ],
              [
                -77.67775386199997,
                -9.178742226999873
              ],
              [
                -77.68558198699992,
                -9.1800391029999
              ],
              [
                -77.69143948699997,
                -9.18378122799993
              ],
              [
                -77.69436723699994,
                -9.18378710299993
              ],
              [
                -77.69322073699993,
                -9.178726601999927
              ],
              [
                -77.69369723699992,
                -9.175623101999918
              ],
              [
                -77.69153998699994,
                -9.16869997699996
              ],
              [
                -77.6911711109999,
                -9.164692851999973
              ],
              [
                -77.6931271119999,
                -9.164279101999853
              ],
              [
                -77.69391698699997,
                -9.168153476999976
              ],
              [
                -77.69545923699997,
                -9.170824101999926
              ],
              [
                -77.69772461199989,
                -9.171898601999942
              ],
              [
                -77.70110348699995,
                -9.175169977999929
              ],
              [
                -77.70402348699997,
                -9.176576101999899
              ],
              [
                -77.70775198699994,
                -9.180099601999927
              ],
              [
                -77.7122851119999,
                -9.181835976999878
              ],
              [
                -77.71573636099993,
                -9.181287101999942
              ],
              [
                -77.72056611199997,
                -9.181828476999897
              ],
              [
                -77.7238376119999,
                -9.178298101999928
              ],
              [
                -77.73015923699995,
                -9.178439351999941
              ],
              [
                -77.73292098699989,
                -9.1756467269999
              ],
              [
                -77.73630636199988,
                -9.174867726999935
              ],
              [
                -77.72691011199993,
                -9.164685601999906
              ],
              [
                -77.71996486199993,
                -9.161257852999881
              ],
              [
                -77.7175878619999,
                -9.157103476999964
              ],
              [
                -77.71418548699995,
                -9.1532168519999
              ],
              [
                -77.70853323699998,
                -9.14887697699993
              ],
              [
                -77.70129298699999,
                -9.142451226999981
              ],
              [
                -77.69941986199984,
                -9.142322227999898
              ],
              [
                -77.69145898599999,
                -9.139226601999894
              ],
              [
                -77.68353123699995,
                -9.139449226999943
              ],
              [
                -77.6754257369999,
                -9.133878851999953
              ],
              [
                -77.67156048699991,
                -9.132580101999963
              ],
              [
                -77.66672261199994,
                -9.132308601999966
              ],
              [
                -77.66176561199995,
                -9.129525351999973
              ],
              [
                -77.65605473699992,
                -9.12813085199997
              ],
              [
                -77.65345898699991,
                -9.128917976999958
              ],
              [
                -77.6495268619999,
                -9.128350226999885
              ],
              [
                -77.64944861199996,
                -9.131221101999927
              ],
              [
                -77.65563186199995,
                -9.132128352999871
              ],
              [
                -77.66352298699996,
                -9.135744601999932
              ],
              [
                -77.6687264869999,
                -9.136275601999898
              ],
              [
                -77.67336961199993,
                -9.13909672699998
              ],
              [
                -77.67408573599994,
                -9.141167226999926
              ],
              [
                -77.67302686199992,
                -9.144223351999926
              ],
              [
                -77.67343598699995,
                -9.151394602999972
              ],
              [
                -77.67499023699992,
                -9.154636602999972
              ],
              [
                -77.679267612,
                -9.1596113519999
              ],
              [
                -77.68022848699991,
                -9.159874852999963
              ],
              [
                -77.68649998699993,
                -9.157697226999971
              ],
              [
                -77.69112298699991,
                -9.15747260199987
              ],
              [
                -77.6930894869999,
                -9.159614726999905
              ],
              [
                -77.69037998699997,
                -9.16039997699994
              ],
              [
                -77.68567923699999,
                -9.163790102999883
              ],
              [
                -77.68186911199996,
                -9.164804726999932
              ],
              [
                -77.67472073699992,
                -9.169621101999894
              ],
              [
                -77.67191986199998,
                -9.17267772699995
              ],
              [
                -77.66992186199997,
                -9.173396351999884
              ],
              [
                -77.67184761199997,
                -9.177005851999922
              ]
            ]
          ]
        ],
        "type": "MultiPolygon"
      },
      "type": "Feature",
      "properties": {
        "PROVINCIA": "YUNGAY",
        "DISTRITO": "RANRAHIRCA",
        "name": "RANRAHIRCA",
        "ID": "021506",
        "DEPARTAMEN": "ANCASH"
      }
    }
  ]
}
