{
  "type": "FeatureCollection",
  "features": [
    {
      "geometry": {
        "coordinates": [
          [
            [
              [
                -75.57711710999996,
                -12.715701230999912
              ],
              [
                -75.57472223499997,
                -12.719927854999924
              ],
              [
                -75.57073460999999,
                -12.725217480999902
              ],
              [
                -75.57398235999995,
                -12.725561230999915
              ],
              [
                -75.57739598499995,
                -12.727565605999871
              ],
              [
                -75.58503760899993,
                -12.730478104999975
              ],
              [
                -75.58713585999999,
                -12.736083979999933
              ],
              [
                -75.59030073499991,
                -12.73871097999995
              ],
              [
                -75.60038335999997,
                -12.742723355999942
              ],
              [
                -75.60577348499993,
                -12.748904354999922
              ],
              [
                -75.60813085999985,
                -12.749650355999904
              ],
              [
                -75.61069723499998,
                -12.751865230999954
              ],
              [
                -75.61192998499996,
                -12.756509980999965
              ],
              [
                -75.61545998499997,
                -12.75820997999989
              ],
              [
                -75.61821998499983,
                -12.761909980999974
              ],
              [
                -75.62145998499994,
                -12.763059980999913
              ],
              [
                -75.62376998499991,
                -12.768189979999931
              ],
              [
                -75.62638998499989,
                -12.770109980999962
              ],
              [
                -75.63425998499997,
                -12.780129979999913
              ],
              [
                -75.63834010999994,
                -12.784039980999978
              ],
              [
                -75.64285998499997,
                -12.785219979999965
              ],
              [
                -75.64613998499993,
                -12.786989980999977
              ],
              [
                -75.6478399849999,
                -12.789209980999885
              ],
              [
                -75.65365998499993,
                -12.791729980999946
              ],
              [
                -75.65906148499988,
                -12.790086730999974
              ],
              [
                -75.66117898499994,
                -12.79260760599982
              ],
              [
                -75.66899848499997,
                -12.794123604999925
              ],
              [
                -75.67374510999997,
                -12.793413854999926
              ],
              [
                -75.67719835999998,
                -12.800181604999977
              ],
              [
                -75.68170998499994,
                -12.799839979999945
              ],
              [
                -75.68775998499996,
                -12.801489979999872
              ],
              [
                -75.68935998499984,
                -12.803079979999893
              ],
              [
                -75.68800998499995,
                -12.80515998099986
              ],
              [
                -75.68884998499993,
                -12.806799980999926
              ],
              [
                -75.69520010999997,
                -12.810699980999857
              ],
              [
                -75.6964499849999,
                -12.81360997999991
              ],
              [
                -75.70111998499993,
                -12.817319980999855
              ],
              [
                -75.70916998499996,
                -12.820959979999941
              ],
              [
                -75.71153010999996,
                -12.820719980999968
              ],
              [
                -75.7153599849999,
                -12.81820997999995
              ],
              [
                -75.72128998499994,
                -12.81934997999997
              ],
              [
                -75.72773998499997,
                -12.822709980999946
              ],
              [
                -75.73130998499988,
                -12.822149980999882
              ],
              [
                -75.73310998499994,
                -12.823779980999916
              ],
              [
                -75.73769998499995,
                -12.82560997999991
              ],
              [
                -75.74411998499994,
                -12.825649980999856
              ],
              [
                -75.74623998499999,
                -12.827059980999877
              ],
              [
                -75.74928998499996,
                -12.831869980999954
              ],
              [
                -75.7532999849999,
                -12.832479980999892
              ],
              [
                -75.75474998499999,
                -12.83390998099992
              ],
              [
                -75.76174998499988,
                -12.833179855999902
              ],
              [
                -75.76408010999995,
                -12.834119979999969
              ],
              [
                -75.76641998499991,
                -12.83128998099994
              ],
              [
                -75.77036998499989,
                -12.829429980999976
              ],
              [
                -75.78172998499997,
                -12.825949980999894
              ],
              [
                -75.78630998499995,
                -12.822699980999914
              ],
              [
                -75.78342998499994,
                -12.8188599799999
              ],
              [
                -75.77793998499999,
                -12.815499980999903
              ],
              [
                -75.77601998499995,
                -12.81242998099998
              ],
              [
                -75.77661998499991,
                -12.810389979999968
              ],
              [
                -75.77562998499991,
                -12.807359854999959
              ],
              [
                -75.77163998499998,
                -12.806239980999976
              ],
              [
                -75.76732998499989,
                -12.807429979999938
              ],
              [
                -75.7638799849999,
                -12.804019979999964
              ],
              [
                -75.75509998499996,
                -12.799449979999906
              ],
              [
                -75.7514299849999,
                -12.796949979999908
              ],
              [
                -75.74877998499994,
                -12.793139980999968
              ],
              [
                -75.74027998499997,
                -12.788729979999971
              ],
              [
                -75.73284998499992,
                -12.783509980999895
              ],
              [
                -75.72846998499989,
                -12.779949980999959
              ],
              [
                -75.72253998499997,
                -12.772769979999964
              ],
              [
                -75.72013010999996,
                -12.768899979999958
              ],
              [
                -75.71769998499991,
                -12.767369979999955
              ],
              [
                -75.71586010999982,
                -12.764789980999979
              ],
              [
                -75.71260998499992,
                -12.75618998099992
              ],
              [
                -75.71064998499992,
                -12.753589980999948
              ],
              [
                -75.70990998499991,
                -12.750219980999873
              ],
              [
                -75.70557998499993,
                -12.745929979999914
              ],
              [
                -75.70363998499994,
                -12.740939980999883
              ],
              [
                -75.69661998499993,
                -12.74066997999995
              ],
              [
                -75.69425998499997,
                -12.73962998099995
              ],
              [
                -75.68616998499994,
                -12.73995998099997
              ],
              [
                -75.68271998499995,
                -12.74111997999995
              ],
              [
                -75.67396398499994,
                -12.741482230999907
              ],
              [
                -75.6688171099999,
                -12.740715729999977
              ],
              [
                -75.66025385999995,
                -12.74161910599986
              ],
              [
                -75.65651548499994,
                -12.740204730999892
              ],
              [
                -75.64614885999998,
                -12.732867605999957
              ],
              [
                -75.64133035999998,
                -12.730385479999939
              ],
              [
                -75.63903085999988,
                -12.727684230999898
              ],
              [
                -75.63720560999997,
                -12.724179980999963
              ],
              [
                -75.63676760999994,
                -12.718996605999905
              ],
              [
                -75.63527998499995,
                -12.71265985599996
              ],
              [
                -75.62610898499992,
                -12.703263855999978
              ],
              [
                -75.62191098499994,
                -12.701110229999927
              ],
              [
                -75.61650860999998,
                -12.699540730999956
              ],
              [
                -75.61411910999988,
                -12.696910105999962
              ],
              [
                -75.60869698499988,
                -12.696109354999976
              ],
              [
                -75.60625123499995,
                -12.69501423099996
              ],
              [
                -75.60146948499988,
                -12.688881729999878
              ],
              [
                -75.59904485999982,
                -12.69084760499993
              ],
              [
                -75.59478285999995,
                -12.69132498099998
              ],
              [
                -75.59368248499993,
                -12.69370310599993
              ],
              [
                -75.59307373499996,
                -12.698700979999899
              ],
              [
                -75.5889973599999,
                -12.700517979999972
              ],
              [
                -75.58658373499998,
                -12.702824980999878
              ],
              [
                -75.58342473499988,
                -12.708504104999918
              ],
              [
                -75.58029785999997,
                -12.71293710499998
              ],
              [
                -75.57711710999996,
                -12.715701230999912
              ]
            ]
          ]
        ],
        "type": "MultiPolygon"
      },
      "type": "Feature",
      "properties": {
        "PROVINCIA": "YAUYOS",
        "DISTRITO": "HONGOS",
        "name": "HONGOS",
        "ID": "140730",
        "DEPARTAMEN": "LIMA"
      }
    }
  ]
}
