{
  "type": "FeatureCollection",
  "features": [
    {
      "geometry": {
        "coordinates": [
          [
            [
              [
                -75.76566298499989,
                -12.059627354999975
              ],
              [
                -75.76461448499992,
                -12.06413235499997
              ],
              [
                -75.76370998499988,
                -12.07876822999998
              ],
              [
                -75.7619421099999,
                -12.084893854999962
              ],
              [
                -75.76157210999992,
                -12.088881729999969
              ],
              [
                -75.75820098499997,
                -12.09652860499989
              ],
              [
                -75.75454198499989,
                -12.09973535499995
              ],
              [
                -75.75236310999992,
                -12.1046687299999
              ],
              [
                -75.75457223499984,
                -12.10862110499994
              ],
              [
                -75.75347310999996,
                -12.112356603999899
              ],
              [
                -75.75174635999997,
                -12.113261103999946
              ],
              [
                -75.74911523499998,
                -12.11889347999994
              ],
              [
                -75.75260960999998,
                -12.124895729999935
              ],
              [
                -75.7535553599999,
                -12.129171354999926
              ],
              [
                -75.75931098499996,
                -12.13176147999991
              ],
              [
                -75.76124323499988,
                -12.13406360499988
              ],
              [
                -75.76313435999992,
                -12.138503854999897
              ],
              [
                -75.76058535999988,
                -12.14286160499995
              ],
              [
                -75.7619421099999,
                -12.148000604999822
              ],
              [
                -75.76568335999991,
                -12.152358479999975
              ],
              [
                -75.76617685999997,
                -12.154948604999959
              ],
              [
                -75.76378710999995,
                -12.15999222999983
              ],
              [
                -75.76358660999989,
                -12.162060979999922
              ],
              [
                -75.76506660999996,
                -12.16637760499998
              ],
              [
                -75.76362773499983,
                -12.171516604999965
              ],
              [
                -75.75994135999997,
                -12.175456979999979
              ],
              [
                -75.76054436099997,
                -12.184137979999946
              ],
              [
                -75.75996873499997,
                -12.18919472999994
              ],
              [
                -75.76025660999994,
                -12.194333729999869
              ],
              [
                -75.7633399849999,
                -12.200048354999922
              ],
              [
                -75.76946560999994,
                -12.206790604999924
              ],
              [
                -75.77320685999996,
                -12.208065104999946
              ],
              [
                -75.77402898499997,
                -12.215547479999884
              ],
              [
                -75.77698910999999,
                -12.218507479999857
              ],
              [
                -75.77856910999998,
                -12.215587729999925
              ],
              [
                -75.78238473499994,
                -12.21319922999993
              ],
              [
                -75.78620048499994,
                -12.213344979999931
              ],
              [
                -75.78774423499993,
                -12.211393354999927
              ],
              [
                -75.7911229849999,
                -12.209936979999952
              ],
              [
                -75.79677360999989,
                -12.208801104999907
              ],
              [
                -75.80826998499998,
                -12.208179979999954
              ],
              [
                -75.81137998499997,
                -12.208869854999932
              ],
              [
                -75.81630998499998,
                -12.207379979999928
              ],
              [
                -75.82236998499997,
                -12.20391997999991
              ],
              [
                -75.82884273499997,
                -12.204373729999872
              ],
              [
                -75.83067785999992,
                -12.201373604999901
              ],
              [
                -75.83070698499995,
                -12.19656760499987
              ],
              [
                -75.82443998499991,
                -12.19276997999998
              ],
              [
                -75.82093998499988,
                -12.19156997999994
              ],
              [
                -75.82077448499996,
                -12.189285729999938
              ],
              [
                -75.82272610999996,
                -12.18471272999983
              ],
              [
                -75.82228910999993,
                -12.177168854999934
              ],
              [
                -75.82138623499992,
                -12.174372604999974
              ],
              [
                -75.82418248499994,
                -12.17009072999997
              ],
              [
                -75.82616310999992,
                -12.16889660499993
              ],
              [
                -75.82805635999989,
                -12.162867354999946
              ],
              [
                -75.83050310999994,
                -12.16004197999996
              ],
              [
                -75.83131860999998,
                -12.156779729999926
              ],
              [
                -75.83740623499995,
                -12.153051354999945
              ],
              [
                -75.83959073499994,
                -12.147167729999921
              ],
              [
                -75.84256173599988,
                -12.143759854999928
              ],
              [
                -75.84465885999998,
                -12.143788979999954
              ],
              [
                -75.84943573499987,
                -12.145886104999931
              ],
              [
                -75.85430010999994,
                -12.143322854999951
              ],
              [
                -75.85566898499991,
                -12.141313104999938
              ],
              [
                -75.85610598499994,
                -12.135720729999946
              ],
              [
                -75.8570899849999,
                -12.13304985499991
              ],
              [
                -75.85916436099996,
                -12.134322604999909
              ],
              [
                -75.86373735999996,
                -12.134817729999838
              ],
              [
                -75.86848510999994,
                -12.13149722999998
              ],
              [
                -75.87390273499994,
                -12.12666210499998
              ],
              [
                -75.87436873499996,
                -12.12334160499995
              ],
              [
                -75.87227160999998,
                -12.120865729999878
              ],
              [
                -75.87199223499994,
                -12.118984354999952
              ],
              [
                -75.87766011099995,
                -12.115506354999923
              ],
              [
                -75.8838351099999,
                -12.10784585499988
              ],
              [
                -75.88668961099995,
                -12.106127354999899
              ],
              [
                -75.88700998499996,
                -12.10242822999993
              ],
              [
                -75.88939848599989,
                -12.098554229999934
              ],
              [
                -75.89429185999995,
                -12.095058979999976
              ],
              [
                -75.89621423599993,
                -12.093049228999973
              ],
              [
                -75.89921673499992,
                -12.091880854999943
              ],
              [
                -75.90155360999995,
                -12.088570104999917
              ],
              [
                -75.90713623499988,
                -12.084805104999873
              ],
              [
                -75.91486110999983,
                -12.080910229999859
              ],
              [
                -75.91967773499994,
                -12.081031229999894
              ],
              [
                -75.9233318599999,
                -12.080058354999892
              ],
              [
                -75.92875273499999,
                -12.07643110499987
              ],
              [
                -75.92880773499996,
                -12.071960979999972
              ],
              [
                -75.92983998599993,
                -12.07016997999989
              ],
              [
                -75.93042611099992,
                -12.062855979999938
              ],
              [
                -75.92774085999997,
                -12.056347854999956
              ],
              [
                -75.92714923599993,
                -12.052069979999942
              ],
              [
                -75.92501023499989,
                -12.046972479999965
              ],
              [
                -75.9206866099999,
                -12.041784229999962
              ],
              [
                -75.92027698499993,
                -12.03800672999995
              ],
              [
                -75.91868411099995,
                -12.035367104999978
              ],
              [
                -75.91622648499998,
                -12.027129603999981
              ],
              [
                -75.91672711099994,
                -12.019756729999926
              ],
              [
                -75.91768285999996,
                -12.017708729999868
              ],
              [
                -75.92314423499994,
                -12.013567104999936
              ],
              [
                -75.92987998599995,
                -12.006922479999957
              ],
              [
                -75.94043860999994,
                -12.00633085499993
              ],
              [
                -75.94371535999989,
                -12.004783478999968
              ],
              [
                -75.94681010999989,
                -12.000778479999951
              ],
              [
                -75.9476968599999,
                -11.994346729999904
              ],
              [
                -75.94068160999996,
                -11.991705104999937
              ],
              [
                -75.93851948499997,
                -11.990270979999934
              ],
              [
                -75.93273210999985,
                -11.987917729999822
              ],
              [
                -75.92927723499997,
                -11.98522122999998
              ],
              [
                -75.92599086099995,
                -11.984294229999932
              ],
              [
                -75.92013448499995,
                -11.984841979999885
              ],
              [
                -75.9131661099999,
                -11.987283479999917
              ],
              [
                -75.91062673499994,
                -11.989332229999889
              ],
              [
                -75.90744011099997,
                -11.996413729999972
              ],
              [
                -75.90542185999988,
                -11.998007104999886
              ],
              [
                -75.90156448499994,
                -11.997858353999959
              ],
              [
                -75.89991323599992,
                -11.99461660399993
              ],
              [
                -75.89694860999992,
                -11.99313922999994
              ],
              [
                -75.88775923499998,
                -11.992989979999948
              ],
              [
                -75.88428848499996,
                -11.993630854999935
              ],
              [
                -75.87687498499992,
                -11.999188228999913
              ],
              [
                -75.87443773599989,
                -12.000354729999913
              ],
              [
                -75.86822623499995,
                -12.000561728999969
              ],
              [
                -75.86665048499992,
                -12.001943979999965
              ],
              [
                -75.86136410999995,
                -12.003430854999976
              ],
              [
                -75.85747048499996,
                -12.006376979999914
              ],
              [
                -75.85275823599989,
                -12.00819197899989
              ],
              [
                -75.84716135999997,
                -12.008432229999869
              ],
              [
                -75.84254936099995,
                -12.006452854999964
              ],
              [
                -75.83499160999997,
                -12.020548479999889
              ],
              [
                -75.83401423499993,
                -12.024318229999892
              ],
              [
                -75.83236723499982,
                -12.025052729999913
              ],
              [
                -75.82849073499989,
                -12.024433729999942
              ],
              [
                -75.82490686099999,
                -12.020547604999933
              ],
              [
                -75.82407385999994,
                -12.015687229999855
              ],
              [
                -75.81893686099994,
                -12.01373722999989
              ],
              [
                -75.81455398499998,
                -12.020730979999882
              ],
              [
                -75.8047722359999,
                -12.028904479999937
              ],
              [
                -75.80213398499995,
                -12.030675354999971
              ],
              [
                -75.79958573499994,
                -12.034614978999969
              ],
              [
                -75.78659560999995,
                -12.039378604999968
              ],
              [
                -75.78472648499991,
                -12.040632604999871
              ],
              [
                -75.78453710999997,
                -12.043708229999822
              ],
              [
                -75.78153235999997,
                -12.044753354999955
              ],
              [
                -75.77649960999992,
                -12.051811979999911
              ],
              [
                -75.76691298499998,
                -12.0583909799999
              ],
              [
                -75.76566298499989,
                -12.059627354999975
              ]
            ]
          ]
        ],
        "type": "MultiPolygon"
      },
      "type": "Feature",
      "properties": {
        "PROVINCIA": "YAUYOS",
        "DISTRITO": "HUANCAYA",
        "name": "HUANCAYA",
        "ID": "140712",
        "DEPARTAMEN": "LIMA"
      }
    }
  ]
}
