{
  "type": "FeatureCollection",
  "features": [
    {
      "geometry": {
        "coordinates": [
          [
            [
              [
                -75.77698910999999,
                -12.218507479999857
              ],
              [
                -75.77863348499989,
                -12.220891979999976
              ],
              [
                -75.77892135999991,
                -12.227387604999876
              ],
              [
                -75.77783923499999,
                -12.23271660499995
              ],
              [
                -75.77889173499995,
                -12.233190104999949
              ],
              [
                -75.78189123499999,
                -12.237821104999966
              ],
              [
                -75.78518023499998,
                -12.246556479999981
              ],
              [
                -75.78599598499989,
                -12.25245035499995
              ],
              [
                -75.7900742349999,
                -12.252029354999934
              ],
              [
                -75.79210023499985,
                -12.255344604999891
              ],
              [
                -75.79531023499999,
                -12.255239354999958
              ],
              [
                -75.79773085999994,
                -12.258317854999973
              ],
              [
                -75.80983423499998,
                -12.261975229999962
              ],
              [
                -75.81378761099995,
                -12.257111979999934
              ],
              [
                -75.81702535999989,
                -12.255354979999936
              ],
              [
                -75.81996423499999,
                -12.251248104999945
              ],
              [
                -75.8303631099999,
                -12.24427785499995
              ],
              [
                -75.8338129849999,
                -12.24259297999987
              ],
              [
                -75.83334198499989,
                -12.239001854999856
              ],
              [
                -75.83081035999999,
                -12.235175354999967
              ],
              [
                -75.82969998499993,
                -12.231669979999936
              ],
              [
                -75.83312573499995,
                -12.23082485499998
              ],
              [
                -75.83879310999993,
                -12.228432354999939
              ],
              [
                -75.84084360999992,
                -12.226154104999978
              ],
              [
                -75.84406185999995,
                -12.220429604999822
              ],
              [
                -75.84958698499997,
                -12.21564497999998
              ],
              [
                -75.85235348499998,
                -12.214085979999936
              ],
              [
                -75.8533748609999,
                -12.209407854999938
              ],
              [
                -75.85813110999999,
                -12.205876354999873
              ],
              [
                -75.86197585999997,
                -12.200721479999856
              ],
              [
                -75.86203285999989,
                -12.196791229999917
              ],
              [
                -75.86465298599995,
                -12.19149385499992
              ],
              [
                -75.86841235999998,
                -12.186965604999955
              ],
              [
                -75.87570323499995,
                -12.183035479999944
              ],
              [
                -75.8790332349999,
                -12.180140604999963
              ],
              [
                -75.87954810999997,
                -12.176370979999831
              ],
              [
                -75.88367761099994,
                -12.173665354999969
              ],
              [
                -75.8803454849999,
                -12.168909229999883
              ],
              [
                -75.88216823499994,
                -12.165206854999894
              ],
              [
                -75.8810288599999,
                -12.160934729999894
              ],
              [
                -75.88458898499994,
                -12.159510729999965
              ],
              [
                -75.88777873499998,
                -12.156264104999934
              ],
              [
                -75.89031348499992,
                -12.149172479999947
              ],
              [
                -75.89216473499988,
                -12.147748479999905
              ],
              [
                -75.89632286099993,
                -12.146637854999938
              ],
              [
                -75.89956948499997,
                -12.143875229999878
              ],
              [
                -75.89680698499996,
                -12.13960322999992
              ],
              [
                -75.89982585999996,
                -12.13635647999996
              ],
              [
                -75.90469598599998,
                -12.129606729999978
              ],
              [
                -75.90948060999989,
                -12.129236479999975
              ],
              [
                -75.91621673499998,
                -12.127109354999845
              ],
              [
                -75.91754048599984,
                -12.125078354999914
              ],
              [
                -75.92384998499989,
                -12.119379979999962
              ],
              [
                -75.92815735999994,
                -12.118984729999966
              ],
              [
                -75.93073073499988,
                -12.114412979999884
              ],
              [
                -75.93163423499993,
                -12.109649479999916
              ],
              [
                -75.93434448499994,
                -12.10819860499987
              ],
              [
                -75.93480985999997,
                -12.106610729999943
              ],
              [
                -75.93872460999995,
                -12.103900479999936
              ],
              [
                -75.94131098499992,
                -12.100555354999926
              ],
              [
                -75.94115148499998,
                -12.095775729999957
              ],
              [
                -75.94212523499988,
                -12.09240010499991
              ],
              [
                -75.94055885999995,
                -12.08733785499993
              ],
              [
                -75.93946373499995,
                -12.081287729999929
              ],
              [
                -75.93929960999992,
                -12.075155479999921
              ],
              [
                -75.9372189849999,
                -12.072718854999948
              ],
              [
                -75.93342660999991,
                -12.070718729999953
              ],
              [
                -75.92983998599993,
                -12.07016997999989
              ],
              [
                -75.92880773499996,
                -12.071960979999972
              ],
              [
                -75.92875273499999,
                -12.07643110499987
              ],
              [
                -75.9233318599999,
                -12.080058354999892
              ],
              [
                -75.91967773499994,
                -12.081031229999894
              ],
              [
                -75.91486110999983,
                -12.080910229999859
              ],
              [
                -75.90713623499988,
                -12.084805104999873
              ],
              [
                -75.90155360999995,
                -12.088570104999917
              ],
              [
                -75.89921673499992,
                -12.091880854999943
              ],
              [
                -75.89621423599993,
                -12.093049228999973
              ],
              [
                -75.89429185999995,
                -12.095058979999976
              ],
              [
                -75.88939848599989,
                -12.098554229999934
              ],
              [
                -75.88700998499996,
                -12.10242822999993
              ],
              [
                -75.88668961099995,
                -12.106127354999899
              ],
              [
                -75.8838351099999,
                -12.10784585499988
              ],
              [
                -75.87766011099995,
                -12.115506354999923
              ],
              [
                -75.87199223499994,
                -12.118984354999952
              ],
              [
                -75.87227160999998,
                -12.120865729999878
              ],
              [
                -75.87436873499996,
                -12.12334160499995
              ],
              [
                -75.87390273499994,
                -12.12666210499998
              ],
              [
                -75.86848510999994,
                -12.13149722999998
              ],
              [
                -75.86373735999996,
                -12.134817729999838
              ],
              [
                -75.85916436099996,
                -12.134322604999909
              ],
              [
                -75.8570899849999,
                -12.13304985499991
              ],
              [
                -75.85610598499994,
                -12.135720729999946
              ],
              [
                -75.85566898499991,
                -12.141313104999938
              ],
              [
                -75.85430010999994,
                -12.143322854999951
              ],
              [
                -75.84943573499987,
                -12.145886104999931
              ],
              [
                -75.84465885999998,
                -12.143788979999954
              ],
              [
                -75.84256173599988,
                -12.143759854999928
              ],
              [
                -75.83959073499994,
                -12.147167729999921
              ],
              [
                -75.83740623499995,
                -12.153051354999945
              ],
              [
                -75.83131860999998,
                -12.156779729999926
              ],
              [
                -75.83050310999994,
                -12.16004197999996
              ],
              [
                -75.82805635999989,
                -12.162867354999946
              ],
              [
                -75.82616310999992,
                -12.16889660499993
              ],
              [
                -75.82418248499994,
                -12.17009072999997
              ],
              [
                -75.82138623499992,
                -12.174372604999974
              ],
              [
                -75.82228910999993,
                -12.177168854999934
              ],
              [
                -75.82272610999996,
                -12.18471272999983
              ],
              [
                -75.82077448499996,
                -12.189285729999938
              ],
              [
                -75.82093998499988,
                -12.19156997999994
              ],
              [
                -75.82443998499991,
                -12.19276997999998
              ],
              [
                -75.83070698499995,
                -12.19656760499987
              ],
              [
                -75.83067785999992,
                -12.201373604999901
              ],
              [
                -75.82884273499997,
                -12.204373729999872
              ],
              [
                -75.82236998499997,
                -12.20391997999991
              ],
              [
                -75.81630998499998,
                -12.207379979999928
              ],
              [
                -75.81137998499997,
                -12.208869854999932
              ],
              [
                -75.80826998499998,
                -12.208179979999954
              ],
              [
                -75.79677360999989,
                -12.208801104999907
              ],
              [
                -75.7911229849999,
                -12.209936979999952
              ],
              [
                -75.78774423499993,
                -12.211393354999927
              ],
              [
                -75.78620048499994,
                -12.213344979999931
              ],
              [
                -75.78238473499994,
                -12.21319922999993
              ],
              [
                -75.77856910999998,
                -12.215587729999925
              ],
              [
                -75.77698910999999,
                -12.218507479999857
              ]
            ]
          ]
        ],
        "type": "MultiPolygon"
      },
      "type": "Feature",
      "properties": {
        "PROVINCIA": "YAUYOS",
        "DISTRITO": "VITIS",
        "name": "VITIS",
        "ID": "140729",
        "DEPARTAMEN": "LIMA"
      }
    }
  ]
}
