{
  "type": "FeatureCollection",
  "features": [
    {
      "geometry": {
        "coordinates": [
          [
            [
              [
                -76.68179486099996,
                -7.089132850999931
              ],
              [
                -76.67703423599994,
                -7.098364599999968
              ],
              [
                -76.67350361099994,
                -7.107757099999958
              ],
              [
                -76.66919811099996,
                -7.113945474999923
              ],
              [
                -76.6695826109999,
                -7.119712349999872
              ],
              [
                -76.67092811099991,
                -7.124774350999928
              ],
              [
                -76.67040373599997,
                -7.127247099999977
              ],
              [
                -76.67655023599997,
                -7.132100849999858
              ],
              [
                -76.67882598599988,
                -7.135673600999951
              ],
              [
                -76.68154923599997,
                -7.142786600999898
              ],
              [
                -76.68634548599988,
                -7.150915600999951
              ],
              [
                -76.69061323599993,
                -7.152134974999967
              ],
              [
                -76.69292998599997,
                -7.15400460099994
              ],
              [
                -76.69484036099993,
                -7.157296974999952
              ],
              [
                -76.69524686099999,
                -7.160182850999888
              ],
              [
                -76.69943323599989,
                -7.166401599999915
              ],
              [
                -76.70167573599997,
                -7.167836724999972
              ],
              [
                -76.70841436099994,
                -7.16793459999991
              ],
              [
                -76.71577273599996,
                -7.171685474999947
              ],
              [
                -76.71886186099994,
                -7.174977849999948
              ],
              [
                -76.72105673599998,
                -7.183757225999898
              ],
              [
                -76.72069086099998,
                -7.189203599999871
              ],
              [
                -76.71979673599998,
                -7.193186974999946
              ],
              [
                -76.72121923599991,
                -7.198023975999945
              ],
              [
                -76.72646261099999,
                -7.201316100999975
              ],
              [
                -76.73323236099992,
                -7.206368974999975
              ],
              [
                -76.73654611099994,
                -7.211692099999937
              ],
              [
                -76.74057036099993,
                -7.219329099999925
              ],
              [
                -76.73975373599995,
                -7.223752474999969
              ],
              [
                -76.74020073599996,
                -7.226028600999825
              ],
              [
                -76.74328986099994,
                -7.230905974999871
              ],
              [
                -76.74394011099992,
                -7.234807975999956
              ],
              [
                -76.74125748599994,
                -7.240335724999909
              ],
              [
                -76.73735561099994,
                -7.242693224999925
              ],
              [
                -76.73067836099989,
                -7.248054975999935
              ],
              [
                -76.72656811099989,
                -7.253004350999902
              ],
              [
                -76.7183882359999,
                -7.264577100999873
              ],
              [
                -76.71763336099997,
                -7.267495974999974
              ],
              [
                -76.72081498599994,
                -7.273423349999973
              ],
              [
                -76.72042273599999,
                -7.277193349999891
              ],
              [
                -76.71884811099994,
                -7.281905599999959
              ],
              [
                -76.71594511099988,
                -7.285617599999966
              ],
              [
                -76.7133516109999,
                -7.287402224999937
              ],
              [
                -76.71101973599997,
                -7.290519225999958
              ],
              [
                -76.70773598599993,
                -7.297157974999948
              ],
              [
                -76.70111511099998,
                -7.307680349999941
              ],
              [
                -76.6967131109999,
                -7.31186435099994
              ],
              [
                -76.69082936099989,
                -7.312496349999833
              ],
              [
                -76.68760573599997,
                -7.314409099999978
              ],
              [
                -76.68532761099993,
                -7.317212974999904
              ],
              [
                -76.68653498599991,
                -7.321595099999911
              ],
              [
                -76.68594798599986,
                -7.324525474999916
              ],
              [
                -76.68248298599997,
                -7.327140474999908
              ],
              [
                -76.68102298599996,
                -7.330779724999957
              ],
              [
                -76.67995511099997,
                -7.339474725999935
              ],
              [
                -76.67585511099992,
                -7.343941100999928
              ],
              [
                -76.67199023599989,
                -7.349695599999905
              ],
              [
                -76.6700198609999,
                -7.35141622499998
              ],
              [
                -76.66557248599992,
                -7.360830850999946
              ],
              [
                -76.66596473599998,
                -7.362944724999977
              ],
              [
                -76.66494048599992,
                -7.366714600999956
              ],
              [
                -76.66489686099999,
                -7.372315225999955
              ],
              [
                -76.66283386099997,
                -7.378232725999965
              ],
              [
                -76.65797986099989,
                -7.385942350999926
              ],
              [
                -76.65441061099989,
                -7.390986599999962
              ],
              [
                -76.65414886099984,
                -7.395793099999935
              ],
              [
                -76.65762286099994,
                -7.397982350999939
              ],
              [
                -76.66380736099995,
                -7.397404350999921
              ],
              [
                -76.66583186099996,
                -7.39833909999993
              ],
              [
                -76.66671248599994,
                -7.402217725999947
              ],
              [
                -76.66475636099989,
                -7.409330475999923
              ],
              [
                -76.66337148599996,
                -7.412564850999956
              ],
              [
                -76.66200111099994,
                -7.418731100999878
              ],
              [
                -76.65874123599991,
                -7.422680974999935
              ],
              [
                -76.65617136099985,
                -7.424346725999897
              ],
              [
                -76.65479136099998,
                -7.427939599999888
              ],
              [
                -76.65721236099989,
                -7.430255725999871
              ],
              [
                -76.65898998599994,
                -7.429879975999938
              ],
              [
                -76.65981998599995,
                -7.427609975999928
              ],
              [
                -76.66388998599996,
                -7.427369975999966
              ],
              [
                -76.66653986099993,
                -7.428479974999959
              ],
              [
                -76.67113998599996,
                -7.426840100999868
              ],
              [
                -76.67754998599992,
                -7.426299974999949
              ],
              [
                -76.68069998599998,
                -7.428569974999846
              ],
              [
                -76.68269998599999,
                -7.428619975999879
              ],
              [
                -76.68572998599996,
                -7.426729974999944
              ],
              [
                -76.68978986099995,
                -7.425999974999911
              ],
              [
                -76.6933599859999,
                -7.426669974999925
              ],
              [
                -76.69626998599983,
                -7.426169975999926
              ],
              [
                -76.7006999859999,
                -7.423659975999954
              ],
              [
                -76.70426623599991,
                -7.42398234999996
              ],
              [
                -76.70882348599997,
                -7.42804210099996
              ],
              [
                -76.71530623599989,
                -7.430689850999897
              ],
              [
                -76.71886523599994,
                -7.434673850999957
              ],
              [
                -76.71750461099998,
                -7.442040849999955
              ],
              [
                -76.72181711099984,
                -7.443585225999925
              ],
              [
                -76.72277998599992,
                -7.449221600999977
              ],
              [
                -76.72608961099985,
                -7.448158599999942
              ],
              [
                -76.72827086099994,
                -7.448745349999911
              ],
              [
                -76.72793498599992,
                -7.452150099999812
              ],
              [
                -76.72512673599994,
                -7.459270850999928
              ],
              [
                -76.72582886099997,
                -7.463723725999955
              ],
              [
                -76.72859686099997,
                -7.46436560099994
              ],
              [
                -76.73539661099994,
                -7.469018975999973
              ],
              [
                -76.73952861099997,
                -7.469620850999945
              ],
              [
                -76.74478048599991,
                -7.472841475999928
              ],
              [
                -76.75103848599991,
                -7.473436349999872
              ],
              [
                -76.75586873599997,
                -7.475411350999934
              ],
              [
                -76.75824823599993,
                -7.474055100999976
              ],
              [
                -76.75836723599991,
                -7.47139010099994
              ],
              [
                -76.75722511099991,
                -7.467035600999964
              ],
              [
                -76.75960461099999,
                -7.46506072499983
              ],
              [
                -76.7626027359999,
                -7.466464599999881
              ],
              [
                -76.766914736,
                -7.463544474999935
              ],
              [
                -76.76971036099991,
                -7.457806224999899
              ],
              [
                -76.77255511099992,
                -7.455680725999969
              ],
              [
                -76.77512986099998,
                -7.450717850999979
              ],
              [
                -76.77653711099998,
                -7.446790974999942
              ],
              [
                -76.78051373599993,
                -7.444014600999935
              ],
              [
                -76.78190961099989,
                -7.43962659999994
              ],
              [
                -76.78099598599988,
                -7.437170975999948
              ],
              [
                -76.77705561099998,
                -7.434601224999881
              ],
              [
                -76.77837998599995,
                -7.424966224999935
              ],
              [
                -76.77641223599994,
                -7.419088349999925
              ],
              [
                -76.77248648599993,
                -7.412164850999943
              ],
              [
                -76.77277873599996,
                -7.40832947499996
              ],
              [
                -76.77186511099995,
                -7.404446350999933
              ],
              [
                -76.77001211099991,
                -7.400122849999946
              ],
              [
                -76.76732898599988,
                -7.398282850999976
              ],
              [
                -76.76778923599994,
                -7.395327349999945
              ],
              [
                -76.76524061099985,
                -7.388970349999909
              ],
              [
                -76.76260536099994,
                -7.386023975999933
              ],
              [
                -76.75911811099996,
                -7.385061975999918
              ],
              [
                -76.7575704859999,
                -7.380462349999959
              ],
              [
                -76.75464598599996,
                -7.380115974999967
              ],
              [
                -76.74690111099989,
                -7.376768599999934
              ],
              [
                -76.74267986099994,
                -7.371431975999883
              ],
              [
                -76.73712211099996,
                -7.370016849999956
              ],
              [
                -76.73158111099991,
                -7.369686600999898
              ],
              [
                -76.73001711099994,
                -7.363547100999881
              ],
              [
                -76.72831986099999,
                -7.36184997499987
              ],
              [
                -76.72403123599997,
                -7.361459975999935
              ],
              [
                -76.72210473599989,
                -7.359877600999937
              ],
              [
                -76.71767836099997,
                -7.358960225999965
              ],
              [
                -76.71341261099997,
                -7.355405350999888
              ],
              [
                -76.70875936099998,
                -7.353836474999866
              ],
              [
                -76.70827536099989,
                -7.350726849999944
              ],
              [
                -76.71089036099994,
                -7.344440725999959
              ],
              [
                -76.71666211099989,
                -7.33744334999983
              ],
              [
                -76.72079748599992,
                -7.337401849999935
              ],
              [
                -76.72816911099994,
                -7.335796224999967
              ],
              [
                -76.73026186099992,
                -7.335988099999952
              ],
              [
                -76.73364061099994,
                -7.338296474999879
              ],
              [
                -76.73664511099997,
                -7.338204724999855
              ],
              [
                -76.7416266109999,
                -7.33586334999984
              ],
              [
                -76.74299786099994,
                -7.332539974999918
              ],
              [
                -76.74655261099991,
                -7.330292349999922
              ],
              [
                -76.7444656109999,
                -7.328274224999916
              ],
              [
                -76.74033748599993,
                -7.32728797599998
              ],
              [
                -76.73786061099997,
                -7.324237724999932
              ],
              [
                -76.73254973599995,
                -7.322746599999903
              ],
              [
                -76.73023436099993,
                -7.320017600999961
              ],
              [
                -76.73430573599995,
                -7.316279474999931
              ],
              [
                -76.7349249859999,
                -7.311623724999947
              ],
              [
                -76.73594786099989,
                -7.30927209999993
              ],
              [
                -76.74079611099995,
                -7.304032599999971
              ],
              [
                -76.74304373599995,
                -7.300133849999952
              ],
              [
                -76.74497423599996,
                -7.298169725999969
              ],
              [
                -76.74717186099997,
                -7.294331474999922
              ],
              [
                -76.75252173599989,
                -7.290026974999932
              ],
              [
                -76.75726836099994,
                -7.284430099999952
              ],
              [
                -76.76054036099998,
                -7.282191474999877
              ],
              [
                -76.76804361099994,
                -7.278452100999857
              ],
              [
                -76.771698986,
                -7.276067724999905
              ],
              [
                -76.77646673599992,
                -7.276419974999953
              ],
              [
                -76.78072761099997,
                -7.271853850999946
              ],
              [
                -76.7815793609999,
                -7.268701350999891
              ],
              [
                -76.78580161099995,
                -7.265810350999971
              ],
              [
                -76.78902723599992,
                -7.260154849999935
              ],
              [
                -76.79742661099982,
                -7.261242725999978
              ],
              [
                -76.80014248599991,
                -7.257284224999978
              ],
              [
                -76.79746161099996,
                -7.254364599999917
              ],
              [
                -76.79466448599999,
                -7.253648474999977
              ],
              [
                -76.79286098599988,
                -7.2474609759999
              ],
              [
                -76.79397211099996,
                -7.246668475999968
              ],
              [
                -76.79802448599997,
                -7.249079099999847
              ],
              [
                -76.79995273599991,
                -7.248877225999934
              ],
              [
                -76.80517661099998,
                -7.246454225999912
              ],
              [
                -76.80852686099996,
                -7.246596224999848
              ],
              [
                -76.81077923599997,
                -7.247873850999952
              ],
              [
                -76.81449848599988,
                -7.248157725999818
              ],
              [
                -76.81538936099997,
                -7.250596974999951
              ],
              [
                -76.81754573599994,
                -7.251962224999943
              ],
              [
                -76.81855836099999,
                -7.250154599999917
              ],
              [
                -76.82202211099997,
                -7.253760349999936
              ],
              [
                -76.82816498599993,
                -7.256107974999907
              ],
              [
                -76.8313852359999,
                -7.25426985099989
              ],
              [
                -76.83398673599993,
                -7.251705475999927
              ],
              [
                -76.83882036099993,
                -7.248305599999981
              ],
              [
                -76.84160261099993,
                -7.240959350999901
              ],
              [
                -76.84293698599993,
                -7.234933350999938
              ],
              [
                -76.84757898599997,
                -7.231277974999841
              ],
              [
                -76.8495664859999,
                -7.231235225999967
              ],
              [
                -76.8518722359999,
                -7.22812535099996
              ],
              [
                -76.8518164859999,
                -7.22496797499997
              ],
              [
                -76.84978648599991,
                -7.221532599999875
              ],
              [
                -76.85411673599998,
                -7.220135474999836
              ],
              [
                -76.85421548599999,
                -7.217863100999921
              ],
              [
                -76.85265398599995,
                -7.215378850999912
              ],
              [
                -76.85628998599998,
                -7.210509974999923
              ],
              [
                -76.85695998599988,
                -7.207819975999939
              ],
              [
                -76.86038998599997,
                -7.203299974999879
              ],
              [
                -76.86028986099996,
                -7.198969974999898
              ],
              [
                -76.86258998599993,
                -7.196159974999944
              ],
              [
                -76.86800998599995,
                -7.197029974999964
              ],
              [
                -76.86942998599994,
                -7.196419974999969
              ],
              [
                -76.87200998599997,
                -7.192919974999882
              ],
              [
                -76.87679998599992,
                -7.190129974999877
              ],
              [
                -76.87909998599997,
                -7.185829974999933
              ],
              [
                -76.8827501109999,
                -7.183749974999955
              ],
              [
                -76.88439998599989,
                -7.18137997499997
              ],
              [
                -76.88455998599994,
                -7.178539974999978
              ],
              [
                -76.88740998599991,
                -7.177509974999964
              ],
              [
                -76.88944998599993,
                -7.174499975999936
              ],
              [
                -76.89001998699996,
                -7.172159974999943
              ],
              [
                -76.89431998599991,
                -7.171009849999905
              ],
              [
                -76.89233998599997,
                -7.167819974999929
              ],
              [
                -76.89329998599999,
                -7.165359974999888
              ],
              [
                -76.89286998699987,
                -7.160089974999948
              ],
              [
                -76.89056998599989,
                -7.158759974999953
              ],
              [
                -76.88993998599989,
                -7.156079974999955
              ],
              [
                -76.89251998599997,
                -7.152749975999939
              ],
              [
                -76.89618998599985,
                -7.152499974999955
              ],
              [
                -76.89622998599998,
                -7.141399974999842
              ],
              [
                -76.89734011099989,
                -7.1379999749999
              ],
              [
                -76.89993011099995,
                -7.136109975999943
              ],
              [
                -76.90379998599997,
                -7.131579975999898
              ],
              [
                -76.90524998599994,
                -7.123899975999961
              ],
              [
                -76.90462998599997,
                -7.118609975999959
              ],
              [
                -76.90531998599994,
                -7.116909975999931
              ],
              [
                -76.90635998599993,
                -7.101269975999912
              ],
              [
                -76.90623998599995,
                -7.097719974999904
              ],
              [
                -76.90737998599997,
                -7.093489974999954
              ],
              [
                -76.90707998599993,
                -7.08617997499988
              ],
              [
                -76.90164511099994,
                -7.08933234999995
              ],
              [
                -76.89680536099996,
                -7.091304099999945
              ],
              [
                -76.89004361199994,
                -7.092350099999976
              ],
              [
                -76.88659198599998,
                -7.094699349999928
              ],
              [
                -76.88361036199996,
                -7.09401272499997
              ],
              [
                -76.88225486099998,
                -7.088663725999936
              ],
              [
                -76.87976123599998,
                -7.086079474999906
              ],
              [
                -76.87626586099998,
                -7.08378472499993
              ],
              [
                -76.8744738609999,
                -7.078374099999905
              ],
              [
                -76.8665634859999,
                -7.0734568499999
              ],
              [
                -76.85840548599992,
                -7.06918984999993
              ],
              [
                -76.85471636099999,
                -7.068610474999957
              ],
              [
                -76.85267636099991,
                -7.069931349999877
              ],
              [
                -76.85086798599997,
                -7.072905599999956
              ],
              [
                -76.84887598599988,
                -7.081698974999938
              ],
              [
                -76.84868536099992,
                -7.084751224999877
              ],
              [
                -76.84732036099996,
                -7.087788224999883
              ],
              [
                -76.84612061099989,
                -7.093992724999964
              ],
              [
                -76.84415786099999,
                -7.097961349999878
              ],
              [
                -76.84414936099995,
                -7.10079659999991
              ],
              [
                -76.841054736,
                -7.103361349999943
              ],
              [
                -76.83873473599994,
                -7.110330724999926
              ],
              [
                -76.83679298699997,
                -7.114472600999932
              ],
              [
                -76.8365613609999,
                -7.117138724999904
              ],
              [
                -76.83399761099997,
                -7.118115349999812
              ],
              [
                -76.8324984859999,
                -7.120542474999979
              ],
              [
                -76.83111848599992,
                -7.129251224999962
              ],
              [
                -76.82859273599996,
                -7.134078599999896
              ],
              [
                -76.82588361099988,
                -7.141005849999829
              ],
              [
                -76.82245723599988,
                -7.146002725999892
              ],
              [
                -76.81853961099995,
                -7.155651599999942
              ],
              [
                -76.8163354859999,
                -7.157330974999923
              ],
              [
                -76.81665136099991,
                -7.164300724999976
              ],
              [
                -76.81212798599995,
                -7.172978850999925
              ],
              [
                -76.81031161099992,
                -7.17395472499993
              ],
              [
                -76.8014734859999,
                -7.175039224999978
              ],
              [
                -76.79835323599991,
                -7.17432060099992
              ],
              [
                -76.79389886099995,
                -7.170208975999969
              ],
              [
                -76.79245986099994,
                -7.1675178509999
              ],
              [
                -76.78661636099997,
                -7.164739849999933
              ],
              [
                -76.78388636099993,
                -7.162871974999973
              ],
              [
                -76.78364686099991,
                -7.160429225999962
              ],
              [
                -76.78476786099992,
                -7.157902599999943
              ],
              [
                -76.78400148599997,
                -7.150010724999959
              ],
              [
                -76.78527948599998,
                -7.139771599999847
              ],
              [
                -76.7827836109999,
                -7.135606599999846
              ],
              [
                -76.77967123599996,
                -7.133396349999941
              ],
              [
                -76.77943061099995,
                -7.130238849999955
              ],
              [
                -76.77629111099998,
                -7.128368724999973
              ],
              [
                -76.77234886099984,
                -7.127833224999961
              ],
              [
                -76.76899598599988,
                -7.130449350999982
              ],
              [
                -76.76247648599985,
                -7.131116475999931
              ],
              [
                -76.75902511099991,
                -7.130937350999943
              ],
              [
                -76.75699511099998,
                -7.127027350999981
              ],
              [
                -76.75010248599989,
                -7.121424224999942
              ],
              [
                -76.74448436099993,
                -7.122037475999946
              ],
              [
                -76.73925136099996,
                -7.117887974999917
              ],
              [
                -76.7347992359999,
                -7.112442724999937
              ],
              [
                -76.73539423599993,
                -7.109087724999881
              ],
              [
                -76.73451373599988,
                -7.107993099999931
              ],
              [
                -76.72402036099999,
                -7.105018850999954
              ],
              [
                -76.72080811099994,
                -7.101187850999963
              ],
              [
                -76.71529848599994,
                -7.097690599999964
              ],
              [
                -76.70686448599997,
                -7.100593099999969
              ],
              [
                -76.70378286099998,
                -7.102186974999938
              ],
              [
                -76.69829836099996,
                -7.101544849999925
              ],
              [
                -76.69201661099999,
                -7.097856599999943
              ],
              [
                -76.68715948599998,
                -7.096366224999883
              ],
              [
                -76.68522773599994,
                -7.095000474999949
              ],
              [
                -76.68316261099994,
                -7.090370974999928
              ],
              [
                -76.68179486099996,
                -7.089132850999931
              ]
            ]
          ]
        ],
        "type": "MultiPolygon"
      },
      "type": "Feature",
      "properties": {
        "PROVINCIA": "MARISCAL CACERES",
        "DISTRITO": "JUANJUI",
        "name": "JUANJUI",
        "ID": "210401",
        "DEPARTAMEN": "SAN MARTIN"
      }
    }
  ]
}
