{
  "type": "FeatureCollection",
  "features": [
    {
      "geometry": {
        "coordinates": [
          [
            [
              [
                -78.76679098799991,
                -6.645279349999953
              ],
              [
                -78.76941661299992,
                -6.650173224999946
              ],
              [
                -78.7686522379999,
                -6.65284322399998
              ],
              [
                -78.76641273799999,
                -6.655006724999907
              ],
              [
                -78.7639056129999,
                -6.661963349999951
              ],
              [
                -78.7614888629999,
                -6.665012474999912
              ],
              [
                -78.7598174879999,
                -6.668626224999969
              ],
              [
                -78.75744598799997,
                -6.67194647499997
              ],
              [
                -78.75520986299995,
                -6.676825099999974
              ],
              [
                -78.75299648799995,
                -6.6838268489999
              ],
              [
                -78.74990636299998,
                -6.687048973999879
              ],
              [
                -78.74850173799996,
                -6.690805974999876
              ],
              [
                -78.74500086299992,
                -6.694081099999948
              ],
              [
                -78.74414261299995,
                -6.698169099999973
              ],
              [
                -78.74233573799995,
                -6.699659849999875
              ],
              [
                -78.73996411199988,
                -6.704448099999922
              ],
              [
                -78.73025198799996,
                -6.713143849999938
              ],
              [
                -78.72661548799988,
                -6.713660349999941
              ],
              [
                -78.72465061299994,
                -6.717977348999966
              ],
              [
                -78.72544111199988,
                -6.72360134999991
              ],
              [
                -78.72232423799994,
                -6.727599099999907
              ],
              [
                -78.7227986129999,
                -6.731393599999933
              ],
              [
                -78.72210248799996,
                -6.734221349999927
              ],
              [
                -78.71841411199995,
                -6.739673849999974
              ],
              [
                -78.71958473799998,
                -6.742615099999966
              ],
              [
                -78.72388336299997,
                -6.743849723999972
              ],
              [
                -78.72684073799996,
                -6.743110224999896
              ],
              [
                -78.7303772379999,
                -6.740877224999963
              ],
              [
                -78.73242986299994,
                -6.740569974999971
              ],
              [
                -78.73810248799998,
                -6.745178099999919
              ],
              [
                -78.74328523799988,
                -6.744337599999938
              ],
              [
                -78.74616211199998,
                -6.744611349999957
              ],
              [
                -78.74985261299997,
                -6.741315599999893
              ],
              [
                -78.75535136299993,
                -6.738057724999919
              ],
              [
                -78.7575292379999,
                -6.737820349999936
              ],
              [
                -78.76209173799992,
                -6.733468724999909
              ],
              [
                -78.76387698799994,
                -6.728453099999967
              ],
              [
                -78.76743673799996,
                -6.72625359999995
              ],
              [
                -78.77057761299994,
                -6.725468474999957
              ],
              [
                -78.77678811299995,
                -6.722375099999965
              ],
              [
                -78.77831086299989,
                -6.72080472499988
              ],
              [
                -78.78619261299991,
                -6.715993474999948
              ],
              [
                -78.78925648699993,
                -6.708859724999911
              ],
              [
                -78.79202348799998,
                -6.706341849999944
              ],
              [
                -78.79491961299993,
                -6.705362099999888
              ],
              [
                -78.79779873799993,
                -6.702934974999948
              ],
              [
                -78.80803323799995,
                -6.700560474999975
              ],
              [
                -78.81064648799997,
                -6.700290974999973
              ],
              [
                -78.81564648799997,
                -6.696353474999967
              ],
              [
                -78.81698473799992,
                -6.69224684999989
              ],
              [
                -78.81543398799988,
                -6.689184599999919
              ],
              [
                -78.81118511299996,
                -6.68498934999991
              ],
              [
                -78.80606648799994,
                -6.681197099999849
              ],
              [
                -78.79995386299998,
                -6.677291849999847
              ],
              [
                -78.7979188629999,
                -6.675465724999981
              ],
              [
                -78.79580236299995,
                -6.669589598999892
              ],
              [
                -78.7972908619999,
                -6.664262974999815
              ],
              [
                -78.79732011299996,
                -6.655666474999975
              ],
              [
                -78.79810461299991,
                -6.650020224999878
              ],
              [
                -78.79934186299988,
                -6.646283349999976
              ],
              [
                -78.79846973799994,
                -6.641308849999973
              ],
              [
                -78.7977558629999,
                -6.638999973999944
              ],
              [
                -78.79487498799995,
                -6.640550724999912
              ],
              [
                -78.79251948799993,
                -6.639654348999898
              ],
              [
                -78.78891011299999,
                -6.639955099999952
              ],
              [
                -78.78607811299997,
                -6.642617224999924
              ],
              [
                -78.78372461299989,
                -6.643085974999906
              ],
              [
                -78.77997261199988,
                -6.645310599999959
              ],
              [
                -78.77684173799992,
                -6.645929724999917
              ],
              [
                -78.77503711299983,
                -6.64517184999994
              ],
              [
                -78.76947073799994,
                -6.644748099999958
              ],
              [
                -78.76679098799991,
                -6.645279349999953
              ]
            ]
          ]
        ],
        "type": "MultiPolygon"
      },
      "type": "Feature",
      "properties": {
        "PROVINCIA": "SANTA CRUZ",
        "DISTRITO": "NINABAMBA",
        "name": "NINABAMBA",
        "ID": "060905",
        "DEPARTAMEN": "CAJAMARCA"
      }
    }
  ]
}
