{
  "type": "FeatureCollection",
  "features": [
    {
      "geometry": {
        "coordinates": [
          [
            [
              [
                -78.72061286299999,
                -5.7925263489999
              ],
              [
                -78.71980398799991,
                -5.795833848999905
              ],
              [
                -78.72272361299991,
                -5.799033348999956
              ],
              [
                -78.72431511299999,
                -5.801912473999892
              ],
              [
                -78.72737298799996,
                -5.802770848999955
              ],
              [
                -78.73114623799995,
                -5.801054098999941
              ],
              [
                -78.73372136199993,
                -5.80128659899998
              ],
              [
                -78.73468161299996,
                -5.804107473999977
              ],
              [
                -78.73399398799995,
                -5.807694098999889
              ],
              [
                -78.73502073699996,
                -5.811321973999952
              ],
              [
                -78.73285548799998,
                -5.816271223999934
              ],
              [
                -78.73804261299989,
                -5.820340098999964
              ],
              [
                -78.73795748799995,
                -5.824800473999971
              ],
              [
                -78.74104823799996,
                -5.831098973999929
              ],
              [
                -78.74126236299992,
                -5.835532348999948
              ],
              [
                -78.74329698699995,
                -5.837310098999922
              ],
              [
                -78.74781261299995,
                -5.837834473999976
              ],
              [
                -78.75274186299993,
                -5.841124848999925
              ],
              [
                -78.75513761199994,
                -5.841432723999958
              ],
              [
                -78.76472486299997,
                -5.846287723999978
              ],
              [
                -78.7691052379999,
                -5.852559348999932
              ],
              [
                -78.77161098799996,
                -5.854743973999916
              ],
              [
                -78.77649223799995,
                -5.862886723999964
              ],
              [
                -78.77944923799993,
                -5.866496098999903
              ],
              [
                -78.78008986299989,
                -5.87073047399997
              ],
              [
                -78.78330861299997,
                -5.872080098999902
              ],
              [
                -78.78544823799996,
                -5.876103973999875
              ],
              [
                -78.78788861299984,
                -5.877947223999968
              ],
              [
                -78.79495361299996,
                -5.878114598999957
              ],
              [
                -78.80128123799994,
                -5.874492098999895
              ],
              [
                -78.803734363,
                -5.875044973999934
              ],
              [
                -78.80582611299991,
                -5.878523473999962
              ],
              [
                -78.81046486299994,
                -5.880839848999926
              ],
              [
                -78.8150586129999,
                -5.880929723999941
              ],
              [
                -78.81865023799998,
                -5.884777473999975
              ],
              [
                -78.81953711299991,
                -5.886833973999956
              ],
              [
                -78.82633198799982,
                -5.892761723999968
              ],
              [
                -78.82875386299992,
                -5.890158224999936
              ],
              [
                -78.83292573799997,
                -5.891937473999974
              ],
              [
                -78.83265236299997,
                -5.895281223999973
              ],
              [
                -78.83803911299998,
                -5.900408223999875
              ],
              [
                -78.83882236299996,
                -5.905908223999973
              ],
              [
                -78.83764448799997,
                -5.913732473999858
              ],
              [
                -78.83838673799988,
                -5.920498098999929
              ],
              [
                -78.84108986299998,
                -5.92388872399988
              ],
              [
                -78.84138848799995,
                -5.926040973999875
              ],
              [
                -78.83934173799997,
                -5.930101598999954
              ],
              [
                -78.8412402379999,
                -5.933951223999941
              ],
              [
                -78.8462597379999,
                -5.936501973999896
              ],
              [
                -78.84708786299996,
                -5.93966009899998
              ],
              [
                -78.8493319879999,
                -5.943371098999819
              ],
              [
                -78.85139486299988,
                -5.944443349999972
              ],
              [
                -78.85678511299994,
                -5.941388723999921
              ],
              [
                -78.85832036299996,
                -5.941394473999935
              ],
              [
                -78.86390423799992,
                -5.938314473999924
              ],
              [
                -78.87037498799992,
                -5.93908984899997
              ],
              [
                -78.87475586299996,
                -5.938574223999922
              ],
              [
                -78.87925198799996,
                -5.936249973999907
              ],
              [
                -78.88021873799994,
                -5.93329684899993
              ],
              [
                -78.88352348799998,
                -5.930996098999969
              ],
              [
                -78.88347461299998,
                -5.927568348999955
              ],
              [
                -78.88141986299996,
                -5.924224598999956
              ],
              [
                -78.88108986299989,
                -5.92055272499988
              ],
              [
                -78.88199798799991,
                -5.914300723999872
              ],
              [
                -78.88333986299989,
                -5.913140598999973
              ],
              [
                -78.88504686299984,
                -5.90099609899994
              ],
              [
                -78.88672261299996,
                -5.899412098999903
              ],
              [
                -78.88745511299999,
                -5.894388723999953
              ],
              [
                -78.88605661299988,
                -5.891841848999945
              ],
              [
                -78.88663673799994,
                -5.888833973999965
              ],
              [
                -78.89293748799997,
                -5.881779348999885
              ],
              [
                -78.89582598799996,
                -5.882015598999885
              ],
              [
                -78.89785161299989,
                -5.880894474999934
              ],
              [
                -78.89988086299991,
                -5.881443348999881
              ],
              [
                -78.9018398629999,
                -5.879208974999926
              ],
              [
                -78.90510161299989,
                -5.87343559899989
              ],
              [
                -78.91364861299996,
                -5.869535098999847
              ],
              [
                -78.91534961299993,
                -5.865861348999886
              ],
              [
                -78.91878911299995,
                -5.853906223999957
              ],
              [
                -78.9202128629999,
                -5.852228473999901
              ],
              [
                -78.92130073799996,
                -5.841130848999967
              ],
              [
                -78.92398048799998,
                -5.836486348999927
              ],
              [
                -78.92499611299996,
                -5.830376973999876
              ],
              [
                -78.92675586299993,
                -5.827953098999956
              ],
              [
                -78.92807273799991,
                -5.819955598999911
              ],
              [
                -78.93447111299997,
                -5.816107598999963
              ],
              [
                -78.93771998799991,
                -5.813502723999932
              ],
              [
                -78.94144186299985,
                -5.812812598999926
              ],
              [
                -78.94283148799997,
                -5.810477723999895
              ],
              [
                -78.94597223799997,
                -5.809838348999961
              ],
              [
                -78.94794573799999,
                -5.807448098999942
              ],
              [
                -78.9528931129999,
                -5.805002223999907
              ],
              [
                -78.95625948799989,
                -5.804578223999897
              ],
              [
                -78.95900786299995,
                -5.801305598999932
              ],
              [
                -78.96100911299999,
                -5.797581098999956
              ],
              [
                -78.96134261299994,
                -5.79466272399992
              ],
              [
                -78.9604253629999,
                -5.792744848999973
              ],
              [
                -78.95958986299996,
                -5.780265598999904
              ],
              [
                -78.95828523799992,
                -5.775039973999981
              ],
              [
                -78.95502498799993,
                -5.766887723999957
              ],
              [
                -78.95355736299996,
                -5.765775973999894
              ],
              [
                -78.94984411299998,
                -5.752857098999925
              ],
              [
                -78.95220098799984,
                -5.749544098999877
              ],
              [
                -78.95286798799998,
                -5.745163723999838
              ],
              [
                -78.95194973799994,
                -5.743297973999915
              ],
              [
                -78.95340173799997,
                -5.738915473999953
              ],
              [
                -78.95221261299992,
                -5.734611848999918
              ],
              [
                -78.95187498799987,
                -5.730565473999889
              ],
              [
                -78.95306873799996,
                -5.728764973999944
              ],
              [
                -78.95566761299995,
                -5.729026223999881
              ],
              [
                -78.96071373799987,
                -5.72621734899991
              ],
              [
                -78.96187711299996,
                -5.720815848999962
              ],
              [
                -78.96320848799996,
                -5.719326473999899
              ],
              [
                -78.96501386299997,
                -5.710502848999909
              ],
              [
                -78.96710398799996,
                -5.707027973999971
              ],
              [
                -78.97086411299995,
                -5.703033223999967
              ],
              [
                -78.97051773799996,
                -5.696812473999955
              ],
              [
                -78.97098961299992,
                -5.692832848999899
              ],
              [
                -78.972451488,
                -5.691249098999947
              ],
              [
                -78.97269523799991,
                -5.688264223999909
              ],
              [
                -78.97174523799993,
                -5.679423223999891
              ],
              [
                -78.97173236299994,
                -5.671857473999978
              ],
              [
                -78.97099223799995,
                -5.668749973999923
              ],
              [
                -78.96740036299997,
                -5.663732473999971
              ],
              [
                -78.95382736299996,
                -5.655394723999962
              ],
              [
                -78.95089136299993,
                -5.660643223999898
              ],
              [
                -78.95026698799995,
                -5.663766348999957
              ],
              [
                -78.94836211299992,
                -5.665015223999887
              ],
              [
                -78.9342056129999,
                -5.665550973999927
              ],
              [
                -78.9312609879999,
                -5.664123223999979
              ],
              [
                -78.92610036299988,
                -5.658202098999823
              ],
              [
                -78.92182236299993,
                -5.656459097999914
              ],
              [
                -78.91924411299993,
                -5.656851598999879
              ],
              [
                -78.91695848799992,
                -5.65297097399997
              ],
              [
                -78.91223773799993,
                -5.651464473999965
              ],
              [
                -78.9087558629999,
                -5.651899723999975
              ],
              [
                -78.90364061299988,
                -5.654128847999971
              ],
              [
                -78.89572848799997,
                -5.651109348999967
              ],
              [
                -78.88971098799993,
                -5.649706973999912
              ],
              [
                -78.88555073799995,
                -5.646632848999957
              ],
              [
                -78.88485736299998,
                -5.658490223999934
              ],
              [
                -78.88300386299989,
                -5.66279684899996
              ],
              [
                -78.87883198799994,
                -5.667437473999939
              ],
              [
                -78.87596486299998,
                -5.674601598999914
              ],
              [
                -78.87331836299995,
                -5.676708973999951
              ],
              [
                -78.86867773799992,
                -5.677070348999905
              ],
              [
                -78.86365236299997,
                -5.674331973999927
              ],
              [
                -78.8576874879999,
                -5.674445348999882
              ],
              [
                -78.85408186299998,
                -5.673328098999889
              ],
              [
                -78.85131636299997,
                -5.669376973999931
              ],
              [
                -78.84563086299994,
                -5.671796848999975
              ],
              [
                -78.83099411299992,
                -5.671914098999878
              ],
              [
                -78.82707223799997,
                -5.673183598999856
              ],
              [
                -78.82164648799994,
                -5.67356059899987
              ],
              [
                -78.81591998799996,
                -5.673322222999957
              ],
              [
                -78.8132629879999,
                -5.669258723999917
              ],
              [
                -78.81204386299987,
                -5.663583473999836
              ],
              [
                -78.81298423799996,
                -5.660070848999965
              ],
              [
                -78.80361086299996,
                -5.634209598999917
              ],
              [
                -78.81211323799994,
                -5.624298848999956
              ],
              [
                -78.80825386299989,
                -5.621005848999971
              ],
              [
                -78.80561323799998,
                -5.617570348999948
              ],
              [
                -78.80361323799997,
                -5.617164223999907
              ],
              [
                -78.79931836299988,
                -5.61463472399987
              ],
              [
                -78.7938398629999,
                -5.614958973999876
              ],
              [
                -78.78734573799994,
                -5.614218723999954
              ],
              [
                -78.78486911299996,
                -5.615304723999884
              ],
              [
                -78.78155473799995,
                -5.618509722999875
              ],
              [
                -78.77891798799993,
                -5.618951223999886
              ],
              [
                -78.78029311299986,
                -5.62249447399995
              ],
              [
                -78.78042311299993,
                -5.627993597999932
              ],
              [
                -78.78255311299995,
                -5.633201723999946
              ],
              [
                -78.78247261299998,
                -5.639162098999975
              ],
              [
                -78.77699411299994,
                -5.638677848999976
              ],
              [
                -78.77251761299988,
                -5.638904348999972
              ],
              [
                -78.76706823799992,
                -5.640945347999889
              ],
              [
                -78.76256636299996,
                -5.645509723999908
              ],
              [
                -78.75510348799992,
                -5.650318348999974
              ],
              [
                -78.7447627379999,
                -5.655036972999937
              ],
              [
                -78.74726286299995,
                -5.66014034899996
              ],
              [
                -78.74697736299993,
                -5.665508348999936
              ],
              [
                -78.74990298799997,
                -5.66938872399993
              ],
              [
                -78.74993511299988,
                -5.670790598999929
              ],
              [
                -78.75240236299999,
                -5.674206973999958
              ],
              [
                -78.75371611299988,
                -5.677329598999961
              ],
              [
                -78.76110636299995,
                -5.678578848999962
              ],
              [
                -78.7631269879999,
                -5.6803143489999
              ],
              [
                -78.77238673799991,
                -5.694954223999957
              ],
              [
                -78.77313873799994,
                -5.697389973999918
              ],
              [
                -78.76803911299999,
                -5.700646973999937
              ],
              [
                -78.7669284879999,
                -5.702250723999953
              ],
              [
                -78.76575773799988,
                -5.707290973999875
              ],
              [
                -78.76698436299995,
                -5.712130848999948
              ],
              [
                -78.76995111299993,
                -5.7147109739999
              ],
              [
                -78.77198448799993,
                -5.721146473999852
              ],
              [
                -78.77637498799993,
                -5.726929723999888
              ],
              [
                -78.77618286299992,
                -5.730792848999954
              ],
              [
                -78.77310086299991,
                -5.734495973999856
              ],
              [
                -78.77407948799998,
                -5.736322348999977
              ],
              [
                -78.77300598799997,
                -5.738612473999922
              ],
              [
                -78.77350323799999,
                -5.741022848999876
              ],
              [
                -78.7728407379999,
                -5.744082348999882
              ],
              [
                -78.775816363,
                -5.751340223999932
              ],
              [
                -78.78176036299993,
                -5.754560598999888
              ],
              [
                -78.78152711299998,
                -5.758193223999911
              ],
              [
                -78.77958548799984,
                -5.762933098999952
              ],
              [
                -78.77712973699994,
                -5.766188098999976
              ],
              [
                -78.7703729879999,
                -5.77094722399994
              ],
              [
                -78.76698673799996,
                -5.772228598999902
              ],
              [
                -78.76319573799998,
                -5.774925473999929
              ],
              [
                -78.75919811299997,
                -5.779208598999958
              ],
              [
                -78.75584586299982,
                -5.779872973999943
              ],
              [
                -78.75029886299995,
                -5.779885973999967
              ],
              [
                -78.74559461299992,
                -5.78216622399998
              ],
              [
                -78.7363457379999,
                -5.782818348999911
              ],
              [
                -78.73385161299996,
                -5.785962848999873
              ],
              [
                -78.72948436299993,
                -5.787826223999957
              ],
              [
                -78.72352111299989,
                -5.791951473999859
              ],
              [
                -78.72061286299999,
                -5.7925263489999
              ]
            ]
          ]
        ],
        "type": "MultiPolygon"
      },
      "type": "Feature",
      "properties": {
        "PROVINCIA": "JAEN",
        "DISTRITO": "JAEN",
        "name": "JAEN",
        "ID": "060801",
        "DEPARTAMEN": "CAJAMARCA"
      }
    }
  ]
}
