{
  "type": "FeatureCollection",
  "features": [
    {
      "geometry": {
        "coordinates": [
          [
            [
              [
                -73.56528123299984,
                -14.775833981999881
              ],
              [
                -73.56118160799991,
                -14.782351607999942
              ],
              [
                -73.55879498299998,
                -14.782830106999825
              ],
              [
                -73.55535735799992,
                -14.788314482999908
              ],
              [
                -73.55351948299995,
                -14.789355481999905
              ],
              [
                -73.55410935799995,
                -14.793248107999943
              ],
              [
                -73.55179885799993,
                -14.795738232999895
              ],
              [
                -73.55171873299997,
                -14.797482481999964
              ],
              [
                -73.54957223299994,
                -14.801433606999979
              ],
              [
                -73.5452676079999,
                -14.802337856999884
              ],
              [
                -73.5430058579999,
                -14.802015607999977
              ],
              [
                -73.54039648299994,
                -14.800077981999948
              ],
              [
                -73.53813873299998,
                -14.800214856999844
              ],
              [
                -73.53422073299998,
                -14.798835981999957
              ],
              [
                -73.52818748299995,
                -14.80170310799997
              ],
              [
                -73.52218748299993,
                -14.808273482999937
              ],
              [
                -73.51953323299995,
                -14.81382623199994
              ],
              [
                -73.51589060799984,
                -14.816978482999957
              ],
              [
                -73.51449998299995,
                -14.82553323299993
              ],
              [
                -73.51294335799997,
                -14.826425731999961
              ],
              [
                -73.50946685799988,
                -14.824956982999936
              ],
              [
                -73.50663285799999,
                -14.82595698299997
              ],
              [
                -73.50349223299992,
                -14.828587857999878
              ],
              [
                -73.49935548299993,
                -14.828752106999957
              ],
              [
                -73.49486135799998,
                -14.834630856999922
              ],
              [
                -73.49200585799997,
                -14.837310607999882
              ],
              [
                -73.48502735799997,
                -14.842570357999932
              ],
              [
                -73.48257223299998,
                -14.842632856999955
              ],
              [
                -73.47105510799997,
                -14.838638731999879
              ],
              [
                -73.46562110799994,
                -14.840259732999982
              ],
              [
                -73.46311160799996,
                -14.837322107999853
              ],
              [
                -73.46069598299994,
                -14.829246481999917
              ],
              [
                -73.45878985799988,
                -14.82720223299998
              ],
              [
                -73.4578231079999,
                -14.823307232999866
              ],
              [
                -73.45472910799998,
                -14.821014356999967
              ],
              [
                -73.45420423299998,
                -14.818914982999956
              ],
              [
                -73.45511585799989,
                -14.813666356999931
              ],
              [
                -73.45373460799993,
                -14.80932935699991
              ],
              [
                -73.45412135799995,
                -14.805820981999886
              ],
              [
                -73.45249160799995,
                -14.802837607999948
              ],
              [
                -73.44969998299996,
                -14.799951482999973
              ],
              [
                -73.44127610799984,
                -14.793334731999892
              ],
              [
                -73.43992248299992,
                -14.78695360799992
              ],
              [
                -73.43713235799999,
                -14.784246356999859
              ],
              [
                -73.42482573299986,
                -14.777750606999916
              ],
              [
                -73.41823135799996,
                -14.772099356999945
              ],
              [
                -73.41627535799984,
                -14.771306607999918
              ],
              [
                -73.41475585799998,
                -14.77577348299991
              ],
              [
                -73.41115623299993,
                -14.778996106999955
              ],
              [
                -73.4079159829999,
                -14.780095731999893
              ],
              [
                -73.40161135799997,
                -14.779841856999951
              ],
              [
                -73.40117973299994,
                -14.783880856999815
              ],
              [
                -73.40250198199993,
                -14.78848248199995
              ],
              [
                -73.4021098579999,
                -14.793325106999816
              ],
              [
                -73.40305473299992,
                -14.799945356999899
              ],
              [
                -73.4032089829999,
                -14.80457623299992
              ],
              [
                -73.39943748299993,
                -14.807595731999982
              ],
              [
                -73.4018242329999,
                -14.814931607999881
              ],
              [
                -73.40506448299993,
                -14.821511732999966
              ],
              [
                -73.40339060799994,
                -14.82346873299997
              ],
              [
                -73.40218560799997,
                -14.827912106999918
              ],
              [
                -73.40384760799998,
                -14.830138731999966
              ],
              [
                -73.40310548299993,
                -14.833246107999912
              ],
              [
                -73.40375373299992,
                -14.836441356999899
              ],
              [
                -73.40201385799998,
                -14.838751981999962
              ],
              [
                -73.40365823299993,
                -14.841203107999888
              ],
              [
                -73.40326560699998,
                -14.844134732999976
              ],
              [
                -73.40404885799995,
                -14.851037106999968
              ],
              [
                -73.40682423299995,
                -14.853634731999875
              ],
              [
                -73.40916998299991,
                -14.854081982999958
              ],
              [
                -73.41199023299993,
                -14.856314481999902
              ],
              [
                -73.41488673299995,
                -14.861689481999917
              ],
              [
                -73.41367573299993,
                -14.864314481999884
              ],
              [
                -73.41349023299995,
                -14.867423857999938
              ],
              [
                -73.41505073299993,
                -14.870740232999879
              ],
              [
                -73.41948048299997,
                -14.873904357999947
              ],
              [
                -73.41516998299994,
                -14.880921856999976
              ],
              [
                -73.41137498299992,
                -14.884392482999885
              ],
              [
                -73.40463298299994,
                -14.886441356999967
              ],
              [
                -73.40215435799996,
                -14.890152357999966
              ],
              [
                -73.39916598299993,
                -14.891045106999911
              ],
              [
                -73.39606060799997,
                -14.89584760799994
              ],
              [
                -73.39273823299987,
                -14.89707810699997
              ],
              [
                -73.39188473299987,
                -14.899683607999975
              ],
              [
                -73.3884257329999,
                -14.902478482999925
              ],
              [
                -73.38467773299988,
                -14.903540981999924
              ],
              [
                -73.38323435799998,
                -14.90521285699998
              ],
              [
                -73.38406635799998,
                -14.908081982999931
              ],
              [
                -73.38322860799997,
                -14.912224606999871
              ],
              [
                -73.38189260799999,
                -14.913447231999953
              ],
              [
                -73.38125973299998,
                -14.917144482999959
              ],
              [
                -73.37953710799997,
                -14.919761732999973
              ],
              [
                -73.37803123299989,
                -14.924072231999958
              ],
              [
                -73.37432035799998,
                -14.927505857999904
              ],
              [
                -73.37377348299998,
                -14.929333981999946
              ],
              [
                -73.37423635799996,
                -14.935542857999906
              ],
              [
                -73.38102860799995,
                -14.936633231999906
              ],
              [
                -73.38863160799991,
                -14.935882232999859
              ],
              [
                -73.39323085799987,
                -14.936046481999938
              ],
              [
                -73.39841685799996,
                -14.93721973199996
              ],
              [
                -73.40614260799998,
                -14.948753856999929
              ],
              [
                -73.41409523299984,
                -14.95420048199992
              ],
              [
                -73.41617198299997,
                -14.95685010799997
              ],
              [
                -73.41695973299989,
                -14.962793856999951
              ],
              [
                -73.42204410799991,
                -14.97181698199995
              ],
              [
                -73.42440735799988,
                -14.973320857999909
              ],
              [
                -73.43063760799998,
                -14.973249232999933
              ],
              [
                -73.43203910799991,
                -14.97483985699995
              ],
              [
                -73.43214148299995,
                -14.978118857999903
              ],
              [
                -73.43436135799988,
                -14.980195607999974
              ],
              [
                -73.43665298299993,
                -14.980482107999933
              ],
              [
                -73.43908773299995,
                -14.979264607999937
              ],
              [
                -73.44216698299994,
                -14.98005235699992
              ],
              [
                -73.4471799829999,
                -14.984707231999948
              ],
              [
                -73.45040248299983,
                -14.990364357999965
              ],
              [
                -73.45326698299988,
                -14.992584482999973
              ],
              [
                -73.45799335799995,
                -14.993587107999872
              ],
              [
                -73.46007010799991,
                -14.9927993579999
              ],
              [
                -73.46794735699996,
                -14.991725107999912
              ],
              [
                -73.47217248299995,
                -14.990507732999902
              ],
              [
                -73.4795486079999,
                -14.986998732999837
              ],
              [
                -73.48105235799989,
                -14.987428482999974
              ],
              [
                -73.4804794829999,
                -14.990650981999977
              ],
              [
                -73.47740023299997,
                -14.993515482999896
              ],
              [
                -73.47417760799993,
                -14.99523410699993
              ],
              [
                -73.47210085799998,
                -15.00103473199988
              ],
              [
                -73.47200573299983,
                -15.004988232999949
              ],
              [
                -73.47281698299997,
                -15.00705010799993
              ],
              [
                -73.47612085799994,
                -15.011247607999962
              ],
              [
                -73.47820523199994,
                -15.02178873299988
              ],
              [
                -73.47707923299993,
                -15.02439998299991
              ],
              [
                -73.47705523299999,
                -15.028472732999944
              ],
              [
                -73.47480323299993,
                -15.03017360799987
              ],
              [
                -73.47034723299998,
                -15.031515232999936
              ],
              [
                -73.4677838579999,
                -15.034342232999904
              ],
              [
                -73.4622018579999,
                -15.034102606999966
              ],
              [
                -73.45860835799994,
                -15.037408732999893
              ],
              [
                -73.4580573579999,
                -15.039397107999832
              ],
              [
                -73.46249298299995,
                -15.038214357999948
              ],
              [
                -73.46654198299984,
                -15.039110857999958
              ],
              [
                -73.4686819829999,
                -15.040990732999887
              ],
              [
                -73.47100123299992,
                -15.045137232999934
              ],
              [
                -73.47859473299991,
                -15.054576482999892
              ],
              [
                -73.48056635799998,
                -15.058394232999945
              ],
              [
                -73.4856007329999,
                -15.06057573299995
              ],
              [
                -73.49751523299983,
                -15.060701607999874
              ],
              [
                -73.50171048299995,
                -15.057806857999935
              ],
              [
                -73.50553910799988,
                -15.05596285799993
              ],
              [
                -73.50927535799997,
                -15.058105482999963
              ],
              [
                -73.51390435799988,
                -15.059652357999937
              ],
              [
                -73.51655273299997,
                -15.061351607999939
              ],
              [
                -73.51939260799998,
                -15.061404356999958
              ],
              [
                -73.52517573299997,
                -15.05780860799996
              ],
              [
                -73.53033598299999,
                -15.053478482999822
              ],
              [
                -73.53216998299996,
                -15.053720731999874
              ],
              [
                -73.53405473299995,
                -15.056790982999871
              ],
              [
                -73.5379961079999,
                -15.060017607999953
              ],
              [
                -73.54105073299996,
                -15.05624023199988
              ],
              [
                -73.5452793579999,
                -15.05565623299998
              ],
              [
                -73.54693048299998,
                -15.050006607999876
              ],
              [
                -73.54641635799999,
                -15.03487335799997
              ],
              [
                -73.5472158579999,
                -15.030818732999876
              ],
              [
                -73.54858635799997,
                -15.029219732999934
              ],
              [
                -73.55047098299991,
                -15.024194231999957
              ],
              [
                -73.54955723299992,
                -15.017855357999963
              ],
              [
                -73.54733010799993,
                -15.014371857999947
              ],
              [
                -73.54881485799996,
                -15.009917482999981
              ],
              [
                -73.54847223299993,
                -15.005520232999913
              ],
              [
                -73.54910035799986,
                -14.991414856999938
              ],
              [
                -73.5472158579999,
                -14.984219357999905
              ],
              [
                -73.54515998299996,
                -14.98187798299989
              ],
              [
                -73.54481173299985,
                -14.969915356999877
              ],
              [
                -73.54780323299991,
                -14.966516106999904
              ],
              [
                -73.54807535799995,
                -14.962640982999915
              ],
              [
                -73.55419373299992,
                -14.959513607999952
              ],
              [
                -73.56024435799998,
                -14.960669357999961
              ],
              [
                -73.56296385799993,
                -14.959513606999963
              ],
              [
                -73.5643234829999,
                -14.955774607999956
              ],
              [
                -73.56521573299983,
                -14.94742948299995
              ],
              [
                -73.56795210799993,
                -14.940647981999916
              ],
              [
                -73.56807110799991,
                -14.937911607999979
              ],
              [
                -73.57104548299998,
                -14.933033732999888
              ],
              [
                -73.5800873579999,
                -14.927560982999978
              ],
              [
                -73.58627398399994,
                -14.924705606999964
              ],
              [
                -73.58865348299992,
                -14.923039981999977
              ],
              [
                -73.59067885799988,
                -14.919444856999974
              ],
              [
                -73.59190560799988,
                -14.91457885699998
              ],
              [
                -73.59133310799996,
                -14.909017981999853
              ],
              [
                -73.58631098299998,
                -14.902512482999896
              ],
              [
                -73.58152923299986,
                -14.898946482999975
              ],
              [
                -73.5788547329999,
                -14.89205760799996
              ],
              [
                -73.58007048299993,
                -14.88946410799997
              ],
              [
                -73.58363648299996,
                -14.891571356999975
              ],
              [
                -73.59190310899993,
                -14.891409231999944
              ],
              [
                -73.59530710799993,
                -14.890517731999978
              ],
              [
                -73.60146660799995,
                -14.886951732999933
              ],
              [
                -73.60349273299988,
                -14.884520356999928
              ],
              [
                -73.60819335899998,
                -14.882818357999952
              ],
              [
                -73.61601098299997,
                -14.878582232999918
              ],
              [
                -73.62314935799998,
                -14.876797731999886
              ],
              [
                -73.63280823299993,
                -14.870781357999931
              ],
              [
                -73.63713623299992,
                -14.865869481999937
              ],
              [
                -73.64183585799992,
                -14.863798356999894
              ],
              [
                -73.64247298299989,
                -14.858912857999883
              ],
              [
                -73.64419898299997,
                -14.853204232999872
              ],
              [
                -73.64800810799994,
                -14.848697731999948
              ],
              [
                -73.64577085799993,
                -14.845523857999979
              ],
              [
                -73.64519848299989,
                -14.839540231999877
              ],
              [
                -73.64551060799988,
                -14.836938606999922
              ],
              [
                -73.64478223299994,
                -14.83267210799994
              ],
              [
                -73.64582285799997,
                -14.829342107999935
              ],
              [
                -73.64842435799983,
                -14.826324357999908
              ],
              [
                -73.65236935799999,
                -14.824356356999886
              ],
              [
                -73.65822073299984,
                -14.823736357999906
              ],
              [
                -73.66271285799996,
                -14.82449023199996
              ],
              [
                -73.66618748399998,
                -14.82101948299993
              ],
              [
                -73.66681835899993,
                -14.818746106999924
              ],
              [
                -73.67205860899992,
                -14.815070356999911
              ],
              [
                -73.67421348299996,
                -14.80911410699997
              ],
              [
                -73.67767235899998,
                -14.806577607999941
              ],
              [
                -73.68282223299991,
                -14.805732106999926
              ],
              [
                -73.69266073299997,
                -14.80119710799994
              ],
              [
                -73.69867173299991,
                -14.79972560799996
              ],
              [
                -73.70531060799988,
                -14.793474482999898
              ],
              [
                -73.71078648299982,
                -14.789646232999871
              ],
              [
                -73.71468135799995,
                -14.788469607999957
              ],
              [
                -73.71485123299988,
                -14.784134607999931
              ],
              [
                -73.71627673299997,
                -14.77864135699997
              ],
              [
                -73.71811935799991,
                -14.776763981999977
              ],
              [
                -73.7207964829999,
                -14.775894857999958
              ],
              [
                -73.72371685799988,
                -14.773322106999956
              ],
              [
                -73.7279584829999,
                -14.771236106999936
              ],
              [
                -73.73126123299988,
                -14.768767606999972
              ],
              [
                -73.73077460899992,
                -14.766472981999925
              ],
              [
                -73.7261506079999,
                -14.761501356999872
              ],
              [
                -73.72535098299988,
                -14.758128981999903
              ],
              [
                -73.72604623299998,
                -14.754652231999955
              ],
              [
                -73.72507273299988,
                -14.752392357999895
              ],
              [
                -73.7252813589999,
                -14.749298107999948
              ],
              [
                -73.71558148299988,
                -14.746377856999914
              ],
              [
                -73.70894098299988,
                -14.742518607999898
              ],
              [
                -73.70428223299996,
                -14.739285356999972
              ],
              [
                -73.69718973299996,
                -14.738694232999933
              ],
              [
                -73.68951310799991,
                -14.733625856999879
              ],
              [
                -73.68711773299998,
                -14.733436731999973
              ],
              [
                -73.68062498299992,
                -14.730600106999816
              ],
              [
                -73.67835573299993,
                -14.72908723199987
              ],
              [
                -73.67589723299983,
                -14.729402356999913
              ],
              [
                -73.67268235799992,
                -14.732112982999922
              ],
              [
                -73.66625260799992,
                -14.735075606999942
              ],
              [
                -73.65799498299998,
                -14.73721885699996
              ],
              [
                -73.65364548299982,
                -14.742198731999906
              ],
              [
                -73.65024148299989,
                -14.748565607999922
              ],
              [
                -73.64585785799994,
                -14.752719106999962
              ],
              [
                -73.64326635799989,
                -14.756407606999971
              ],
              [
                -73.63965973299992,
                -14.76394873199996
              ],
              [
                -73.63741923299989,
                -14.76509635699989
              ],
              [
                -73.63015135799986,
                -14.76509635799988
              ],
              [
                -73.62118948299997,
                -14.763675607999915
              ],
              [
                -73.61867573299992,
                -14.764112731999944
              ],
              [
                -73.61495985799996,
                -14.767719356999919
              ],
              [
                -73.61441335799992,
                -14.772473482999828
              ],
              [
                -73.61124385799997,
                -14.782255106999855
              ],
              [
                -73.60853710799984,
                -14.788191357999949
              ],
              [
                -73.60691598299991,
                -14.79002923299987
              ],
              [
                -73.60255473299992,
                -14.790779357999952
              ],
              [
                -73.59875198299994,
                -14.792410107999956
              ],
              [
                -73.59503123299993,
                -14.791806607999945
              ],
              [
                -73.5909589829999,
                -14.789294981999944
              ],
              [
                -73.58337498299989,
                -14.781160106999948
              ],
              [
                -73.57996873299999,
                -14.779742231999933
              ],
              [
                -73.57826373299991,
                -14.778052731999935
              ],
              [
                -73.5742422329999,
                -14.777546856999948
              ],
              [
                -73.56712310799998,
                -14.77415823299998
              ],
              [
                -73.56528123299984,
                -14.775833981999881
              ]
            ]
          ]
        ],
        "type": "MultiPolygon"
      },
      "type": "Feature",
      "properties": {
        "PROVINCIA": "PARINACOCHAS",
        "DISTRITO": "UPAHUACHO",
        "name": "UPAHUACHO",
        "ID": "050616",
        "DEPARTAMEN": "AYACUCHO"
      }
    }
  ]
}
