{
  "type": "FeatureCollection",
  "features": [
    {
      "geometry": {
        "coordinates": [
          [
            [
              [
                -75.90510348599992,
                -9.574941477999971
              ],
              [
                -75.90474660999996,
                -9.575369726999952
              ],
              [
                -75.90216248499996,
                -9.57898172799986
              ],
              [
                -75.90180560999988,
                -9.579238727999893
              ],
              [
                -75.90129160999999,
                -9.579766976999906
              ],
              [
                -75.89989248599989,
                -9.581151851999891
              ],
              [
                -75.89686585999993,
                -9.583593226999938
              ],
              [
                -75.89565223499994,
                -9.5872908529999
              ],
              [
                -75.89537073599996,
                -9.589412977999814
              ],
              [
                -75.89519535999989,
                -9.590131976999885
              ],
              [
                -75.89486710999995,
                -9.590845726999873
              ],
              [
                -75.89418110999992,
                -9.591796976999888
              ],
              [
                -75.89401048499991,
                -9.592016477999948
              ],
              [
                -75.89293973499997,
                -9.593172851999952
              ],
              [
                -75.89169035999998,
                -9.594910102999961
              ],
              [
                -75.89075535999996,
                -9.596028226999977
              ],
              [
                -75.88931335999996,
                -9.597113227999955
              ],
              [
                -75.88867098599991,
                -9.59755585299996
              ],
              [
                -75.88500348499997,
                -9.599277226999902
              ],
              [
                -75.88421660999995,
                -9.60033985299998
              ],
              [
                -75.87733523499998,
                -9.603295102999937
              ],
              [
                -75.87605310999999,
                -9.604586851999954
              ],
              [
                -75.87535073499993,
                -9.605507977999935
              ],
              [
                -75.87182435999995,
                -9.607378227999959
              ],
              [
                -75.8711962349999,
                -9.608234852999885
              ],
              [
                -75.87248110999991,
                -9.613117477999936
              ],
              [
                -75.87205273599989,
                -9.615059102999908
              ],
              [
                -75.87006836099994,
                -9.617329227999903
              ],
              [
                -75.86871198499989,
                -9.618813977999935
              ],
              [
                -75.86675610999998,
                -9.62066997799991
              ],
              [
                -75.86529985999994,
                -9.622069102999944
              ],
              [
                -75.86461461,
                -9.622839977999945
              ],
              [
                -75.86325823499993,
                -9.624610351999877
              ],
              [
                -75.86147373499989,
                -9.626808976999826
              ],
              [
                -75.8607169849999,
                -9.627280102999975
              ],
              [
                -75.85840423499997,
                -9.627694102999953
              ],
              [
                -75.85670523499988,
                -9.629492977999917
              ],
              [
                -75.85630548499995,
                -9.630520851999904
              ],
              [
                -75.85609135999988,
                -9.631377477999877
              ],
              [
                -75.85507773499995,
                -9.632805227999881
              ],
              [
                -75.85429248499997,
                -9.636145976999899
              ],
              [
                -75.85383560999992,
                -9.636902602999896
              ],
              [
                -75.85089460999995,
                -9.640714477999893
              ],
              [
                -75.84803923499999,
                -9.641242727999895
              ],
              [
                -75.8470113599999,
                -9.643070227999942
              ],
              [
                -75.84656873499995,
                -9.64456922799991
              ],
              [
                -75.84274260999996,
                -9.647909976999927
              ],
              [
                -75.8415623599999,
                -9.648951351999926
              ],
              [
                -75.84010135999989,
                -9.650765351999837
              ],
              [
                -75.84028698599997,
                -9.65624760299994
              ],
              [
                -75.84025835999984,
                -9.656890102999967
              ],
              [
                -75.83920198499999,
                -9.662286727999913
              ],
              [
                -75.83978723499985,
                -9.663371727999902
              ],
              [
                -75.84142911099997,
                -9.664570977999915
              ],
              [
                -75.84551223499994,
                -9.66788322799988
              ],
              [
                -75.84713986099996,
                -9.669325102999892
              ],
              [
                -75.84759673499997,
                -9.670295977999956
              ],
              [
                -75.84803923499999,
                -9.67225185299992
              ],
              [
                -75.85002373499992,
                -9.67791972699996
              ],
              [
                -75.85056623599996,
                -9.680104102999962
              ],
              [
                -75.85075185999995,
                -9.680689476999873
              ],
              [
                -75.85193685999997,
                -9.681660227999885
              ],
              [
                -75.85104260999987,
                -9.68498735299994
              ],
              [
                -75.85066623499989,
                -9.68518660299992
              ],
              [
                -75.84873885999986,
                -9.685543601999882
              ],
              [
                -75.8477679849999,
                -9.686014726999872
              ],
              [
                -75.84629748499998,
                -9.686742851999895
              ],
              [
                -75.84401773499991,
                -9.687912977999815
              ],
              [
                -75.83631998499993,
                -9.695189977999974
              ],
              [
                -75.83314860999997,
                -9.697521726999923
              ],
              [
                -75.8313354849999,
                -9.699277852999899
              ],
              [
                -75.83067873499994,
                -9.700091602999919
              ],
              [
                -75.82917960999993,
                -9.7021759779999
              ],
              [
                -75.82390673499992,
                -9.706859726999937
              ],
              [
                -75.82202698499992,
                -9.709414351999897
              ],
              [
                -75.82115610999989,
                -9.709942602999945
              ],
              [
                -75.82024235999995,
                -9.71001397799995
              ],
              [
                -75.81991198499998,
                -9.710093977999918
              ],
              [
                -75.81817223499985,
                -9.71186985299994
              ],
              [
                -75.81681598499989,
                -9.712697976999891
              ],
              [
                -75.81560248499994,
                -9.714682477999872
              ],
              [
                -75.81528835999995,
                -9.71658122699995
              ],
              [
                -75.81525348499991,
                -9.716675102999886
              ],
              [
                -75.81493910999995,
                -9.717521227999839
              ],
              [
                -75.8110196099999,
                -9.72003622699998
              ],
              [
                -75.81039148499997,
                -9.720350352999958
              ],
              [
                -75.80977748499998,
                -9.721692351999877
              ],
              [
                -75.80966335999994,
                -9.722606102999919
              ],
              [
                -75.80944910999989,
                -9.724576227999933
              ],
              [
                -75.80913510999994,
                -9.725447102999965
              ],
              [
                -75.80772160999999,
                -9.727245977999928
              ],
              [
                -75.80529460999998,
                -9.731357726999875
              ],
              [
                -75.80493773499995,
                -9.732571227999927
              ],
              [
                -75.80496623499988,
                -9.73475560299994
              ],
              [
                -75.80520898499998,
                -9.737225477999914
              ],
              [
                -75.80532323499995,
                -9.738067727999976
              ],
              [
                -75.80595135999988,
                -9.739709602999937
              ],
              [
                -75.80669373499995,
                -9.741208726999957
              ],
              [
                -75.80649385999999,
                -9.744649351999897
              ],
              [
                -75.80468073499998,
                -9.753686602999892
              ],
              [
                -75.80448085999996,
                -9.754657352999914
              ],
              [
                -75.80482348499999,
                -9.755799477999915
              ],
              [
                -75.80579435999994,
                -9.75804097699995
              ],
              [
                -75.80799298499994,
                -9.76039660299989
              ],
              [
                -75.80823560999994,
                -9.761524477999956
              ],
              [
                -75.80906373499994,
                -9.763808727999958
              ],
              [
                -75.80923498499988,
                -9.76607885299984
              ],
              [
                -75.80886385999997,
                -9.76856297799992
              ],
              [
                -75.80797573499996,
                -9.77349860299995
              ],
              [
                -75.80425423499997,
                -9.77802910299988
              ],
              [
                -75.80302048499993,
                -9.779606601999944
              ],
              [
                -75.80028998499995,
                -9.785209102999943
              ],
              [
                -75.79909673599991,
                -9.78927435299994
              ],
              [
                -75.79851023499998,
                -9.79453297799995
              ],
              [
                -75.79816635999993,
                -9.802461352999899
              ],
              [
                -75.79677073499994,
                -9.804382727999894
              ],
              [
                -75.79612360999994,
                -9.806708727999876
              ],
              [
                -75.79606285999989,
                -9.807901977999961
              ],
              [
                -75.79561798499992,
                -9.809277351999981
              ],
              [
                -75.79547635999995,
                -9.809762727999896
              ],
              [
                -75.79533473499993,
                -9.811582977999876
              ],
              [
                -75.79679098499992,
                -9.815810102999933
              ],
              [
                -75.7987124849999,
                -9.817953977999878
              ],
              [
                -75.80045185999995,
                -9.819632726999941
              ],
              [
                -75.80316198499992,
                -9.821008101999894
              ],
              [
                -75.80637785999988,
                -9.821918227999959
              ],
              [
                -75.80685773499982,
                -9.82171660299997
              ],
              [
                -75.81052410999996,
                -9.821614852999915
              ],
              [
                -75.81315335999989,
                -9.822282227999892
              ],
              [
                -75.81731985999994,
                -9.827500476999887
              ],
              [
                -75.81869510999996,
                -9.829118476999952
              ],
              [
                -75.81998960999994,
                -9.830453352999882
              ],
              [
                -75.82148623499995,
                -9.83108035299989
              ],
              [
                -75.82510073499998,
                -9.83109997799994
              ],
              [
                -75.82573360999993,
                -9.830331976999958
              ],
              [
                -75.82777635999992,
                -9.828026227999885
              ],
              [
                -75.8301601099999,
                -9.823410352999872
              ],
              [
                -75.83058773599993,
                -9.822383352999907
              ],
              [
                -75.83129560999998,
                -9.821452977999911
              ],
              [
                -75.83281248499998,
                -9.820603602999824
              ],
              [
                -75.83380348499998,
                -9.82005747799991
              ],
              [
                -75.83592723499993,
                -9.819389977999947
              ],
              [
                -75.8383947349999,
                -9.818277602999899
              ],
              [
                -75.84304660999999,
                -9.814111227999888
              ],
              [
                -75.84490960999995,
                -9.813918852999961
              ],
              [
                -75.84850735999999,
                -9.811805477999883
              ],
              [
                -75.84992323499995,
                -9.810693102999949
              ],
              [
                -75.85326035999987,
                -9.80964135299996
              ],
              [
                -75.85534360999992,
                -9.808508727999879
              ],
              [
                -75.85653685999989,
                -9.808205352999835
              ],
              [
                -75.85744710999995,
                -9.807942476999926
              ],
              [
                -75.85888310999997,
                -9.807922226999949
              ],
              [
                -75.85997523499998,
                -9.807821102999924
              ],
              [
                -75.86126960999997,
                -9.807355852999876
              ],
              [
                -75.86377760999983,
                -9.805778351999948
              ],
              [
                -75.86476861099993,
                -9.805616477999934
              ],
              [
                -75.86508148499996,
                -9.805526977999932
              ],
              [
                -75.86602260999996,
                -9.805131102999951
              ],
              [
                -75.86721598499992,
                -9.804382727999894
              ],
              [
                -75.86804510999997,
                -9.803533351999874
              ],
              [
                -75.8695013599999,
                -9.800944477999906
              ],
              [
                -75.86988573499991,
                -9.799022977999925
              ],
              [
                -75.87004748499999,
                -9.797870227999908
              ],
              [
                -75.87043173599989,
                -9.796191477999912
              ],
              [
                -75.87087673499997,
                -9.795503851999968
              ],
              [
                -75.87174648499996,
                -9.794573476999915
              ],
              [
                -75.87247448599999,
                -9.793926227999918
              ],
              [
                -75.87411685999996,
                -9.792912852999905
              ],
              [
                -75.8762499849999,
                -9.792959977999885
              ],
              [
                -75.89033360999997,
                -9.791236227999946
              ],
              [
                -75.89132460999991,
                -9.791074477999928
              ],
              [
                -75.89223473499999,
                -9.791033977999973
              ],
              [
                -75.89343136099995,
                -9.791207227999905
              ],
              [
                -75.89524835999993,
                -9.792227227999945
              ],
              [
                -75.89983335999995,
                -9.791809977999947
              ],
              [
                -75.90072948499994,
                -9.791822727999943
              ],
              [
                -75.90876310999994,
                -9.793672227999934
              ],
              [
                -75.91029610999993,
                -9.794067852999888
              ],
              [
                -75.91272310999994,
                -9.793845352999881
              ],
              [
                -75.91316598599991,
                -9.793664602999854
              ],
              [
                -75.91400373499994,
                -9.79354385299996
              ],
              [
                -75.91504898599999,
                -9.793784602999835
              ],
              [
                -75.91765811099998,
                -9.794431852999935
              ],
              [
                -75.91917648499992,
                -9.794995102999962
              ],
              [
                -75.92181948499996,
                -9.794966102999979
              ],
              [
                -75.92237973499994,
                -9.794940477999887
              ],
              [
                -75.92504035999997,
                -9.794856602999971
              ],
              [
                -75.92627410999984,
                -9.795341977999897
              ],
              [
                -75.93149235999994,
                -9.799488226999927
              ],
              [
                -75.93247035999997,
                -9.800297102999934
              ],
              [
                -75.93331260999992,
                -9.800903976999962
              ],
              [
                -75.93460698599989,
                -9.800883727999974
              ],
              [
                -75.93565873499995,
                -9.800823102999914
              ],
              [
                -75.93849035999995,
                -9.803169227999945
              ],
              [
                -75.93925886099993,
                -9.805009726999913
              ],
              [
                -75.9395824849999,
                -9.805535602999896
              ],
              [
                -75.94126123499996,
                -9.80788172699988
              ],
              [
                -75.9444269849999,
                -9.80849835299989
              ],
              [
                -75.94599848499996,
                -9.808737601999894
              ],
              [
                -75.9467018599999,
                -9.808832352999843
              ],
              [
                -75.9479759859999,
                -9.809216602999925
              ],
              [
                -75.94945248499994,
                -9.809297477999962
              ],
              [
                -75.95046373599996,
                -9.809439102999931
              ],
              [
                -75.95610660999995,
                -9.811421227999972
              ],
              [
                -75.95849323499988,
                -9.812735852999879
              ],
              [
                -75.96035398499998,
                -9.813686477999909
              ],
              [
                -75.96176998599992,
                -9.814089977999913
              ],
              [
                -75.96278098499982,
                -9.814353852999886
              ],
              [
                -75.9649653599999,
                -9.814758352999888
              ],
              [
                -75.96607773499994,
                -9.814819102999934
              ],
              [
                -75.96945535999998,
                -9.815486477999912
              ],
              [
                -75.97234760999999,
                -9.81595172699997
              ],
              [
                -75.97566460999991,
                -9.816497727999831
              ],
              [
                -75.97902198499997,
                -9.816538227999956
              ],
              [
                -75.97991198599988,
                -9.816578726999978
              ],
              [
                -75.9825614849999,
                -9.816619102999937
              ],
              [
                -75.98601998499998,
                -9.815708977999918
              ],
              [
                -75.98767848499989,
                -9.815992102999928
              ],
              [
                -75.9899234849999,
                -9.815890976999981
              ],
              [
                -75.9916022349999,
                -9.81631572799995
              ],
              [
                -75.9944338599999,
                -9.816396602999873
              ],
              [
                -75.99728560999995,
                -9.816517977999979
              ],
              [
                -75.9986609849999,
                -9.81674047699994
              ],
              [
                -75.99999998499993,
                -9.817039977999912
              ],
              [
                -76.00252923499994,
                -9.816490227999907
              ],
              [
                -76.00317961099995,
                -9.817339852999964
              ],
              [
                -76.00811910999988,
                -9.818310477999887
              ],
              [
                -76.01404873499996,
                -9.820441352999978
              ],
              [
                -76.01958973499995,
                -9.820990227999914
              ],
              [
                -76.0224296109999,
                -9.821861227999875
              ],
              [
                -76.03042960999989,
                -9.822579977999908
              ],
              [
                -76.03333973499997,
                -9.823371102999943
              ],
              [
                -76.03492960999989,
                -9.82302147799993
              ],
              [
                -76.03739061099992,
                -9.822589852999954
              ],
              [
                -76.04246873599999,
                -9.823419852999962
              ],
              [
                -76.04434960999993,
                -9.823101477999899
              ],
              [
                -76.04756048499996,
                -9.824240227999894
              ],
              [
                -76.04878898599998,
                -9.823880852999935
              ],
              [
                -76.05219910999995,
                -9.821589852999978
              ],
              [
                -76.0522050145409,
                -9.821587570684244
              ],
              [
                -76.05091016523102,
                -9.819050766221551
              ],
              [
                -76.05099029045789,
                -9.815310516269733
              ],
              [
                -76.04993941542477,
                -9.812589891417929
              ],
              [
                -76.04621878972807,
                -9.80661126595993
              ],
              [
                -76.04636916501073,
                -9.801050766307696
              ],
              [
                -76.0454101645966,
                -9.796330016249328
              ],
              [
                -76.04623041528538,
                -9.79311126574214
              ],
              [
                -76.04317966508955,
                -9.786630891380923
              ],
              [
                -76.0424590398141,
                -9.783089891096665
              ],
              [
                -76.04327929024595,
                -9.780650391619986
              ],
              [
                -76.0410390397484,
                -9.773210890762869
              ],
              [
                -76.04191991527256,
                -9.768419891459075
              ],
              [
                -76.04078904023817,
                -9.757179641364587
              ],
              [
                -76.04104878961715,
                -9.75499026634418
              ],
              [
                -76.04412788955108,
                -9.751034885318802
              ],
              [
                -76.04661338394112,
                -9.746267638544396
              ],
              [
                -76.04711156341773,
                -9.742470920076983
              ],
              [
                -76.05193694884196,
                -9.741491644022403
              ],
              [
                -76.05443068570906,
                -9.739405805984461
              ],
              [
                -76.05677954673314,
                -9.734236706065246
              ],
              [
                -76.05879977017236,
                -9.73201823487841
              ],
              [
                -76.07215602853807,
                -9.724736630438201
              ],
              [
                -76.07554294149713,
                -9.722662504859727
              ],
              [
                -76.08256767091814,
                -9.717185020512716
              ],
              [
                -76.08255505864537,
                -9.713261060286754
              ],
              [
                -76.0794558281168,
                -9.709432980956137
              ],
              [
                -76.07646172173827,
                -9.708293916678144
              ],
              [
                -76.0719135388714,
                -9.703809922505798
              ],
              [
                -76.07295579301723,
                -9.699788043657804
              ],
              [
                -76.07208243904017,
                -9.69624848398314
              ],
              [
                -76.07206663359085,
                -9.691271730393282
              ],
              [
                -76.07089696584768,
                -9.687447071507847
              ],
              [
                -76.07146510029037,
                -9.684095524381064
              ],
              [
                -76.06846519636883,
                -9.681042222593419
              ],
              [
                -76.06632561485179,
                -9.675497809197907
              ],
              [
                -76.06698003890295,
                -9.672034871466053
              ],
              [
                -76.06225761397229,
                -9.670150755614884
              ],
              [
                -76.05655361764775,
                -9.665957168846376
              ],
              [
                -76.0538418838488,
                -9.66242427764945
              ],
              [
                -76.04563832842302,
                -9.655740130930212
              ],
              [
                -76.04515223444486,
                -9.654497393510326
              ],
              [
                -76.04109129289134,
                -9.651255596009378
              ],
              [
                -76.0392572703185,
                -9.650782591650227
              ],
              [
                -76.03770410989682,
                -9.647533168736913
              ],
              [
                -76.04020445556608,
                -9.645132905039418
              ],
              [
                -76.04029239620701,
                -9.642357079709939
              ],
              [
                -76.03835319331006,
                -9.63901311128103
              ],
              [
                -76.03439945018266,
                -9.639216413749295
              ],
              [
                -76.02658346472447,
                -9.637995552488178
              ],
              [
                -76.02407613112001,
                -9.638098716938202
              ],
              [
                -76.01972279161606,
                -9.63370897754362
              ],
              [
                -76.01489391332927,
                -9.631521894185596
              ],
              [
                -76.01179597440307,
                -9.627606888211574
              ],
              [
                -76.01195544587284,
                -9.622859211575758
              ],
              [
                -76.01020667935592,
                -9.618557384990652
              ],
              [
                -76.01116654892598,
                -9.617023218080988
              ],
              [
                -76.0056555242,
                -9.612349506045632
              ],
              [
                -76.00362096794407,
                -9.609196982868013
              ],
              [
                -75.99918390562704,
                -9.60892270105387
              ],
              [
                -75.99445277655337,
                -9.607022129153052
              ],
              [
                -75.99223244487308,
                -9.606262821750477
              ],
              [
                -75.98904217784218,
                -9.603592060314838
              ],
              [
                -75.99189760509131,
                -9.597247848938935
              ],
              [
                -75.99410811081577,
                -9.594657325138655
              ],
              [
                -75.99525473012324,
                -9.591017032786056
              ],
              [
                -75.99819705228612,
                -9.587251933853338
              ],
              [
                -75.9984283410779,
                -9.583901401118055
              ],
              [
                -75.99666025883624,
                -9.576967475340325
              ],
              [
                -75.99526494242963,
                -9.576705711355373
              ],
              [
                -75.99221031445131,
                -9.573794042399015
              ],
              [
                -75.9861022588313,
                -9.574485277326005
              ],
              [
                -75.98270807914196,
                -9.57459116669935
              ],
              [
                -75.98047274121336,
                -9.572961051706784
              ],
              [
                -75.97465149286847,
                -9.572207356847002
              ],
              [
                -75.9707351639816,
                -9.57305830519772
              ],
              [
                -75.96883871590074,
                -9.574437641817212
              ],
              [
                -75.96127848762342,
                -9.576095113509666
              ],
              [
                -75.95584163834917,
                -9.57408863680007
              ],
              [
                -75.95293261925849,
                -9.57428916074133
              ],
              [
                -75.94837136954811,
                -9.573242773963216
              ],
              [
                -75.94497209918052,
                -9.571519329338003
              ],
              [
                -75.93795566450513,
                -9.570797016308177
              ],
              [
                -75.93681353987,
                -9.569854766291826
              ],
              [
                -75.92957528991201,
                -9.569911891047695
              ],
              [
                -75.92674841526485,
                -9.566014265783053
              ],
              [
                -75.92232779009811,
                -9.562668265934121
              ],
              [
                -75.91653879010136,
                -9.560551891349292
              ],
              [
                -75.91592998499988,
                -9.560359977999894
              ],
              [
                -75.91542998499989,
                -9.561029976999976
              ],
              [
                -75.91531998499994,
                -9.561269976999938
              ],
              [
                -75.91460948499997,
                -9.5628848529999
              ],
              [
                -75.91266935999994,
                -9.567450476999909
              ],
              [
                -75.90912460999994,
                -9.572057852999933
              ],
              [
                -75.90510348599992,
                -9.574941477999971
              ]
            ]
          ]
        ],
        "type": "MultiPolygon"
      },
      "type": "Feature",
      "properties": {
        "PROVINCIA": "HUANUCO",
        "DISTRITO": "SAN PABLO DE PILLAO",
        "name": "SAN PABLO DE PILLAO",
        "ID": "090113",
        "DEPARTAMEN": "HUANUCO"
      }
    }
  ]
}
