{
  "type": "FeatureCollection",
  "features": [
    {
      "geometry": {
        "coordinates": [
          [
            [
              [
                -76.37628860999996,
                -9.94716897799998
              ],
              [
                -76.38240823599989,
                -9.951806602999909
              ],
              [
                -76.38596023499997,
                -9.953399477999938
              ],
              [
                -76.38915236099996,
                -9.956859352999913
              ],
              [
                -76.39159573599994,
                -9.95684960299991
              ],
              [
                -76.39563673599991,
                -9.958785102999911
              ],
              [
                -76.39784186099996,
                -9.958388852999917
              ],
              [
                -76.40337298599991,
                -9.959249977999946
              ],
              [
                -76.40595511099997,
                -9.961564477999957
              ],
              [
                -76.41146673599997,
                -9.962472602999924
              ],
              [
                -76.41593348599997,
                -9.963818352999908
              ],
              [
                -76.41837698599994,
                -9.963609352999924
              ],
              [
                -76.42187498499999,
                -9.960619102999885
              ],
              [
                -76.42420311099988,
                -9.961007977999827
              ],
              [
                -76.4293086109999,
                -9.964728477999927
              ],
              [
                -76.43162498599997,
                -9.96895122799998
              ],
              [
                -76.43324798599997,
                -9.975046852999924
              ],
              [
                -76.43674798599994,
                -9.97850385299995
              ],
              [
                -76.44091598599994,
                -9.980474602999948
              ],
              [
                -76.44205473599999,
                -9.982232477999844
              ],
              [
                -76.44091411099993,
                -9.986343852999937
              ],
              [
                -76.44102148499985,
                -9.990013727999894
              ],
              [
                -76.44438286099995,
                -9.99538872799991
              ],
              [
                -76.44733786099994,
                -9.997472602999949
              ],
              [
                -76.45332223599996,
                -9.9994902279999
              ],
              [
                -76.45678123599998,
                -10.004085977999921
              ],
              [
                -76.46030473499991,
                -10.00643960299982
              ],
              [
                -76.46237298599988,
                -10.005943352999964
              ],
              [
                -76.46598048499993,
                -10.006644477999885
              ],
              [
                -76.46947473599994,
                -10.003660102999959
              ],
              [
                -76.47338686099994,
                -10.001310602999979
              ],
              [
                -76.47652948599995,
                -9.998212852999927
              ],
              [
                -76.47836148599993,
                -9.994226727999887
              ],
              [
                -76.4842716099999,
                -9.994109352999942
              ],
              [
                -76.48736998599992,
                -9.991479977999973
              ],
              [
                -76.48422998599995,
                -9.987519977999966
              ],
              [
                -76.48125998599994,
                -9.978859977999946
              ],
              [
                -76.48167998499997,
                -9.973509977999981
              ],
              [
                -76.47556998599998,
                -9.960959977999948
              ],
              [
                -76.47580248599996,
                -9.956885977999832
              ],
              [
                -76.47406836099998,
                -9.955857477999928
              ],
              [
                -76.47374023599991,
                -9.951244102999908
              ],
              [
                -76.47543748599992,
                -9.948021352999888
              ],
              [
                -76.47784960999996,
                -9.94619722799996
              ],
              [
                -76.47881623599989,
                -9.94169135299984
              ],
              [
                -76.48090823599989,
                -9.938312477999943
              ],
              [
                -76.48075198599992,
                -9.936195352999846
              ],
              [
                -76.47795511099997,
                -9.935796851999896
              ],
              [
                -76.47673061099982,
                -9.933785102999877
              ],
              [
                -76.47334761099995,
                -9.93212310299998
              ],
              [
                -76.47060736099996,
                -9.931888727999933
              ],
              [
                -76.46766411099998,
                -9.930402352999977
              ],
              [
                -76.46675973599986,
                -9.926933602999952
              ],
              [
                -76.46416411099995,
                -9.925066227999878
              ],
              [
                -76.46311523599991,
                -9.92279310299989
              ],
              [
                -76.45839598599997,
                -9.921934601999851
              ],
              [
                -76.45612298599997,
                -9.92642385299996
              ],
              [
                -76.4493886109999,
                -9.926974602999962
              ],
              [
                -76.44409373599996,
                -9.923882852999952
              ],
              [
                -76.43867186099993,
                -9.923628852999968
              ],
              [
                -76.43240423499998,
                -9.923966852999968
              ],
              [
                -76.42998823499983,
                -9.920874977999915
              ],
              [
                -76.42571098599996,
                -9.917783226999973
              ],
              [
                -76.41983198599996,
                -9.920951227999922
              ],
              [
                -76.41283011099989,
                -9.923576227999945
              ],
              [
                -76.40932810999988,
                -9.923576227999945
              ],
              [
                -76.40448823599996,
                -9.925636727999915
              ],
              [
                -76.40273823499996,
                -9.927644477999934
              ],
              [
                -76.40061911099997,
                -9.927859352999974
              ],
              [
                -76.39758786099998,
                -9.925892727999951
              ],
              [
                -76.3918729859999,
                -9.928468727999928
              ],
              [
                -76.38960736099995,
                -9.931402351999907
              ],
              [
                -76.38682611099995,
                -9.933205102999977
              ],
              [
                -76.37812498499994,
                -9.940826227999935
              ],
              [
                -76.37628860999996,
                -9.94716897799998
              ]
            ]
          ]
        ],
        "type": "MultiPolygon"
      },
      "type": "Feature",
      "properties": {
        "PROVINCIA": "HUANUCO",
        "DISTRITO": "YARUMAYO",
        "name": "YARUMAYO",
        "ID": "090109",
        "DEPARTAMEN": "HUANUCO"
      }
    }
  ]
}
