{
  "type": "FeatureCollection",
  "features": [
    {
      "geometry": {
        "coordinates": [
          [
            [
              [
                -78.62615423799997,
                -5.306373097999938
              ],
              [
                -78.62432636199998,
                -5.306996348999974
              ],
              [
                -78.6154447379999,
                -5.306916972999886
              ],
              [
                -78.60965823799995,
                -5.307505848999938
              ],
              [
                -78.60449223799998,
                -5.309898473999965
              ],
              [
                -78.58981148699996,
                -5.324943598999937
              ],
              [
                -78.59035673799997,
                -5.328061348999938
              ],
              [
                -78.59357798699995,
                -5.336828722999883
              ],
              [
                -78.59565448799998,
                -5.339377723999974
              ],
              [
                -78.61183986199995,
                -5.351515598999981
              ],
              [
                -78.61429861199991,
                -5.354077472999961
              ],
              [
                -78.62290611299989,
                -5.359611848999918
              ],
              [
                -78.62992886199999,
                -5.365054848999876
              ],
              [
                -78.63470698799995,
                -5.364994097999897
              ],
              [
                -78.63854686299993,
                -5.366300723999927
              ],
              [
                -78.64213861199994,
                -5.371349597999881
              ],
              [
                -78.64475386199996,
                -5.372371098999963
              ],
              [
                -78.64689448799999,
                -5.376824222999971
              ],
              [
                -78.64951761299994,
                -5.378667973999939
              ],
              [
                -78.65184961199998,
                -5.382499973999927
              ],
              [
                -78.65831448799992,
                -5.384595723999951
              ],
              [
                -78.66256636299994,
                -5.389726598999914
              ],
              [
                -78.66142386199988,
                -5.39314447299995
              ],
              [
                -78.66231036299996,
                -5.397097597999903
              ],
              [
                -78.66537698799993,
                -5.398611348999907
              ],
              [
                -78.66864248799988,
                -5.397865222999883
              ],
              [
                -78.67459373799994,
                -5.402648472999886
              ],
              [
                -78.67431448699995,
                -5.405109473999971
              ],
              [
                -78.67736523699995,
                -5.408740222999882
              ],
              [
                -78.68301948799996,
                -5.408201223999981
              ],
              [
                -78.68859373699996,
                -5.409195348999958
              ],
              [
                -78.69234773799997,
                -5.408910098999911
              ],
              [
                -78.69495511199989,
                -5.407478472999969
              ],
              [
                -78.69767573699994,
                -5.407437472999845
              ],
              [
                -78.70004098799996,
                -5.405398473999981
              ],
              [
                -78.70172886299997,
                -5.405322223999974
              ],
              [
                -78.70180111299993,
                -5.403447098999891
              ],
              [
                -78.70938086299992,
                -5.398767598999939
              ],
              [
                -78.71187036199996,
                -5.398029473999884
              ],
              [
                -78.71727823799995,
                -5.397900472999879
              ],
              [
                -78.72006248799994,
                -5.39570297399996
              ],
              [
                -78.72214461299995,
                -5.390484348999905
              ],
              [
                -78.72488998799992,
                -5.388554097999929
              ],
              [
                -78.7267062379999,
                -5.390288722999969
              ],
              [
                -78.72637973799993,
                -5.394472098999927
              ],
              [
                -78.72735923799996,
                -5.395512847999953
              ],
              [
                -78.73037698799999,
                -5.394939473999955
              ],
              [
                -78.73426086299997,
                -5.392828098999871
              ],
              [
                -78.74156261299999,
                -5.393798722999975
              ],
              [
                -78.74568473799991,
                -5.393145598999922
              ],
              [
                -78.7490519879999,
                -5.39188047399989
              ],
              [
                -78.75027636299995,
                -5.38871734799983
              ],
              [
                -78.7456236129999,
                -5.38330947299994
              ],
              [
                -78.74605211299996,
                -5.382064597999943
              ],
              [
                -78.75072536299996,
                -5.379187223999907
              ],
              [
                -78.75583598799989,
                -5.377626973999952
              ],
              [
                -78.76078123799988,
                -5.374140597999883
              ],
              [
                -78.76790886299995,
                -5.370208347999949
              ],
              [
                -78.77073423799987,
                -5.370263222999881
              ],
              [
                -78.77372423799989,
                -5.37018097299989
              ],
              [
                -78.77877348699997,
                -5.368911473999958
              ],
              [
                -78.78103186299995,
                -5.36332884899997
              ],
              [
                -78.78326648799992,
                -5.361019348999946
              ],
              [
                -78.78393773799996,
                -5.358398598999884
              ],
              [
                -78.78736598799992,
                -5.354562098999907
              ],
              [
                -78.78810161299998,
                -5.348328098999957
              ],
              [
                -78.78912936299997,
                -5.343754472999876
              ],
              [
                -78.79094148799999,
                -5.340391473999887
              ],
              [
                -78.79294948799998,
                -5.339036348999969
              ],
              [
                -78.79459836299998,
                -5.335101848999955
              ],
              [
                -78.79299848799997,
                -5.327265598999929
              ],
              [
                -78.79753898799993,
                -5.320893098999875
              ],
              [
                -78.79813673799998,
                -5.315951973999972
              ],
              [
                -78.79729211299991,
                -5.313894847999961
              ],
              [
                -78.79787986199989,
                -5.311495097999966
              ],
              [
                -78.80006748799997,
                -5.310629722999977
              ],
              [
                -78.80498148799995,
                -5.306140222999943
              ],
              [
                -78.81089136299988,
                -5.305111723999914
              ],
              [
                -78.81201786299994,
                -5.303675097999928
              ],
              [
                -78.81267086299988,
                -5.298891598999887
              ],
              [
                -78.80931073799997,
                -5.293336723999971
              ],
              [
                -78.80689723799992,
                -5.291142473999969
              ],
              [
                -78.80652098799987,
                -5.289000598999962
              ],
              [
                -78.81015823799999,
                -5.286242222999817
              ],
              [
                -78.80823461299997,
                -5.280307473999926
              ],
              [
                -78.80921673799998,
                -5.274916097999892
              ],
              [
                -78.81137948799994,
                -5.268490347999887
              ],
              [
                -78.81430511299999,
                -5.266202223999926
              ],
              [
                -78.81523498799993,
                -5.261939223999889
              ],
              [
                -78.81270648799989,
                -5.258303223999974
              ],
              [
                -78.81537111299991,
                -5.256099597999878
              ],
              [
                -78.81542273799994,
                -5.253215348999902
              ],
              [
                -78.81680123799993,
                -5.250738723999973
              ],
              [
                -78.81981511299989,
                -5.247608098999933
              ],
              [
                -78.81836661199998,
                -5.24471097299994
              ],
              [
                -78.82028236299993,
                -5.240575597999907
              ],
              [
                -78.8194413629999,
                -5.238963473999945
              ],
              [
                -78.8208197379999,
                -5.234874848999937
              ],
              [
                -78.8230159879999,
                -5.232258098999978
              ],
              [
                -78.82345986299993,
                -5.23029559899993
              ],
              [
                -78.82201136299989,
                -5.227655472999913
              ],
              [
                -78.82247861299993,
                -5.225412473999938
              ],
              [
                -78.8203291129999,
                -5.222024848999979
              ],
              [
                -78.82095998799997,
                -5.215903472999912
              ],
              [
                -78.81920773799993,
                -5.212398973999939
              ],
              [
                -78.81960486299994,
                -5.206838348999952
              ],
              [
                -78.82063286299996,
                -5.203216972999883
              ],
              [
                -78.81974498799997,
                -5.198147097999879
              ],
              [
                -78.81586661299997,
                -5.19553034899991
              ],
              [
                -78.8161469879999,
                -5.192072598999971
              ],
              [
                -78.8144648629999,
                -5.187796972999877
              ],
              [
                -78.80813323799987,
                -5.183918598999981
              ],
              [
                -78.80371761299989,
                -5.175274097999818
              ],
              [
                -78.80605386299993,
                -5.172774097999934
              ],
              [
                -78.80607723799994,
                -5.169783598999913
              ],
              [
                -78.80299323799994,
                -5.16719022299992
              ],
              [
                -78.8010307379999,
                -5.162447348999876
              ],
              [
                -78.8036241129999,
                -5.159596972999964
              ],
              [
                -78.79860086299993,
                -5.148896473999912
              ],
              [
                -78.7994419879999,
                -5.145648847999894
              ],
              [
                -78.8024326129999,
                -5.141256472999885
              ],
              [
                -78.80082048799994,
                -5.138429472999974
              ],
              [
                -78.80122348799995,
                -5.130448597999873
              ],
              [
                -78.80220461299996,
                -5.127394223999943
              ],
              [
                -78.80149836299995,
                -5.125275722999959
              ],
              [
                -78.80108836299996,
                -5.119443848999879
              ],
              [
                -78.80187423799998,
                -5.115081347999819
              ],
              [
                -78.80386761299997,
                -5.113350098999945
              ],
              [
                -78.80223873799991,
                -5.108771223999952
              ],
              [
                -78.80318411299999,
                -5.10568447299994
              ],
              [
                -78.80418648799997,
                -5.099146472999962
              ],
              [
                -78.80227286299998,
                -5.093428597999889
              ],
              [
                -78.80182873799993,
                -5.089362222999966
              ],
              [
                -78.80008598799998,
                -5.084407472999885
              ],
              [
                -78.79999486299982,
                -5.082288847999962
              ],
              [
                -78.80232986299995,
                -5.078302347999966
              ],
              [
                -78.80022273799995,
                -5.073450098999956
              ],
              [
                -78.80289936299988,
                -5.069679847999907
              ],
              [
                -78.80515461299996,
                -5.068415598999934
              ],
              [
                -78.80571273799995,
                -5.065864098999953
              ],
              [
                -78.8076947379999,
                -5.062936848999868
              ],
              [
                -78.80630511299995,
                -5.057982098999958
              ],
              [
                -78.803537238,
                -5.05536234799996
              ],
              [
                -78.80239823799997,
                -5.052526222999916
              ],
              [
                -78.79805848799992,
                -5.049746972999912
              ],
              [
                -78.7967144879999,
                -5.04644384799991
              ],
              [
                -78.79287598799993,
                -5.045885722999913
              ],
              [
                -78.78891211299998,
                -5.04184209899995
              ],
              [
                -78.78902611299998,
                -5.03784409799988
              ],
              [
                -78.78600761199988,
                -5.033549972999936
              ],
              [
                -78.78625823799996,
                -5.029415347999873
              ],
              [
                -78.7828411129999,
                -5.026761473999954
              ],
              [
                -78.78166798799992,
                -5.023697472999913
              ],
              [
                -78.78476611299993,
                -5.019904472999883
              ],
              [
                -78.78497111299993,
                -5.015553473999944
              ],
              [
                -78.78631523799993,
                -5.011054348999835
              ],
              [
                -78.78370686299996,
                -5.009311597999954
              ],
              [
                -78.78167023799995,
                -5.010014347999913
              ],
              [
                -78.78045836299992,
                -5.008228347999932
              ],
              [
                -78.77740573699998,
                -5.009248972999956
              ],
              [
                -78.77461736299989,
                -5.008310347999895
              ],
              [
                -78.7758293629999,
                -5.004865973999927
              ],
              [
                -78.77350573799993,
                -5.001521848999971
              ],
              [
                -78.77070823799994,
                -4.999799597999868
              ],
              [
                -78.7701979879999,
                -4.995525972999928
              ],
              [
                -78.7680931129999,
                -4.994149972999935
              ],
              [
                -78.76459398799994,
                -4.994678597999894
              ],
              [
                -78.76155961299997,
                -4.992209097999933
              ],
              [
                -78.75663898799996,
                -4.990368472999876
              ],
              [
                -78.75452498799996,
                -4.986760097999934
              ],
              [
                -78.75042448799996,
                -4.986103972999899
              ],
              [
                -78.7497593629999,
                -4.980390597999872
              ],
              [
                -78.74761798799983,
                -4.977173972999935
              ],
              [
                -78.7477499879999,
                -4.97106797299989
              ],
              [
                -78.74451061299993,
                -4.968188472999941
              ],
              [
                -78.74277098799996,
                -4.962939597999878
              ],
              [
                -78.73971161199995,
                -4.962009722999937
              ],
              [
                -78.73405998699997,
                -4.96330997299998
              ],
              [
                -78.72990361299998,
                -4.962819598999886
              ],
              [
                -78.72822398699992,
                -4.96158984799996
              ],
              [
                -78.72873386299995,
                -4.957630722999909
              ],
              [
                -78.72579448799996,
                -4.94992222299993
              ],
              [
                -78.72294498799994,
                -4.948722472999918
              ],
              [
                -78.7190458629999,
                -4.944223348999913
              ],
              [
                -78.72012561299988,
                -4.939604347999932
              ],
              [
                -78.71601648799998,
                -4.933695597999872
              ],
              [
                -78.71310698699995,
                -4.933575597999891
              ],
              [
                -78.714126863,
                -4.929196473999866
              ],
              [
                -78.71049761299997,
                -4.928236722999941
              ],
              [
                -78.7081879879999,
                -4.930216222999945
              ],
              [
                -78.70740823799997,
                -4.927276847999906
              ],
              [
                -78.70335898799993,
                -4.923167722999949
              ],
              [
                -78.69910323699997,
                -4.921707972999968
              ],
              [
                -78.69708886299998,
                -4.918411722999963
              ],
              [
                -78.69702773799997,
                -4.915542597999888
              ],
              [
                -78.69428086299996,
                -4.91395547299993
              ],
              [
                -78.69232748799999,
                -4.911086473999944
              ],
              [
                -78.69006886299996,
                -4.910720222999942
              ],
              [
                -78.68921423799998,
                -4.908583723999925
              ],
              [
                -78.68988573799993,
                -4.906325097999911
              ],
              [
                -78.68811548799994,
                -4.904921097999932
              ],
              [
                -78.68481911299995,
                -4.89967134799997
              ],
              [
                -78.68201111299993,
                -4.897351722999872
              ],
              [
                -78.68160948799994,
                -4.891414847999897
              ],
              [
                -78.68263573799993,
                -4.887720222999917
              ],
              [
                -78.68181473799996,
                -4.885051847999932
              ],
              [
                -78.6829949879999,
                -4.879304722999962
              ],
              [
                -78.68201998799998,
                -4.874942972999918
              ],
              [
                -78.68561198799989,
                -4.871864097999946
              ],
              [
                -78.68602248799994,
                -4.869606223999881
              ],
              [
                -78.68473973799996,
                -4.86775884799988
              ],
              [
                -78.68312998799996,
                -4.859729972999958
              ],
              [
                -78.6858999879999,
                -4.854549972999962
              ],
              [
                -78.68356198799995,
                -4.851757847999977
              ],
              [
                -78.68103223699995,
                -4.846374972999911
              ],
              [
                -78.68067486299998,
                -4.841132097999889
              ],
              [
                -78.67886036299996,
                -4.834098598999958
              ],
              [
                -78.67905898699996,
                -4.830166472999963
              ],
              [
                -78.67582998799992,
                -4.827089972999886
              ],
              [
                -78.67355998799997,
                -4.821779972999934
              ],
              [
                -78.67449998799992,
                -4.816129972999875
              ],
              [
                -78.67601998799995,
                -4.814579973999969
              ],
              [
                -78.67527998799989,
                -4.810539972999948
              ],
              [
                -78.67204773699996,
                -4.809391472999948
              ],
              [
                -78.6720746129999,
                -4.807696847999978
              ],
              [
                -78.67516798799994,
                -4.805652597999938
              ],
              [
                -78.67562523799995,
                -4.803097222999952
              ],
              [
                -78.674130113,
                -4.799342347999868
              ],
              [
                -78.6713158629999,
                -4.795824472999868
              ],
              [
                -78.67395423799996,
                -4.793493847999969
              ],
              [
                -78.6738662379999,
                -4.79076747299996
              ],
              [
                -78.67028998699993,
                -4.78573997299992
              ],
              [
                -78.67241523799993,
                -4.781533097999898
              ],
              [
                -78.67411998799992,
                -4.78099997299995
              ],
              [
                -78.67558123799995,
                -4.777839347999929
              ],
              [
                -78.67931998799997,
                -4.777139972999976
              ],
              [
                -78.6787913629999,
                -4.774057722999942
              ],
              [
                -78.67470173799995,
                -4.77458534799996
              ],
              [
                -78.66964486299992,
                -4.771111472999962
              ],
              [
                -78.66810573799995,
                -4.767945347999898
              ],
              [
                -78.66463186299995,
                -4.766054597999869
              ],
              [
                -78.66608298799991,
                -4.761833097999897
              ],
              [
                -78.66960086299986,
                -4.758183347999932
              ],
              [
                -78.66907323699996,
                -4.751499347999868
              ],
              [
                -78.66689998699985,
                -4.747959972999922
              ],
              [
                -78.66850161299993,
                -4.74424384799994
              ],
              [
                -78.6673699879999,
                -4.742329972999869
              ],
              [
                -78.66896036299988,
                -4.740999472999931
              ],
              [
                -78.67158173799999,
                -4.742393097999923
              ],
              [
                -78.67455998699984,
                -4.741609972999868
              ],
              [
                -78.67851648699997,
                -4.737017722999894
              ],
              [
                -78.68196736299996,
                -4.736918222999918
              ],
              [
                -78.68784998799998,
                -4.733089972999892
              ],
              [
                -78.69018998799999,
                -4.73022997299995
              ],
              [
                -78.68890223799991,
                -4.728423847999977
              ],
              [
                -78.69076036299998,
                -4.725769347999915
              ],
              [
                -78.69331998799993,
                -4.724339972999871
              ],
              [
                -78.69447661299989,
                -4.722384972999919
              ],
              [
                -78.69497436199998,
                -4.717772722999882
              ],
              [
                -78.69417798799998,
                -4.714587347999952
              ],
              [
                -78.69882336299992,
                -4.714819597999963
              ],
              [
                -78.70227423799992,
                -4.714056472999971
              ],
              [
                -78.70323648799996,
                -4.710638847999974
              ],
              [
                -78.7056254879999,
                -4.709178847999965
              ],
              [
                -78.70161061299996,
                -4.706258847999948
              ],
              [
                -78.69998473799984,
                -4.704301222999902
              ],
              [
                -78.69918836299996,
                -4.70131497299991
              ],
              [
                -78.70240698799995,
                -4.699556347999874
              ],
              [
                -78.70512773799993,
                -4.69932409799992
              ],
              [
                -78.70477998799993,
                -4.695909972999971
              ],
              [
                -78.70701911199995,
                -4.694612347999907
              ],
              [
                -78.70681998699996,
                -4.689635222999868
              ],
              [
                -78.70547998799992,
                -4.686079972999948
              ],
              [
                -78.70901998799991,
                -4.685379972999954
              ],
              [
                -78.70836998799996,
                -4.678889972999968
              ],
              [
                -78.7071799879999,
                -4.677299972999947
              ],
              [
                -78.70817998799998,
                -4.674529972999892
              ],
              [
                -78.7104399879999,
                -4.672679972999958
              ],
              [
                -78.71236998799998,
                -4.672959972999934
              ],
              [
                -78.71771998799989,
                -4.669529972999896
              ],
              [
                -78.71962998799995,
                -4.663419972999918
              ],
              [
                -78.72240998799998,
                -4.662819972999898
              ],
              [
                -78.7279843629999,
                -4.659042972999941
              ],
              [
                -78.73306048799998,
                -4.658771472999945
              ],
              [
                -78.73891598799997,
                -4.659773472999916
              ],
              [
                -78.74003123799997,
                -4.660777347999954
              ],
              [
                -78.74600198799999,
                -4.660249972999907
              ],
              [
                -78.75564061299997,
                -4.652285097999936
              ],
              [
                -78.75849023699993,
                -4.651283222999893
              ],
              [
                -78.76044723799993,
                -4.649415972999918
              ],
              [
                -78.76130861299998,
                -4.646406222999929
              ],
              [
                -78.76721098799993,
                -4.640571597999894
              ],
              [
                -78.76867636299994,
                -4.639709097999969
              ],
              [
                -78.76602848799996,
                -4.6337925979999
              ],
              [
                -78.76356023699987,
                -4.630086347999963
              ],
              [
                -78.75920748799996,
                -4.628884097999958
              ],
              [
                -78.75361061299998,
                -4.631160972999965
              ],
              [
                -78.74792223799994,
                -4.632185097999866
              ],
              [
                -78.74385423799998,
                -4.631298347999859
              ],
              [
                -78.73726898699994,
                -4.628150347999963
              ],
              [
                -78.73530961299997,
                -4.625869597999895
              ],
              [
                -78.73049523799989,
                -4.626516097999968
              ],
              [
                -78.7276763619999,
                -4.625865597999962
              ],
              [
                -78.72512261299988,
                -4.627672472999961
              ],
              [
                -78.72076198799988,
                -4.627190722999899
              ],
              [
                -78.7173648619999,
                -4.628587972999867
              ],
              [
                -78.71418486299996,
                -4.628202597999973
              ],
              [
                -78.70833398799994,
                -4.625700472999938
              ],
              [
                -78.7059551129999,
                -4.623873097999933
              ],
              [
                -78.70164898699994,
                -4.626256847999969
              ],
              [
                -78.69817386299991,
                -4.629650347999927
              ],
              [
                -78.69538223799998,
                -4.636962347999884
              ],
              [
                -78.69224898799996,
                -4.639965222999933
              ],
              [
                -78.68676561299998,
                -4.64329434799987
              ],
              [
                -78.68176361299999,
                -4.642048847999945
              ],
              [
                -78.67995423799994,
                -4.643322597999884
              ],
              [
                -78.67840998799988,
                -4.647341597999969
              ],
              [
                -78.67205073799994,
                -4.650988222999899
              ],
              [
                -78.66770448799997,
                -4.654522097999916
              ],
              [
                -78.66378773799983,
                -4.656023472999948
              ],
              [
                -78.6568682379999,
                -4.648647097999913
              ],
              [
                -78.65172261299995,
                -4.646183597999936
              ],
              [
                -78.64968773699997,
                -4.646623472999977
              ],
              [
                -78.64533973799996,
                -4.651589847999958
              ],
              [
                -78.63878636299995,
                -4.655305472999885
              ],
              [
                -78.63793773799989,
                -4.657981847999906
              ],
              [
                -78.64146273699998,
                -4.665358222999885
              ],
              [
                -78.6423766129999,
                -4.668295722999915
              ],
              [
                -78.64185423799995,
                -4.677042972999971
              ],
              [
                -78.64363161299991,
                -4.682156972999906
              ],
              [
                -78.63981298699997,
                -4.68481197299991
              ],
              [
                -78.63578361299994,
                -4.685378972999956
              ],
              [
                -78.6339179869999,
                -4.689796847999901
              ],
              [
                -78.63362111299995,
                -4.692857597999932
              ],
              [
                -78.63171023799993,
                -4.698434597999892
              ],
              [
                -78.63275473699997,
                -4.700941222999973
              ],
              [
                -78.63594023699989,
                -4.701150097999971
              ],
              [
                -78.63849911299997,
                -4.702768972999934
              ],
              [
                -78.63999998799989,
                -4.705228472999977
              ],
              [
                -78.6413191129999,
                -4.710706847999916
              ],
              [
                -78.64372136299988,
                -4.717182347999881
              ],
              [
                -78.64361686299992,
                -4.722926847999929
              ],
              [
                -78.64424361299984,
                -4.726060097999891
              ],
              [
                -78.64502686299988,
                -4.734833472999981
              ],
              [
                -78.64466136199997,
                -4.736452347999943
              ],
              [
                -78.64039648799996,
                -4.739851597999973
              ],
              [
                -78.63816011199998,
                -4.740419972999916
              ],
              [
                -78.63285911299988,
                -4.739220222999961
              ],
              [
                -78.62826861199994,
                -4.739678972999968
              ],
              [
                -78.63131811199992,
                -4.74753159799991
              ],
              [
                -78.63113186299995,
                -4.757312597999885
              ],
              [
                -78.62917561299992,
                -4.758709847999967
              ],
              [
                -78.62805786299998,
                -4.762342847999889
              ],
              [
                -78.62377286299994,
                -4.767000472999882
              ],
              [
                -78.62079198799995,
                -4.768537472999981
              ],
              [
                -78.62535636299992,
                -4.775710097999877
              ],
              [
                -78.6288029879999,
                -4.782230722999827
              ],
              [
                -78.63355373799999,
                -4.786981472999969
              ],
              [
                -78.63718673799991,
                -4.791639097999962
              ],
              [
                -78.64128536299995,
                -4.799836472999914
              ],
              [
                -78.64212373799995,
                -4.804214597999874
              ],
              [
                -78.64054011199994,
                -4.807661222999968
              ],
              [
                -78.64128536299995,
                -4.811666847999902
              ],
              [
                -78.6376524879999,
                -4.815858597999977
              ],
              [
                -78.63606886299988,
                -4.823403972999927
              ],
              [
                -78.63588261299992,
                -4.830297222999945
              ],
              [
                -78.63187698799999,
                -4.836445222999885
              ],
              [
                -78.63532361299997,
                -4.841568597999981
              ],
              [
                -78.63625523799993,
                -4.849113847999945
              ],
              [
                -78.63737298799998,
                -4.851163222999958
              ],
              [
                -78.64305523799999,
                -4.856100222999885
              ],
              [
                -78.64538411299998,
                -4.870957972999975
              ],
              [
                -78.64594298799994,
                -4.877292347999969
              ],
              [
                -78.64575673799999,
                -4.881763597999907
              ],
              [
                -78.64454573799998,
                -4.883906097999898
              ],
              [
                -78.64482511299997,
                -4.88772534799989
              ],
              [
                -78.64100598699991,
                -4.889867847999881
              ],
              [
                -78.64072648799998,
                -4.891824097999915
              ],
              [
                -78.64258948799994,
                -4.895550097999944
              ],
              [
                -78.64398673799997,
                -4.90356122299994
              ],
              [
                -78.64510461299994,
                -4.90747359799991
              ],
              [
                -78.64827173799995,
                -4.912690097999871
              ],
              [
                -78.65004161299993,
                -4.919024472999979
              ],
              [
                -78.6535489879999,
                -4.921217597999942
              ],
              [
                -78.65791348799996,
                -4.930509597999958
              ],
              [
                -78.65960298799996,
                -4.936281848999897
              ],
              [
                -78.66143323799997,
                -4.938534473999937
              ],
              [
                -78.66227786299993,
                -4.941350222999972
              ],
              [
                -78.66298186299991,
                -4.949093597999934
              ],
              [
                -78.66481211299993,
                -4.95176859799983
              ],
              [
                -78.66931736199996,
                -4.954443597999898
              ],
              [
                -78.67255548799989,
                -4.957822472999965
              ],
              [
                -78.67311861299993,
                -4.961764597999831
              ],
              [
                -78.67551198799998,
                -4.963313222999886
              ],
              [
                -78.6783277379999,
                -4.968381597999951
              ],
              [
                -78.67790536299998,
                -4.969507972999963
              ],
              [
                -78.67396336299993,
                -4.969930222999892
              ],
              [
                -78.67255548799989,
                -4.974294722999957
              ],
              [
                -78.66776861199997,
                -4.97865909799998
              ],
              [
                -78.66495286299994,
                -4.979503847999979
              ],
              [
                -78.66382661299991,
                -4.977814473999956
              ],
              [
                -78.66016611199984,
                -4.977110473999971
              ],
              [
                -78.65354898699997,
                -4.977251222999826
              ],
              [
                -78.65143436299991,
                -4.97856909799998
              ],
              [
                -78.65153936299998,
                -4.982993722999936
              ],
              [
                -78.65284486299998,
                -4.988215347999926
              ],
              [
                -78.64979886199995,
                -4.99452472299987
              ],
              [
                -78.64849348799993,
                -4.999202472999912
              ],
              [
                -78.64305423799993,
                -5.00605584799996
              ],
              [
                -78.64327186299988,
                -5.00834034899998
              ],
              [
                -78.64218398799994,
                -5.013453097999957
              ],
              [
                -78.64240161299995,
                -5.01823959799998
              ],
              [
                -78.64348948699995,
                -5.02193822299995
              ],
              [
                -78.64118011299996,
                -5.026570723999953
              ],
              [
                -78.64046548799996,
                -5.032841972999904
              ],
              [
                -78.64178523699991,
                -5.036369097999966
              ],
              [
                -78.64527998799997,
                -5.037551847999964
              ],
              [
                -78.64745698799999,
                -5.03933122299992
              ],
              [
                -78.64900611299998,
                -5.04360147299991
              ],
              [
                -78.64867111299998,
                -5.046134347999953
              ],
              [
                -78.65059698799996,
                -5.048939347999976
              ],
              [
                -78.65053411299994,
                -5.052330472999813
              ],
              [
                -78.65145111299995,
                -5.055304723999939
              ],
              [
                -78.65543236299993,
                -5.061122222999927
              ],
              [
                -78.65771411299988,
                -5.067422972999964
              ],
              [
                -78.66160761299983,
                -5.067590347999953
              ],
              [
                -78.66332223799992,
                -5.068617222999933
              ],
              [
                -78.66751173799992,
                -5.067712847999871
              ],
              [
                -78.66825148799995,
                -5.068981723999968
              ],
              [
                -78.67299611299995,
                -5.071523472999957
              ],
              [
                -78.68019923799994,
                -5.072124972999973
              ],
              [
                -78.68012736299994,
                -5.076101097999981
              ],
              [
                -78.68156973799995,
                -5.07895509899987
              ],
              [
                -78.68187648799989,
                -5.082238598999936
              ],
              [
                -78.68341098799993,
                -5.087025722999897
              ],
              [
                -78.68555911299995,
                -5.088744222999821
              ],
              [
                -78.69028486299999,
                -5.089480722999895
              ],
              [
                -78.69338423799996,
                -5.09113784799996
              ],
              [
                -78.6955017379999,
                -5.093470098999944
              ],
              [
                -78.69611548799998,
                -5.099147222999932
              ],
              [
                -78.69792598799995,
                -5.102307847999953
              ],
              [
                -78.70062423799999,
                -5.104082723999966
              ],
              [
                -78.70046698699997,
                -5.115536723999924
              ],
              [
                -78.70393886199997,
                -5.123712473999944
              ],
              [
                -78.70428361299997,
                -5.125975098999959
              ],
              [
                -78.70387298799994,
                -5.135232472999917
              ],
              [
                -78.70583161299999,
                -5.149594598999954
              ],
              [
                -78.70823823699999,
                -5.153666973999918
              ],
              [
                -78.71048298699992,
                -5.154823722999879
              ],
              [
                -78.7108949879999,
                -5.156772222999905
              ],
              [
                -78.70968736299989,
                -5.165259972999934
              ],
              [
                -78.70954948799994,
                -5.173885598999959
              ],
              [
                -78.70911323799999,
                -5.179628847999879
              ],
              [
                -78.70596098799996,
                -5.180096098999911
              ],
              [
                -78.70513298799995,
                -5.183270348999827
              ],
              [
                -78.70613348799992,
                -5.185754598999949
              ],
              [
                -78.70513298799995,
                -5.19306909799991
              ],
              [
                -78.70233823799998,
                -5.198486098999979
              ],
              [
                -78.70298823799999,
                -5.207726598999898
              ],
              [
                -78.69968148799995,
                -5.212252722999949
              ],
              [
                -78.69731048799997,
                -5.223275348999948
              ],
              [
                -78.69355273799994,
                -5.232746098999939
              ],
              [
                -78.69016986299988,
                -5.233876973999884
              ],
              [
                -78.68529386199998,
                -5.237646722999955
              ],
              [
                -78.68408623699997,
                -5.239820473999941
              ],
              [
                -78.68542973799993,
                -5.242476598999929
              ],
              [
                -78.68843161299998,
                -5.254953098999977
              ],
              [
                -78.68424411299998,
                -5.267490222999925
              ],
              [
                -78.68064873799995,
                -5.268902847999925
              ],
              [
                -78.67713323799995,
                -5.2691324729999
              ],
              [
                -78.67400636199994,
                -5.267313098999978
              ],
              [
                -78.67146261199997,
                -5.266835972999957
              ],
              [
                -78.66459961199996,
                -5.268505847999904
              ],
              [
                -78.65442586299997,
                -5.274300723999943
              ],
              [
                -78.65159573799991,
                -5.280150347999893
              ],
              [
                -78.64799411299998,
                -5.293347598999901
              ],
              [
                -78.64545511299997,
                -5.298509722999825
              ],
              [
                -78.6415704879999,
                -5.303751972999976
              ],
              [
                -78.63844186299997,
                -5.305330973999958
              ],
              [
                -78.63419336299995,
                -5.3059335989999
              ],
              [
                -78.62615423799997,
                -5.306373097999938
              ]
            ]
          ]
        ],
        "type": "MultiPolygon"
      },
      "type": "Feature",
      "properties": {
        "PROVINCIA": "SAN IGNACIO",
        "DISTRITO": "HUARANGO",
        "name": "HUARANGO",
        "ID": "061103",
        "DEPARTAMEN": "CAJAMARCA"
      }
    }
  ]
}
