{
  "type": "FeatureCollection",
  "features": [
    {
      "geometry": {
        "coordinates": [
          [
            [
              [
                -78.76867636299994,
                -4.639709097999969
              ],
              [
                -78.76721098799993,
                -4.640571597999894
              ],
              [
                -78.76130861299998,
                -4.646406222999929
              ],
              [
                -78.76044723799993,
                -4.649415972999918
              ],
              [
                -78.75849023699993,
                -4.651283222999893
              ],
              [
                -78.75564061299997,
                -4.652285097999936
              ],
              [
                -78.74600198799999,
                -4.660249972999907
              ],
              [
                -78.74003123799997,
                -4.660777347999954
              ],
              [
                -78.73891598799997,
                -4.659773472999916
              ],
              [
                -78.73306048799998,
                -4.658771472999945
              ],
              [
                -78.7279843629999,
                -4.659042972999941
              ],
              [
                -78.72240998799998,
                -4.662819972999898
              ],
              [
                -78.71962998799995,
                -4.663419972999918
              ],
              [
                -78.71771998799989,
                -4.669529972999896
              ],
              [
                -78.71236998799998,
                -4.672959972999934
              ],
              [
                -78.7104399879999,
                -4.672679972999958
              ],
              [
                -78.70817998799998,
                -4.674529972999892
              ],
              [
                -78.7071799879999,
                -4.677299972999947
              ],
              [
                -78.70836998799996,
                -4.678889972999968
              ],
              [
                -78.70901998799991,
                -4.685379972999954
              ],
              [
                -78.70547998799992,
                -4.686079972999948
              ],
              [
                -78.70681998699996,
                -4.689635222999868
              ],
              [
                -78.70701911199995,
                -4.694612347999907
              ],
              [
                -78.70477998799993,
                -4.695909972999971
              ],
              [
                -78.70512773799993,
                -4.69932409799992
              ],
              [
                -78.70240698799995,
                -4.699556347999874
              ],
              [
                -78.69918836299996,
                -4.70131497299991
              ],
              [
                -78.69998473799984,
                -4.704301222999902
              ],
              [
                -78.70161061299996,
                -4.706258847999948
              ],
              [
                -78.7056254879999,
                -4.709178847999965
              ],
              [
                -78.70323648799996,
                -4.710638847999974
              ],
              [
                -78.70227423799992,
                -4.714056472999971
              ],
              [
                -78.69882336299992,
                -4.714819597999963
              ],
              [
                -78.69417798799998,
                -4.714587347999952
              ],
              [
                -78.69497436199998,
                -4.717772722999882
              ],
              [
                -78.69447661299989,
                -4.722384972999919
              ],
              [
                -78.69331998799993,
                -4.724339972999871
              ],
              [
                -78.69076036299998,
                -4.725769347999915
              ],
              [
                -78.68890223799991,
                -4.728423847999977
              ],
              [
                -78.69018998799999,
                -4.73022997299995
              ],
              [
                -78.68784998799998,
                -4.733089972999892
              ],
              [
                -78.68196736299996,
                -4.736918222999918
              ],
              [
                -78.67851648699997,
                -4.737017722999894
              ],
              [
                -78.67455998699984,
                -4.741609972999868
              ],
              [
                -78.67158173799999,
                -4.742393097999923
              ],
              [
                -78.66896036299988,
                -4.740999472999931
              ],
              [
                -78.6673699879999,
                -4.742329972999869
              ],
              [
                -78.66850161299993,
                -4.74424384799994
              ],
              [
                -78.66689998699985,
                -4.747959972999922
              ],
              [
                -78.66907323699996,
                -4.751499347999868
              ],
              [
                -78.66960086299986,
                -4.758183347999932
              ],
              [
                -78.66608298799991,
                -4.761833097999897
              ],
              [
                -78.66463186299995,
                -4.766054597999869
              ],
              [
                -78.66810573799995,
                -4.767945347999898
              ],
              [
                -78.66964486299992,
                -4.771111472999962
              ],
              [
                -78.67470173799995,
                -4.77458534799996
              ],
              [
                -78.6787913629999,
                -4.774057722999942
              ],
              [
                -78.67931998799997,
                -4.777139972999976
              ],
              [
                -78.67558123799995,
                -4.777839347999929
              ],
              [
                -78.67411998799992,
                -4.78099997299995
              ],
              [
                -78.67241523799993,
                -4.781533097999898
              ],
              [
                -78.67028998699993,
                -4.78573997299992
              ],
              [
                -78.6738662379999,
                -4.79076747299996
              ],
              [
                -78.67395423799996,
                -4.793493847999969
              ],
              [
                -78.6713158629999,
                -4.795824472999868
              ],
              [
                -78.674130113,
                -4.799342347999868
              ],
              [
                -78.67562523799995,
                -4.803097222999952
              ],
              [
                -78.67516798799994,
                -4.805652597999938
              ],
              [
                -78.6720746129999,
                -4.807696847999978
              ],
              [
                -78.67204773699996,
                -4.809391472999948
              ],
              [
                -78.67527998799989,
                -4.810539972999948
              ],
              [
                -78.67601998799995,
                -4.814579973999969
              ],
              [
                -78.67449998799992,
                -4.816129972999875
              ],
              [
                -78.67355998799997,
                -4.821779972999934
              ],
              [
                -78.67582998799992,
                -4.827089972999886
              ],
              [
                -78.67905898699996,
                -4.830166472999963
              ],
              [
                -78.67886036299996,
                -4.834098598999958
              ],
              [
                -78.68067486299998,
                -4.841132097999889
              ],
              [
                -78.68103223699995,
                -4.846374972999911
              ],
              [
                -78.68356198799995,
                -4.851757847999977
              ],
              [
                -78.6858999879999,
                -4.854549972999962
              ],
              [
                -78.68312998799996,
                -4.859729972999958
              ],
              [
                -78.68473973799996,
                -4.86775884799988
              ],
              [
                -78.68602248799994,
                -4.869606223999881
              ],
              [
                -78.68561198799989,
                -4.871864097999946
              ],
              [
                -78.68201998799998,
                -4.874942972999918
              ],
              [
                -78.6829949879999,
                -4.879304722999962
              ],
              [
                -78.68181473799996,
                -4.885051847999932
              ],
              [
                -78.68263573799993,
                -4.887720222999917
              ],
              [
                -78.68160948799994,
                -4.891414847999897
              ],
              [
                -78.68201111299993,
                -4.897351722999872
              ],
              [
                -78.68481911299995,
                -4.89967134799997
              ],
              [
                -78.68811548799994,
                -4.904921097999932
              ],
              [
                -78.68988573799993,
                -4.906325097999911
              ],
              [
                -78.68921423799998,
                -4.908583723999925
              ],
              [
                -78.69006886299996,
                -4.910720222999942
              ],
              [
                -78.69232748799999,
                -4.911086473999944
              ],
              [
                -78.69428086299996,
                -4.91395547299993
              ],
              [
                -78.69702773799997,
                -4.915542597999888
              ],
              [
                -78.69708886299998,
                -4.918411722999963
              ],
              [
                -78.69910323699997,
                -4.921707972999968
              ],
              [
                -78.70335898799993,
                -4.923167722999949
              ],
              [
                -78.70740823799997,
                -4.927276847999906
              ],
              [
                -78.7081879879999,
                -4.930216222999945
              ],
              [
                -78.71049761299997,
                -4.928236722999941
              ],
              [
                -78.714126863,
                -4.929196473999866
              ],
              [
                -78.71310698699995,
                -4.933575597999891
              ],
              [
                -78.71601648799998,
                -4.933695597999872
              ],
              [
                -78.72012561299988,
                -4.939604347999932
              ],
              [
                -78.7190458629999,
                -4.944223348999913
              ],
              [
                -78.72294498799994,
                -4.948722472999918
              ],
              [
                -78.72579448799996,
                -4.94992222299993
              ],
              [
                -78.72873386299995,
                -4.957630722999909
              ],
              [
                -78.72822398699992,
                -4.96158984799996
              ],
              [
                -78.72990361299998,
                -4.962819598999886
              ],
              [
                -78.73405998699997,
                -4.96330997299998
              ],
              [
                -78.73971161199995,
                -4.962009722999937
              ],
              [
                -78.74277098799996,
                -4.962939597999878
              ],
              [
                -78.74451061299993,
                -4.968188472999941
              ],
              [
                -78.7477499879999,
                -4.97106797299989
              ],
              [
                -78.74761798799983,
                -4.977173972999935
              ],
              [
                -78.7497593629999,
                -4.980390597999872
              ],
              [
                -78.75042448799996,
                -4.986103972999899
              ],
              [
                -78.75452498799996,
                -4.986760097999934
              ],
              [
                -78.75663898799996,
                -4.990368472999876
              ],
              [
                -78.76155961299997,
                -4.992209097999933
              ],
              [
                -78.76459398799994,
                -4.994678597999894
              ],
              [
                -78.7680931129999,
                -4.994149972999935
              ],
              [
                -78.7701979879999,
                -4.995525972999928
              ],
              [
                -78.77070823799994,
                -4.999799597999868
              ],
              [
                -78.77350573799993,
                -5.001521848999971
              ],
              [
                -78.7758293629999,
                -5.004865973999927
              ],
              [
                -78.77461736299989,
                -5.008310347999895
              ],
              [
                -78.77740573699998,
                -5.009248972999956
              ],
              [
                -78.78045836299992,
                -5.008228347999932
              ],
              [
                -78.78167023799995,
                -5.010014347999913
              ],
              [
                -78.78370686299996,
                -5.009311597999954
              ],
              [
                -78.78631523799993,
                -5.011054348999835
              ],
              [
                -78.78497111299993,
                -5.015553473999944
              ],
              [
                -78.78476611299993,
                -5.019904472999883
              ],
              [
                -78.78166798799992,
                -5.023697472999913
              ],
              [
                -78.7828411129999,
                -5.026761473999954
              ],
              [
                -78.78625823799996,
                -5.029415347999873
              ],
              [
                -78.78600761199988,
                -5.033549972999936
              ],
              [
                -78.78902611299998,
                -5.03784409799988
              ],
              [
                -78.78891211299998,
                -5.04184209899995
              ],
              [
                -78.79287598799993,
                -5.045885722999913
              ],
              [
                -78.7967144879999,
                -5.04644384799991
              ],
              [
                -78.79805848799992,
                -5.049746972999912
              ],
              [
                -78.80239823799997,
                -5.052526222999916
              ],
              [
                -78.803537238,
                -5.05536234799996
              ],
              [
                -78.80630511299995,
                -5.057982098999958
              ],
              [
                -78.8076947379999,
                -5.062936848999868
              ],
              [
                -78.80571273799995,
                -5.065864098999953
              ],
              [
                -78.80515461299996,
                -5.068415598999934
              ],
              [
                -78.80289936299988,
                -5.069679847999907
              ],
              [
                -78.80022273799995,
                -5.073450098999956
              ],
              [
                -78.80232986299995,
                -5.078302347999966
              ],
              [
                -78.79999486299982,
                -5.082288847999962
              ],
              [
                -78.80008598799998,
                -5.084407472999885
              ],
              [
                -78.80182873799993,
                -5.089362222999966
              ],
              [
                -78.80227286299998,
                -5.093428597999889
              ],
              [
                -78.80418648799997,
                -5.099146472999962
              ],
              [
                -78.80318411299999,
                -5.10568447299994
              ],
              [
                -78.80223873799991,
                -5.108771223999952
              ],
              [
                -78.80386761299997,
                -5.113350098999945
              ],
              [
                -78.80187423799998,
                -5.115081347999819
              ],
              [
                -78.80108836299996,
                -5.119443848999879
              ],
              [
                -78.80149836299995,
                -5.125275722999959
              ],
              [
                -78.80220461299996,
                -5.127394223999943
              ],
              [
                -78.80122348799995,
                -5.130448597999873
              ],
              [
                -78.80082048799994,
                -5.138429472999974
              ],
              [
                -78.8024326129999,
                -5.141256472999885
              ],
              [
                -78.7994419879999,
                -5.145648847999894
              ],
              [
                -78.79860086299993,
                -5.148896473999912
              ],
              [
                -78.8036241129999,
                -5.159596972999964
              ],
              [
                -78.8010307379999,
                -5.162447348999876
              ],
              [
                -78.80299323799994,
                -5.16719022299992
              ],
              [
                -78.80607723799994,
                -5.169783598999913
              ],
              [
                -78.80605386299993,
                -5.172774097999934
              ],
              [
                -78.80371761299989,
                -5.175274097999818
              ],
              [
                -78.80813323799987,
                -5.183918598999981
              ],
              [
                -78.8144648629999,
                -5.187796972999877
              ],
              [
                -78.8161469879999,
                -5.192072598999971
              ],
              [
                -78.81586661299997,
                -5.19553034899991
              ],
              [
                -78.81974498799997,
                -5.198147097999879
              ],
              [
                -78.82063286299996,
                -5.203216972999883
              ],
              [
                -78.81960486299994,
                -5.206838348999952
              ],
              [
                -78.81920773799993,
                -5.212398973999939
              ],
              [
                -78.82095998799997,
                -5.215903472999912
              ],
              [
                -78.8203291129999,
                -5.222024848999979
              ],
              [
                -78.82247861299993,
                -5.225412473999938
              ],
              [
                -78.82201136299989,
                -5.227655472999913
              ],
              [
                -78.82345986299993,
                -5.23029559899993
              ],
              [
                -78.8230159879999,
                -5.232258098999978
              ],
              [
                -78.8208197379999,
                -5.234874848999937
              ],
              [
                -78.8194413629999,
                -5.238963473999945
              ],
              [
                -78.82028236299993,
                -5.240575597999907
              ],
              [
                -78.81836661199998,
                -5.24471097299994
              ],
              [
                -78.81981511299989,
                -5.247608098999933
              ],
              [
                -78.81680123799993,
                -5.250738723999973
              ],
              [
                -78.81542273799994,
                -5.253215348999902
              ],
              [
                -78.81537111299991,
                -5.256099597999878
              ],
              [
                -78.82184136299998,
                -5.256248223999933
              ],
              [
                -78.82403586299989,
                -5.254122847999952
              ],
              [
                -78.82714298799993,
                -5.249930098999869
              ],
              [
                -78.8293947379999,
                -5.248947598999905
              ],
              [
                -78.83190173799994,
                -5.246176223999953
              ],
              [
                -78.83369198799994,
                -5.24578347299996
              ],
              [
                -78.83548223799994,
                -5.245621848999917
              ],
              [
                -78.83880886299994,
                -5.242815098999927
              ],
              [
                -78.84250498799992,
                -5.243184723999946
              ],
              [
                -78.84559236299992,
                -5.239025972999968
              ],
              [
                -78.84606248799986,
                -5.238599222999881
              ],
              [
                -78.8491696129999,
                -5.239846598999975
              ],
              [
                -78.85480611299988,
                -5.238795722999896
              ],
              [
                -78.8571508629999,
                -5.235711598999899
              ],
              [
                -78.8607661129999,
                -5.232777847999898
              ],
              [
                -78.86427748799991,
                -5.234406348999926
              ],
              [
                -78.86724586299994,
                -5.233389848999934
              ],
              [
                -78.87059548799988,
                -5.230721848999963
              ],
              [
                -78.87401436299996,
                -5.230664098999966
              ],
              [
                -78.87877311299997,
                -5.226586723999958
              ],
              [
                -78.8843404879999,
                -5.222890597999935
              ],
              [
                -78.88773623799995,
                -5.220476598999937
              ],
              [
                -78.88967673799993,
                -5.220060847999832
              ],
              [
                -78.89226398799997,
                -5.217404222999846
              ],
              [
                -78.89217161299996,
                -5.215082597999867
              ],
              [
                -78.89462023799996,
                -5.208348722999858
              ],
              [
                -78.89851273799997,
                -5.205391848999966
              ],
              [
                -78.90043011299997,
                -5.19818434799987
              ],
              [
                -78.89885923799994,
                -5.195331473999886
              ],
              [
                -78.89849786299999,
                -5.19246722399987
              ],
              [
                -78.90162973799994,
                -5.183423848999894
              ],
              [
                -78.901745238,
                -5.180617097999914
              ],
              [
                -78.90037073799994,
                -5.178341598999964
              ],
              [
                -78.90100598799995,
                -5.175442472999976
              ],
              [
                -78.90008198799995,
                -5.172797472999889
              ],
              [
                -78.90086748799996,
                -5.170163973999934
              ],
              [
                -78.90272698799998,
                -5.168639348999932
              ],
              [
                -78.91108948799996,
                -5.163822722999896
              ],
              [
                -78.91534011299996,
                -5.162794848999965
              ],
              [
                -78.91729211299992,
                -5.161062222999931
              ],
              [
                -78.91978698799994,
                -5.156280347999882
              ],
              [
                -78.91999486299989,
                -5.151648722999937
              ],
              [
                -78.92065323799994,
                -5.149280847999933
              ],
              [
                -78.92388736299989,
                -5.147201723999956
              ],
              [
                -78.92615123799999,
                -5.144533597999896
              ],
              [
                -78.92970873799999,
                -5.139578473999961
              ],
              [
                -78.93171848799994,
                -5.138250223999933
              ],
              [
                -78.93145286299989,
                -5.133791722999888
              ],
              [
                -78.93414411299989,
                -5.131874472999925
              ],
              [
                -78.93807123799996,
                -5.130707847999929
              ],
              [
                -78.94123598799996,
                -5.128282222999871
              ],
              [
                -78.94175573799998,
                -5.124736223999946
              ],
              [
                -78.93833686299996,
                -5.116443097999934
              ],
              [
                -78.93844086299998,
                -5.114271597999959
              ],
              [
                -78.94036973799996,
                -5.111256973999957
              ],
              [
                -78.94546348799997,
                -5.107757222999908
              ],
              [
                -78.94684948799988,
                -5.103876222999872
              ],
              [
                -78.9465607379999,
                -5.101947348999943
              ],
              [
                -78.94972536299991,
                -5.098771598999917
              ],
              [
                -78.95231361299994,
                -5.097141098999941
              ],
              [
                -78.9525991129999,
                -5.093405347999919
              ],
              [
                -78.95426473799989,
                -5.091239972999972
              ],
              [
                -78.96054661299996,
                -5.090787847999877
              ],
              [
                -78.95902048799991,
                -5.088800847999948
              ],
              [
                -78.95432123799992,
                -5.088472097999954
              ],
              [
                -78.95259211299998,
                -5.085979223999914
              ],
              [
                -78.95364236299997,
                -5.081386097999939
              ],
              [
                -78.95757786299993,
                -5.076792847999968
              ],
              [
                -78.95860673799996,
                -5.073971223999877
              ],
              [
                -78.95491523799996,
                -5.073907472999963
              ],
              [
                -78.95439548799988,
                -5.072295097999927
              ],
              [
                -78.9556259879999,
                -5.069017347999818
              ],
              [
                -78.95468186299996,
                -5.06561222299996
              ],
              [
                -78.95689886299988,
                -5.059841597999934
              ],
              [
                -78.95996461299995,
                -5.059162597999944
              ],
              [
                -78.96447286299997,
                -5.05375259799996
              ],
              [
                -78.96653086299995,
                -5.052649472999917
              ],
              [
                -78.9711452379999,
                -5.053391972999975
              ],
              [
                -78.97528373799997,
                -5.053281598999888
              ],
              [
                -78.97834798799994,
                -5.050644597999963
              ],
              [
                -78.98193336299994,
                -5.049774722999928
              ],
              [
                -78.98387461299995,
                -5.045425472999966
              ],
              [
                -78.98638861299997,
                -5.044269222999844
              ],
              [
                -78.99061061299994,
                -5.045117848999894
              ],
              [
                -78.99441873799992,
                -5.042476473999898
              ],
              [
                -78.99690098799994,
                -5.042020347999937
              ],
              [
                -78.99838086299991,
                -5.03876559899993
              ],
              [
                -79.00079686299989,
                -5.03584959799997
              ],
              [
                -79.00377348799998,
                -5.035660097999937
              ],
              [
                -79.00638286299994,
                -5.033960973999854
              ],
              [
                -79.00952798799995,
                -5.026606972999957
              ],
              [
                -79.01233161299996,
                -5.026606972999957
              ],
              [
                -79.01485873799987,
                -5.024563472999887
              ],
              [
                -79.01391161299995,
                -5.022529848999966
              ],
              [
                -79.01491448799993,
                -5.015620973999944
              ],
              [
                -79.0113704879999,
                -5.011295972999903
              ],
              [
                -79.00914423799992,
                -5.005116473999976
              ],
              [
                -79.00832811299989,
                -4.99959572299997
              ],
              [
                -79.00644136299991,
                -4.997531222999953
              ],
              [
                -79.00482411299998,
                -4.993798847999926
              ],
              [
                -79.00626948799999,
                -4.988595722999946
              ],
              [
                -79.00564648799997,
                -4.986074223999935
              ],
              [
                -79.00242773799994,
                -4.983009722999952
              ],
              [
                -79.00052661299992,
                -4.979200847999948
              ],
              [
                -78.99883598799994,
                -4.978187472999934
              ],
              [
                -78.99548823799995,
                -4.973511722999945
              ],
              [
                -78.99352911299997,
                -4.968335972999967
              ],
              [
                -78.99139448799997,
                -4.965775347999966
              ],
              [
                -78.99092386299986,
                -4.963138722999929
              ],
              [
                -78.99269336299989,
                -4.961412097999869
              ],
              [
                -78.99305661299991,
                -4.959167972999921
              ],
              [
                -78.99169923799997,
                -4.956269472999907
              ],
              [
                -78.98779098799997,
                -4.952990222999915
              ],
              [
                -78.98641011299998,
                -4.949206972999889
              ],
              [
                -78.98666798799997,
                -4.944732597999973
              ],
              [
                -78.98398436299988,
                -4.942656222999915
              ],
              [
                -78.98437298799996,
                -4.938294972999927
              ],
              [
                -78.98567773799994,
                -4.935398472999907
              ],
              [
                -78.98452736299998,
                -4.93170122399988
              ],
              [
                -78.98310736299999,
                -4.930244097999946
              ],
              [
                -78.98074998799996,
                -4.920912097999974
              ],
              [
                -78.97773423899991,
                -4.912046847999932
              ],
              [
                -78.97772261299997,
                -4.907443347999958
              ],
              [
                -78.97643948799993,
                -4.905915972999821
              ],
              [
                -78.97624023799995,
                -4.902664097999946
              ],
              [
                -78.97389061299998,
                -4.897021473999928
              ],
              [
                -78.97227536299982,
                -4.894865223999943
              ],
              [
                -78.96864648799993,
                -4.893716723999944
              ],
              [
                -78.96531248799994,
                -4.894833973999937
              ],
              [
                -78.95999998799994,
                -4.894113222999977
              ],
              [
                -78.95658398799992,
                -4.894437472999925
              ],
              [
                -78.9545117379999,
                -4.893726598999876
              ],
              [
                -78.94896673799991,
                -4.895746098999894
              ],
              [
                -78.94497461299994,
                -4.898152472999868
              ],
              [
                -78.94262498799998,
                -4.89680272399994
              ],
              [
                -78.93946473799997,
                -4.896402347999924
              ],
              [
                -78.93193161299996,
                -4.893445348999876
              ],
              [
                -78.92857036299995,
                -4.892853472999946
              ],
              [
                -78.92003511299993,
                -4.893003847999921
              ],
              [
                -78.91463061299999,
                -4.89156522299993
              ],
              [
                -78.90949711299993,
                -4.892292097999928
              ],
              [
                -78.90522661299991,
                -4.888975722999874
              ],
              [
                -78.90004761299997,
                -4.886386222999874
              ],
              [
                -78.89763986299994,
                -4.886249972999963
              ],
              [
                -78.89495948799998,
                -4.887385722999966
              ],
              [
                -78.89165773799988,
                -4.887343723999948
              ],
              [
                -78.88938248799991,
                -4.878408598999897
              ],
              [
                -78.88953323799996,
                -4.873026347999883
              ],
              [
                -78.89364186299991,
                -4.870229347999953
              ],
              [
                -78.90151823799994,
                -4.86693134799998
              ],
              [
                -78.90734948799997,
                -4.861832597999978
              ],
              [
                -78.90805073799999,
                -4.858519472999944
              ],
              [
                -78.90972061299988,
                -4.856912097999952
              ],
              [
                -78.91186211299998,
                -4.85163522299996
              ],
              [
                -78.91165698799995,
                -4.845979722999971
              ],
              [
                -78.91052311299995,
                -4.84268647399989
              ],
              [
                -78.90764648799995,
                -4.840798847999963
              ],
              [
                -78.90519223799998,
                -4.840543598999886
              ],
              [
                -78.90199723799998,
                -4.838469472999975
              ],
              [
                -78.90021486299992,
                -4.834564472999887
              ],
              [
                -78.89689648799998,
                -4.832195347999971
              ],
              [
                -78.89689311299998,
                -4.826490347999936
              ],
              [
                -78.89751823799992,
                -4.82299347299994
              ],
              [
                -78.89550586299998,
                -4.816435597999941
              ],
              [
                -78.89568686299992,
                -4.812486472999979
              ],
              [
                -78.89259673799995,
                -4.809890972999938
              ],
              [
                -78.89168548799995,
                -4.808005847999937
              ],
              [
                -78.89366811299993,
                -4.804899847999934
              ],
              [
                -78.89946698799997,
                -4.800999722999961
              ],
              [
                -78.90399998799995,
                -4.796095722999951
              ],
              [
                -78.90779561299996,
                -4.79472484799993
              ],
              [
                -78.91272798799992,
                -4.791000972999939
              ],
              [
                -78.91296711299998,
                -4.787734472999944
              ],
              [
                -78.91542361299986,
                -4.780856097999958
              ],
              [
                -78.91464573799988,
                -4.779627847999848
              ],
              [
                -78.91165686299996,
                -4.780078097999876
              ],
              [
                -78.90858611299996,
                -4.778153847999931
              ],
              [
                -78.90621148799994,
                -4.775287847999948
              ],
              [
                -78.90252661299996,
                -4.772708347999924
              ],
              [
                -78.89712211299991,
                -4.77311784799997
              ],
              [
                -78.89446086299989,
                -4.77082497299989
              ],
              [
                -78.89401048799994,
                -4.768204722999883
              ],
              [
                -78.88962948799991,
                -4.763926097999899
              ],
              [
                -78.88998461299991,
                -4.757144847999882
              ],
              [
                -78.88762923799999,
                -4.752909847999945
              ],
              [
                -78.88954761299993,
                -4.749104722999959
              ],
              [
                -78.88901536299994,
                -4.742267222999942
              ],
              [
                -78.89057123799995,
                -4.739892472999884
              ],
              [
                -78.88917911299995,
                -4.737231222999981
              ],
              [
                -78.88950673799997,
                -4.735184097999877
              ],
              [
                -78.89233173799994,
                -4.730803222999953
              ],
              [
                -78.89093973799999,
                -4.727159222999887
              ],
              [
                -78.89122636299999,
                -4.721509097999956
              ],
              [
                -78.88983423799993,
                -4.715695222999955
              ],
              [
                -78.88356998799992,
                -4.712010347999978
              ],
              [
                -78.88103148799996,
                -4.707056222999938
              ],
              [
                -78.87505373799996,
                -4.7040263479999
              ],
              [
                -78.87181923799989,
                -4.701692597999966
              ],
              [
                -78.87026348799992,
                -4.698089597999967
              ],
              [
                -78.8675612379999,
                -4.694527597999922
              ],
              [
                -78.86272986299991,
                -4.689778222999962
              ],
              [
                -78.86532286299996,
                -4.685011847999931
              ],
              [
                -78.86412198799991,
                -4.679378722999957
              ],
              [
                -78.86260711299997,
                -4.675734722999948
              ],
              [
                -78.85859461299998,
                -4.672049847999972
              ],
              [
                -78.85531923799988,
                -4.666645347999975
              ],
              [
                -78.84946436299987,
                -4.663124222999954
              ],
              [
                -78.84684398799993,
                -4.660626722999893
              ],
              [
                -78.8446739879999,
                -4.656614347999835
              ],
              [
                -78.84017023799993,
                -4.653113722999933
              ],
              [
                -78.83501148799996,
                -4.651394097999912
              ],
              [
                -78.83255486299998,
                -4.649346972999979
              ],
              [
                -78.8244481129999,
                -4.64631709799994
              ],
              [
                -78.82109086299994,
                -4.646358097999951
              ],
              [
                -78.81471398799988,
                -4.641664722999963
              ],
              [
                -78.80897061299999,
                -4.642297722999899
              ],
              [
                -78.80475973799997,
                -4.63792572299991
              ],
              [
                -78.8025239879999,
                -4.637468597999941
              ],
              [
                -78.79605386299988,
                -4.640023722999956
              ],
              [
                -78.78892736299997,
                -4.640000347999887
              ],
              [
                -78.78633398799997,
                -4.63818559799995
              ],
              [
                -78.78297298799998,
                -4.638874972999872
              ],
              [
                -78.781253613,
                -4.640464972999894
              ],
              [
                -78.77650286299996,
                -4.642203847999951
              ],
              [
                -78.76939448799993,
                -4.641069347999974
              ],
              [
                -78.76867636299994,
                -4.639709097999969
              ]
            ]
          ]
        ],
        "type": "MultiPolygon"
      },
      "type": "Feature",
      "properties": {
        "PROVINCIA": "SAN IGNACIO",
        "DISTRITO": "SAN JOSE DE LOURDES",
        "name": "SAN JOSE DE LOURDES",
        "ID": "061106",
        "DEPARTAMEN": "CAJAMARCA"
      }
    }
  ]
}
