{
  "type": "FeatureCollection",
  "features": [
    {
      "geometry": {
        "coordinates": [
          [
            [
              [
                -77.09346698599995,
                -12.038436604999902
              ],
              [
                -77.09913086199998,
                -12.03998447999993
              ],
              [
                -77.09832036099988,
                -12.048519479999982
              ],
              [
                -77.08154686099988,
                -12.047017604999894
              ],
              [
                -77.07702736199997,
                -12.04664447999994
              ],
              [
                -77.07821873599994,
                -12.050042979999944
              ],
              [
                -77.08760073599996,
                -12.051865729999918
              ],
              [
                -77.10584173599995,
                -12.055048854999939
              ],
              [
                -77.11949223599999,
                -12.057935604999898
              ],
              [
                -77.13423636199991,
                -12.059693354999922
              ],
              [
                -77.13293948699999,
                -12.067902354999944
              ],
              [
                -77.13259386099998,
                -12.070492229999843
              ],
              [
                -77.14081636099996,
                -12.06853510499991
              ],
              [
                -77.15112698699988,
                -12.067031229999827
              ],
              [
                -77.15641986099996,
                -12.067919979999886
              ],
              [
                -77.15837698699988,
                -12.066613229999973
              ],
              [
                -77.15251361099996,
                -12.062398479999956
              ],
              [
                -77.14862111099995,
                -12.058607479999978
              ],
              [
                -77.14871486099997,
                -12.057414104999907
              ],
              [
                -77.14443748699995,
                -12.052343729999961
              ],
              [
                -77.14400786099998,
                -12.046718854999938
              ],
              [
                -77.14627148599999,
                -12.044072229999927
              ],
              [
                -77.14501561199995,
                -12.042999979999934
              ],
              [
                -77.1413672359999,
                -12.046472604999906
              ],
              [
                -77.14015436199992,
                -12.041119104999893
              ],
              [
                -77.14118561099997,
                -12.03800585499988
              ],
              [
                -77.14295311199993,
                -12.037437479999937
              ],
              [
                -77.1467011119999,
                -12.039333978999935
              ],
              [
                -77.14771286199993,
                -12.037853479999967
              ],
              [
                -77.14818948599986,
                -12.03067185499998
              ],
              [
                -77.14505861099997,
                -12.030544979999945
              ],
              [
                -77.14296098699998,
                -12.022634729999936
              ],
              [
                -77.14216411199993,
                -12.022242228999971
              ],
              [
                -77.13751161099992,
                -12.010949229999937
              ],
              [
                -77.13523823599996,
                -11.999314479999896
              ],
              [
                -77.13309961099992,
                -11.983044979999875
              ],
              [
                -77.13274223599984,
                -11.976492229999849
              ],
              [
                -77.13355273599996,
                -11.963134729999979
              ],
              [
                -77.13547661099994,
                -11.950798854999903
              ],
              [
                -77.13811136099997,
                -11.93925785399989
              ],
              [
                -77.12866136199995,
                -11.937477729999955
              ],
              [
                -77.12746298599984,
                -11.942412104999903
              ],
              [
                -77.12403123599995,
                -11.945960979999938
              ],
              [
                -77.12292386099995,
                -11.948345729999971
              ],
              [
                -77.12057548699988,
                -11.950509729999965
              ],
              [
                -77.11993086199993,
                -11.954101354999978
              ],
              [
                -77.1175496109999,
                -11.95696960499987
              ],
              [
                -77.118010111,
                -11.961758353999869
              ],
              [
                -77.11652348599995,
                -11.966481478999981
              ],
              [
                -77.11770748599992,
                -11.970507229999896
              ],
              [
                -77.11219336099992,
                -11.973521478999885
              ],
              [
                -77.11067973699994,
                -11.97544135499993
              ],
              [
                -77.11265048599995,
                -11.979529479999883
              ],
              [
                -77.11234373599996,
                -11.981983354999954
              ],
              [
                -77.1156301119999,
                -11.986876604999907
              ],
              [
                -77.11662336099994,
                -11.989856354999972
              ],
              [
                -77.11828911099991,
                -11.991499979999901
              ],
              [
                -77.11791373599993,
                -11.994287229999884
              ],
              [
                -77.11325636099997,
                -11.997001354999895
              ],
              [
                -77.11040423699995,
                -11.9942694799999
              ],
              [
                -77.1070488609999,
                -11.999361354999962
              ],
              [
                -77.10438873599998,
                -12.000238228999933
              ],
              [
                -77.10358836099994,
                -11.997927479999873
              ],
              [
                -77.10014336099988,
                -12.004229604999978
              ],
              [
                -77.09773911099995,
                -12.00578747999998
              ],
              [
                -77.09526923599992,
                -12.004843979999919
              ],
              [
                -77.09351173599998,
                -12.00999222999991
              ],
              [
                -77.09162411199998,
                -12.009479854999881
              ],
              [
                -77.08911911099989,
                -12.012158229999898
              ],
              [
                -77.08786136099997,
                -12.016214853999884
              ],
              [
                -77.09137498599995,
                -12.022662104999881
              ],
              [
                -77.09067773599998,
                -12.023072229999912
              ],
              [
                -77.09618361199995,
                -12.033703104999972
              ],
              [
                -77.09346698599995,
                -12.038436604999902
              ]
            ]
          ]
        ],
        "type": "MultiPolygon"
      },
      "type": "Feature",
      "properties": {
        "PROVINCIA": "CALLAO",
        "DISTRITO": "CALLAO",
        "name": "CALLAO",
        "ID": "240101",
        "DEPARTAMEN": "CALLAO"
      }
    }
  ]
}
