{
  "type": "FeatureCollection",
  "features": [
    {
      "geometry": {
        "coordinates": [
          [
            [
              [
                -77.14920936199997,
                -5.940858474999914
              ],
              [
                -77.15026998699994,
                -5.940269973999932
              ],
              [
                -77.15500998599992,
                -5.944169973999919
              ],
              [
                -77.16032998599991,
                -5.949309973999959
              ],
              [
                -77.16216998699991,
                -5.94933997399994
              ],
              [
                -77.16527998699996,
                -5.946999973999937
              ],
              [
                -77.17215998599988,
                -5.947229973999981
              ],
              [
                -77.17408998699995,
                -5.949749973999928
              ],
              [
                -77.17899998699988,
                -5.949619973999916
              ],
              [
                -77.18034998699994,
                -5.952779973999895
              ],
              [
                -77.18311998699988,
                -5.950619973999892
              ],
              [
                -77.18844998599991,
                -5.954329973999904
              ],
              [
                -77.19366998599997,
                -5.955299973999956
              ],
              [
                -77.19447011099993,
                -5.953209974999936
              ],
              [
                -77.19647998699998,
                -5.952309973999945
              ],
              [
                -77.19833998599995,
                -5.953699973999903
              ],
              [
                -77.20494998599992,
                -5.95291997399994
              ],
              [
                -77.20620998699997,
                -5.954609973999879
              ],
              [
                -77.20669998699992,
                -5.958359973999904
              ],
              [
                -77.2050699859999,
                -5.961259973999972
              ],
              [
                -77.2069799869999,
                -5.964789973999927
              ],
              [
                -77.20641998699995,
                -5.967279974999883
              ],
              [
                -77.21074998699993,
                -5.968849848999923
              ],
              [
                -77.21428011199998,
                -5.971689973999901
              ],
              [
                -77.2132399869999,
                -5.973879973999942
              ],
              [
                -77.21496998699996,
                -5.977490098999851
              ],
              [
                -77.21813998699997,
                -5.979739973999926
              ],
              [
                -77.22110998599993,
                -5.979879973999971
              ],
              [
                -77.22595998699995,
                -5.976679973999978
              ],
              [
                -77.23009036199994,
                -5.973686598999905
              ],
              [
                -77.23677486099996,
                -5.971758723999926
              ],
              [
                -77.24041011099996,
                -5.968179723999981
              ],
              [
                -77.24436136199995,
                -5.96649997399993
              ],
              [
                -77.24689648599991,
                -5.962847599999975
              ],
              [
                -77.24897836199989,
                -5.961087848999966
              ],
              [
                -77.25487498699988,
                -5.959228473999929
              ],
              [
                -77.25882398699997,
                -5.960006973999953
              ],
              [
                -77.26198473599999,
                -5.957807848999892
              ],
              [
                -77.26332823699988,
                -5.953341848999969
              ],
              [
                -77.26518698599995,
                -5.95115272399994
              ],
              [
                -77.26761723699991,
                -5.951488223999945
              ],
              [
                -77.27161336099988,
                -5.946824223999954
              ],
              [
                -77.27547461199998,
                -5.939121099999966
              ],
              [
                -77.27707611199997,
                -5.937558599999932
              ],
              [
                -77.27911323599994,
                -5.931933598999933
              ],
              [
                -77.28082323699994,
                -5.929989848999924
              ],
              [
                -77.28684961099998,
                -5.931868973999883
              ],
              [
                -77.28700198599995,
                -5.927599598999961
              ],
              [
                -77.28194336199994,
                -5.924234349999949
              ],
              [
                -77.28084573599995,
                -5.92284959899996
              ],
              [
                -77.28310348599996,
                -5.917080098999975
              ],
              [
                -77.27872648699991,
                -5.914075224999976
              ],
              [
                -77.27697073599995,
                -5.91128909899993
              ],
              [
                -77.27519348699991,
                -5.911009723999882
              ],
              [
                -77.27088086099997,
                -5.907814474999952
              ],
              [
                -77.2683554869999,
                -5.907824224999956
              ],
              [
                -77.26120698699998,
                -5.911009723999882
              ],
              [
                -77.25719536199995,
                -5.909189473999845
              ],
              [
                -77.25522661199994,
                -5.905984348999937
              ],
              [
                -77.25192186099997,
                -5.90255472399997
              ],
              [
                -77.25061723599993,
                -5.898488223999948
              ],
              [
                -77.24699411099994,
                -5.895001973999968
              ],
              [
                -77.24547648699996,
                -5.887951223999949
              ],
              [
                -77.24019536199995,
                -5.886652348999917
              ],
              [
                -77.23747211199998,
                -5.887299223999889
              ],
              [
                -77.23529086199989,
                -5.889767723999967
              ],
              [
                -77.23330323699992,
                -5.895268223999949
              ],
              [
                -77.22984036199995,
                -5.898781098999905
              ],
              [
                -77.22696511199996,
                -5.895480723999981
              ],
              [
                -77.22451486199992,
                -5.895580723999956
              ],
              [
                -77.22225198599995,
                -5.901543848999893
              ],
              [
                -77.21946436099995,
                -5.904006598999899
              ],
              [
                -77.21845161099998,
                -5.906044223999913
              ],
              [
                -77.21270123599999,
                -5.907631848999927
              ],
              [
                -77.21295123699997,
                -5.909207098999957
              ],
              [
                -77.21583911199991,
                -5.913232474999973
              ],
              [
                -77.21906436099988,
                -5.913644973999965
              ],
              [
                -77.21758923699997,
                -5.916245223999908
              ],
              [
                -77.21890186199994,
                -5.919920598999909
              ],
              [
                -77.21556398599989,
                -5.920982973999969
              ],
              [
                -77.2132013619999,
                -5.924420973999929
              ],
              [
                -77.20865086199996,
                -5.925483598999961
              ],
              [
                -77.2060256119999,
                -5.923495848999949
              ],
              [
                -77.19973748699994,
                -5.932596723999893
              ],
              [
                -77.20018761099993,
                -5.936084598999912
              ],
              [
                -77.20305036199994,
                -5.9387348489999
              ],
              [
                -77.20140023699992,
                -5.940109973999881
              ],
              [
                -77.19896248599991,
                -5.938409848999925
              ],
              [
                -77.19552461199999,
                -5.938747348999868
              ],
              [
                -77.19186173699995,
                -5.936322098999938
              ],
              [
                -77.18841148599995,
                -5.936522098999944
              ],
              [
                -77.18781136099994,
                -5.939244848999977
              ],
              [
                -77.18379298599996,
                -5.938915973999883
              ],
              [
                -77.18196086099982,
                -5.940947598999912
              ],
              [
                -77.18291098599991,
                -5.946323098999926
              ],
              [
                -77.18123573599996,
                -5.94637309899997
              ],
              [
                -77.18014823599992,
                -5.942485223999881
              ],
              [
                -77.17773548599996,
                -5.942185098999914
              ],
              [
                -77.17347261099997,
                -5.943160223999939
              ],
              [
                -77.16960973599998,
                -5.939772473999938
              ],
              [
                -77.16799698599988,
                -5.94258522399997
              ],
              [
                -77.16559686199997,
                -5.943472723999946
              ],
              [
                -77.16265898599988,
                -5.939597473999868
              ],
              [
                -77.16077136099995,
                -5.935922098999981
              ],
              [
                -77.15297061199993,
                -5.940072473999976
              ],
              [
                -77.1509532369999,
                -5.935242348999964
              ],
              [
                -77.14795611099998,
                -5.936528223999915
              ],
              [
                -77.14729648699995,
                -5.938167598999939
              ],
              [
                -77.14920936199997,
                -5.940858474999914
              ]
            ]
          ]
        ],
        "type": "MultiPolygon"
      },
      "type": "Feature",
      "properties": {
        "PROVINCIA": "RIOJA",
        "DISTRITO": "YURACYACU",
        "name": "YURACYACU",
        "ID": "210504",
        "DEPARTAMEN": "SAN MARTIN"
      }
    }
  ]
}
