{
  "type": "FeatureCollection",
  "features": [
    {
      "geometry": {
        "coordinates": [
          [
            [
              [
                -80.64513935799994,
                -5.48710314799996
              ],
              [
                -80.60151953999991,
                -5.479205516999968
              ],
              [
                -80.5914623079999,
                -5.479368981999869
              ],
              [
                -80.56757067199993,
                -5.486871257999951
              ],
              [
                -80.552580875,
                -5.492269863999979
              ],
              [
                -80.53752704599992,
                -5.568173931999922
              ],
              [
                -80.53462958799992,
                -5.601605451999887
              ],
              [
                -80.6259198649999,
                -5.598863223999956
              ],
              [
                -80.68313861499996,
                -5.573638723999977
              ],
              [
                -80.72829886499994,
                -5.553281223999932
              ],
              [
                -80.76525386499998,
                -5.53626947399988
              ],
              [
                -80.76691986499998,
                -5.535371098999974
              ],
              [
                -80.76974998999992,
                -5.536300723999886
              ],
              [
                -80.77173048999992,
                -5.534279348999974
              ],
              [
                -80.77556836499997,
                -5.532941348999941
              ],
              [
                -80.77470311499997,
                -5.529683598999952
              ],
              [
                -80.77233986499988,
                -5.524951223999892
              ],
              [
                -80.76846098999994,
                -5.519847598999945
              ],
              [
                -80.76727923999994,
                -5.514873098999942
              ],
              [
                -80.76842386499999,
                -5.512818348999929
              ],
              [
                -80.7648534899999,
                -5.50964259899996
              ],
              [
                -80.76379686499996,
                -5.506521473999953
              ],
              [
                -80.767601615,
                -5.502794973999869
              ],
              [
                -80.76909961499996,
                -5.500054723999938
              ],
              [
                -80.76808011499998,
                -5.497947223999972
              ],
              [
                -80.76466786499998,
                -5.49610934899988
              ],
              [
                -80.76371286499995,
                -5.492968723999979
              ],
              [
                -80.76116411499999,
                -5.493435598999895
              ],
              [
                -80.75456248899991,
                -5.493343723999942
              ],
              [
                -80.74807423999988,
                -5.49198247399994
              ],
              [
                -80.74371486499996,
                -5.488699223999959
              ],
              [
                -80.73893161499996,
                -5.487433597999939
              ],
              [
                -80.73754473899999,
                -5.482564473999957
              ],
              [
                -80.72032036499996,
                -5.484103473999937
              ],
              [
                -80.71691986499991,
                -5.482152347999943
              ],
              [
                -80.71070111499989,
                -5.480785098999888
              ],
              [
                -80.70594923999994,
                -5.480427722999934
              ],
              [
                -80.70173436399995,
                -5.47715234899988
              ],
              [
                -80.66661136399989,
                -5.482474598999886
              ],
              [
                -80.64549713899987,
                -5.487395977999938
              ],
              [
                -80.64513935799994,
                -5.48710314799996
              ]
            ]
          ]
        ],
        "type": "MultiPolygon"
      },
      "type": "Feature",
      "properties": {
        "PROVINCIA": "SECHURA",
        "DISTRITO": "CRISTO NOS VALGA",
        "name": "CRISTO NOS VALGA",
        "ID": "190805",
        "DEPARTAMEN": "PIURA"
      }
    }
  ]
}
