{
  "type": "FeatureCollection",
  "features": [
    {
      "geometry": {
        "coordinates": [
          [
            [
              [
                -79.82948048899988,
                -6.72171284999996
              ],
              [
                -79.82804098899999,
                -6.721726474999969
              ],
              [
                -79.82625198899984,
                -6.725277349999942
              ],
              [
                -79.82684173899997,
                -6.727593724999906
              ],
              [
                -79.82182811399991,
                -6.732302724999897
              ],
              [
                -79.81967973899998,
                -6.730443349999973
              ],
              [
                -79.81736136399991,
                -6.731062474999874
              ],
              [
                -79.81468748899994,
                -6.733697224999901
              ],
              [
                -79.81474223899983,
                -6.736716849999937
              ],
              [
                -79.81270511399993,
                -6.737617224999894
              ],
              [
                -79.80874411399992,
                -6.737253724999903
              ],
              [
                -79.80313086399991,
                -6.739236349999942
              ],
              [
                -79.79721486299991,
                -6.736869099999979
              ],
              [
                -79.79396098899997,
                -6.737904349999951
              ],
              [
                -79.79085348899997,
                -6.736203099999955
              ],
              [
                -79.78848823899995,
                -6.73361522499988
              ],
              [
                -79.78645298899994,
                -6.734102099999916
              ],
              [
                -79.79384236399994,
                -6.739846974999978
              ],
              [
                -79.80767786399991,
                -6.750603474999934
              ],
              [
                -79.82986223899997,
                -6.762431599999843
              ],
              [
                -79.83279873899988,
                -6.763505849999888
              ],
              [
                -79.83979898899992,
                -6.76249222499996
              ],
              [
                -79.84446673799994,
                -6.762896473999945
              ],
              [
                -79.8505547389999,
                -6.760665974999938
              ],
              [
                -79.85478661399992,
                -6.760255474999894
              ],
              [
                -79.88220898899993,
                -6.730937474999905
              ],
              [
                -79.88542973899996,
                -6.728046849999942
              ],
              [
                -79.88349223899996,
                -6.728080099999943
              ],
              [
                -79.88206836399985,
                -6.726212849999968
              ],
              [
                -79.88215423899993,
                -6.724005849999969
              ],
              [
                -79.87927736399985,
                -6.724072224999873
              ],
              [
                -79.87766211399997,
                -6.722070349999967
              ],
              [
                -79.87380273899993,
                -6.721001974999865
              ],
              [
                -79.87041598899992,
                -6.718515599999932
              ],
              [
                -79.86698636399996,
                -6.718861349999941
              ],
              [
                -79.86574023899993,
                -6.717863224999974
              ],
              [
                -79.86099998899994,
                -6.717816349999964
              ],
              [
                -79.85242973899989,
                -6.718529349999926
              ],
              [
                -79.84818948899988,
                -6.72134959999994
              ],
              [
                -79.8463359889999,
                -6.720685599999968
              ],
              [
                -79.83644536399999,
                -6.722044974999903
              ],
              [
                -79.83349398899998,
                -6.723287099999936
              ],
              [
                -79.83049023799992,
                -6.723117224999896
              ],
              [
                -79.82948048899988,
                -6.72171284999996
              ]
            ]
          ]
        ],
        "type": "MultiPolygon"
      },
      "type": "Feature",
      "properties": {
        "PROVINCIA": "CHICLAYO",
        "DISTRITO": "JOSE LEONARDO ORTIZ",
        "name": "JOSE LEONARDO ORTIZ",
        "ID": "130112",
        "DEPARTAMEN": "LAMBAYEQUE"
      }
    }
  ]
}
