{
  "type": "FeatureCollection",
  "features": [
    {
      "geometry": {
        "coordinates": [
          [
            [
              [
                -79.88542973899996,
                -6.728046849999942
              ],
              [
                -79.88220898899993,
                -6.730937474999905
              ],
              [
                -79.85478661399992,
                -6.760255474999894
              ],
              [
                -79.85643948899991,
                -6.760158224999941
              ],
              [
                -79.86465623899994,
                -6.757519474999924
              ],
              [
                -79.86820698899993,
                -6.758331974999919
              ],
              [
                -79.87211523899992,
                -6.767234349999853
              ],
              [
                -79.87216211399988,
                -6.770556599999907
              ],
              [
                -79.87112698899995,
                -6.774162099999899
              ],
              [
                -79.87109386399999,
                -6.777269474999969
              ],
              [
                -79.87206048899992,
                -6.783814474999929
              ],
              [
                -79.87005661399996,
                -6.790027349999946
              ],
              [
                -79.86989261399998,
                -6.793933599999946
              ],
              [
                -79.86764061399998,
                -6.799113224999871
              ],
              [
                -79.86758423899994,
                -6.80233322499987
              ],
              [
                -79.87170111399996,
                -6.801257849999956
              ],
              [
                -79.87622261399997,
                -6.801956974999825
              ],
              [
                -79.87659573899992,
                -6.811046849999968
              ],
              [
                -79.88148436399985,
                -6.812722724999901
              ],
              [
                -79.89048623899993,
                -6.817517849999945
              ],
              [
                -79.89442973899997,
                -6.820265599999971
              ],
              [
                -79.91137698899996,
                -6.850312474999953
              ],
              [
                -79.90537298899994,
                -6.854267599999844
              ],
              [
                -79.90653323899994,
                -6.856111349999878
              ],
              [
                -79.91529486399992,
                -6.862488224999936
              ],
              [
                -79.92113673899996,
                -6.869162099999869
              ],
              [
                -79.92617386399996,
                -6.872353474999954
              ],
              [
                -79.93156836399993,
                -6.873611349999919
              ],
              [
                -79.9328359889999,
                -6.867265724999925
              ],
              [
                -79.93504686399996,
                -6.863283349999904
              ],
              [
                -79.9353672389999,
                -6.855994099999975
              ],
              [
                -79.93711523899998,
                -6.851790974999915
              ],
              [
                -79.93827536399994,
                -6.846748099999957
              ],
              [
                -79.93791011399998,
                -6.840351599999963
              ],
              [
                -79.93971286399994,
                -6.827033224999923
              ],
              [
                -79.94226361399996,
                -6.823222599999951
              ],
              [
                -79.94239648899992,
                -6.820499974999905
              ],
              [
                -79.91735461399998,
                -6.775212349999947
              ],
              [
                -79.90751173899997,
                -6.769581974999937
              ],
              [
                -79.90492973899995,
                -6.764423849999901
              ],
              [
                -79.9007363639999,
                -6.759230474999924
              ],
              [
                -79.89918148899994,
                -6.755496099999959
              ],
              [
                -79.89692186399992,
                -6.746206849999965
              ],
              [
                -79.8982031139999,
                -6.739199224999936
              ],
              [
                -79.89818748899995,
                -6.735369099999957
              ],
              [
                -79.89609173899998,
                -6.733767599999965
              ],
              [
                -79.8951953639999,
                -6.731039099999975
              ],
              [
                -79.89342573899995,
                -6.72882809999993
              ],
              [
                -79.88542973899996,
                -6.728046849999942
              ]
            ]
          ]
        ],
        "type": "MultiPolygon"
      },
      "type": "Feature",
      "properties": {
        "PROVINCIA": "CHICLAYO",
        "DISTRITO": "PIMENTEL",
        "name": "PIMENTEL",
        "ID": "130110",
        "DEPARTAMEN": "LAMBAYEQUE"
      }
    }
  ]
}
