{
  "type": "FeatureCollection",
  "features": [
    {
      "geometry": {
        "coordinates": [
          [
            [
              [
                -79.49850598799998,
                -6.743660099999943
              ],
              [
                -79.49907036399992,
                -6.748242224999956
              ],
              [
                -79.50084173799996,
                -6.75605859999996
              ],
              [
                -79.50114848899995,
                -6.760248099999899
              ],
              [
                -79.50084173899995,
                -6.76862884999997
              ],
              [
                -79.49980073799998,
                -6.77315622499998
              ],
              [
                -79.49930086299992,
                -6.778845974999967
              ],
              [
                -79.49382936399991,
                -6.781810974999871
              ],
              [
                -79.48575961399996,
                -6.779854599999908
              ],
              [
                -79.4795783639999,
                -6.779646599999921
              ],
              [
                -79.4755807389999,
                -6.781260724999981
              ],
              [
                -79.47403336299988,
                -6.780625224999881
              ],
              [
                -79.46299848899997,
                -6.779269849999935
              ],
              [
                -79.45514798899995,
                -6.777958724999962
              ],
              [
                -79.45336161299991,
                -6.776418099999944
              ],
              [
                -79.44731386399997,
                -6.774697224999954
              ],
              [
                -79.43962748799999,
                -6.777221224999892
              ],
              [
                -79.43626736399989,
                -6.781547974999967
              ],
              [
                -79.4327929879999,
                -6.783154099999877
              ],
              [
                -79.42813848899993,
                -6.782613224999977
              ],
              [
                -79.42361836299995,
                -6.7806230999999
              ],
              [
                -79.41358848799996,
                -6.775002599999937
              ],
              [
                -79.41019986299989,
                -6.771564849999947
              ],
              [
                -79.39907636299995,
                -6.77045972499991
              ],
              [
                -79.39740511299988,
                -6.77568247499994
              ],
              [
                -79.39455823799995,
                -6.777924724999934
              ],
              [
                -79.39138673799994,
                -6.778957724999941
              ],
              [
                -79.38994173899994,
                -6.781411474999857
              ],
              [
                -79.38397486299993,
                -6.782884849999903
              ],
              [
                -79.38235723799994,
                -6.78539322499995
              ],
              [
                -79.38232861399996,
                -6.78759647499993
              ],
              [
                -79.38404661399994,
                -6.793677724999952
              ],
              [
                -79.38351798799988,
                -6.797542349999958
              ],
              [
                -79.38199248899997,
                -6.80194122499995
              ],
              [
                -79.38453711399995,
                -6.804880724999975
              ],
              [
                -79.3855878629999,
                -6.808676849999927
              ],
              [
                -79.39002111399998,
                -6.817625599999928
              ],
              [
                -79.3928269889999,
                -6.821023224999976
              ],
              [
                -79.39403548899998,
                -6.824359974999936
              ],
              [
                -79.39736973899988,
                -6.82495222499989
              ],
              [
                -79.40099761299996,
                -6.826928349999946
              ],
              [
                -79.4045868639999,
                -6.824535474999948
              ],
              [
                -79.40662686299993,
                -6.821968974999947
              ],
              [
                -79.41075973799997,
                -6.821058599999958
              ],
              [
                -79.41325148799996,
                -6.822517349999941
              ],
              [
                -79.41718198899991,
                -6.826703099999975
              ],
              [
                -79.42270761299989,
                -6.825077849999957
              ],
              [
                -79.42644386399996,
                -6.826340349999896
              ],
              [
                -79.42915523899995,
                -6.82806722499987
              ],
              [
                -79.43514698899992,
                -6.830486349999944
              ],
              [
                -79.43590236299997,
                -6.831617599999902
              ],
              [
                -79.43635561299999,
                -6.828888974999927
              ],
              [
                -79.43841986299998,
                -6.824328099999946
              ],
              [
                -79.44677236399997,
                -6.822707099999946
              ],
              [
                -79.44896898899992,
                -6.826709724999887
              ],
              [
                -79.45450923799996,
                -6.831786474999944
              ],
              [
                -79.45797498899998,
                -6.833177474999843
              ],
              [
                -79.46510136399996,
                -6.832603724999956
              ],
              [
                -79.46834123799988,
                -6.831109099999935
              ],
              [
                -79.47244311399999,
                -6.830254724999975
              ],
              [
                -79.47279323899994,
                -6.823100349999947
              ],
              [
                -79.47801548799993,
                -6.823695224999881
              ],
              [
                -79.48047636399997,
                -6.824936349999973
              ],
              [
                -79.48446398799996,
                -6.825597599999981
              ],
              [
                -79.48808161399995,
                -6.825133599999958
              ],
              [
                -79.49032736299995,
                -6.826976099999911
              ],
              [
                -79.49724086399993,
                -6.830475474999901
              ],
              [
                -79.50416911299993,
                -6.834503599999948
              ],
              [
                -79.50845748799992,
                -6.837440974999822
              ],
              [
                -79.51486648799988,
                -6.837560099999905
              ],
              [
                -79.5165543629999,
                -6.839692474999936
              ],
              [
                -79.52065623899995,
                -6.839973724999936
              ],
              [
                -79.52863473799988,
                -6.844505474999892
              ],
              [
                -79.53052836399996,
                -6.84597347499988
              ],
              [
                -79.5328899889999,
                -6.844952224999929
              ],
              [
                -79.53667723899997,
                -6.844833849999929
              ],
              [
                -79.54406236299997,
                -6.843390724999949
              ],
              [
                -79.54735761299997,
                -6.840718349999918
              ],
              [
                -79.55009048899996,
                -6.839908224999931
              ],
              [
                -79.55569923899992,
                -6.840814474999945
              ],
              [
                -79.55615811399997,
                -6.83817122499994
              ],
              [
                -79.55991773799991,
                -6.832365349999975
              ],
              [
                -79.56296336299994,
                -6.830033474999937
              ],
              [
                -79.56373636299998,
                -6.828034724999952
              ],
              [
                -79.56288486399995,
                -6.825308099999916
              ],
              [
                -79.56429798899995,
                -6.822058224999978
              ],
              [
                -79.56712123799997,
                -6.818316724999931
              ],
              [
                -79.56637673799992,
                -6.813171849999947
              ],
              [
                -79.57410673899994,
                -6.813542724999934
              ],
              [
                -79.57609286399997,
                -6.814257724999891
              ],
              [
                -79.58074098899988,
                -6.820461474999945
              ],
              [
                -79.58306173899996,
                -6.818847349999942
              ],
              [
                -79.58046811399993,
                -6.808591724999872
              ],
              [
                -79.5778269889999,
                -6.805760224999915
              ],
              [
                -79.57105061399994,
                -6.795023224999966
              ],
              [
                -79.57290148799996,
                -6.786843474999955
              ],
              [
                -79.57768711399996,
                -6.785993099999928
              ],
              [
                -79.58114261399999,
                -6.783085974999949
              ],
              [
                -79.58181448799996,
                -6.776999974999967
              ],
              [
                -79.58722848799994,
                -6.776824224999928
              ],
              [
                -79.58962298899996,
                -6.78063472499997
              ],
              [
                -79.59378323899995,
                -6.784269474999974
              ],
              [
                -79.5945781129999,
                -6.786585849999881
              ],
              [
                -79.6015976139999,
                -6.78687884999988
              ],
              [
                -79.60770511399988,
                -6.78994334999993
              ],
              [
                -79.61181048899994,
                -6.79032634999993
              ],
              [
                -79.61603898899995,
                -6.792335974999958
              ],
              [
                -79.62025198899983,
                -6.793398474999947
              ],
              [
                -79.62321873799988,
                -6.797249974999943
              ],
              [
                -79.62521286399993,
                -6.798548849999918
              ],
              [
                -79.62771286399993,
                -6.798076349999974
              ],
              [
                -79.63178911299997,
                -6.799390599999924
              ],
              [
                -79.63958011399995,
                -6.799105474999976
              ],
              [
                -79.64359961399998,
                -6.798238099999878
              ],
              [
                -79.64859173899998,
                -6.799021474999961
              ],
              [
                -79.65037698899988,
                -6.798121099999946
              ],
              [
                -79.65514086299999,
                -6.800791474999926
              ],
              [
                -79.65673236399994,
                -6.794673849999924
              ],
              [
                -79.6560859889999,
                -6.786281224999925
              ],
              [
                -79.65424223899993,
                -6.78047072499993
              ],
              [
                -79.66256173799997,
                -6.780508974999975
              ],
              [
                -79.66390461399999,
                -6.766532599999948
              ],
              [
                -79.65560161399998,
                -6.765238224999962
              ],
              [
                -79.65339261299988,
                -6.767960974999937
              ],
              [
                -79.64660161399996,
                -6.769542974999979
              ],
              [
                -79.63691986399994,
                -6.767640599999879
              ],
              [
                -79.63318548799998,
                -6.764876974999936
              ],
              [
                -79.63020898899998,
                -6.766177723999931
              ],
              [
                -79.62490823799999,
                -6.766017599999884
              ],
              [
                -79.61700386299992,
                -6.768374974999972
              ],
              [
                -79.61117973799998,
                -6.767570349999914
              ],
              [
                -79.60771486299996,
                -6.764386724999952
              ],
              [
                -79.60748648899983,
                -6.762070349999874
              ],
              [
                -79.60547848899995,
                -6.758999974999938
              ],
              [
                -79.60123823899994,
                -6.757613224999943
              ],
              [
                -79.59420111399999,
                -6.757085974999939
              ],
              [
                -79.58867186399988,
                -6.75502522499994
              ],
              [
                -79.58368361399988,
                -6.756232474999933
              ],
              [
                -79.56611323899989,
                -6.753703099999882
              ],
              [
                -79.55842386399996,
                -6.753898474999971
              ],
              [
                -79.55096286299994,
                -6.753070349999973
              ],
              [
                -79.54545698899989,
                -6.754773474999922
              ],
              [
                -79.53991211299996,
                -6.754548849999878
              ],
              [
                -79.53666973799989,
                -6.755912099999875
              ],
              [
                -79.53115036399993,
                -6.756412099999977
              ],
              [
                -79.52739261399995,
                -6.754546849999883
              ],
              [
                -79.5235488639999,
                -6.751712849999876
              ],
              [
                -79.51816986299991,
                -6.750412099999949
              ],
              [
                -79.51458986299997,
                -6.746613224999919
              ],
              [
                -79.51448236399989,
                -6.74348434999996
              ],
              [
                -79.50753898899995,
                -6.741833974999906
              ],
              [
                -79.50598236399986,
                -6.741947224999933
              ],
              [
                -79.50286523899996,
                -6.744261724999944
              ],
              [
                -79.50000373899996,
                -6.74489447499991
              ],
              [
                -79.49850598799998,
                -6.743660099999943
              ]
            ]
          ]
        ],
        "type": "MultiPolygon"
      },
      "type": "Feature",
      "properties": {
        "PROVINCIA": "CHICLAYO",
        "DISTRITO": "PUCALA",
        "name": "PUCALA",
        "ID": "130119",
        "DEPARTAMEN": "LAMBAYEQUE"
      }
    }
  ]
}
