{
  "type": "FeatureCollection",
  "features": [
    {
      "geometry": {
        "coordinates": [
          [
            [
              [
                -79.88306786399994,
                -6.85142097499994
              ],
              [
                -79.8823149889999,
                -6.853385724999953
              ],
              [
                -79.8846946139999,
                -6.857773099999974
              ],
              [
                -79.88633048899999,
                -6.858367974999908
              ],
              [
                -79.88960248899997,
                -6.853608849999944
              ],
              [
                -79.89168448899994,
                -6.854278099999931
              ],
              [
                -79.89274411399998,
                -6.857056599999964
              ],
              [
                -79.89658598899996,
                -6.858197224999969
              ],
              [
                -79.90027148899998,
                -6.862703099999976
              ],
              [
                -79.90358223899989,
                -6.867960474999904
              ],
              [
                -79.90730036399998,
                -6.876214599999969
              ],
              [
                -79.90733211399993,
                -6.878179724999939
              ],
              [
                -79.9023906139999,
                -6.883990224999934
              ],
              [
                -79.89216798899997,
                -6.894529349999914
              ],
              [
                -79.88217973899998,
                -6.904503849999912
              ],
              [
                -79.87751761399988,
                -6.908427724999967
              ],
              [
                -79.88074611399998,
                -6.914119099999937
              ],
              [
                -79.87963086399998,
                -6.917162099999928
              ],
              [
                -79.89009573899995,
                -6.909488224999961
              ],
              [
                -79.89744723899997,
                -6.90372659999997
              ],
              [
                -79.90087298899994,
                -6.902169974999879
              ],
              [
                -79.91103323899995,
                -6.896023474999879
              ],
              [
                -79.91452348899998,
                -6.89330072499996
              ],
              [
                -79.91699611399991,
                -6.888566224999977
              ],
              [
                -79.92320311399993,
                -6.881290974999956
              ],
              [
                -79.9297832389999,
                -6.875624974999937
              ],
              [
                -79.93156836399993,
                -6.873611349999919
              ],
              [
                -79.92617386399996,
                -6.872353474999954
              ],
              [
                -79.92113673899996,
                -6.869162099999869
              ],
              [
                -79.91529486399992,
                -6.862488224999936
              ],
              [
                -79.90653323899994,
                -6.856111349999878
              ],
              [
                -79.90537298899994,
                -6.854267599999844
              ],
              [
                -79.90093161399989,
                -6.849197224999955
              ],
              [
                -79.89803511399987,
                -6.848728474999916
              ],
              [
                -79.89631048899997,
                -6.849744099999953
              ],
              [
                -79.88799223899997,
                -6.851062474999935
              ],
              [
                -79.886369114,
                -6.851976599999887
              ],
              [
                -79.88306786399994,
                -6.85142097499994
              ]
            ]
          ]
        ],
        "type": "MultiPolygon"
      },
      "type": "Feature",
      "properties": {
        "PROVINCIA": "CHICLAYO",
        "DISTRITO": "SANTA ROSA",
        "name": "SANTA ROSA",
        "ID": "130113",
        "DEPARTAMEN": "LAMBAYEQUE"
      }
    }
  ]
}
