{
  "type": "FeatureCollection",
  "features": [
    {
      "type": "Feature",
      "geometry": {
        "type": "Polygon",
        "coordinates": [
          [
            [
              -72.9071,
              -14.6748
            ],
            [
              -73.0269,
              -14.6301
            ],
            [
              -73.4469,
              -14.7334
            ],
            [
              -73.5431,
              -14.8071
            ],
            [
              -73.5935,
              -14.6825
            ],
            [
              -73.5987,
              -14.5041
            ],
            [
              -73.6406,
              -14.4276
            ],
            [
              -73.5411,
              -14.2643
            ],
            [
              -73.7475,
              -13.7871
            ],
            [
              -73.6902,
              -13.7424
            ],
            [
              -73.8214,
              -13.577
            ],
            [
              -73.8522,
              -13.3593
            ],
            [
              -73.8061,
              -13.2111
            ],
            [
              -73.4863,
              -13.4375
            ],
            [
              -73.3239,
              -13.405
            ],
            [
              -73.3076,
              -13.3481
            ],
            [
              -73.2919,
              -13.3675
            ],
            [
              -73.2377,
              -13.4068
            ],
            [
              -72.9046,
              -13.397
            ],
            [
              -72.6178,
              -13.5481
            ],
            [
              -72.2778,
              -13.6973
            ],
            [
              -72.1619,
              -13.7886
            ],
            [
              -72.0878,
              -13.9231
            ],
            [
              -72.0802,
              -14.0958
            ],
            [
              -72.1143,
              -14.2181
            ],
            [
              -72.2745,
              -14.4139
            ],
            [
              -72.4676,
              -14.5064
            ],
            [
              -72.4861,
              -14.6742
            ],
            [
              -72.6134,
              -14.6983
            ],
            [
              -72.7682,
              -14.6572
            ],
            [
              -72.9071,
              -14.6748
            ]
          ]
        ]
      },
      "properties": {
        "name": "Apurimac",
        "id": "PE-APU",
        "CNTRY": "Peru",
        "TYPE": "Region"
      },
      "id": "030000"
    }
  ]
}
