{
  "type": "FeatureCollection",
  "features": [
    {
      "geometry": {
        "coordinates": [
          [
            [
              [
                -76.52216611099993,
                -9.913676477999957
              ],
              [
                -76.52900973599998,
                -9.915787102999957
              ],
              [
                -76.53101173599998,
                -9.915677727999935
              ],
              [
                -76.53475198599995,
                -9.918591852999953
              ],
              [
                -76.54058198499985,
                -9.92081060299995
              ],
              [
                -76.54608598599998,
                -9.919831976999944
              ],
              [
                -76.54877148599996,
                -9.922632977999967
              ],
              [
                -76.54916985999995,
                -9.929466852999838
              ],
              [
                -76.54978711099994,
                -9.932246102999954
              ],
              [
                -76.54859573599998,
                -9.934847476999948
              ],
              [
                -76.54879486099992,
                -9.93935347799993
              ],
              [
                -76.54760936099996,
                -9.940537102999883
              ],
              [
                -76.54784761099995,
                -9.943646477999948
              ],
              [
                -76.55693361099998,
                -9.948164102999897
              ],
              [
                -76.5565957359999,
                -9.95524410299987
              ],
              [
                -76.56350386099996,
                -9.958728477999955
              ],
              [
                -76.56727148599987,
                -9.958431602999894
              ],
              [
                -76.57047461099995,
                -9.959232477999933
              ],
              [
                -76.57139448499993,
                -9.957275352999886
              ],
              [
                -76.5699159859999,
                -9.953414102999886
              ],
              [
                -76.57120123599992,
                -9.951062477999926
              ],
              [
                -76.57014448599989,
                -9.9453711029999
              ],
              [
                -76.57237686099995,
                -9.941613227999937
              ],
              [
                -76.57610735999998,
                -9.940601602999891
              ],
              [
                -76.57823236099995,
                -9.942833977999953
              ],
              [
                -76.58614448499992,
                -9.944994101999896
              ],
              [
                -76.59283198599991,
                -9.938044977999937
              ],
              [
                -76.59601360999989,
                -9.93699997799996
              ],
              [
                -76.59823436099998,
                -9.935081977999914
              ],
              [
                -76.60066211099996,
                -9.934581977999926
              ],
              [
                -76.60457223599997,
                -9.9305507279999
              ],
              [
                -76.60830273599998,
                -9.928025352999953
              ],
              [
                -76.61155073499998,
                -9.926880852999943
              ],
              [
                -76.61449798599995,
                -9.927242227999955
              ],
              [
                -76.61539448599996,
                -9.928671852999969
              ],
              [
                -76.62481248599994,
                -9.932128852999824
              ],
              [
                -76.62823823599996,
                -9.932603477999919
              ],
              [
                -76.63014061099989,
                -9.93130472799993
              ],
              [
                -76.63575198599995,
                -9.931486352999968
              ],
              [
                -76.63217573499998,
                -9.925574227999903
              ],
              [
                -76.62782223599999,
                -9.9213534779999
              ],
              [
                -76.62649798499996,
                -9.91918160299997
              ],
              [
                -76.62276361099987,
                -9.914498102999971
              ],
              [
                -76.61952148599994,
                -9.9077324779999
              ],
              [
                -76.61745311099992,
                -9.906142602999978
              ],
              [
                -76.61181448599996,
                -9.905437477999897
              ],
              [
                -76.60922461099989,
                -9.901624977999859
              ],
              [
                -76.60801948599993,
                -9.893855477999978
              ],
              [
                -76.60552348599998,
                -9.890785102999928
              ],
              [
                -76.60551361099988,
                -9.888515602999917
              ],
              [
                -76.60765411099999,
                -9.886091852999925
              ],
              [
                -76.60775986099992,
                -9.883623102999934
              ],
              [
                -76.60608398599993,
                -9.881956977999948
              ],
              [
                -76.60091973599992,
                -9.883158227999957
              ],
              [
                -76.59741598599993,
                -9.882667977999972
              ],
              [
                -76.59021873599994,
                -9.883777227999815
              ],
              [
                -76.58622073599992,
                -9.885017601999948
              ],
              [
                -76.57674223599992,
                -9.889626977999967
              ],
              [
                -76.57015036099995,
                -9.889802727999893
              ],
              [
                -76.56413086099997,
                -9.88749997799988
              ],
              [
                -76.56095898599989,
                -9.88402347799996
              ],
              [
                -76.55382811099997,
                -9.881062477999876
              ],
              [
                -76.54902923599997,
                -9.875160102999928
              ],
              [
                -76.54418548599995,
                -9.874574227999972
              ],
              [
                -76.53751561099995,
                -9.870511726999894
              ],
              [
                -76.53344135999993,
                -9.869181602999902
              ],
              [
                -76.53111135999995,
                -9.867601602999912
              ],
              [
                -76.52882423599993,
                -9.86822460299993
              ],
              [
                -76.52908598599998,
                -9.87275197799994
              ],
              [
                -76.53049223599999,
                -9.874255851999976
              ],
              [
                -76.53209173499988,
                -9.878861352999934
              ],
              [
                -76.53129298599998,
                -9.884777352999947
              ],
              [
                -76.52950198599996,
                -9.887591852999947
              ],
              [
                -76.52786723599996,
                -9.892640602999961
              ],
              [
                -76.5225156109999,
                -9.90025972799998
              ],
              [
                -76.51865036099991,
                -9.903566352999974
              ],
              [
                -76.52047660999995,
                -9.905679727999882
              ],
              [
                -76.52216611099993,
                -9.913676477999957
              ]
            ]
          ]
        ],
        "type": "MultiPolygon"
      },
      "type": "Feature",
      "properties": {
        "PROVINCIA": "YAROWILCA",
        "DISTRITO": "CHORAS",
        "name": "CHORAS",
        "ID": "091108",
        "DEPARTAMEN": "HUANUCO"
      }
    }
  ]
}
