{
  "type": "FeatureCollection",
  "features": [
    {
      "geometry": {
        "coordinates": [
          [
            [
              [
                -69.93103422899998,
                -15.617890107999926
              ],
              [
                -69.92924422999994,
                -15.618072232999964
              ],
              [
                -69.92477347999994,
                -15.620664107999914
              ],
              [
                -69.9223027299999,
                -15.621263607999879
              ],
              [
                -69.92005860499995,
                -15.623486358999855
              ],
              [
                -69.91683397899993,
                -15.62405223299993
              ],
              [
                -69.91585422999998,
                -15.627071232999981
              ],
              [
                -69.92079622999995,
                -15.632203732999926
              ],
              [
                -69.92491635499988,
                -15.629958857999895
              ],
              [
                -69.92656247999992,
                -15.633486608999931
              ],
              [
                -69.92564410399996,
                -15.636684982999896
              ],
              [
                -69.92695635399991,
                -15.641634232999934
              ],
              [
                -69.92627147999991,
                -15.644543732999978
              ],
              [
                -69.93237097999992,
                -15.647569358999931
              ],
              [
                -69.93605372999991,
                -15.654289607999885
              ],
              [
                -69.93588760499995,
                -15.656755607999912
              ],
              [
                -69.93986647999998,
                -15.659266107999883
              ],
              [
                -69.9396036039999,
                -15.663606233999928
              ],
              [
                -69.94319872999984,
                -15.665678857999978
              ],
              [
                -69.94738447999993,
                -15.671727982999982
              ],
              [
                -69.94779997999996,
                -15.674493357999836
              ],
              [
                -69.94992447999988,
                -15.67539198299994
              ],
              [
                -69.95272447999992,
                -15.672663607999937
              ],
              [
                -69.95584147999989,
                -15.670932107999874
              ],
              [
                -69.95445497999992,
                -15.669316607999974
              ],
              [
                -69.95507160499994,
                -15.666768857999841
              ],
              [
                -69.95919722999997,
                -15.664661607999903
              ],
              [
                -69.96185360499993,
                -15.665946607999842
              ],
              [
                -69.96737110499993,
                -15.665447482999923
              ],
              [
                -69.96620522899985,
                -15.669244857999956
              ],
              [
                -69.96142022999999,
                -15.670374107999976
              ],
              [
                -69.96364722999994,
                -15.674012732999927
              ],
              [
                -69.96193047999992,
                -15.677100982999946
              ],
              [
                -69.9621577289999,
                -15.679687232999981
              ],
              [
                -69.96015585499998,
                -15.681607233999841
              ],
              [
                -69.96122972899985,
                -15.684874732999901
              ],
              [
                -69.95863272999998,
                -15.686810982999816
              ],
              [
                -69.96545897999994,
                -15.685063732999936
              ],
              [
                -69.97091872999994,
                -15.682468108999842
              ],
              [
                -69.98004797999988,
                -15.676918982999894
              ],
              [
                -69.98380722999997,
                -15.672980857999903
              ],
              [
                -69.98971435499988,
                -15.669937732999927
              ],
              [
                -70.00188672999985,
                -15.66062935799988
              ],
              [
                -70.00618285499996,
                -15.656512233999933
              ],
              [
                -70.00958397999989,
                -15.654364232999853
              ],
              [
                -70.01835522999988,
                -15.652753107999956
              ],
              [
                -70.03070672899992,
                -15.650067982999929
              ],
              [
                -70.04287910499988,
                -15.648814982999966
              ],
              [
                -70.05898960499997,
                -15.646487857999887
              ],
              [
                -70.0670448539999,
                -15.64451885799997
              ],
              [
                -70.07563722999993,
                -15.643623857999899
              ],
              [
                -70.08394135499992,
                -15.641953107999939
              ],
              [
                -70.08588285399998,
                -15.636189482999953
              ],
              [
                -70.08465760499996,
                -15.633041857999899
              ],
              [
                -70.07526435499989,
                -15.628666107999948
              ],
              [
                -70.07017572999996,
                -15.623849607999887
              ],
              [
                -70.0674141049999,
                -15.619556607999868
              ],
              [
                -70.06409185399991,
                -15.61092873299998
              ],
              [
                -70.05892972999999,
                -15.601882857999897
              ],
              [
                -70.05412747999986,
                -15.596467607999955
              ],
              [
                -70.04263647899995,
                -15.587620232999939
              ],
              [
                -70.03138985499999,
                -15.574931483999876
              ],
              [
                -70.02958122999996,
                -15.572364357999959
              ],
              [
                -70.02807660499991,
                -15.568446607999874
              ],
              [
                -70.02572972899998,
                -15.56550010799998
              ],
              [
                -70.02090222999988,
                -15.564409607999892
              ],
              [
                -70.01576372899996,
                -15.564253982999901
              ],
              [
                -70.0075863539999,
                -15.563072732999956
              ],
              [
                -70.00136410499994,
                -15.561402357999953
              ],
              [
                -69.99817797899993,
                -15.559651857999881
              ],
              [
                -69.9903457289999,
                -15.562367232999918
              ],
              [
                -69.98561347999998,
                -15.56327085799984
              ],
              [
                -69.98654585499992,
                -15.566103482999893
              ],
              [
                -69.98723322899997,
                -15.571831732999954
              ],
              [
                -69.98468560499992,
                -15.570753857999932
              ],
              [
                -69.97955072999997,
                -15.573435607999954
              ],
              [
                -69.97643410399985,
                -15.577521857999898
              ],
              [
                -69.97054097899996,
                -15.57658398299992
              ],
              [
                -69.96877535399994,
                -15.5770762329999
              ],
              [
                -69.96543560499993,
                -15.58071498299995
              ],
              [
                -69.9633086049999,
                -15.580730482999911
              ],
              [
                -69.96077660399993,
                -15.583581857999945
              ],
              [
                -69.9628203549999,
                -15.59325198299996
              ],
              [
                -69.9678301049999,
                -15.59886523299997
              ],
              [
                -69.95634497899988,
                -15.606448982999893
              ],
              [
                -69.95496072999993,
                -15.607793732999937
              ],
              [
                -69.94600935399995,
                -15.60692410799993
              ],
              [
                -69.94063472999994,
                -15.612070357999869
              ],
              [
                -69.93682810499996,
                -15.613923857999907
              ],
              [
                -69.93103422899998,
                -15.617890107999926
              ]
            ]
          ]
        ],
        "type": "MultiPolygon"
      },
      "type": "Feature",
      "properties": {
        "PROVINCIA": "PUNO",
        "DISTRITO": "HUATA",
        "name": "HUATA",
        "ID": "200107",
        "DEPARTAMEN": "PUNO"
      }
    }
  ]
}
