{
  "type": "FeatureCollection",
  "features": [
    {
      "geometry": {
        "coordinates": [
          [
            [
              [
                -77.63078323699995,
                -7.414048849999972
              ],
              [
                -77.62790523699994,
                -7.414362600999937
              ],
              [
                -77.62108961099989,
                -7.417380224999931
              ],
              [
                -77.61813373599995,
                -7.417482475999861
              ],
              [
                -77.61364998699992,
                -7.419949475999942
              ],
              [
                -77.61431223599999,
                -7.423606349999943
              ],
              [
                -77.61210111199995,
                -7.428114599999901
              ],
              [
                -77.61027086199994,
                -7.434858350999946
              ],
              [
                -77.60683998699994,
                -7.436903850999897
              ],
              [
                -77.60398923699995,
                -7.440817600999878
              ],
              [
                -77.60074936199993,
                -7.44390384999997
              ],
              [
                -77.5989682369999,
                -7.448510350999925
              ],
              [
                -77.59839286199991,
                -7.451145099999962
              ],
              [
                -77.5996496119999,
                -7.455075850999947
              ],
              [
                -77.59944561099996,
                -7.459239974999946
              ],
              [
                -77.60451686199991,
                -7.458542099999931
              ],
              [
                -77.60777073599985,
                -7.461330725999915
              ],
              [
                -77.61349323699994,
                -7.462046100999885
              ],
              [
                -77.61482423599995,
                -7.461195975999885
              ],
              [
                -77.62043986199996,
                -7.462167224999973
              ],
              [
                -77.62256111199997,
                -7.466164099999901
              ],
              [
                -77.63063286199991,
                -7.465036474999977
              ],
              [
                -77.63372961199997,
                -7.471326100999875
              ],
              [
                -77.63356036199991,
                -7.474391100999981
              ],
              [
                -77.63212986199994,
                -7.480374475999895
              ],
              [
                -77.63233923699988,
                -7.483810974999926
              ],
              [
                -77.63689961199998,
                -7.486887349999904
              ],
              [
                -77.63950586099998,
                -7.48648047599994
              ],
              [
                -77.64214086199996,
                -7.491087350999976
              ],
              [
                -77.64412498699988,
                -7.497541725999952
              ],
              [
                -77.64748298699999,
                -7.503298225999913
              ],
              [
                -77.65201836199992,
                -7.505718600999899
              ],
              [
                -77.65430798699992,
                -7.508226225999977
              ],
              [
                -77.65738248699995,
                -7.508945849999918
              ],
              [
                -77.66034798699997,
                -7.511344349999945
              ],
              [
                -77.66326998699998,
                -7.512478225999928
              ],
              [
                -77.67611323699992,
                -7.514266225999961
              ],
              [
                -77.67975473699988,
                -7.513372225999888
              ],
              [
                -77.68407211199997,
                -7.515312975999962
              ],
              [
                -77.68686323699995,
                -7.5208295999999
              ],
              [
                -77.6867541119999,
                -7.526302725999869
              ],
              [
                -77.68797323699988,
                -7.528609349999954
              ],
              [
                -77.69296736199993,
                -7.53504585099995
              ],
              [
                -77.69414311199995,
                -7.537761100999887
              ],
              [
                -77.69437498699995,
                -7.54247072599992
              ],
              [
                -77.69685161199999,
                -7.542039100999943
              ],
              [
                -77.70287886199998,
                -7.545634725999946
              ],
              [
                -77.70764648699998,
                -7.55084572599992
              ],
              [
                -77.70714861199991,
                -7.556612599999937
              ],
              [
                -77.71254648699994,
                -7.553025600999888
              ],
              [
                -77.71407011199989,
                -7.550715850999836
              ],
              [
                -77.71569061199995,
                -7.54521372499994
              ],
              [
                -77.72085598699994,
                -7.541132350999931
              ],
              [
                -77.72116648699989,
                -7.534847225999954
              ],
              [
                -77.7207546119999,
                -7.530501725999841
              ],
              [
                -77.72434898699987,
                -7.524389849999977
              ],
              [
                -77.7266467369999,
                -7.522527475999937
              ],
              [
                -77.73005148699997,
                -7.521143599999959
              ],
              [
                -77.73211461199998,
                -7.519025974999977
              ],
              [
                -77.73306886199998,
                -7.514318100999901
              ],
              [
                -77.73619998699996,
                -7.511607975999937
              ],
              [
                -77.74148486199988,
                -7.509510224999929
              ],
              [
                -77.74404573699996,
                -7.505874600999903
              ],
              [
                -77.74305661199992,
                -7.501389225999958
              ],
              [
                -77.74494648699988,
                -7.498030099999937
              ],
              [
                -77.74489961199998,
                -7.49604322599987
              ],
              [
                -77.74253973699996,
                -7.493923225999879
              ],
              [
                -77.74174711199993,
                -7.49106547599996
              ],
              [
                -77.74220598699998,
                -7.48770697599997
              ],
              [
                -77.7459827369999,
                -7.479159725999921
              ],
              [
                -77.74613711199999,
                -7.47728322599994
              ],
              [
                -77.7425049869999,
                -7.47222172499994
              ],
              [
                -77.74137161199997,
                -7.466694724999911
              ],
              [
                -77.74510373699991,
                -7.463738100999819
              ],
              [
                -77.74740473699995,
                -7.458281350999869
              ],
              [
                -77.74804648599996,
                -7.455048974999954
              ],
              [
                -77.75542136199988,
                -7.441045975999941
              ],
              [
                -77.75760361199997,
                -7.440135599999962
              ],
              [
                -77.76119398699996,
                -7.441149099999961
              ],
              [
                -77.76664061199995,
                -7.441068350999956
              ],
              [
                -77.76820648699999,
                -7.438242474999981
              ],
              [
                -77.76566011199998,
                -7.438992225999925
              ],
              [
                -77.76439848699994,
                -7.434193350999976
              ],
              [
                -77.76034386199996,
                -7.431427724999935
              ],
              [
                -77.7538964869999,
                -7.429470724999931
              ],
              [
                -77.75080861199996,
                -7.426363225999978
              ],
              [
                -77.74850586099996,
                -7.420007849999934
              ],
              [
                -77.74188861199991,
                -7.4183944749999
              ],
              [
                -77.73657611199991,
                -7.412753850999934
              ],
              [
                -77.73395111199994,
                -7.41144909999997
              ],
              [
                -77.72725798599993,
                -7.41064260099995
              ],
              [
                -77.7244803619999,
                -7.410912099999962
              ],
              [
                -77.72020511199992,
                -7.407675724999876
              ],
              [
                -77.71348436199992,
                -7.406884725999873
              ],
              [
                -77.70743748699994,
                -7.406831975999978
              ],
              [
                -77.70176361199998,
                -7.404255850999959
              ],
              [
                -77.69927148699998,
                -7.402318350999906
              ],
              [
                -77.69525786199989,
                -7.401521474999981
              ],
              [
                -77.69330473699995,
                -7.402091849999977
              ],
              [
                -77.68590236199998,
                -7.399408224999888
              ],
              [
                -77.68354298699995,
                -7.399910099999943
              ],
              [
                -77.67907036199995,
                -7.404193350999947
              ],
              [
                -77.67384961199997,
                -7.407775349999952
              ],
              [
                -77.66930661199996,
                -7.417021475999888
              ],
              [
                -77.67024998699992,
                -7.420078099999955
              ],
              [
                -77.66802736199998,
                -7.422449224999923
              ],
              [
                -77.66671098699993,
                -7.426144475999877
              ],
              [
                -77.66335936199994,
                -7.430357475999926
              ],
              [
                -77.66274811099998,
                -7.432511724999927
              ],
              [
                -77.65998236199994,
                -7.436341850999952
              ],
              [
                -77.64982148699988,
                -7.427415350999979
              ],
              [
                -77.64371211099996,
                -7.425565849999884
              ],
              [
                -77.63774061199996,
                -7.42037910099998
              ],
              [
                -77.63516886199994,
                -7.419463725999833
              ],
              [
                -77.63078323699995,
                -7.414048849999972
              ]
            ]
          ]
        ],
        "type": "MultiPolygon"
      },
      "type": "Feature",
      "properties": {
        "PROVINCIA": "BOLIVAR",
        "DISTRITO": "BAMBAMARCA",
        "name": "BAMBAMARCA",
        "ID": "120202",
        "DEPARTAMEN": "LA LIBERTAD"
      }
    }
  ]
}
