{
  "type": "FeatureCollection",
  "features": [
    {
      "geometry": {
        "coordinates": [
          [
            [
              [
                -69.41741997899993,
                -15.138103482999952
              ],
              [
                -69.41408197899989,
                -15.138210982999965
              ],
              [
                -69.40974997899991,
                -15.139716857999929
              ],
              [
                -69.39878510399996,
                -15.140642607999894
              ],
              [
                -69.39585160399997,
                -15.14285748299983
              ],
              [
                -69.39390822899998,
                -15.142361357999903
              ],
              [
                -69.39147072899988,
                -15.14354098299998
              ],
              [
                -69.38785160399993,
                -15.142505857999936
              ],
              [
                -69.38422260399994,
                -15.143988232999959
              ],
              [
                -69.38072660399996,
                -15.146581982999976
              ],
              [
                -69.37612697899982,
                -15.146482481999897
              ],
              [
                -69.36969335499998,
                -15.143617232999873
              ],
              [
                -69.36612497899995,
                -15.145746107999912
              ],
              [
                -69.36265235399992,
                -15.146398481999881
              ],
              [
                -69.35989847899998,
                -15.148103482999943
              ],
              [
                -69.35649210499997,
                -15.151794981999899
              ],
              [
                -69.35545310499998,
                -15.154365231999861
              ],
              [
                -69.35209260399984,
                -15.166376732999822
              ],
              [
                -69.34915735399989,
                -15.177842982999948
              ],
              [
                -69.34325697899999,
                -15.183235607999848
              ],
              [
                -69.34615122899993,
                -15.185370607999914
              ],
              [
                -69.35192897899998,
                -15.188293982999937
              ],
              [
                -69.35417972899995,
                -15.191671856999847
              ],
              [
                -69.35684372899993,
                -15.200363232999905
              ],
              [
                -69.3583926039999,
                -15.203285107999875
              ],
              [
                -69.35823247899998,
                -15.205456857999934
              ],
              [
                -69.35639447899996,
                -15.207361357999844
              ],
              [
                -69.35718947899994,
                -15.209539106999898
              ],
              [
                -69.3595176039999,
                -15.211039107999852
              ],
              [
                -69.36200385399991,
                -15.21406835799985
              ],
              [
                -69.37132222899999,
                -15.21611323299993
              ],
              [
                -69.37192972899999,
                -15.216947357999913
              ],
              [
                -69.38005472899988,
                -15.215017607999982
              ],
              [
                -69.38411522899997,
                -15.21463085799985
              ],
              [
                -69.38679097899995,
                -15.21352348299996
              ],
              [
                -69.39172660399993,
                -15.214335982999955
              ],
              [
                -69.39835547899986,
                -15.21228910799988
              ],
              [
                -69.40108197899985,
                -15.212800732999938
              ],
              [
                -69.40142810399988,
                -15.216739607999955
              ],
              [
                -69.40664447899991,
                -15.224505857999873
              ],
              [
                -69.41147422899996,
                -15.22920248299988
              ],
              [
                -69.42453710399997,
                -15.233144482999933
              ],
              [
                -69.42850585399998,
                -15.23554698299995
              ],
              [
                -69.43355622899998,
                -15.240840857999899
              ],
              [
                -69.43672085499998,
                -15.241364357999942
              ],
              [
                -69.44338335399993,
                -15.244410107999897
              ],
              [
                -69.44690335399986,
                -15.250335107999945
              ],
              [
                -69.44736535399988,
                -15.253643857999975
              ],
              [
                -69.44709535399994,
                -15.266420107999977
              ],
              [
                -69.44959385399989,
                -15.267466982999906
              ],
              [
                -69.45637522899983,
                -15.265658607999967
              ],
              [
                -69.45932572999988,
                -15.266063107999912
              ],
              [
                -69.46175285399988,
                -15.267847732999883
              ],
              [
                -69.46582160399998,
                -15.267866857999934
              ],
              [
                -69.47181797899992,
                -15.268775732999927
              ],
              [
                -69.47674347899988,
                -15.271036231999915
              ],
              [
                -69.48192110399998,
                -15.272168357999874
              ],
              [
                -69.48606310399998,
                -15.271581731999845
              ],
              [
                -69.48848235399993,
                -15.269777357999942
              ],
              [
                -69.49144335499994,
                -15.266289107999967
              ],
              [
                -69.49545310399998,
                -15.259324232999973
              ],
              [
                -69.49999997899988,
                -15.25702735799996
              ],
              [
                -69.50486510499991,
                -15.253326232999882
              ],
              [
                -69.50858397899992,
                -15.248673857999961
              ],
              [
                -69.51523210399995,
                -15.250640607999912
              ],
              [
                -69.51782722899992,
                -15.248420232999877
              ],
              [
                -69.52192885399984,
                -15.25027035799991
              ],
              [
                -69.52393947999991,
                -15.254858732999935
              ],
              [
                -69.52355535499993,
                -15.25939310699988
              ],
              [
                -69.52613872899991,
                -15.264607357999921
              ],
              [
                -69.52585547899992,
                -15.268472482999982
              ],
              [
                -69.52694722899992,
                -15.270642607999946
              ],
              [
                -69.53012885399983,
                -15.273228607999954
              ],
              [
                -69.53362310499995,
                -15.274052732999905
              ],
              [
                -69.53735347999992,
                -15.275831982999875
              ],
              [
                -69.54361722899995,
                -15.280749982999907
              ],
              [
                -69.54748635399989,
                -15.28495898299991
              ],
              [
                -69.54709822999985,
                -15.287464482999837
              ],
              [
                -69.54364622999987,
                -15.29052723299992
              ],
              [
                -69.5431764789999,
                -15.295570482999949
              ],
              [
                -69.54363235399995,
                -15.298788857999966
              ],
              [
                -69.54285347899997,
                -15.303599607999843
              ],
              [
                -69.54108985499983,
                -15.30681248299993
              ],
              [
                -69.54311297899989,
                -15.308452857999953
              ],
              [
                -69.54842622899986,
                -15.308678857999894
              ],
              [
                -69.55511272899986,
                -15.305660732999854
              ],
              [
                -69.56097985399998,
                -15.30248335799996
              ],
              [
                -69.56686635499989,
                -15.29806035799993
              ],
              [
                -69.57899360399995,
                -15.292805232999967
              ],
              [
                -69.58723435399992,
                -15.288353482999923
              ],
              [
                -69.59540735399997,
                -15.284634982999933
              ],
              [
                -69.60240097999997,
                -15.27982710799995
              ],
              [
                -69.61027347899989,
                -15.277585357999897
              ],
              [
                -69.61301497999995,
                -15.275101481999911
              ],
              [
                -69.62269585399991,
                -15.26944735799998
              ],
              [
                -69.62112497899994,
                -15.262912232999895
              ],
              [
                -69.61814060399996,
                -15.258201106999934
              ],
              [
                -69.61797260499998,
                -15.255976607999969
              ],
              [
                -69.61942385399982,
                -15.253849607999939
              ],
              [
                -69.61943747899994,
                -15.24712885799994
              ],
              [
                -69.61635872899996,
                -15.242484857999955
              ],
              [
                -69.60570322899991,
                -15.240138857999966
              ],
              [
                -69.60448010399989,
                -15.238025982999943
              ],
              [
                -69.60474310399997,
                -15.235614607999935
              ],
              [
                -69.60193285399998,
                -15.224470356999973
              ],
              [
                -69.60316597899987,
                -15.218552732999967
              ],
              [
                -69.60611522999989,
                -15.213451232999944
              ],
              [
                -69.60649810499996,
                -15.208730482999954
              ],
              [
                -69.60842172899999,
                -15.20627535799997
              ],
              [
                -69.60830060399996,
                -15.203851357999952
              ],
              [
                -69.60301885399997,
                -15.203886107999892
              ],
              [
                -69.59789422999995,
                -15.204938107999965
              ],
              [
                -69.59547460399995,
                -15.201978482999948
              ],
              [
                -69.5946659789999,
                -15.199429732999931
              ],
              [
                -69.59211722899988,
                -15.198287107999874
              ],
              [
                -69.58785935499992,
                -15.199324232999913
              ],
              [
                -69.58279510499995,
                -15.196683482999902
              ],
              [
                -69.57825422899992,
                -15.198889107999946
              ],
              [
                -69.57464447999996,
                -15.19557810799995
              ],
              [
                -69.57100660399988,
                -15.19557148299998
              ],
              [
                -69.5690176039999,
                -15.199137106999956
              ],
              [
                -69.56578210499998,
                -15.198571606999906
              ],
              [
                -69.56365035499988,
                -15.195804731999942
              ],
              [
                -69.56470122999997,
                -15.194204982999906
              ],
              [
                -69.55909247899996,
                -15.182189107999932
              ],
              [
                -69.56000585399988,
                -15.176736357999971
              ],
              [
                -69.55785397999989,
                -15.171847107999895
              ],
              [
                -69.5542662289999,
                -15.169743607999976
              ],
              [
                -69.54898235499996,
                -15.169162356999891
              ],
              [
                -69.5464023539999,
                -15.16969335799996
              ],
              [
                -69.54241997999992,
                -15.172316357999932
              ],
              [
                -69.53980860499996,
                -15.177048856999875
              ],
              [
                -69.53768947899994,
                -15.177910107999935
              ],
              [
                -69.53347072899993,
                -15.176619107999954
              ],
              [
                -69.52814447899993,
                -15.17728710699987
              ],
              [
                -69.52671872899992,
                -15.176468732999865
              ],
              [
                -69.5246659789999,
                -15.172763732999897
              ],
              [
                -69.5255957299999,
                -15.170449231999896
              ],
              [
                -69.52844922899993,
                -15.169841731999895
              ],
              [
                -69.53137310399984,
                -15.166771482999877
              ],
              [
                -69.5316992299999,
                -15.164361357999951
              ],
              [
                -69.53057810399997,
                -15.160894482999879
              ],
              [
                -69.52777147899991,
                -15.157953106999969
              ],
              [
                -69.52423047999991,
                -15.157808607999925
              ],
              [
                -69.51983597899994,
                -15.159466732999874
              ],
              [
                -69.51614447899988,
                -15.159154357999967
              ],
              [
                -69.51151960399994,
                -15.157497982999871
              ],
              [
                -69.50988860399997,
                -15.15879685799996
              ],
              [
                -69.50884960399998,
                -15.162966857999947
              ],
              [
                -69.50621097899989,
                -15.163919982999857
              ],
              [
                -69.50455472899989,
                -15.162308607999933
              ],
              [
                -69.50222847999999,
                -15.154154356999982
              ],
              [
                -69.50061785499986,
                -15.150876732999961
              ],
              [
                -69.49733785399997,
                -15.146205106999957
              ],
              [
                -69.49499635399997,
                -15.143949482999858
              ],
              [
                -69.48898822899997,
                -15.14138673299982
              ],
              [
                -69.48140810399991,
                -15.141334481999934
              ],
              [
                -69.47670697899997,
                -15.137947231999874
              ],
              [
                -69.47143560399991,
                -15.1381523579999
              ],
              [
                -69.46515622899994,
                -15.136915982999938
              ],
              [
                -69.4613731039999,
                -15.138511607999874
              ],
              [
                -69.45558397899998,
                -15.136699232999945
              ],
              [
                -69.45532810399999,
                -15.134181606999903
              ],
              [
                -69.45218160499996,
                -15.13218160699995
              ],
              [
                -69.44600385399997,
                -15.133523481999873
              ],
              [
                -69.44298822899992,
                -15.131804732999967
              ],
              [
                -69.43643360399989,
                -15.13224610799989
              ],
              [
                -69.43314060499995,
                -15.135509731999832
              ],
              [
                -69.43093360399996,
                -15.13428710799991
              ],
              [
                -69.42913472899994,
                -15.13604685799993
              ],
              [
                -69.42360935399995,
                -15.134390607999876
              ],
              [
                -69.42094722899992,
                -15.135474607999925
              ],
              [
                -69.42048635399982,
                -15.138947232999953
              ],
              [
                -69.41741997899993,
                -15.138103482999952
              ]
            ]
          ]
        ],
        "type": "MultiPolygon"
      },
      "type": "Feature",
      "properties": {
        "PROVINCIA": "HUANCANE",
        "DISTRITO": "ROSASPATA",
        "name": "ROSASPATA",
        "ID": "200507",
        "DEPARTAMEN": "PUNO"
      }
    }
  ]
}
