{
  "type": "FeatureCollection",
  "features": [
    {
      "geometry": {
        "coordinates": [
          [
            [
              [
                -77.43959573699988,
                -6.518119099999922
              ],
              [
                -77.44183123599993,
                -6.516719099999875
              ],
              [
                -77.44601748699995,
                -6.518437724999899
              ],
              [
                -77.45258423599995,
                -6.517434973999968
              ],
              [
                -77.45494273599996,
                -6.515588224999931
              ],
              [
                -77.46092273599987,
                -6.515196473999936
              ],
              [
                -77.46449636199998,
                -6.513813349999907
              ],
              [
                -77.46914936199994,
                -6.511039223999944
              ],
              [
                -77.47622123699995,
                -6.508867223999914
              ],
              [
                -77.47628611099998,
                -6.504369099999906
              ],
              [
                -77.48266661199995,
                -6.494950349999954
              ],
              [
                -77.48857211199999,
                -6.490126599999826
              ],
              [
                -77.49106611199994,
                -6.48637059999993
              ],
              [
                -77.49662498599997,
                -6.482163849999836
              ],
              [
                -77.49738423699984,
                -6.477236349999885
              ],
              [
                -77.4834247369999,
                -6.472115224999925
              ],
              [
                -77.48189548599993,
                -6.471285474999945
              ],
              [
                -77.46807036199993,
                -6.468388724999954
              ],
              [
                -77.46373436199997,
                -6.468424224999978
              ],
              [
                -77.45791148699993,
                -6.470049849999896
              ],
              [
                -77.45492111199997,
                -6.4734140999999
              ],
              [
                -77.45227998699994,
                -6.479981473999942
              ],
              [
                -77.44992373699995,
                -6.483323349999921
              ],
              [
                -77.44989048699995,
                -6.492466848999925
              ],
              [
                -77.45072848699988,
                -6.500505848999978
              ],
              [
                -77.44891723699993,
                -6.504448599999932
              ],
              [
                -77.44528498699998,
                -6.506864474999873
              ],
              [
                -77.44197286099995,
                -6.511147474999973
              ],
              [
                -77.43959573699988,
                -6.518119099999922
              ]
            ]
          ]
        ],
        "type": "MultiPolygon"
      },
      "type": "Feature",
      "properties": {
        "PROVINCIA": "RODRIGUEZ DE MENDOZA",
        "DISTRITO": "TOTORA",
        "name": "TOTORA",
        "ID": "010511",
        "DEPARTAMEN": "AMAZONAS"
      }
    }
  ]
}
