{
  "type": "FeatureCollection",
  "features": [
    {
      "geometry": {
        "coordinates": [
          [
            [
              [
                -77.35937223699989,
                -6.072139099999958
              ],
              [
                -77.35812223699992,
                -6.07647684899996
              ],
              [
                -77.3554404859999,
                -6.082851723999966
              ],
              [
                -77.35242911099988,
                -6.087257724999972
              ],
              [
                -77.35121636199989,
                -6.09019184899995
              ],
              [
                -77.34657036099998,
                -6.108419223999931
              ],
              [
                -77.34704373599999,
                -6.113053473999969
              ],
              [
                -77.34642798699991,
                -6.114341098999944
              ],
              [
                -77.33965436199992,
                -6.113636848999931
              ],
              [
                -77.33241073599999,
                -6.112181598999939
              ],
              [
                -77.32985848599998,
                -6.115604473999895
              ],
              [
                -77.32524036199993,
                -6.116335098999969
              ],
              [
                -77.32086136099991,
                -6.1210523499999
              ],
              [
                -77.31964848599995,
                -6.123216848999959
              ],
              [
                -77.3168724869999,
                -6.125550598999951
              ],
              [
                -77.31106636099992,
                -6.126294974999894
              ],
              [
                -77.30925048599988,
                -6.127334973999893
              ],
              [
                -77.30614911099997,
                -6.131114724999975
              ],
              [
                -77.30120623699997,
                -6.133130723999898
              ],
              [
                -77.29000261099998,
                -6.133130723999898
              ],
              [
                -77.28792848599994,
                -6.134371224999882
              ],
              [
                -77.28153336199983,
                -6.141717598999946
              ],
              [
                -77.27752736199994,
                -6.141822223999895
              ],
              [
                -77.27287573699988,
                -6.138737349999928
              ],
              [
                -77.268468236,
                -6.138561474999904
              ],
              [
                -77.26198761199998,
                -6.139396723999937
              ],
              [
                -77.25795561199999,
                -6.138015723999956
              ],
              [
                -77.25382748699991,
                -6.138510223999958
              ],
              [
                -77.25221936199989,
                -6.140786974999969
              ],
              [
                -77.24520298599998,
                -6.147474099999897
              ],
              [
                -77.24065411099991,
                -6.149761723999916
              ],
              [
                -77.23755773599999,
                -6.149915349999901
              ],
              [
                -77.23386361099995,
                -6.148758973999975
              ],
              [
                -77.23101273699996,
                -6.144511849999958
              ],
              [
                -77.22920648699989,
                -6.143759848999878
              ],
              [
                -77.2243663619999,
                -6.14554684899997
              ],
              [
                -77.22298511199983,
                -6.14689597399996
              ],
              [
                -77.21863748599998,
                -6.155986598999903
              ],
              [
                -77.21522723699991,
                -6.157767849999914
              ],
              [
                -77.21212486199988,
                -6.160831598999948
              ],
              [
                -77.21085736099991,
                -6.166960973999949
              ],
              [
                -77.20529936199995,
                -6.17246584999998
              ],
              [
                -77.20205673699996,
                -6.179714848999936
              ],
              [
                -77.20408061199993,
                -6.182863473999873
              ],
              [
                -77.21201661099991,
                -6.187351723999882
              ],
              [
                -77.2184091119999,
                -6.19268022499989
              ],
              [
                -77.21909323699998,
                -6.195731849999959
              ],
              [
                -77.21421661199997,
                -6.202529474999892
              ],
              [
                -77.21401173599997,
                -6.205149473999882
              ],
              [
                -77.21240461099995,
                -6.210839849999957
              ],
              [
                -77.2124191119999,
                -6.214185849999978
              ],
              [
                -77.21071086099988,
                -6.217386974999897
              ],
              [
                -77.20798286199994,
                -6.219393974999946
              ],
              [
                -77.20584461099997,
                -6.223670348999917
              ],
              [
                -77.20361611199996,
                -6.224633974999904
              ],
              [
                -77.20108648699988,
                -6.227735848999885
              ],
              [
                -77.19999598599998,
                -6.231179224999948
              ],
              [
                -77.19727536099998,
                -6.23341997499989
              ],
              [
                -77.19196161099995,
                -6.237553349999928
              ],
              [
                -77.19044336199994,
                -6.239356098999963
              ],
              [
                -77.18605911099996,
                -6.241498348999926
              ],
              [
                -77.18085348599993,
                -6.245340098999918
              ],
              [
                -77.17407023599992,
                -6.246529348999843
              ],
              [
                -77.17254198699999,
                -6.250123099999939
              ],
              [
                -77.16908311099996,
                -6.25501397499994
              ],
              [
                -77.16900661099999,
                -6.257692598999938
              ],
              [
                -77.17095123699988,
                -6.263873848999879
              ],
              [
                -77.1707907359999,
                -6.265198974999919
              ],
              [
                -77.1668757359999,
                -6.26742747499992
              ],
              [
                -77.16061186199988,
                -6.269445224999913
              ],
              [
                -77.15535248599991,
                -6.274490973999946
              ],
              [
                -77.15385386099985,
                -6.277331848999893
              ],
              [
                -77.15166761199998,
                -6.279443349999895
              ],
              [
                -77.15043298599994,
                -6.282394599999918
              ],
              [
                -77.1476144859999,
                -6.286216099999933
              ],
              [
                -77.14495198699996,
                -6.288297224999894
              ],
              [
                -77.13889886099997,
                -6.29173034899992
              ],
              [
                -77.1370016109999,
                -6.294711723999967
              ],
              [
                -77.13483336099995,
                -6.300192599999946
              ],
              [
                -77.13272523599994,
                -6.302421098999957
              ],
              [
                -77.13253911099997,
                -6.308394723999925
              ],
              [
                -77.13319923599988,
                -6.315981474999887
              ],
              [
                -77.13230273599999,
                -6.322550723999882
              ],
              [
                -77.13311673699991,
                -6.324977349999926
              ],
              [
                -77.1354471109999,
                -6.327973349999922
              ],
              [
                -77.13763398699984,
                -6.332867474999944
              ],
              [
                -77.14375398699997,
                -6.342354598999975
              ],
              [
                -77.14434686099997,
                -6.349096599999939
              ],
              [
                -77.14658286199989,
                -6.351112474999923
              ],
              [
                -77.14912386099996,
                -6.353450224999904
              ],
              [
                -77.14941186199991,
                -6.358938599999874
              ],
              [
                -77.15166473699998,
                -6.362038599999948
              ],
              [
                -77.15482423599991,
                -6.364477974999829
              ],
              [
                -77.16241473599996,
                -6.372941473999958
              ],
              [
                -77.16185161199996,
                -6.375734348999913
              ],
              [
                -77.1634106119999,
                -6.378081099999918
              ],
              [
                -77.1659482369999,
                -6.379430224999908
              ],
              [
                -77.17173248699993,
                -6.381169973999874
              ],
              [
                -77.17699786199995,
                -6.38042497399988
              ],
              [
                -77.18148123599991,
                -6.378459473999897
              ],
              [
                -77.19319386199993,
                -6.381523599999923
              ],
              [
                -77.19671336099998,
                -6.380558224999902
              ],
              [
                -77.20147023599992,
                -6.377825974999951
              ],
              [
                -77.20823636099993,
                -6.375183598999911
              ],
              [
                -77.210161611,
                -6.375234723999881
              ],
              [
                -77.21437348699999,
                -6.377867099999889
              ],
              [
                -77.22145636199997,
                -6.381132724999929
              ],
              [
                -77.22521473699999,
                -6.372716599999819
              ],
              [
                -77.22925011099994,
                -6.369336224999813
              ],
              [
                -77.23022123599992,
                -6.365867099999946
              ],
              [
                -77.23315973699994,
                -6.363057473999959
              ],
              [
                -77.23347023599996,
                -6.359931724999967
              ],
              [
                -77.23751773599992,
                -6.354663599999924
              ],
              [
                -77.24127598599995,
                -6.352639974999931
              ],
              [
                -77.24246848599995,
                -6.346469599999978
              ],
              [
                -77.24294711199991,
                -6.340199599999892
              ],
              [
                -77.2436531109999,
                -6.338120474999926
              ],
              [
                -77.24745148599993,
                -6.336012474999961
              ],
              [
                -77.25467123599998,
                -6.336450099999979
              ],
              [
                -77.25804461099995,
                -6.333127599999898
              ],
              [
                -77.26000773599992,
                -6.32770572499993
              ],
              [
                -77.26365348699989,
                -6.32770572499993
              ],
              [
                -77.26681373599996,
                -6.330282474999933
              ],
              [
                -77.2724452359999,
                -6.327731974999949
              ],
              [
                -77.27992598599997,
                -6.327883849999978
              ],
              [
                -77.28470598699988,
                -6.329093974999921
              ],
              [
                -77.28707036199995,
                -6.332628848999946
              ],
              [
                -77.2867694869999,
                -6.339087849999942
              ],
              [
                -77.29440536099992,
                -6.337429349999923
              ],
              [
                -77.2992269859999,
                -6.332027349999976
              ],
              [
                -77.30293961099994,
                -6.331019348999973
              ],
              [
                -77.31001586099995,
                -6.331940598999893
              ],
              [
                -77.31757411099989,
                -6.334880848999944
              ],
              [
                -77.32317511199994,
                -6.337961849999942
              ],
              [
                -77.32980886199994,
                -6.337273099999948
              ],
              [
                -77.33563448699994,
                -6.333141098999931
              ],
              [
                -77.33963086099993,
                -6.331179099999872
              ],
              [
                -77.3419299869999,
                -6.327585098999975
              ],
              [
                -77.34599273599997,
                -6.322986724999964
              ],
              [
                -77.35683148699997,
                -6.322257723999883
              ],
              [
                -77.36137298599988,
                -6.319749849999937
              ],
              [
                -77.36459286199994,
                -6.320032473999959
              ],
              [
                -77.36693123599997,
                -6.319169474999967
              ],
              [
                -77.3757039869999,
                -6.318164973999899
              ],
              [
                -77.37860861199988,
                -6.320582974999979
              ],
              [
                -77.38346173699989,
                -6.319755098999963
              ],
              [
                -77.38722161199996,
                -6.319837974999871
              ],
              [
                -77.39074723599998,
                -6.320923224999945
              ],
              [
                -77.39252011099995,
                -6.318207598999891
              ],
              [
                -77.39249873699998,
                -6.315998099999945
              ],
              [
                -77.39546811099996,
                -6.308270224999944
              ],
              [
                -77.39653161099994,
                -6.301389349999965
              ],
              [
                -77.4018659869999,
                -6.29800634999998
              ],
              [
                -77.40302511199997,
                -6.293901098999868
              ],
              [
                -77.40574611099993,
                -6.29317972399997
              ],
              [
                -77.40833061099994,
                -6.289242848999891
              ],
              [
                -77.40944586099994,
                -6.282468474999916
              ],
              [
                -77.41190248599997,
                -6.280909723999912
              ],
              [
                -77.4206839869999,
                -6.281166849999977
              ],
              [
                -77.42501298699989,
                -6.276561848999961
              ],
              [
                -77.4286017359999,
                -6.268882599999927
              ],
              [
                -77.4327012359999,
                -6.266255974999979
              ],
              [
                -77.43293073699988,
                -6.2631858499999
              ],
              [
                -77.43421061199984,
                -6.260839349999912
              ],
              [
                -77.43426086199992,
                -6.254891599999951
              ],
              [
                -77.44339573699989,
                -6.247438098999964
              ],
              [
                -77.44670836099988,
                -6.242945973999895
              ],
              [
                -77.4468201119999,
                -6.237004098999876
              ],
              [
                -77.44832986199992,
                -6.231494848999944
              ],
              [
                -77.44758598699997,
                -6.222145973999943
              ],
              [
                -77.44813373599999,
                -6.220848599999954
              ],
              [
                -77.45271286199994,
                -6.216515599999923
              ],
              [
                -77.45403523699991,
                -6.214025724999885
              ],
              [
                -77.45479986199996,
                -6.210182974999896
              ],
              [
                -77.45653198699995,
                -6.206902473999889
              ],
              [
                -77.45670348599998,
                -6.204146974999901
              ],
              [
                -77.45875298599992,
                -6.192985849999957
              ],
              [
                -77.46964973699994,
                -6.186460348999958
              ],
              [
                -77.4698114869999,
                -6.182348598999909
              ],
              [
                -77.47419386199994,
                -6.178039973999944
              ],
              [
                -77.47589498599996,
                -6.17436022499993
              ],
              [
                -77.47994573599988,
                -6.169633723999937
              ],
              [
                -77.48407948599998,
                -6.168253974999971
              ],
              [
                -77.48731511199998,
                -6.164645848999953
              ],
              [
                -77.48666848699997,
                -6.160477474999936
              ],
              [
                -77.48806911099996,
                -6.158601599999827
              ],
              [
                -77.49522186199988,
                -6.158730098999968
              ],
              [
                -77.4981859859999,
                -6.15642859999997
              ],
              [
                -77.49976811199997,
                -6.153001973999949
              ],
              [
                -77.4984393609999,
                -6.148290599999939
              ],
              [
                -77.49549461199996,
                -6.141440348999936
              ],
              [
                -77.49760011199993,
                -6.132823223999935
              ],
              [
                -77.4997168619999,
                -6.128308849999939
              ],
              [
                -77.50567011099992,
                -6.120972223999956
              ],
              [
                -77.50938036199994,
                -6.118729223999821
              ],
              [
                -77.50931748699998,
                -6.110868473999915
              ],
              [
                -77.5083814869999,
                -6.109485224999958
              ],
              [
                -77.50546911199996,
                -6.108866098999954
              ],
              [
                -77.505208612,
                -6.107210348999956
              ],
              [
                -77.50732611199999,
                -6.102609223999934
              ],
              [
                -77.50814361199991,
                -6.097180223999942
              ],
              [
                -77.50599261199994,
                -6.090903223999931
              ],
              [
                -77.50651973699996,
                -6.089312848999953
              ],
              [
                -77.50992061199997,
                -6.086494973999947
              ],
              [
                -77.51225286199985,
                -6.085911849999945
              ],
              [
                -77.51825298699998,
                -6.086397598999952
              ],
              [
                -77.52216286199985,
                -6.084168598999952
              ],
              [
                -77.5229171119999,
                -6.080276099999935
              ],
              [
                -77.52554073699997,
                -6.078381223999884
              ],
              [
                -77.53136536199992,
                -6.06917059999995
              ],
              [
                -77.53380886199994,
                -6.063371348999908
              ],
              [
                -77.53156098699992,
                -6.060330474999944
              ],
              [
                -77.52731886199996,
                -6.059939973999974
              ],
              [
                -77.51884373599995,
                -6.055943348999961
              ],
              [
                -77.51792186199992,
                -6.054853348999814
              ],
              [
                -77.51587498599997,
                -6.047552723999956
              ],
              [
                -77.5124061109999,
                -6.043200973999888
              ],
              [
                -77.51053936199992,
                -6.039482223999869
              ],
              [
                -77.50975186199997,
                -6.032496098999957
              ],
              [
                -77.50267398699998,
                -6.032003723999878
              ],
              [
                -77.49433373699992,
                -6.02893759899996
              ],
              [
                -77.48975761099996,
                -6.028860098999928
              ],
              [
                -77.48841498699994,
                -6.02714047399985
              ],
              [
                -77.48898236199994,
                -6.024841723999884
              ],
              [
                -77.48642723699999,
                -6.02017334899989
              ],
              [
                -77.48633061099997,
                -6.017691223999975
              ],
              [
                -77.48730898699995,
                -6.011169098999972
              ],
              [
                -77.48622073599995,
                -6.008837849999907
              ],
              [
                -77.47861523599994,
                -6.000894474999939
              ],
              [
                -77.47690486199991,
                -5.999967598999888
              ],
              [
                -77.47358048699994,
                -6.000050723999948
              ],
              [
                -77.47196873699988,
                -6.002359349999892
              ],
              [
                -77.47185411099997,
                -6.006753973999878
              ],
              [
                -77.46996211199996,
                -6.009456973999875
              ],
              [
                -77.46674986099998,
                -6.012155348999954
              ],
              [
                -77.46765023699999,
                -6.014983598999947
              ],
              [
                -77.46750836199993,
                -6.019614973999978
              ],
              [
                -77.4651269869999,
                -6.021845724999878
              ],
              [
                -77.45943461199994,
                -6.023613473999944
              ],
              [
                -77.45835723599998,
                -6.026060474999952
              ],
              [
                -77.4553081119999,
                -6.029696598999976
              ],
              [
                -77.4553013609999,
                -6.03444847399993
              ],
              [
                -77.45166873699998,
                -6.038571598999908
              ],
              [
                -77.44923723699998,
                -6.04443372399993
              ],
              [
                -77.44574648599996,
                -6.046227349999924
              ],
              [
                -77.44524086199988,
                -6.049369098999875
              ],
              [
                -77.4419908619999,
                -6.050560723999979
              ],
              [
                -77.44114373699989,
                -6.052467098999898
              ],
              [
                -77.43795386199992,
                -6.055431349999935
              ],
              [
                -77.43446298699996,
                -6.060411723999891
              ],
              [
                -77.43211573599996,
                -6.061916348999944
              ],
              [
                -77.42963773699995,
                -6.061125223999966
              ],
              [
                -77.42999423599986,
                -6.055025098999977
              ],
              [
                -77.42907636199993,
                -6.051940473999935
              ],
              [
                -77.42698973599994,
                -6.050664598999958
              ],
              [
                -77.42226248699995,
                -6.050069723999968
              ],
              [
                -77.42184698699998,
                -6.049208348999912
              ],
              [
                -77.42129298699996,
                -6.040167848999943
              ],
              [
                -77.42150273699997,
                -6.037045473999967
              ],
              [
                -77.41930473699995,
                -6.032380848999935
              ],
              [
                -77.41697286199991,
                -6.032381848999933
              ],
              [
                -77.41563448599993,
                -6.033854099999871
              ],
              [
                -77.41031623599997,
                -6.036232223999889
              ],
              [
                -77.4046057359999,
                -6.034734348999962
              ],
              [
                -77.39732423699996,
                -6.038849598999946
              ],
              [
                -77.39549761199993,
                -6.039376723999908
              ],
              [
                -77.39428711199997,
                -6.04210747399992
              ],
              [
                -77.39332698699991,
                -6.049402348999877
              ],
              [
                -77.3915504869999,
                -6.052148098999965
              ],
              [
                -77.38928923699996,
                -6.057812349999949
              ],
              [
                -77.38632236199999,
                -6.061136098999953
              ],
              [
                -77.38241798699994,
                -6.063468723999961
              ],
              [
                -77.38545448599996,
                -6.068642098999931
              ],
              [
                -77.38333161099996,
                -6.072613474999969
              ],
              [
                -77.38256248699992,
                -6.077141223999945
              ],
              [
                -77.38050011199988,
                -6.079985974999886
              ],
              [
                -77.3729721119999,
                -6.077495099999965
              ],
              [
                -77.36838098699991,
                -6.074119348999943
              ],
              [
                -77.35937223699989,
                -6.072139099999958
              ]
            ]
          ]
        ],
        "type": "MultiPolygon"
      },
      "type": "Feature",
      "properties": {
        "PROVINCIA": "RODRIGUEZ DE MENDOZA",
        "DISTRITO": "VISTA ALEGRE",
        "name": "VISTA ALEGRE",
        "ID": "010512",
        "DEPARTAMEN": "AMAZONAS"
      }
    }
  ]
}
