{
  "type": "FeatureCollection",
  "features": [
    {
      "geometry": {
        "coordinates": [
          [
            [
              [
                -73.44789960799994,
                -13.100458230999948
              ],
              [
                -73.44629423299989,
                -13.101075604999949
              ],
              [
                -73.44446660799986,
                -13.102112980999891
              ],
              [
                -73.44365148299983,
                -13.103644230999976
              ],
              [
                -73.44347860799991,
                -13.104236855999943
              ],
              [
                -73.4436762329999,
                -13.105422605999934
              ],
              [
                -73.44745510799993,
                -13.105916480999952
              ],
              [
                -73.44918660799993,
                -13.110282230999928
              ],
              [
                -73.44825360799985,
                -13.112842855999872
              ],
              [
                -73.44929510799994,
                -13.115446855999949
              ],
              [
                -73.44990273299987,
                -13.116575229999967
              ],
              [
                -73.45126973299989,
                -13.118050855999854
              ],
              [
                -73.45307085799988,
                -13.1188321059999
              ],
              [
                -73.45493710799997,
                -13.11972173099997
              ],
              [
                -73.45515410799987,
                -13.12074160599991
              ],
              [
                -73.45491535799994,
                -13.121414355999889
              ],
              [
                -73.45372185799994,
                -13.122694730999967
              ],
              [
                -73.43913948299996,
                -13.128271605999885
              ],
              [
                -73.43768548299994,
                -13.129573605999951
              ],
              [
                -73.43523348299993,
                -13.135888355999953
              ],
              [
                -73.43490798299996,
                -13.139577355999904
              ],
              [
                -73.43184823299993,
                -13.139403730999902
              ],
              [
                -73.4288969829999,
                -13.13677798099991
              ],
              [
                -73.42770348199991,
                -13.134390980999967
              ],
              [
                -73.42748648299994,
                -13.133067480999955
              ],
              [
                -73.42594573299988,
                -13.130267980999974
              ],
              [
                -73.42190960799996,
                -13.132394605999878
              ],
              [
                -73.4178082329999,
                -13.139056480999955
              ],
              [
                -73.41466160799996,
                -13.145089105999944
              ],
              [
                -73.41442310799988,
                -13.14654310599991
              ],
              [
                -73.41581673299999,
                -13.152877730999819
              ],
              [
                -73.41188473299991,
                -13.156213980999837
              ],
              [
                -73.40950160799997,
                -13.158168104999959
              ],
              [
                -73.40752373299995,
                -13.16291035599994
              ],
              [
                -73.40938248299989,
                -13.16815310599992
              ],
              [
                -73.40945398299993,
                -13.173681855999973
              ],
              [
                -73.40790498299998,
                -13.175945730999956
              ],
              [
                -73.40537898299993,
                -13.177756855999974
              ],
              [
                -73.40268610799995,
                -13.180688105999877
              ],
              [
                -73.40223335799993,
                -13.182832855999948
              ],
              [
                -73.40290060799998,
                -13.18612148099993
              ],
              [
                -73.40578410799998,
                -13.191483355999935
              ],
              [
                -73.41000210699991,
                -13.192579480999825
              ],
              [
                -73.41112465024122,
                -13.193012817830152
              ],
              [
                -73.41199003802808,
                -13.189240019101646
              ],
              [
                -73.41378003728585,
                -13.184960019354378
              ],
              [
                -73.41654003756264,
                -13.182860019361556
              ],
              [
                -73.42114003747145,
                -13.180960019470433
              ],
              [
                -73.42538003727026,
                -13.182280019146049
              ],
              [
                -73.42782003778132,
                -13.184180019223618
              ],
              [
                -73.43239003802807,
                -13.185680019777749
              ],
              [
                -73.43395003789027,
                -13.18706001938142
              ],
              [
                -73.43815003801899,
                -13.194100019017924
              ],
              [
                -73.43924003747122,
                -13.196980019703574
              ],
              [
                -73.44163003778823,
                -13.200310019191988
              ],
              [
                -73.44152003759132,
                -13.202200019609677
              ],
              [
                -73.4451700379783,
                -13.206820019468353
              ],
              [
                -73.45019003780817,
                -13.20751001906575
              ],
              [
                -73.45322003732815,
                -13.211030019739724
              ],
              [
                -73.45590003758917,
                -13.211410019662878
              ],
              [
                -73.45728003739322,
                -13.213480019177325
              ],
              [
                -73.46101003745952,
                -13.21511001957225
              ],
              [
                -73.46310003798237,
                -13.21943001945391
              ],
              [
                -73.46667003776946,
                -13.21886001948053
              ],
              [
                -73.47083003730222,
                -13.219840019304172
              ],
              [
                -73.47505003809096,
                -13.223500019248775
              ],
              [
                -73.47709003781245,
                -13.224110019521106
              ],
              [
                -73.4825400375388,
                -13.230970019154256
              ],
              [
                -73.48536003743232,
                -13.232600019164522
              ],
              [
                -73.49046003811003,
                -13.237290019529723
              ],
              [
                -73.49446918035397,
                -13.241800165247355
              ],
              [
                -73.50021746151987,
                -13.24403443307608
              ],
              [
                -73.50496385781429,
                -13.247740179522452
              ],
              [
                -73.51301498514869,
                -13.245008623475883
              ],
              [
                -73.51527621656521,
                -13.242534328761337
              ],
              [
                -73.52066416159818,
                -13.23979112972114
              ],
              [
                -73.52613526577119,
                -13.239440084097453
              ],
              [
                -73.5279792569034,
                -13.241364162000878
              ],
              [
                -73.53197234718112,
                -13.243204927570787
              ],
              [
                -73.53539327225377,
                -13.242746217545175
              ],
              [
                -73.53860346096349,
                -13.244869409651585
              ],
              [
                -73.54419261098815,
                -13.24614094271584
              ],
              [
                -73.5430554042573,
                -13.251687614453147
              ],
              [
                -73.53874282507786,
                -13.254246101054548
              ],
              [
                -73.5385229290743,
                -13.258358751854473
              ],
              [
                -73.53695284793082,
                -13.259593487029179
              ],
              [
                -73.53012718198289,
                -13.257736460298304
              ],
              [
                -73.52591377313075,
                -13.260008261659152
              ],
              [
                -73.52237990744226,
                -13.262953626945716
              ],
              [
                -73.52137207428939,
                -13.266487632077997
              ],
              [
                -73.52340460862126,
                -13.269560910142104
              ],
              [
                -73.52006127118227,
                -13.273272700557754
              ],
              [
                -73.52060899359958,
                -13.276375639343428
              ],
              [
                -73.51745795552466,
                -13.280566854558913
              ],
              [
                -73.51520682081525,
                -13.281319106106537
              ],
              [
                -73.5138248379663,
                -13.283702821165434
              ],
              [
                -73.5155614544143,
                -13.287252790830905
              ],
              [
                -73.51516202236115,
                -13.28868552924871
              ],
              [
                -73.51087010397674,
                -13.287703735982177
              ],
              [
                -73.50634102717925,
                -13.288165018177722
              ],
              [
                -73.50640102025125,
                -13.283755037312005
              ],
              [
                -73.50563719052263,
                -13.280880428082241
              ],
              [
                -73.50291290905261,
                -13.279142347942354
              ],
              [
                -73.49394656913222,
                -13.275932344035482
              ],
              [
                -73.49071576903748,
                -13.277156931303637
              ],
              [
                -73.49115270271187,
                -13.285482837106656
              ],
              [
                -73.49182696391597,
                -13.287017558804337
              ],
              [
                -73.49102545886439,
                -13.29026559533645
              ],
              [
                -73.49116637949771,
                -13.299068091763218
              ],
              [
                -73.49445440473716,
                -13.30444511879449
              ],
              [
                -73.49632245931753,
                -13.305661624196603
              ],
              [
                -73.49932384360483,
                -13.31319906047031
              ],
              [
                -73.49941454550373,
                -13.317504764607747
              ],
              [
                -73.50022592607337,
                -13.319002016210163
              ],
              [
                -73.50199028972696,
                -13.327565369546448
              ],
              [
                -73.50225969055867,
                -13.331412910698361
              ],
              [
                -73.50804003799988,
                -13.338740019746638
              ],
              [
                -73.51103003808652,
                -13.34035001938446
              ],
              [
                -73.51412003788897,
                -13.343420019879659
              ],
              [
                -73.51630003767781,
                -13.348720019073426
              ],
              [
                -73.51634003728998,
                -13.357030019087574
              ],
              [
                -73.51964003800424,
                -13.361960019375829
              ],
              [
                -73.51777003740563,
                -13.366900019650586
              ],
              [
                -73.5175200373962,
                -13.372170019086411
              ],
              [
                -73.5185400377174,
                -13.375920019108207
              ],
              [
                -73.51820003737629,
                -13.379320019381908
              ],
              [
                -73.51601003729962,
                -13.381400019460557
              ],
              [
                -73.5149759051294,
                -13.38487696165464
              ],
              [
                -73.51512110799985,
                -13.38493948099989
              ],
              [
                -73.51758760799999,
                -13.386069480999936
              ],
              [
                -73.51992748299989,
                -13.387380855999936
              ],
              [
                -73.52361523299993,
                -13.386333980999893
              ],
              [
                -73.52718360799986,
                -13.383658230999913
              ],
              [
                -73.52816998299994,
                -13.380972605999943
              ],
              [
                -73.52925198299994,
                -13.374548855999933
              ],
              [
                -73.53093948299994,
                -13.373267606999946
              ],
              [
                -73.53365810799988,
                -13.37293948099989
              ],
              [
                -73.53573248299995,
                -13.372355481999875
              ],
              [
                -73.53814648299993,
                -13.370999980999898
              ],
              [
                -73.53930073299995,
                -13.37112310599997
              ],
              [
                -73.5396426079999,
                -13.370837855999923
              ],
              [
                -73.54069335799988,
                -13.367960980999896
              ],
              [
                -73.54277735799991,
                -13.364755855999931
              ],
              [
                -73.54707623299998,
                -13.36355273099997
              ],
              [
                -73.54990435799994,
                -13.36372848099984
              ],
              [
                -73.55363285799996,
                -13.365687605999938
              ],
              [
                -73.55850385799994,
                -13.366212855999947
              ],
              [
                -73.56259185799996,
                -13.36331060599997
              ],
              [
                -73.56637260799988,
                -13.3635244809999
              ],
              [
                -73.5701729829999,
                -13.363322855999854
              ],
              [
                -73.5713053579999,
                -13.36277998099996
              ],
              [
                -73.57285660799994,
                -13.36006535599995
              ],
              [
                -73.57279448299994,
                -13.356621730999962
              ],
              [
                -73.57417510799996,
                -13.351099480999949
              ],
              [
                -73.57370973299999,
                -13.346461355999963
              ],
              [
                -73.57182810799998,
                -13.341273480999973
              ],
              [
                -73.57296485799998,
                -13.339564480999968
              ],
              [
                -73.57501760799994,
                -13.338023480999937
              ],
              [
                -73.57502198299994,
                -13.33802173099997
              ],
              [
                -73.58139648299988,
                -13.336976605999894
              ],
              [
                -73.58670110799994,
                -13.339335980999977
              ],
              [
                -73.5898588579999,
                -13.33777123099992
              ],
              [
                -73.59206360799999,
                -13.334819105999884
              ],
              [
                -73.59390623299993,
                -13.331750855999871
              ],
              [
                -73.59775810799988,
                -13.32844923099998
              ],
              [
                -73.5999707329999,
                -13.3278106059999
              ],
              [
                -73.60130660799996,
                -13.327712980999934
              ],
              [
                -73.60409760799996,
                -13.329845730999978
              ],
              [
                -73.60553510799997,
                -13.331412105999902
              ],
              [
                -73.60624035799998,
                -13.331775480999966
              ],
              [
                -73.6075269829999,
                -13.331789730999901
              ],
              [
                -73.60853635799987,
                -13.330775230999961
              ],
              [
                -73.61024198299992,
                -13.324317855999936
              ],
              [
                -73.61283135799994,
                -13.322845605999873
              ],
              [
                -73.61415548299993,
                -13.323259980999978
              ],
              [
                -73.61657460799995,
                -13.323518855999907
              ],
              [
                -73.62048085799995,
                -13.321869105999895
              ],
              [
                -73.6234694829999,
                -13.321477105999975
              ],
              [
                -73.62470485799997,
                -13.321410480999873
              ],
              [
                -73.62595510799991,
                -13.320167605999927
              ],
              [
                -73.62572273299998,
                -13.31667185599997
              ],
              [
                -73.62765235799986,
                -13.313695355999869
              ],
              [
                -73.6317148579999,
                -13.313216855999883
              ],
              [
                -73.63572260799987,
                -13.31066010599983
              ],
              [
                -73.63745898299999,
                -13.305496105999964
              ],
              [
                -73.64066798299996,
                -13.302634730999898
              ],
              [
                -73.64162298299993,
                -13.299843730999896
              ],
              [
                -73.64227735799989,
                -13.299316355999963
              ],
              [
                -73.6445351079999,
                -13.298542980999912
              ],
              [
                -73.64719135799993,
                -13.296908230999918
              ],
              [
                -73.65215435799996,
                -13.293072230999883
              ],
              [
                -73.65289848299983,
                -13.29303123099993
              ],
              [
                -73.65655473299984,
                -13.293769480999913
              ],
              [
                -73.65754098299988,
                -13.293175730999906
              ],
              [
                -73.66072260799996,
                -13.289359355999977
              ],
              [
                -73.66087885799993,
                -13.288523480999913
              ],
              [
                -73.66148048299988,
                -13.28428510599997
              ],
              [
                -73.66334573299997,
                -13.281898480999871
              ],
              [
                -73.6657832329999,
                -13.281773605999945
              ],
              [
                -73.67020023299989,
                -13.28389710599987
              ],
              [
                -73.67353323299989,
                -13.28484373099991
              ],
              [
                -73.67524810799995,
                -13.284785105999958
              ],
              [
                -73.67674610799997,
                -13.284220730999891
              ],
              [
                -73.67704298299986,
                -13.28393948099989
              ],
              [
                -73.67920898299991,
                -13.281074230999877
              ],
              [
                -73.6819472329999,
                -13.28047660599998
              ],
              [
                -73.68614635799997,
                -13.282290980999903
              ],
              [
                -73.68745123299993,
                -13.281757855999956
              ],
              [
                -73.6875117329999,
                -13.280388730999903
              ],
              [
                -73.68756835799996,
                -13.276441355999964
              ],
              [
                -73.69116210799996,
                -13.27448823099985
              ],
              [
                -73.69219335799994,
                -13.273792980999872
              ],
              [
                -73.69495123299993,
                -13.274074230999872
              ],
              [
                -73.69637885799995,
                -13.271609355999942
              ],
              [
                -73.69648923299991,
                -13.269405480999922
              ],
              [
                -73.69774810799998,
                -13.265755855999942
              ],
              [
                -73.6986972329999,
                -13.265269480999962
              ],
              [
                -73.69951760799995,
                -13.265121105999924
              ],
              [
                -73.70103510799999,
                -13.265216855999938
              ],
              [
                -73.70395948299984,
                -13.266799980999906
              ],
              [
                -73.70657810799997,
                -13.269324230999871
              ],
              [
                -73.71366798299994,
                -13.268434855999942
              ],
              [
                -73.71657073299997,
                -13.268090855999901
              ],
              [
                -73.72101948299996,
                -13.267927730999872
              ],
              [
                -73.72383335799992,
                -13.268002230999912
              ],
              [
                -73.72802535799991,
                -13.26780860599996
              ],
              [
                -73.72795898299995,
                -13.26375198099987
              ],
              [
                -73.72673635799987,
                -13.261744105999924
              ],
              [
                -73.72664648299997,
                -13.261052730999836
              ],
              [
                -73.72784373299999,
                -13.259695355999952
              ],
              [
                -73.73231448299998,
                -13.25791410599993
              ],
              [
                -73.73581248299996,
                -13.258105480999973
              ],
              [
                -73.73636748299998,
                -13.257447480999872
              ],
              [
                -73.73525223299998,
                -13.25201560599993
              ],
              [
                -73.73255698299988,
                -13.24767835599988
              ],
              [
                -73.73086335799991,
                -13.242649230999973
              ],
              [
                -73.73316410799993,
                -13.234330105999902
              ],
              [
                -73.7343926079999,
                -13.23033598099994
              ],
              [
                -73.73479498299997,
                -13.224882855999908
              ],
              [
                -73.73498248299995,
                -13.222546855999894
              ],
              [
                -73.73854298299995,
                -13.218017605999876
              ],
              [
                -73.73826948299995,
                -13.217476605999877
              ],
              [
                -73.73744723299995,
                -13.21601760599998
              ],
              [
                -73.74001948299997,
                -13.21177735599997
              ],
              [
                -73.74009185799991,
                -13.211484355999971
              ],
              [
                -73.73801673299982,
                -13.208283355999981
              ],
              [
                -73.73741498299995,
                -13.207738480999978
              ],
              [
                -73.73610123299994,
                -13.206835105999971
              ],
              [
                -73.73569085799994,
                -13.206307230999869
              ],
              [
                -73.73349498299996,
                -13.203256979999935
              ],
              [
                -73.73222460799991,
                -13.201076230999945
              ],
              [
                -73.73140823299997,
                -13.200349605999975
              ],
              [
                -73.72935348299995,
                -13.199490355999956
              ],
              [
                -73.72821873299995,
                -13.196199230999923
              ],
              [
                -73.72835285899993,
                -13.194807355999956
              ],
              [
                -73.72591198399994,
                -13.193228480999892
              ],
              [
                -73.72362110899996,
                -13.192865230999928
              ],
              [
                -73.72170185799996,
                -13.191682105999917
              ],
              [
                -73.71915860799993,
                -13.190639355999906
              ],
              [
                -73.71463085799985,
                -13.189451230999907
              ],
              [
                -73.71060348299994,
                -13.190029480999954
              ],
              [
                -73.70821873299991,
                -13.190783230999898
              ],
              [
                -73.70648635799984,
                -13.1899609809999
              ],
              [
                -73.7053847329999,
                -13.18930073099989
              ],
              [
                -73.70098823299992,
                -13.18997260599997
              ],
              [
                -73.69556173299998,
                -13.188320730999976
              ],
              [
                -73.68994535799999,
                -13.187656230999892
              ],
              [
                -73.68873048299992,
                -13.186917980999908
              ],
              [
                -73.68341010899996,
                -13.182691355999964
              ],
              [
                -73.68126173299987,
                -13.179310604999955
              ],
              [
                -73.67772498299996,
                -13.176963480999973
              ],
              [
                -73.67455610799988,
                -13.173333105999973
              ],
              [
                -73.67304860799993,
                -13.17133335599982
              ],
              [
                -73.6686182329999,
                -13.168779730999916
              ],
              [
                -73.6674492329999,
                -13.168902855999875
              ],
              [
                -73.6652956079999,
                -13.169918104999965
              ],
              [
                -73.66363423399991,
                -13.172010230999945
              ],
              [
                -73.66286510799995,
                -13.173425355999882
              ],
              [
                -73.66212673299998,
                -13.174563730999921
              ],
              [
                -73.65938848299999,
                -13.176655855999911
              ],
              [
                -73.65597348299997,
                -13.176378980999914
              ],
              [
                -73.65369685799999,
                -13.175640605999945
              ],
              [
                -73.6462514829999,
                -13.169271980999952
              ],
              [
                -73.64188285799992,
                -13.16881048099998
              ],
              [
                -73.63776023299988,
                -13.167426105999937
              ],
              [
                -73.63446835799994,
                -13.169087480999963
              ],
              [
                -73.63228385899998,
                -13.171271855999976
              ],
              [
                -73.6266537329999,
                -13.171179480999967
              ],
              [
                -73.61717785799988,
                -13.17244085599998
              ],
              [
                -73.61308598299996,
                -13.172194730999934
              ],
              [
                -73.61025560799999,
                -13.17410223099995
              ],
              [
                -73.60847110799995,
                -13.174686855999823
              ],
              [
                -73.60634835799993,
                -13.174686855999823
              ],
              [
                -73.60290248299992,
                -13.172810105999872
              ],
              [
                -73.59729535799988,
                -13.167690355999923
              ],
              [
                -73.59489835799997,
                -13.165243855999904
              ],
              [
                -73.59131285799987,
                -13.162223855999969
              ],
              [
                -73.58725385799994,
                -13.159746105999943
              ],
              [
                -73.58634185799997,
                -13.15909573099998
              ],
              [
                -73.58580660799998,
                -13.15876173099997
              ],
              [
                -73.58506448299988,
                -13.15801548099995
              ],
              [
                -73.58111135799999,
                -13.153556605999938
              ],
              [
                -73.57744535799998,
                -13.1505663559999
              ],
              [
                -73.57374610799997,
                -13.148650355999905
              ],
              [
                -73.56619135799991,
                -13.147886605999872
              ],
              [
                -73.56344335799992,
                -13.147013730999959
              ],
              [
                -73.56195310799995,
                -13.14222060599991
              ],
              [
                -73.56167723299995,
                -13.141017105999936
              ],
              [
                -73.55708010799992,
                -13.136808605999875
              ],
              [
                -73.55551373299988,
                -13.1358301059999
              ],
              [
                -73.55203910799992,
                -13.134248104999926
              ],
              [
                -73.53865235799992,
                -13.13361723099996
              ],
              [
                -73.53641798299998,
                -13.133710980999979
              ],
              [
                -73.52987698299995,
                -13.136189480999974
              ],
              [
                -73.52499023299998,
                -13.13640035599991
              ],
              [
                -73.52116598299995,
                -13.138558730999819
              ],
              [
                -73.51476948299995,
                -13.137419979999834
              ],
              [
                -73.51154098299992,
                -13.137845729999981
              ],
              [
                -73.50711523299992,
                -13.136744105999867
              ],
              [
                -73.50010748299991,
                -13.13811135599991
              ],
              [
                -73.49807198299999,
                -13.135846230999903
              ],
              [
                -73.49516673299985,
                -13.134844480999902
              ],
              [
                -73.48935623299997,
                -13.131237855999927
              ],
              [
                -73.4849482329999,
                -13.127731605999884
              ],
              [
                -73.48234360799995,
                -13.126429230999861
              ],
              [
                -73.48074073299995,
                -13.123724355999968
              ],
              [
                -73.48094110799991,
                -13.121219855999868
              ],
              [
                -73.48254398299991,
                -13.117913855999973
              ],
              [
                -73.4839464829999,
                -13.116711730999896
              ],
              [
                -73.48434723299994,
                -13.110800980999954
              ],
              [
                -73.48785360799997,
                -13.108096105999891
              ],
              [
                -73.48544923299988,
                -13.104289230999939
              ],
              [
                -73.48364598299997,
                -13.103087105999975
              ],
              [
                -73.48294473299995,
                -13.100081605999947
              ],
              [
                -73.4797388579999,
                -13.099680980999949
              ],
              [
                -73.47583185799994,
                -13.101083480999932
              ],
              [
                -73.47452948299991,
                -13.100181854999903
              ],
              [
                -73.47052223299994,
                -13.103187355999978
              ],
              [
                -73.4686188579999,
                -13.107795605999968
              ],
              [
                -73.4686188579999,
                -13.109398480999914
              ],
              [
                -73.46581373299989,
                -13.108296479999865
              ],
              [
                -73.46481198299995,
                -13.108997730999874
              ],
              [
                -73.46260798299994,
                -13.111101605999977
              ],
              [
                -73.46100523299992,
                -13.110600730999977
              ],
              [
                -73.46117573299995,
                -13.105861354999888
              ],
              [
                -73.45992973299997,
                -13.104900355999973
              ],
              [
                -73.45838285799994,
                -13.09995123099992
              ],
              [
                -73.45503710799994,
                -13.099349605999976
              ],
              [
                -73.45374573299995,
                -13.097739105999949
              ],
              [
                -73.45261698299998,
                -13.099717230999943
              ],
              [
                -73.44789960799994,
                -13.100458230999948
              ]
            ]
          ]
        ],
        "type": "MultiPolygon"
      },
      "type": "Feature",
      "properties": {
        "PROVINCIA": "LA MAR",
        "DISTRITO": "CHUNGUI",
        "name": "CHUNGUI",
        "ID": "050405",
        "DEPARTAMEN": "AYACUCHO"
      }
    }
  ]
}
