{
  "type": "FeatureCollection",
  "features": [
    {
      "geometry": {
        "coordinates": [
          [
            [
              [
                -69.20017160399993,
                -16.264186233999965
              ],
              [
                -69.19902935399995,
                -16.265845733999868
              ],
              [
                -69.19877185399997,
                -16.269924858999957
              ],
              [
                -69.20158785399997,
                -16.271431608999933
              ],
              [
                -69.20257035399999,
                -16.275649733999956
              ],
              [
                -69.20221285399992,
                -16.279193358999976
              ],
              [
                -69.19883760399989,
                -16.281255983999927
              ],
              [
                -69.20078710399997,
                -16.286955108999962
              ],
              [
                -69.20202435399995,
                -16.294716233999964
              ],
              [
                -69.20457422899989,
                -16.298691358999974
              ],
              [
                -69.20331785399998,
                -16.300644483999918
              ],
              [
                -69.19808060399998,
                -16.30562610899989
              ],
              [
                -69.19093847899984,
                -16.314549982999893
              ],
              [
                -69.18696897899991,
                -16.316161858999976
              ],
              [
                -69.17818297899987,
                -16.31395385899998
              ],
              [
                -69.17305722899994,
                -16.31982598299993
              ],
              [
                -69.17041972899995,
                -16.32067210899993
              ],
              [
                -69.16686147899998,
                -16.324354733999883
              ],
              [
                -69.15584122899998,
                -16.327785733999917
              ],
              [
                -69.15004472899994,
                -16.331801982999878
              ],
              [
                -69.14596660399997,
                -16.332177858999955
              ],
              [
                -69.14194035399998,
                -16.330993733999946
              ],
              [
                -69.14091397899995,
                -16.333915608999973
              ],
              [
                -69.14205272899994,
                -16.337701358999936
              ],
              [
                -69.13936197899989,
                -16.344580983999947
              ],
              [
                -69.13919335399999,
                -16.350609358999918
              ],
              [
                -69.14558822899994,
                -16.351586483999938
              ],
              [
                -69.14864397899998,
                -16.35290585899986
              ],
              [
                -69.15075260399993,
                -16.3570724839999
              ],
              [
                -69.15667210399994,
                -16.357985483999926
              ],
              [
                -69.16370735399994,
                -16.360179483999957
              ],
              [
                -69.16807310399986,
                -16.36210685899988
              ],
              [
                -69.1686768539999,
                -16.36509260899993
              ],
              [
                -69.16750622899986,
                -16.368503983999915
              ],
              [
                -69.17062335399993,
                -16.37218835899995
              ],
              [
                -69.17235210299998,
                -16.375608733999968
              ],
              [
                -69.17078910399994,
                -16.382693358999973
              ],
              [
                -69.17109297899998,
                -16.38359585799992
              ],
              [
                -69.17947472899988,
                -16.389102233999893
              ],
              [
                -69.18197422899993,
                -16.391770858999905
              ],
              [
                -69.18377835399991,
                -16.396112108999944
              ],
              [
                -69.18890885399986,
                -16.40007735899991
              ],
              [
                -69.19283660399987,
                -16.40191910899989
              ],
              [
                -69.20031697899998,
                -16.4041788589999
              ],
              [
                -69.20475210399997,
                -16.40419423399993
              ],
              [
                -69.20891410399997,
                -16.40226560899987
              ],
              [
                -69.21139572899995,
                -16.40320798399995
              ],
              [
                -69.21647822899996,
                -16.407319733999884
              ],
              [
                -69.22479572899988,
                -16.4113217339999
              ],
              [
                -69.23098197899998,
                -16.41083423299989
              ],
              [
                -69.23448510399999,
                -16.41231985899998
              ],
              [
                -69.23769472899994,
                -16.41266373399992
              ],
              [
                -69.24606272899996,
                -16.415300233999858
              ],
              [
                -69.25294722899997,
                -16.41862885899991
              ],
              [
                -69.25674222899994,
                -16.41844135899987
              ],
              [
                -69.26004297899993,
                -16.423648483999955
              ],
              [
                -69.26364847899998,
                -16.425367233999964
              ],
              [
                -69.26757035399993,
                -16.428570358999934
              ],
              [
                -69.26809372899999,
                -16.432078108999917
              ],
              [
                -69.27002935399992,
                -16.437824233999834
              ],
              [
                -69.27462497899995,
                -16.441392483999948
              ],
              [
                -69.27957222899994,
                -16.443533233999972
              ],
              [
                -69.28386722899984,
                -16.446656233999875
              ],
              [
                -69.28644535399997,
                -16.449279358999945
              ],
              [
                -69.28678710399993,
                -16.451335983999854
              ],
              [
                -69.29038472899998,
                -16.452498108999976
              ],
              [
                -69.29341685399993,
                -16.451919733999944
              ],
              [
                -69.29584285499993,
                -16.45289785899996
              ],
              [
                -69.30363147899993,
                -16.452602108999884
              ],
              [
                -69.30764010399986,
                -16.453872107999814
              ],
              [
                -69.31211097899995,
                -16.45852110899989
              ],
              [
                -69.31501522899998,
                -16.46028398399983
              ],
              [
                -69.31904160399995,
                -16.459935483999857
              ],
              [
                -69.32105472899991,
                -16.461135733999868
              ],
              [
                -69.32508122899992,
                -16.470466233999957
              ],
              [
                -69.32786722899993,
                -16.472349608999934
              ],
              [
                -69.33014847899994,
                -16.471304733999887
              ],
              [
                -69.33300385399997,
                -16.467157483999927
              ],
              [
                -69.33425697899997,
                -16.460632358999874
              ],
              [
                -69.33379235399991,
                -16.4574189839999
              ],
              [
                -69.33417947899989,
                -16.453353858999833
              ],
              [
                -69.33514735399996,
                -16.452269858999955
              ],
              [
                -69.33933672899991,
                -16.45138035899987
              ],
              [
                -69.34635072899994,
                -16.45141523399991
              ],
              [
                -69.34853097899992,
                -16.449724233999973
              ],
              [
                -69.36158360399997,
                -16.446515233999946
              ],
              [
                -69.36545510399992,
                -16.44143560899994
              ],
              [
                -69.37105885399995,
                -16.42863060899998
              ],
              [
                -69.37351010399993,
                -16.42604098399994
              ],
              [
                -69.38030472899999,
                -16.415649108999958
              ],
              [
                -69.38305072899982,
                -16.407952733999878
              ],
              [
                -69.38551647899999,
                -16.40465248299995
              ],
              [
                -69.38981010399988,
                -16.40055773399996
              ],
              [
                -69.39200585399993,
                -16.399460357999942
              ],
              [
                -69.40025785399996,
                -16.398210982999956
              ],
              [
                -69.40537647899998,
                -16.392166233999944
              ],
              [
                -69.41283472899988,
                -16.384161733999974
              ],
              [
                -69.41401947899988,
                -16.379410108999934
              ],
              [
                -69.41278710399996,
                -16.37403710899997
              ],
              [
                -69.40846485399999,
                -16.363964858999964
              ],
              [
                -69.40673622899988,
                -16.355956858999946
              ],
              [
                -69.4038329789999,
                -16.353315608999935
              ],
              [
                -69.39974897899998,
                -16.350982358999943
              ],
              [
                -69.40042185399994,
                -16.346370358999934
              ],
              [
                -69.4059659799999,
                -16.33984048399998
              ],
              [
                -69.40856835499994,
                -16.334505858999933
              ],
              [
                -69.40455135399992,
                -16.32492910899998
              ],
              [
                -69.40076885399998,
                -16.323459608999826
              ],
              [
                -69.3971894789999,
                -16.323220983999875
              ],
              [
                -69.39380622999994,
                -16.31919523399995
              ],
              [
                -69.38956185399996,
                -16.317206107999937
              ],
              [
                -69.38149322899989,
                -16.316298108999945
              ],
              [
                -69.37702410499998,
                -16.314216733999956
              ],
              [
                -69.37301660399993,
                -16.310827108999888
              ],
              [
                -69.37014172899995,
                -16.30965648399996
              ],
              [
                -69.36480072999996,
                -16.3086426079999
              ],
              [
                -69.36099997899998,
                -16.3061211079999
              ],
              [
                -69.35877147899998,
                -16.303484357999878
              ],
              [
                -69.35369722899998,
                -16.292199233999952
              ],
              [
                -69.34926947899993,
                -16.288205107999886
              ],
              [
                -69.34568560399998,
                -16.28330860899996
              ],
              [
                -69.34148047899993,
                -16.281992233999915
              ],
              [
                -69.33651560399983,
                -16.27695510799998
              ],
              [
                -69.33500385399998,
                -16.27393160899993
              ],
              [
                -69.33519347899994,
                -16.267376983999895
              ],
              [
                -69.33274997899991,
                -16.263740233999897
              ],
              [
                -69.33199610499997,
                -16.25870510799996
              ],
              [
                -69.32969335399997,
                -16.25495748399993
              ],
              [
                -69.31777060399997,
                -16.256763233999948
              ],
              [
                -69.31068910399989,
                -16.256936983999935
              ],
              [
                -69.30627085399988,
                -16.254482858999836
              ],
              [
                -69.2979978539999,
                -16.254589607999947
              ],
              [
                -69.29527197899995,
                -16.253902607999976
              ],
              [
                -69.29414947899988,
                -16.25649335799983
              ],
              [
                -69.29514435399994,
                -16.259531358999936
              ],
              [
                -69.2940667289999,
                -16.260751483999968
              ],
              [
                -69.28965835399998,
                -16.25777198399993
              ],
              [
                -69.28666697899996,
                -16.259319858999902
              ],
              [
                -69.28611635399994,
                -16.263314733999948
              ],
              [
                -69.28877247899999,
                -16.266521483999895
              ],
              [
                -69.29018797899994,
                -16.27082798399988
              ],
              [
                -69.28952772899993,
                -16.274179233999973
              ],
              [
                -69.28650797899991,
                -16.276155108999944
              ],
              [
                -69.28149660399998,
                -16.28195160799993
              ],
              [
                -69.28217360499997,
                -16.28662110799985
              ],
              [
                -69.27868685399994,
                -16.289259358999914
              ],
              [
                -69.27076385399994,
                -16.289821358999973
              ],
              [
                -69.26789285399997,
                -16.29044423299996
              ],
              [
                -69.26517510399992,
                -16.29606685899995
              ],
              [
                -69.26064597899989,
                -16.29795998399993
              ],
              [
                -69.25907310399998,
                -16.299822358999904
              ],
              [
                -69.25676860399989,
                -16.299731733999977
              ],
              [
                -69.25641497899994,
                -16.29586535899989
              ],
              [
                -69.25465122899993,
                -16.291822233999937
              ],
              [
                -69.25696035399994,
                -16.288587108999877
              ],
              [
                -69.25749122899998,
                -16.285634733999927
              ],
              [
                -69.25449447899996,
                -16.28464273399993
              ],
              [
                -69.24847810399996,
                -16.286360233999915
              ],
              [
                -69.2452429789999,
                -16.28366335899989
              ],
              [
                -69.24513122899998,
                -16.281142108999916
              ],
              [
                -69.24355047899991,
                -16.278149607999865
              ],
              [
                -69.23951022899996,
                -16.27596260899992
              ],
              [
                -69.23751360399996,
                -16.273260108999978
              ],
              [
                -69.24115997899992,
                -16.270437733999927
              ],
              [
                -69.24363660399996,
                -16.271602358999928
              ],
              [
                -69.24599497899993,
                -16.270522483999912
              ],
              [
                -69.23629160399997,
                -16.266784358999814
              ],
              [
                -69.23611147899993,
                -16.263566983999965
              ],
              [
                -69.23394447899994,
                -16.261795608999932
              ],
              [
                -69.23098510399996,
                -16.262529483999913
              ],
              [
                -69.23128560399994,
                -16.267353733999926
              ],
              [
                -69.22774560399989,
                -16.268103857999904
              ],
              [
                -69.22416010399996,
                -16.2669348579999
              ],
              [
                -69.22239185399985,
                -16.267350858999976
              ],
              [
                -69.21470497899986,
                -16.266307982999933
              ],
              [
                -69.20886897899999,
                -16.26749235899996
              ],
              [
                -69.20017160399993,
                -16.264186233999965
              ]
            ]
          ]
        ],
        "type": "MultiPolygon"
      },
      "type": "Feature",
      "properties": {
        "PROVINCIA": "CHUCUITO",
        "DISTRITO": "POMATA",
        "name": "POMATA",
        "ID": "200407",
        "DEPARTAMEN": "PUNO"
      }
    }
  ]
}
