{
  "type": "FeatureCollection",
  "features": [
    {
      "geometry": {
        "coordinates": [
          [
            [
              [
                -78.98277411299995,
                -8.126951725999959
              ],
              [
                -78.98293311299994,
                -8.13171560099994
              ],
              [
                -78.98437836299996,
                -8.137181100999953
              ],
              [
                -78.98236523799994,
                -8.138685726999938
              ],
              [
                -78.97697061299982,
                -8.144951225999932
              ],
              [
                -78.9706854879999,
                -8.16028710099988
              ],
              [
                -78.96900786299983,
                -8.16364860199991
              ],
              [
                -78.96175348799994,
                -8.166667975999928
              ],
              [
                -78.96345598799991,
                -8.167810850999956
              ],
              [
                -78.96949623799998,
                -8.168056476999936
              ],
              [
                -78.97827923799991,
                -8.170986351999886
              ],
              [
                -78.98593161299988,
                -8.171064476999959
              ],
              [
                -78.99383486299985,
                -8.172510975999899
              ],
              [
                -78.99750198799995,
                -8.180148475999829
              ],
              [
                -78.99683786299988,
                -8.187527351999904
              ],
              [
                -78.99720698799996,
                -8.192171850999955
              ],
              [
                -78.99936323799994,
                -8.198353476999955
              ],
              [
                -79.00000386399984,
                -8.197117225999875
              ],
              [
                -79.00747673799998,
                -8.19063672599998
              ],
              [
                -79.01456036299999,
                -8.18394535099992
              ],
              [
                -79.02239648799997,
                -8.175304726999968
              ],
              [
                -79.02583986299993,
                -8.172492225999974
              ],
              [
                -79.0382617379999,
                -8.160990225999967
              ],
              [
                -79.03454298799988,
                -8.160908226999936
              ],
              [
                -79.03117186299994,
                -8.158289100999923
              ],
              [
                -79.02865036299994,
                -8.152408225999977
              ],
              [
                -79.0267283629999,
                -8.151256225999873
              ],
              [
                -79.02543548799997,
                -8.151181600999848
              ],
              [
                -79.02088861399989,
                -8.148167975999968
              ],
              [
                -79.01806636299995,
                -8.148099475999913
              ],
              [
                -79.01486723899995,
                -8.14391597599996
              ],
              [
                -79.0088416129999,
                -8.142142600999875
              ],
              [
                -79.00451561299991,
                -8.139933601999928
              ],
              [
                -78.99999998799996,
                -8.132603476999918
              ],
              [
                -78.99425973799998,
                -8.127976600999943
              ],
              [
                -78.98986323799994,
                -8.127656100999957
              ],
              [
                -78.98808011299991,
                -8.128669850999927
              ],
              [
                -78.98475973799992,
                -8.126863225999898
              ],
              [
                -78.98277411299995,
                -8.126951725999959
              ]
            ]
          ]
        ],
        "type": "MultiPolygon"
      },
      "type": "Feature",
      "properties": {
        "PROVINCIA": "TRUJILLO",
        "DISTRITO": "MOCHE",
        "name": "MOCHE",
        "ID": "120104",
        "DEPARTAMEN": "LA LIBERTAD"
      }
    }
  ]
}
