{
  "type": "FeatureCollection",
  "features": [
    {
      "geometry": {
        "coordinates": [
          [
            [
              [
                -75.04667935899988,
                -13.524177355999939
              ],
              [
                -75.05111273499989,
                -13.521877981999921
              ],
              [
                -75.05379073499995,
                -13.521261980999952
              ],
              [
                -75.05761998399998,
                -13.525546481999982
              ],
              [
                -75.06152973399998,
                -13.527340606999928
              ],
              [
                -75.06768873499993,
                -13.525626855999974
              ],
              [
                -75.07094535899995,
                -13.529189480999946
              ],
              [
                -75.07306698499997,
                -13.528728355999874
              ],
              [
                -75.07497660899998,
                -13.532511730999943
              ],
              [
                -75.07383985899997,
                -13.534826230999954
              ],
              [
                -75.07597073499988,
                -13.53826948099993
              ],
              [
                -75.07863085999998,
                -13.540062605999935
              ],
              [
                -75.08240235999995,
                -13.541197230999956
              ],
              [
                -75.08394923499992,
                -13.54412885599993
              ],
              [
                -75.08723835999996,
                -13.543380855999942
              ],
              [
                -75.09034760899982,
                -13.544265605999897
              ],
              [
                -75.09588860999997,
                -13.543365230999939
              ],
              [
                -75.10754485899997,
                -13.543632855999931
              ],
              [
                -75.11076560899988,
                -13.545185605999905
              ],
              [
                -75.11266798399998,
                -13.544083980999972
              ],
              [
                -75.11707223499997,
                -13.545771480999974
              ],
              [
                -75.11941410899993,
                -13.545966856999883
              ],
              [
                -75.12389060899989,
                -13.543790980999972
              ],
              [
                -75.12685348499997,
                -13.543580105999922
              ],
              [
                -75.12902148499995,
                -13.542119105999916
              ],
              [
                -75.13259173399996,
                -13.541988106999838
              ],
              [
                -75.13767573499996,
                -13.540593730999944
              ],
              [
                -75.14264848399989,
                -13.541996105999942
              ],
              [
                -75.1471172339999,
                -13.547068355999897
              ],
              [
                -75.14876948499995,
                -13.555091855999933
              ],
              [
                -75.14801360999991,
                -13.557972606999897
              ],
              [
                -75.14952148499998,
                -13.55995698099997
              ],
              [
                -75.14945310999991,
                -13.564318356999934
              ],
              [
                -75.15144135999992,
                -13.569230480999863
              ],
              [
                -75.1521367339999,
                -13.573244105999947
              ],
              [
                -75.15432223399989,
                -13.577224605999959
              ],
              [
                -75.15643160999991,
                -13.579519480999863
              ],
              [
                -75.15651173399988,
                -13.581736355999965
              ],
              [
                -75.15855860999994,
                -13.583431605999976
              ],
              [
                -75.16042973399988,
                -13.587275355999964
              ],
              [
                -75.16026760999995,
                -13.589062480999928
              ],
              [
                -75.16205273399999,
                -13.592017605999956
              ],
              [
                -75.16559960899997,
                -13.594091856999967
              ],
              [
                -75.16514260899999,
                -13.59772660599998
              ],
              [
                -75.1620778599999,
                -13.601369230999921
              ],
              [
                -75.16230348399995,
                -13.606631731999869
              ],
              [
                -75.15986010899991,
                -13.610578605999933
              ],
              [
                -75.15771748499998,
                -13.616480230999912
              ],
              [
                -75.1531316089999,
                -13.617908605999958
              ],
              [
                -75.15211673499994,
                -13.620614980999903
              ],
              [
                -75.15410898499994,
                -13.624110855999959
              ],
              [
                -75.15658985899995,
                -13.626591730999962
              ],
              [
                -75.1581686099999,
                -13.630726605999882
              ],
              [
                -75.16173960999998,
                -13.633696105999888
              ],
              [
                -75.16613760999991,
                -13.639522480999972
              ],
              [
                -75.1695059839999,
                -13.649672856999928
              ],
              [
                -75.1727856089999,
                -13.65131248199998
              ],
              [
                -75.17992360999995,
                -13.653338230999907
              ],
              [
                -75.18079173499996,
                -13.660186731999886
              ],
              [
                -75.18190098499997,
                -13.660861981999972
              ],
              [
                -75.18990710999998,
                -13.661247856999864
              ],
              [
                -75.19246323399994,
                -13.66192310699995
              ],
              [
                -75.19685223499988,
                -13.668626980999875
              ],
              [
                -75.20046935899995,
                -13.669495105999943
              ],
              [
                -75.20452073499996,
                -13.668819855999914
              ],
              [
                -75.20755910999992,
                -13.667517730999919
              ],
              [
                -75.21117623499998,
                -13.66891635599984
              ],
              [
                -75.21397373499997,
                -13.671472480999967
              ],
              [
                -75.21818173499997,
                -13.67704910599997
              ],
              [
                -75.22077410999998,
                -13.681871981999961
              ],
              [
                -75.22433098499994,
                -13.68524810599996
              ],
              [
                -75.22885260899994,
                -13.687599356999897
              ],
              [
                -75.23753385999998,
                -13.695315980999965
              ],
              [
                -75.24627548499996,
                -13.697064356999931
              ],
              [
                -75.25270473399996,
                -13.703942856999902
              ],
              [
                -75.25137048499988,
                -13.70931285599994
              ],
              [
                -75.2570859839999,
                -13.713533231999918
              ],
              [
                -75.2649532349999,
                -13.712640606999969
              ],
              [
                -75.27141598499998,
                -13.71069135599987
              ],
              [
                -75.27503710899998,
                -13.70911135599988
              ],
              [
                -75.27941985999996,
                -13.709943355999883
              ],
              [
                -75.28144335999997,
                -13.711152356999946
              ],
              [
                -75.28190035999995,
                -13.71849410599998
              ],
              [
                -75.28489260899988,
                -13.722154355999919
              ],
              [
                -75.28448835999995,
                -13.724675731999923
              ],
              [
                -75.28875973499993,
                -13.72666410599993
              ],
              [
                -75.2949647349999,
                -13.72375385599986
              ],
              [
                -75.29769335899988,
                -13.72554685599988
              ],
              [
                -75.29981635999997,
                -13.724427731999924
              ],
              [
                -75.30062698499995,
                -13.727578105999896
              ],
              [
                -75.30241210999998,
                -13.729699231999973
              ],
              [
                -75.30432223499992,
                -13.730085980999945
              ],
              [
                -75.30304510899992,
                -13.72805535599997
              ],
              [
                -75.3033034849999,
                -13.724906480999834
              ],
              [
                -75.30455348499987,
                -13.722781231999932
              ],
              [
                -75.30397585999992,
                -13.71962148199998
              ],
              [
                -75.30197135899994,
                -13.715782231999924
              ],
              [
                -75.30193735899996,
                -13.708409605999918
              ],
              [
                -75.30054435999989,
                -13.705079980999926
              ],
              [
                -75.29735060999997,
                -13.69971198199994
              ],
              [
                -75.29599160999993,
                -13.693018730999938
              ],
              [
                -75.29075948399992,
                -13.687514731999897
              ],
              [
                -75.28957023399994,
                -13.682656231999886
              ],
              [
                -75.28773560899992,
                -13.678341356999852
              ],
              [
                -75.28729398399992,
                -13.67440023099988
              ],
              [
                -75.28753173499996,
                -13.668386605999956
              ],
              [
                -75.28855098499992,
                -13.66498910599995
              ],
              [
                -75.28746685999994,
                -13.661842981999882
              ],
              [
                -75.28684485999997,
                -13.656771230999937
              ],
              [
                -75.28416535999997,
                -13.652703856999892
              ],
              [
                -75.28311260999999,
                -13.649928731999978
              ],
              [
                -75.2836152349999,
                -13.642943355999932
              ],
              [
                -75.27862835999986,
                -13.63789435599989
              ],
              [
                -75.27465735999994,
                -13.634604231999901
              ],
              [
                -75.26603448499992,
                -13.628590731999907
              ],
              [
                -75.26115573499993,
                -13.626378231999979
              ],
              [
                -75.25468848399998,
                -13.627229231999877
              ],
              [
                -75.25003673499992,
                -13.62654848099993
              ],
              [
                -75.24617910899997,
                -13.62496010599989
              ],
              [
                -75.24288885999994,
                -13.620024605999902
              ],
              [
                -75.24033598499994,
                -13.617244855999957
              ],
              [
                -75.23698898499993,
                -13.617074606999893
              ],
              [
                -75.2347764839999,
                -13.614408355999899
              ],
              [
                -75.23313135999996,
                -13.608054605999826
              ],
              [
                -75.22785548399997,
                -13.604253981999932
              ],
              [
                -75.22172873499994,
                -13.602948980999884
              ],
              [
                -75.21821148399994,
                -13.600679855999886
              ],
              [
                -75.21120010999982,
                -13.589929106999875
              ],
              [
                -75.20697023399998,
                -13.5858598559999
              ],
              [
                -75.20434685999999,
                -13.58452148099991
              ],
              [
                -75.20252648499996,
                -13.582379980999917
              ],
              [
                -75.20268710899995,
                -13.577132855999935
              ],
              [
                -75.19984935999997,
                -13.572421355999893
              ],
              [
                -75.20033123499996,
                -13.567120856999907
              ],
              [
                -75.20311535899992,
                -13.56251635599989
              ],
              [
                -75.19310335899996,
                -13.555609605999962
              ],
              [
                -75.19197898499993,
                -13.55368210699993
              ],
              [
                -75.19031923499989,
                -13.547953355999937
              ],
              [
                -75.18542573499991,
                -13.542349605999902
              ],
              [
                -75.1803417349999,
                -13.538127230999976
              ],
              [
                -75.17573573399994,
                -13.537238980999916
              ],
              [
                -75.17185348499999,
                -13.53181035599988
              ],
              [
                -75.16932010899995,
                -13.53181035599988
              ],
              [
                -75.16389685999997,
                -13.533249730999955
              ],
              [
                -75.16126248499995,
                -13.529298105999942
              ],
              [
                -75.15401773499997,
                -13.522135730999935
              ],
              [
                -75.14969523499997,
                -13.502288356999884
              ],
              [
                -75.14561273399994,
                -13.502462105999882
              ],
              [
                -75.13896773399995,
                -13.501506605999964
              ],
              [
                -75.13627498399995,
                -13.499899605999872
              ],
              [
                -75.1323227339999,
                -13.495469605999972
              ],
              [
                -75.13097635899999,
                -13.492950605999908
              ],
              [
                -75.12824023499996,
                -13.490518480999924
              ],
              [
                -75.12489598399992,
                -13.49121335599989
              ],
              [
                -75.1200317339999,
                -13.490214480999953
              ],
              [
                -75.11547148499989,
                -13.485827855999958
              ],
              [
                -75.11106835999988,
                -13.48257035599994
              ],
              [
                -75.10695885899997,
                -13.475056980999966
              ],
              [
                -75.10496110899993,
                -13.472972230999972
              ],
              [
                -75.10126948399994,
                -13.472494480999956
              ],
              [
                -75.09970585899998,
                -13.47140873099994
              ],
              [
                -75.08787898399993,
                -13.46774023099988
              ],
              [
                -75.0853077349999,
                -13.465985605999947
              ],
              [
                -75.07759423399995,
                -13.463960105999945
              ],
              [
                -75.0772194839999,
                -13.458826105999947
              ],
              [
                -75.07512085899992,
                -13.457739355999934
              ],
              [
                -75.06912498499997,
                -13.457589480999957
              ],
              [
                -75.06608960899996,
                -13.460399980999966
              ],
              [
                -75.05724573399993,
                -13.4632854809999
              ],
              [
                -75.05289873399994,
                -13.464259855999956
              ],
              [
                -75.05082423399989,
                -13.466621105999934
              ],
              [
                -75.04848635999991,
                -13.467697230999875
              ],
              [
                -75.04685623399996,
                -13.470070605999979
              ],
              [
                -75.04920910899995,
                -13.474293730999875
              ],
              [
                -75.05092910899998,
                -13.481174230999954
              ],
              [
                -75.04941135899998,
                -13.494884605999971
              ],
              [
                -75.04622410899998,
                -13.498628480999969
              ],
              [
                -75.04480748499998,
                -13.503384105999885
              ],
              [
                -75.04141785899992,
                -13.510517480999908
              ],
              [
                -75.03590335899992,
                -13.517296855999973
              ],
              [
                -75.03595398399995,
                -13.520433480999941
              ],
              [
                -75.04126598399989,
                -13.521242980999943
              ],
              [
                -75.04592048399996,
                -13.523064230999921
              ],
              [
                -75.04667935899988,
                -13.524177355999939
              ]
            ]
          ]
        ],
        "type": "MultiPolygon"
      },
      "type": "Feature",
      "properties": {
        "PROVINCIA": "HUAYTARA",
        "DISTRITO": "TAMBO",
        "name": "TAMBO",
        "ID": "080616",
        "DEPARTAMEN": "HUANCAVELICA"
      }
    }
  ]
}
