{
  "type": "FeatureCollection",
  "features": [
    {
      "geometry": {
        "coordinates": [
          [
            [
              [
                -76.77753998599991,
                -11.26583997899985
              ],
              [
                -76.77369998599988,
                -11.268159978999961
              ],
              [
                -76.7694707359999,
                -11.275724603999947
              ],
              [
                -76.76296286099995,
                -11.277373104999924
              ],
              [
                -76.75900198599999,
                -11.279175728999974
              ],
              [
                -76.74835161099998,
                -11.287574228999858
              ],
              [
                -76.74134761099992,
                -11.29376372899992
              ],
              [
                -76.73539648599996,
                -11.296472603999973
              ],
              [
                -76.7213436109999,
                -11.305823853999925
              ],
              [
                -76.71865061099993,
                -11.305758228999935
              ],
              [
                -76.71142561099998,
                -11.303721978999931
              ],
              [
                -76.70606248599995,
                -11.30511522899991
              ],
              [
                -76.70223011099995,
                -11.307728603999976
              ],
              [
                -76.70012823599995,
                -11.312260728999945
              ],
              [
                -76.70011136099998,
                -11.317867228999944
              ],
              [
                -76.70219486099995,
                -11.320233603999895
              ],
              [
                -76.70745736099991,
                -11.321930103999932
              ],
              [
                -76.71084986099993,
                -11.3237567299999
              ],
              [
                -76.71689523599991,
                -11.329367228999956
              ],
              [
                -76.72368011099996,
                -11.328105979999975
              ],
              [
                -76.72768148599994,
                -11.330410978999907
              ],
              [
                -76.73446611099996,
                -11.328627853999876
              ],
              [
                -76.73558311099993,
                -11.32451147899991
              ],
              [
                -76.73821736099984,
                -11.320779478999953
              ],
              [
                -76.75730861099998,
                -11.312869103999958
              ],
              [
                -76.76025386099997,
                -11.31090822899995
              ],
              [
                -76.76843973599995,
                -11.303948603999913
              ],
              [
                -76.77663561099996,
                -11.298899353999957
              ],
              [
                -76.78307523599995,
                -11.297728603999815
              ],
              [
                -76.79068573599994,
                -11.293411103999972
              ],
              [
                -76.79558598599994,
                -11.29279685399996
              ],
              [
                -76.80082036099998,
                -11.291290978999882
              ],
              [
                -76.80593161099989,
                -11.290464853999936
              ],
              [
                -76.81661911099991,
                -11.286414104999949
              ],
              [
                -76.82570736099996,
                -11.281709978999857
              ],
              [
                -76.83044961099995,
                -11.277797728999872
              ],
              [
                -76.83370998599997,
                -11.281569978999926
              ],
              [
                -76.83464998599993,
                -11.279609978999929
              ],
              [
                -76.83736998599994,
                -11.27794997899997
              ],
              [
                -76.83737998599997,
                -11.276429978999886
              ],
              [
                -76.83402923599994,
                -11.272765603999915
              ],
              [
                -76.83183948599992,
                -11.260959103999937
              ],
              [
                -76.82753711099991,
                -11.258369103999883
              ],
              [
                -76.81841998599998,
                -11.257489978999956
              ],
              [
                -76.81879998599999,
                -11.269879978999882
              ],
              [
                -76.81592998599984,
                -11.270079978999945
              ],
              [
                -76.81412998599995,
                -11.268649979999907
              ],
              [
                -76.81021998599988,
                -11.268519978999905
              ],
              [
                -76.80408998599995,
                -11.264909978999981
              ],
              [
                -76.79897998599989,
                -11.265449978999982
              ],
              [
                -76.79230998599996,
                -11.265090103999967
              ],
              [
                -76.78695998599994,
                -11.266209978999825
              ],
              [
                -76.78334998599996,
                -11.265319978999969
              ],
              [
                -76.77969998599991,
                -11.266439978999927
              ],
              [
                -76.77753998599991,
                -11.26583997899985
              ]
            ]
          ]
        ],
        "type": "MultiPolygon"
      },
      "type": "Feature",
      "properties": {
        "PROVINCIA": "HUARAL",
        "DISTRITO": "SAN MIGUEL DE ACOS",
        "name": "SAN MIGUEL DE ACOS",
        "ID": "140809",
        "DEPARTAMEN": "LIMA"
      }
    }
  ]
}
