{
  "type": "FeatureCollection",
  "features": [
    {
      "geometry": {
        "coordinates": [
          [
            [
              [
                -76.23534573500001,
                -9.418208977999882
              ],
              [
                -76.23384761099987,
                -9.419937477999895
              ],
              [
                -76.2309101109999,
                -9.42601372799993
              ],
              [
                -76.22527536099989,
                -9.432230476999962
              ],
              [
                -76.2208516099999,
                -9.434486351999851
              ],
              [
                -76.21425973499998,
                -9.437029226999925
              ],
              [
                -76.20895898499998,
                -9.441037102999871
              ],
              [
                -76.20403511099983,
                -9.446710977999942
              ],
              [
                -76.20152923499995,
                -9.451593851999917
              ],
              [
                -76.20098823499995,
                -9.454308602999902
              ],
              [
                -76.20173235999988,
                -9.460826227999974
              ],
              [
                -76.20147848599993,
                -9.465999977999957
              ],
              [
                -76.19904111099987,
                -9.474494101999937
              ],
              [
                -76.20081048599991,
                -9.482749977999958
              ],
              [
                -76.20091198499995,
                -9.486765601999934
              ],
              [
                -76.20219136099985,
                -9.488144477999981
              ],
              [
                -76.20385348599996,
                -9.492150351999953
              ],
              [
                -76.203234361,
                -9.49674410199998
              ],
              [
                -76.20468561099989,
                -9.498866851999935
              ],
              [
                -76.20505136099996,
                -9.498992226999917
              ],
              [
                -76.20681685999983,
                -9.498772851999888
              ],
              [
                -76.20775711099992,
                -9.498762352999904
              ],
              [
                -76.20828985999987,
                -9.498939976999964
              ],
              [
                -76.20904211100003,
                -9.499441477
              ],
              [
                -76.20925098499998,
                -9.50005785299993
              ],
              [
                -76.20912561,
                -9.502512851999825
              ],
              [
                -76.21001898500003,
                -9.504530977999934
              ],
              [
                -76.2130058599999,
                -9.507511726999894
              ],
              [
                -76.21433986100004,
                -9.507888727999898
              ],
              [
                -76.21663286099988,
                -9.507464851999941
              ],
              [
                -76.21899023499998,
                -9.506949227
              ],
              [
                -76.2219746109999,
                -9.50813285299995
              ],
              [
                -76.22524611099988,
                -9.508836102999965
              ],
              [
                -76.22807811099989,
                -9.508689477999894
              ],
              [
                -76.22979098499985,
                -9.508367227999884
              ],
              [
                -76.23502535999995,
                -9.510093602999916
              ],
              [
                -76.23750198599998,
                -9.512318352999955
              ],
              [
                -76.2398613609999,
                -9.512492226999939
              ],
              [
                -76.24626186099977,
                -9.516519477999907
              ],
              [
                -76.24933785999997,
                -9.520578102999934
              ],
              [
                -76.25375786099994,
                -9.52127735299996
              ],
              [
                -76.26069723599988,
                -9.523216852999951
              ],
              [
                -76.27013673499994,
                -9.52370510299994
              ],
              [
                -76.27214648599988,
                -9.525488226999926
              ],
              [
                -76.28285735999998,
                -9.525123101999895
              ],
              [
                -76.28580861,
                -9.524740226999938
              ],
              [
                -76.29042973499998,
                -9.52106247699993
              ],
              [
                -76.29402148499997,
                -9.521365226999933
              ],
              [
                -76.29804098599993,
                -9.519912102999967
              ],
              [
                -76.30278498499996,
                -9.51943160299993
              ],
              [
                -76.31006836099988,
                -9.51794135199998
              ],
              [
                -76.31346873599989,
                -9.516580101999978
              ],
              [
                -76.31816410999994,
                -9.51782035199983
              ],
              [
                -76.323156235,
                -9.520017602999928
              ],
              [
                -76.32558786100003,
                -9.522439602999953
              ],
              [
                -76.32910548599983,
                -9.522878852999952
              ],
              [
                -76.335988236,
                -9.52636135299997
              ],
              [
                -76.33897073599985,
                -9.52721685299997
              ],
              [
                -76.34273235999996,
                -9.52981647799993
              ],
              [
                -76.34366798600001,
                -9.531513727999936
              ],
              [
                -76.34794923599986,
                -9.535601601999872
              ],
              [
                -76.34974410999996,
                -9.536037102999956
              ],
              [
                -76.35297848599987,
                -9.540798977999941
              ],
              [
                -76.35736910999998,
                -9.54304297799996
              ],
              [
                -76.35837111099977,
                -9.545642602999976
              ],
              [
                -76.36072661099996,
                -9.54680660299988
              ],
              [
                -76.35950785999984,
                -9.549970726999959
              ],
              [
                -76.36080073599987,
                -9.560572226999966
              ],
              [
                -76.35980661099995,
                -9.564806602999909
              ],
              [
                -76.36358986099998,
                -9.570099602999903
              ],
              [
                -76.36515036099996,
                -9.570980476999978
              ],
              [
                -76.36571673499992,
                -9.575527352999927
              ],
              [
                -76.36502360999987,
                -9.577843727999948
              ],
              [
                -76.37058198599988,
                -9.584929727999963
              ],
              [
                -76.37347073599989,
                -9.587277352999934
              ],
              [
                -76.37455273499995,
                -9.589505852999935
              ],
              [
                -76.37750973599992,
                -9.592660102999957
              ],
              [
                -76.38076761099984,
                -9.59390435299997
              ],
              [
                -76.38590236099986,
                -9.599255852999931
              ],
              [
                -76.38696286099986,
                -9.602904352999929
              ],
              [
                -76.38855473599995,
                -9.604460977999906
              ],
              [
                -76.39095310999988,
                -9.604720726999915
              ],
              [
                -76.39642186099985,
                -9.608083977999911
              ],
              [
                -76.39907611000001,
                -9.612628852999933
              ],
              [
                -76.40093161099986,
                -9.614339851999944
              ],
              [
                -76.40104873599995,
                -9.616130852999959
              ],
              [
                -76.40341598599991,
                -9.620035101999974
              ],
              [
                -76.40562111099985,
                -9.622267602999955
              ],
              [
                -76.40659173599994,
                -9.625755727999888
              ],
              [
                -76.40943998499989,
                -9.628550852999979
              ],
              [
                -76.40804998499988,
                -9.631199976999937
              ],
              [
                -76.411089985,
                -9.634209977999944
              ],
              [
                -76.41373911099987,
                -9.641417227999966
              ],
              [
                -76.412420236,
                -9.643617227999925
              ],
              [
                -76.41268273599997,
                -9.647378726999932
              ],
              [
                -76.41145798599996,
                -9.654289477999896
              ],
              [
                -76.41250773499996,
                -9.656214102999911
              ],
              [
                -76.41224536099992,
                -9.659275727999841
              ],
              [
                -76.41110811099998,
                -9.661112852999963
              ],
              [
                -76.41250773599995,
                -9.666623977999961
              ],
              [
                -76.41731898499995,
                -9.670385477999957
              ],
              [
                -76.42169298599993,
                -9.669423227999914
              ],
              [
                -76.42440473600004,
                -9.669685727999877
              ],
              [
                -76.42659173499999,
                -9.672222602000033
              ],
              [
                -76.42799136099995,
                -9.675109352999925
              ],
              [
                -76.42860373500002,
                -9.679133352999827
              ],
              [
                -76.43096561100003,
                -9.683682227999952
              ],
              [
                -76.43052823599999,
                -9.689543227999877
              ],
              [
                -76.433179736,
                -9.694619102999923
              ],
              [
                -76.433406236,
                -9.696757852999951
              ],
              [
                -76.43496285999993,
                -9.698726602999955
              ],
              [
                -76.43818548599984,
                -9.706128852999939
              ],
              [
                -76.44442386099996,
                -9.70263472799985
              ],
              [
                -76.44594536099993,
                -9.70267185299997
              ],
              [
                -76.44973048600002,
                -9.707802726999944
              ],
              [
                -76.45379298599988,
                -9.707234352999933
              ],
              [
                -76.45592973600003,
                -9.706212852999954
              ],
              [
                -76.45904085999996,
                -9.706023477999906
              ],
              [
                -76.46298636099982,
                -9.706958977999875
              ],
              [
                -76.4646894849999,
                -9.703525352999975
              ],
              [
                -76.46896873599991,
                -9.701679727999988
              ],
              [
                -76.46901948599998,
                -9.697933601999978
              ],
              [
                -76.47144923499991,
                -9.692492227999878
              ],
              [
                -76.46856248599988,
                -9.688761727999974
              ],
              [
                -76.46797260999983,
                -9.68500372699998
              ],
              [
                -76.47526161099995,
                -9.676857477999874
              ],
              [
                -76.47646486099984,
                -9.674515602999918
              ],
              [
                -76.48277135999984,
                -9.674501977999967
              ],
              [
                -76.4845507359999,
                -9.67524797699997
              ],
              [
                -76.48593948599995,
                -9.677958977999936
              ],
              [
                -76.48847661100001,
                -9.680664103000026
              ],
              [
                -76.49226948499995,
                -9.680775352999945
              ],
              [
                -76.49500198499999,
                -9.678181601999938
              ],
              [
                -76.49699411099988,
                -9.67501172699997
              ],
              [
                -76.49929098599995,
                -9.674109353
              ],
              [
                -76.50257811099988,
                -9.67588085199992
              ],
              [
                -76.50493748599996,
                -9.67359760200003
              ],
              [
                -76.50862498499998,
                -9.673412102999919
              ],
              [
                -76.51231248599998,
                -9.676089852999894
              ],
              [
                -76.51551948599996,
                -9.676398477999953
              ],
              [
                -76.51587698599997,
                -9.673826227999939
              ],
              [
                -76.51866986100003,
                -9.668781352999929
              ],
              [
                -76.52333598599984,
                -9.66776572799995
              ],
              [
                -76.52629486099988,
                -9.665648476999877
              ],
              [
                -76.53039648599997,
                -9.668074227999966
              ],
              [
                -76.53162111099994,
                -9.669988227999966
              ],
              [
                -76.53413485999982,
                -9.671150351999927
              ],
              [
                -76.53594336099991,
                -9.674158226999964
              ],
              [
                -76.53586323599984,
                -9.675988226999834
              ],
              [
                -76.53961136099991,
                -9.675218727999948
              ],
              [
                -76.54466011099993,
                -9.676980477999962
              ],
              [
                -76.54973636099993,
                -9.680685601999926
              ],
              [
                -76.55313086099989,
                -9.680724601999941
              ],
              [
                -76.55888285999981,
                -9.682705101999943
              ],
              [
                -76.57035348600004,
                -9.681423852999956
              ],
              [
                -76.58028510999986,
                -9.678581977999954
              ],
              [
                -76.58235548599993,
                -9.67596872799993
              ],
              [
                -76.58588086099985,
                -9.674558602999923
              ],
              [
                -76.59811523599996,
                -9.672513727999956
              ],
              [
                -76.60114848599994,
                -9.673677727999973
              ],
              [
                -76.60657811100003,
                -9.678013726999893
              ],
              [
                -76.61439261099991,
                -9.678564477999942
              ],
              [
                -76.61617973599982,
                -9.677406226999892
              ],
              [
                -76.61688673599997,
                -9.675181602999885
              ],
              [
                -76.61883598599985,
                -9.675380852999922
              ],
              [
                -76.62395111099988,
                -9.678498102999924
              ],
              [
                -76.62930661099989,
                -9.684208977999958
              ],
              [
                -76.63119136099994,
                -9.685363227999972
              ],
              [
                -76.63837498599986,
                -9.685871102999954
              ],
              [
                -76.64397848599987,
                -9.687732477
              ],
              [
                -76.64633786099995,
                -9.687558601999967
              ],
              [
                -76.649316236,
                -9.685357477999958
              ],
              [
                -76.66171098599989,
                -9.680179726999881
              ],
              [
                -76.66397461099996,
                -9.677339852999921
              ],
              [
                -76.66642773599989,
                -9.677996101999952
              ],
              [
                -76.66961136099997,
                -9.680367227999966
              ],
              [
                -76.67339061099983,
                -9.681669977999832
              ],
              [
                -76.67586323599988,
                -9.684261726999978
              ],
              [
                -76.67896286099983,
                -9.686351601999945
              ],
              [
                -76.68116211099994,
                -9.688738227999977
              ],
              [
                -76.68447073599992,
                -9.696261726999921
              ],
              [
                -76.68666411099986,
                -9.699343727999974
              ],
              [
                -76.68971873599992,
                -9.701542976999917
              ],
              [
                -76.69264648599994,
                -9.70044335199998
              ],
              [
                -76.69761723599993,
                -9.69758972699998
              ],
              [
                -76.70207423599993,
                -9.69408597699993
              ],
              [
                -76.70331248599996,
                -9.69045510299992
              ],
              [
                -76.70719723599996,
                -9.692839851999963
              ],
              [
                -76.70998236100002,
                -9.693837852999934
              ],
              [
                -76.71539448599998,
                -9.697482352999941
              ],
              [
                -76.72121286099991,
                -9.702081977999967
              ],
              [
                -76.72317773599985,
                -9.704919977999907
              ],
              [
                -76.72298236099988,
                -9.71138472799987
              ],
              [
                -76.7209121109999,
                -9.716124977999925
              ],
              [
                -76.71567973599997,
                -9.722939476999954
              ],
              [
                -76.71467573599983,
                -9.728169977999926
              ],
              [
                -76.71116798599996,
                -9.729896477999944
              ],
              [
                -76.7044238609999,
                -9.735337852999976
              ],
              [
                -76.70248823599997,
                -9.738367227999959
              ],
              [
                -76.70292186099988,
                -9.742806727999948
              ],
              [
                -76.70209373599994,
                -9.745388727999966
              ],
              [
                -76.70249023599996,
                -9.748039101999893
              ],
              [
                -76.71033986099991,
                -9.749990227999945
              ],
              [
                -76.71310936099991,
                -9.75145897799996
              ],
              [
                -76.71909573599999,
                -9.751482477999957
              ],
              [
                -76.721636736,
                -9.752826227999947
              ],
              [
                -76.7250448609999,
                -9.752790976999961
              ],
              [
                -76.73074611099992,
                -9.753656227999954
              ],
              [
                -76.73525386099993,
                -9.753037102999883
              ],
              [
                -76.73405073599997,
                -9.756306602999985
              ],
              [
                -76.73531836099994,
                -9.767040977999955
              ],
              [
                -76.73518748599986,
                -9.771996102999935
              ],
              [
                -76.73327536099993,
                -9.779392476999874
              ],
              [
                -76.73386136099992,
                -9.781650352999918
              ],
              [
                -76.73579886099992,
                -9.784171851999929
              ],
              [
                -76.73587511099993,
                -9.791910102999964
              ],
              [
                -76.73778911099993,
                -9.795290977999969
              ],
              [
                -76.73841411099994,
                -9.798251977999882
              ],
              [
                -76.741511736,
                -9.804763727999898
              ],
              [
                -76.74215236099997,
                -9.808738227999982
              ],
              [
                -76.74366798599988,
                -9.813005852999936
              ],
              [
                -76.74675586099988,
                -9.819482476999951
              ],
              [
                -76.74749223599997,
                -9.82238085299997
              ],
              [
                -76.74700386099994,
                -9.826578102999974
              ],
              [
                -76.74996098600002,
                -9.831617227999914
              ],
              [
                -76.75039848599988,
                -9.834656226999925
              ],
              [
                -76.74976361099993,
                -9.836738226999955
              ],
              [
                -76.75225598599991,
                -9.839468602999943
              ],
              [
                -76.7557069859999,
                -9.840554726999926
              ],
              [
                -76.75801948599985,
                -9.842460852999977
              ],
              [
                -76.75445111099992,
                -9.848929727999973
              ],
              [
                -76.75122661099982,
                -9.852091852999877
              ],
              [
                -76.74933986099995,
                -9.856138727999962
              ],
              [
                -76.74644923599988,
                -9.857326227999977
              ],
              [
                -76.74328123599986,
                -9.860929727999974
              ],
              [
                -76.74079098599987,
                -9.869841852999912
              ],
              [
                -76.735810486,
                -9.872697227999936
              ],
              [
                -76.73346286099991,
                -9.876763727999958
              ],
              [
                -76.72670511099994,
                -9.882148476999987
              ],
              [
                -76.72498636099994,
                -9.887359352999965
              ],
              [
                -76.72349611099992,
                -9.889021477999961
              ],
              [
                -76.72281048599996,
                -9.89509185299994
              ],
              [
                -76.72006048599997,
                -9.898357477999866
              ],
              [
                -76.72351173599998,
                -9.902390602999958
              ],
              [
                -76.72476948599984,
                -9.905376977999879
              ],
              [
                -76.72994723599993,
                -9.908755852999946
              ],
              [
                -76.73349023599985,
                -9.911828102999948
              ],
              [
                -76.73267773599986,
                -9.917972601999963
              ],
              [
                -76.73007623599995,
                -9.920705102999818
              ],
              [
                -76.73383398599987,
                -9.924054726999941
              ],
              [
                -76.735040986,
                -9.930248102999883
              ],
              [
                -76.73626761099996,
                -9.93158197799994
              ],
              [
                -76.73594923600001,
                -9.933927727999958
              ],
              [
                -76.73749611099993,
                -9.935261726999954
              ],
              [
                -76.74282036099993,
                -9.937505852999891
              ],
              [
                -76.74501761099992,
                -9.940976602999854
              ],
              [
                -76.74848236099996,
                -9.944103477999931
              ],
              [
                -76.75214648600002,
                -9.944537102999902
              ],
              [
                -76.7560429859999,
                -9.939054727999974
              ],
              [
                -76.75818361099982,
                -9.93819135299998
              ],
              [
                -76.76338473600003,
                -9.941109352999888
              ],
              [
                -76.7666229859999,
                -9.948453102999906
              ],
              [
                -76.7697069859999,
                -9.954226602999881
              ],
              [
                -76.776318361,
                -9.95673260299992
              ],
              [
                -76.77990823599993,
                -9.957017603
              ],
              [
                -76.77800973599989,
                -9.964714852999919
              ],
              [
                -76.77612286099998,
                -9.96845697799995
              ],
              [
                -76.77717973599994,
                -9.971656227999972
              ],
              [
                -76.7767187359999,
                -9.976078102999907
              ],
              [
                -76.77834761099984,
                -9.978046853000023
              ],
              [
                -76.77853323599993,
                -9.980962852999937
              ],
              [
                -76.77532811099985,
                -9.990765602999943
              ],
              [
                -76.77320511099981,
                -9.994062477999876
              ],
              [
                -76.77812298599991,
                -9.997078102999978
              ],
              [
                -76.77963473599993,
                -9.997374977999868
              ],
              [
                -76.78470698599995,
                -10.000843727999893
              ],
              [
                -76.78827536099988,
                -10.004470727999887
              ],
              [
                -76.79236723599996,
                -10.005833977999885
              ],
              [
                -76.80053511099987,
                -10.006513727999902
              ],
              [
                -76.80417186100004,
                -10.00230072799991
              ],
              [
                -76.8063458609999,
                -10.002388727999914
              ],
              [
                -76.80838473599982,
                -10.004650227999889
              ],
              [
                -76.81228911100004,
                -10.006115228
              ],
              [
                -76.81552536100003,
                -10.005980477999913
              ],
              [
                -76.81840823599998,
                -10.009396477999928
              ],
              [
                -76.82404686099989,
                -10.010998102999963
              ],
              [
                -76.82502736099991,
                -10.009232477999888
              ],
              [
                -76.824021486,
                -10.004062352999938
              ],
              [
                -76.82441986099991,
                -10.00103710299993
              ],
              [
                -76.82318548599983,
                -9.998488227999871
              ],
              [
                -76.8232656109999,
                -9.995623102999957
              ],
              [
                -76.82521673599985,
                -9.993074227999898
              ],
              [
                -76.82561511099988,
                -9.98929297799998
              ],
              [
                -76.82370111200004,
                -9.986003852999943
              ],
              [
                -76.81952348599998,
                -9.981451227999969
              ],
              [
                -76.81771873599996,
                -9.978527352999947
              ],
              [
                -76.81794923699982,
                -9.97554497799996
              ],
              [
                -76.8171288609999,
                -9.972285102999933
              ],
              [
                -76.81523823599997,
                -9.97053122799997
              ],
              [
                -76.8140604859999,
                -9.96735347799995
              ],
              [
                -76.8154843609999,
                -9.965050727999937
              ],
              [
                -76.81367573599982,
                -9.961572227999966
              ],
              [
                -76.81397661100004,
                -9.95962697799996
              ],
              [
                -76.81583986099992,
                -9.957599602999892
              ],
              [
                -76.81803323599985,
                -9.952285102999895
              ],
              [
                -76.82518948699999,
                -9.945326227999942
              ],
              [
                -76.82662298599996,
                -9.94191210299988
              ],
              [
                -76.82898048599998,
                -9.938421852999966
              ],
              [
                -76.83420698599986,
                -9.937265602999958
              ],
              [
                -76.83893748600002,
                -9.934554727999966
              ],
              [
                -76.84186148700002,
                -9.930621102999964
              ],
              [
                -76.84199411099996,
                -9.928148477999912
              ],
              [
                -76.84374998599986,
                -9.923921852999968
              ],
              [
                -76.84289848599997,
                -9.919880977999924
              ],
              [
                -76.84037298599986,
                -9.917728477999901
              ],
              [
                -76.84193548600001,
                -9.911724602999925
              ],
              [
                -76.84573236099993,
                -9.910212852999962
              ],
              [
                -76.84791411099997,
                -9.902697352999951
              ],
              [
                -76.85126761199996,
                -9.89772847699993
              ],
              [
                -76.85075198699985,
                -9.894556602999955
              ],
              [
                -76.85342186099996,
                -9.89192972799998
              ],
              [
                -76.8590214859999,
                -9.88859185299998
              ],
              [
                -76.85920711099999,
                -9.88294335300003
              ],
              [
                -76.8621054859999,
                -9.875451226999871
              ],
              [
                -76.86672461099982,
                -9.87128122799993
              ],
              [
                -76.86928323599989,
                -9.870013602999904
              ],
              [
                -76.870414111,
                -9.86676947799998
              ],
              [
                -76.8729823609998,
                -9.863765602999877
              ],
              [
                -76.87204298599994,
                -9.861796852999873
              ],
              [
                -76.8693554859999,
                -9.859925726999961
              ],
              [
                -76.87131836099985,
                -9.857693476999884
              ],
              [
                -76.87225198700003,
                -9.850968727999941
              ],
              [
                -76.87529098599992,
                -9.84801947799997
              ],
              [
                -76.877294861,
                -9.843398477999926
              ],
              [
                -76.877871111,
                -9.840412101999902
              ],
              [
                -76.88079686099985,
                -9.833029352999972
              ],
              [
                -76.88405661199982,
                -9.828074227999934
              ],
              [
                -76.88806636099986,
                -9.824652352999976
              ],
              [
                -76.89138473599996,
                -9.82113085199984
              ],
              [
                -76.89521098699993,
                -9.815601601999958
              ],
              [
                -76.89775786099989,
                -9.80928910299997
              ],
              [
                -76.9005742359999,
                -9.799831977999872
              ],
              [
                -76.90197261100002,
                -9.792738227999962
              ],
              [
                -76.90307811100001,
                -9.785148477999883
              ],
              [
                -76.90270511100005,
                -9.777960976999907
              ],
              [
                -76.90310936100002,
                -9.775675727999953
              ],
              [
                -76.90138286099989,
                -9.770496102999914
              ],
              [
                -76.90373236100004,
                -9.765302726999948
              ],
              [
                -76.90847461200002,
                -9.763511727999969
              ],
              [
                -76.91191211099988,
                -9.763665977999949
              ],
              [
                -76.91126548599993,
                -9.758992227999954
              ],
              [
                -76.91376561100003,
                -9.754367227999978
              ],
              [
                -76.91475973599995,
                -9.750312477999955
              ],
              [
                -76.91675198599984,
                -9.746253852999871
              ],
              [
                -76.91735348699996,
                -9.743662227999948
              ],
              [
                -76.9200761109999,
                -9.741970726999966
              ],
              [
                -76.92533198599983,
                -9.740083977999916
              ],
              [
                -76.92811723599988,
                -9.73460747799993
              ],
              [
                -76.93123436099995,
                -9.732740227999955
              ],
              [
                -76.934574236,
                -9.728919977999908
              ],
              [
                -76.93500786099992,
                -9.726876977999893
              ],
              [
                -76.93466011099991,
                -9.71998822699993
              ],
              [
                -76.93772461099996,
                -9.71643147799989
              ],
              [
                -76.94029098599987,
                -9.710599602999935
              ],
              [
                -76.94136523600002,
                -9.705912102999946
              ],
              [
                -76.94538861199993,
                -9.702568352999947
              ],
              [
                -76.94617186099993,
                -9.696017602999973
              ],
              [
                -76.94500586099997,
                -9.692476602999932
              ],
              [
                -76.94765423599989,
                -9.686025351999945
              ],
              [
                -76.94768548599984,
                -9.682060602999911
              ],
              [
                -76.94668548699997,
                -9.68051372799988
              ],
              [
                -76.94350386099995,
                -9.680632852999906
              ],
              [
                -76.94085936099992,
                -9.679603477999933
              ],
              [
                -76.93256636199999,
                -9.680949227999974
              ],
              [
                -76.92900873599984,
                -9.684429227999942
              ],
              [
                -76.92510348599984,
                -9.684412102999943
              ],
              [
                -76.92245698599999,
                -9.686793102999957
              ],
              [
                -76.91641011099989,
                -9.688414102999957
              ],
              [
                -76.91332036100005,
                -9.683665976999976
              ],
              [
                -76.91218161099988,
                -9.678343727999959
              ],
              [
                -76.91388298599986,
                -9.669519477999927
              ],
              [
                -76.91283198599979,
                -9.66466410199996
              ],
              [
                -76.91129886099992,
                -9.663144477999936
              ],
              [
                -76.91106048599983,
                -9.65702935299987
              ],
              [
                -76.90916598599995,
                -9.654003727999907
              ],
              [
                -76.90745698599994,
                -9.653373101999932
              ],
              [
                -76.90400973599998,
                -9.65534572799993
              ],
              [
                -76.896130862,
                -9.656738227999938
              ],
              [
                -76.89412886100001,
                -9.660617227999978
              ],
              [
                -76.89425198599997,
                -9.669833976999882
              ],
              [
                -76.89220111100002,
                -9.67319122799995
              ],
              [
                -76.89026761100001,
                -9.674462852000033
              ],
              [
                -76.88605473599995,
                -9.671777352999925
              ],
              [
                -76.88216798599996,
                -9.668033102999914
              ],
              [
                -76.8796249859999,
                -9.670576227999959
              ],
              [
                -76.87387873599988,
                -9.674882852999929
              ],
              [
                -76.87145111099983,
                -9.675466852999932
              ],
              [
                -76.86659373700002,
                -9.671279352999932
              ],
              [
                -76.8651484859999,
                -9.667337977999978
              ],
              [
                -76.86299411199997,
                -9.663865226999974
              ],
              [
                -76.86045511099996,
                -9.664236352999922
              ],
              [
                -76.85768348599987,
                -9.666884602999971
              ],
              [
                -76.85241811099985,
                -9.668242226999837
              ],
              [
                -76.85031636099995,
                -9.667226602999904
              ],
              [
                -76.850247986,
                -9.661478477999935
              ],
              [
                -76.85102936099997,
                -9.65969335299991
              ],
              [
                -76.85460348599997,
                -9.655593726999939
              ],
              [
                -76.8612207359999,
                -9.644062352999981
              ],
              [
                -76.86087698599988,
                -9.642900352999959
              ],
              [
                -76.84895111099996,
                -9.638374976999955
              ],
              [
                -76.84160161099993,
                -9.637623101999907
              ],
              [
                -76.83959573599986,
                -9.636740226999962
              ],
              [
                -76.83801761099994,
                -9.629958976999944
              ],
              [
                -76.83461523699998,
                -9.625261727999941
              ],
              [
                -76.83016211099994,
                -9.629775352999957
              ],
              [
                -76.8258398609999,
                -9.630210977999923
              ],
              [
                -76.8242791109999,
                -9.632513726999946
              ],
              [
                -76.82145111099987,
                -9.63297460299998
              ],
              [
                -76.81978911099992,
                -9.631464851999851
              ],
              [
                -76.81566798599982,
                -9.629378851999888
              ],
              [
                -76.80919336099998,
                -9.628033227999936
              ],
              [
                -76.80853323599979,
                -9.624724601999958
              ],
              [
                -76.8102422359998,
                -9.620646477999912
              ],
              [
                -76.81057811100004,
                -9.617890601999875
              ],
              [
                -76.80957423599983,
                -9.613322226999912
              ],
              [
                -76.80823823599997,
                -9.612695351999946
              ],
              [
                -76.80145898599994,
                -9.615970726999933
              ],
              [
                -76.79111136099988,
                -9.61628322799993
              ],
              [
                -76.789171861,
                -9.616636728
              ],
              [
                -76.78466598599994,
                -9.61978910299996
              ],
              [
                -76.78172261099985,
                -9.620435727999904
              ],
              [
                -76.77901173599992,
                -9.619976602999941
              ],
              [
                -76.77411523599989,
                -9.617874977999918
              ],
              [
                -76.76818373599991,
                -9.61893360199997
              ],
              [
                -76.76376173599988,
                -9.618578101999958
              ],
              [
                -76.7613417359999,
                -9.617640602999927
              ],
              [
                -76.75904686099983,
                -9.61352935199983
              ],
              [
                -76.75837886099998,
                -9.606040977999896
              ],
              [
                -76.75610536099992,
                -9.59581835299997
              ],
              [
                -76.75466598599985,
                -9.59281447799998
              ],
              [
                -76.75420698599987,
                -9.589205102999927
              ],
              [
                -76.75180861099977,
                -9.588140601999953
              ],
              [
                -76.74994923600002,
                -9.593710977999876
              ],
              [
                -76.74671873599988,
                -9.598201352999979
              ],
              [
                -76.74634761099992,
                -9.600251977999903
              ],
              [
                -76.74378323600001,
                -9.60657422700001
              ],
              [
                -76.74434961099996,
                -9.609351602999936
              ],
              [
                -76.74385348599986,
                -9.613236352999934
              ],
              [
                -76.74169136099994,
                -9.616660102999958
              ],
              [
                -76.73783986099994,
                -9.615570352999953
              ],
              [
                -76.73594723599984,
                -9.613611352999953
              ],
              [
                -76.73646673599984,
                -9.611289102999933
              ],
              [
                -76.73663861099993,
                -9.604605477999883
              ],
              [
                -76.73416986099994,
                -9.600578101999929
              ],
              [
                -76.72760548599985,
                -9.595656227999882
              ],
              [
                -76.72992386099992,
                -9.594841851999945
              ],
              [
                -76.73399023600001,
                -9.591945351999925
              ],
              [
                -76.737031236,
                -9.588005852999913
              ],
              [
                -76.74141011099994,
                -9.585714852999956
              ],
              [
                -76.74225586099993,
                -9.58355847799993
              ],
              [
                -76.74212111099996,
                -9.580404227999963
              ],
              [
                -76.743189486,
                -9.579099602999918
              ],
              [
                -76.73583786099994,
                -9.577081976999978
              ],
              [
                -76.73063848599998,
                -9.57410747699987
              ],
              [
                -76.726460986,
                -9.572337852999908
              ],
              [
                -76.71448823599997,
                -9.57001947799995
              ],
              [
                -76.71062886100003,
                -9.568335977999936
              ],
              [
                -76.70461723599982,
                -9.564331977999927
              ],
              [
                -76.69675386099988,
                -9.557720727999936
              ],
              [
                -76.69167386100003,
                -9.5588926019999
              ],
              [
                -76.68992773599996,
                -9.560857476999956
              ],
              [
                -76.6809667359999,
                -9.561445351999907
              ],
              [
                -76.6776797359999,
                -9.559855477999974
              ],
              [
                -76.67392573599989,
                -9.56086322799996
              ],
              [
                -76.66795898600003,
                -9.558007851999946
              ],
              [
                -76.66291986099998,
                -9.553308601999902
              ],
              [
                -76.65976361099996,
                -9.552232476999961
              ],
              [
                -76.65768361099998,
                -9.552429726999947
              ],
              [
                -76.65122073600003,
                -9.554951227999936
              ],
              [
                -76.648324236,
                -9.553499977999934
              ],
              [
                -76.64252536099991,
                -9.55333385299997
              ],
              [
                -76.6366406109999,
                -9.551994101999924
              ],
              [
                -76.63190623599985,
                -9.550064476999978
              ],
              [
                -76.63028911099991,
                -9.550148477999926
              ],
              [
                -76.62204886099988,
                -9.547439476999955
              ],
              [
                -76.61781048499984,
                -9.548529352999878
              ],
              [
                -76.61195311099988,
                -9.548583976999964
              ],
              [
                -76.6087031109999,
                -9.550796851999905
              ],
              [
                -76.59915236099988,
                -9.546537101999888
              ],
              [
                -76.59452148599996,
                -9.54523822799996
              ],
              [
                -76.5892187359999,
                -9.547613226999943
              ],
              [
                -76.58454686099986,
                -9.551539101999936
              ],
              [
                -76.583048861,
                -9.55208985299987
              ],
              [
                -76.57651761099999,
                -9.549554727999919
              ],
              [
                -76.574632861,
                -9.546210977999976
              ],
              [
                -76.56977536099998,
                -9.544078102999833
              ],
              [
                -76.56831636099997,
                -9.542751976999966
              ],
              [
                -76.55947073499993,
                -9.539773476999926
              ],
              [
                -76.55589260999983,
                -9.539790976999939
              ],
              [
                -76.55040836,
                -9.540736352999886
              ],
              [
                -76.54940823499987,
                -9.541853476999961
              ],
              [
                -76.54525786099993,
                -9.540298852999967
              ],
              [
                -76.54121486099996,
                -9.539972602999967
              ],
              [
                -76.53349236099996,
                -9.532492226999977
              ],
              [
                -76.52977935999996,
                -9.530513727999903
              ],
              [
                -76.52641986099991,
                -9.529605476999961
              ],
              [
                -76.52472073599984,
                -9.527322228
              ],
              [
                -76.51858186100003,
                -9.526765602999944
              ],
              [
                -76.51675785999993,
                -9.527175726999928
              ],
              [
                -76.51272073599984,
                -9.530218727999909
              ],
              [
                -76.51135936100002,
                -9.53348247799994
              ],
              [
                -76.50891986099987,
                -9.532523477999916
              ],
              [
                -76.50624798499996,
                -9.532706976999918
              ],
              [
                -76.50218748599997,
                -9.528830102999962
              ],
              [
                -76.50002536099987,
                -9.525453101999972
              ],
              [
                -76.49357811000004,
                -9.526050726999927
              ],
              [
                -76.49299798599992,
                -9.522738227999923
              ],
              [
                -76.4917479859999,
                -9.521783226999958
              ],
              [
                -76.490587861,
                -9.515152352999962
              ],
              [
                -76.48901761000002,
                -9.513435602999948
              ],
              [
                -76.48821873599991,
                -9.50906247699993
              ],
              [
                -76.4856307359999,
                -9.506685602999937
              ],
              [
                -76.48204686099984,
                -9.506187476999912
              ],
              [
                -76.47395511000002,
                -9.506880851999938
              ],
              [
                -76.46974611099995,
                -9.505644476999919
              ],
              [
                -76.46364061099996,
                -9.500164102999975
              ],
              [
                -76.46013861099993,
                -9.499851602999968
              ],
              [
                -76.45692386099995,
                -9.49856835199995
              ],
              [
                -76.45496285999991,
                -9.499841851999975
              ],
              [
                -76.45440423600002,
                -9.502501976999895
              ],
              [
                -76.44991598599995,
                -9.505488227
              ],
              [
                -76.44540823599988,
                -9.506330102999925
              ],
              [
                -76.440591735,
                -9.505474601999936
              ],
              [
                -76.43809373599981,
                -9.503224727999907
              ],
              [
                -76.43540235999996,
                -9.50280072799984
              ],
              [
                -76.42856248599992,
                -9.506835976999923
              ],
              [
                -76.42442573599999,
                -9.505720727999858
              ],
              [
                -76.42290623599979,
                -9.503468727999973
              ],
              [
                -76.419937485,
                -9.50296485299998
              ],
              [
                -76.4150898609999,
                -9.49987310299997
              ],
              [
                -76.41206836100002,
                -9.499248101999967
              ],
              [
                -76.408273485,
                -9.500230477999878
              ],
              [
                -76.40382035999988,
                -9.500212852999937
              ],
              [
                -76.40107036099988,
                -9.498517602999925
              ],
              [
                -76.39106636099984,
                -9.498423852999963
              ],
              [
                -76.38545111000002,
                -9.496384601999921
              ],
              [
                -76.38155661099984,
                -9.493867226999896
              ],
              [
                -76.38115235999987,
                -9.490974601999937
              ],
              [
                -76.37879685999985,
                -9.48994535299994
              ],
              [
                -76.37782436099985,
                -9.487880852999922
              ],
              [
                -76.37752536099998,
                -9.48291997699988
              ],
              [
                -76.37594923599988,
                -9.479044976999887
              ],
              [
                -76.37610161099997,
                -9.474509726999827
              ],
              [
                -76.37538861099995,
                -9.469261727999935
              ],
              [
                -76.37256836099982,
                -9.462443351999923
              ],
              [
                -76.37248636099991,
                -9.459056602999851
              ],
              [
                -76.37446673499994,
                -9.454785102999892
              ],
              [
                -76.37224611099998,
                -9.449058602999969
              ],
              [
                -76.37141411099998,
                -9.44314647799996
              ],
              [
                -76.3692694849999,
                -9.44172072799995
              ],
              [
                -76.36514261099978,
                -9.437486351999894
              ],
              [
                -76.36161136099997,
                -9.435892602999957
              ],
              [
                -76.35673436099995,
                -9.431201227999907
              ],
              [
                -76.35198235999997,
                -9.428406227999915
              ],
              [
                -76.34665623599994,
                -9.423458977999928
              ],
              [
                -76.34383011099993,
                -9.424103477999893
              ],
              [
                -76.34142385999996,
                -9.426355476999959
              ],
              [
                -76.3392031109999,
                -9.426294976999941
              ],
              [
                -76.33413673599983,
                -9.421581977000017
              ],
              [
                -76.33008598499987,
                -9.42085160299996
              ],
              [
                -76.32539448599982,
                -9.418744101999948
              ],
              [
                -76.32152536099989,
                -9.420080101999872
              ],
              [
                -76.31836135999993,
                -9.417095727999879
              ],
              [
                -76.31387886100003,
                -9.418394476999936
              ],
              [
                -76.31146485999989,
                -9.41674997799987
              ],
              [
                -76.31165036100003,
                -9.410013726999921
              ],
              [
                -76.31435536000004,
                -9.40749410199993
              ],
              [
                -76.31345311099989,
                -9.402136726999913
              ],
              [
                -76.31480661099988,
                -9.398554726999919
              ],
              [
                -76.31512498499984,
                -9.394777351999949
              ],
              [
                -76.31256836099988,
                -9.392029352999941
              ],
              [
                -76.30894335999989,
                -9.39070510199997
              ],
              [
                -76.30345511099989,
                -9.391898476999984
              ],
              [
                -76.2989979859999,
                -9.388847476999956
              ],
              [
                -76.29744536099986,
                -9.388478477999968
              ],
              [
                -76.28788086000003,
                -9.392177726999876
              ],
              [
                -76.2833769859999,
                -9.394664101999979
              ],
              [
                -76.27984573599991,
                -9.393183602999954
              ],
              [
                -76.27539848499993,
                -9.394634727999971
              ],
              [
                -76.26666986099997,
                -9.396331977999978
              ],
              [
                -76.26257423499993,
                -9.39887497799998
              ],
              [
                -76.2582402349999,
                -9.400900351999951
              ],
              [
                -76.25548048600001,
                -9.40355072799997
              ],
              [
                -76.25241798499991,
                -9.40551560199998
              ],
              [
                -76.24820698599984,
                -9.409320351999952
              ],
              [
                -76.243415986,
                -9.410830101999977
              ],
              [
                -76.23534573500001,
                -9.418208977999882
              ]
            ]
          ]
        ],
        "type": "MultiPolygon"
      },
      "type": "Feature",
      "properties": {
        "PROVINCIA": "DOS DE MAYO",
        "name": "DOS DE MAYO",
        "ID": "090300",
        "DEPARTAMEN": "HUANUCO"
      }
    }
  ]
}
