{
  "type": "FeatureCollection",
  "features": [
    {
      "geometry": {
        "coordinates": [
          [
            [
              [
                -72.20024110699995,
                -15.529790857999899
              ],
              [
                -72.19696810699998,
                -15.534279857999877
              ],
              [
                -72.19631960699996,
                -15.543329232999895
              ],
              [
                -72.19436648199991,
                -15.550261482999929
              ],
              [
                -72.19666285699992,
                -15.560332357999982
              ],
              [
                -72.19594573199998,
                -15.565731982999978
              ],
              [
                -72.19592285699997,
                -15.570342982999932
              ],
              [
                -72.19512935699998,
                -15.575606357999959
              ],
              [
                -72.1982879819999,
                -15.578179357999943
              ],
              [
                -72.20226285699982,
                -15.579260857999827
              ],
              [
                -72.20246885699999,
                -15.583997732999876
              ],
              [
                -72.20580285699998,
                -15.584436357999948
              ],
              [
                -72.20710748099992,
                -15.589644482999915
              ],
              [
                -72.20919798199998,
                -15.592697107999982
              ],
              [
                -72.20992273199988,
                -15.595997858999965
              ],
              [
                -72.21214298199999,
                -15.599831607999931
              ],
              [
                -72.21126560599998,
                -15.605146357999956
              ],
              [
                -72.20865635699982,
                -15.605740607999962
              ],
              [
                -72.20675660699993,
                -15.608040857999981
              ],
              [
                -72.20755773199994,
                -15.610612857999968
              ],
              [
                -72.20706935699997,
                -15.616193733999978
              ],
              [
                -72.20859523199994,
                -15.619178732999956
              ],
              [
                -72.20769498199996,
                -15.621911233999981
              ],
              [
                -72.20318598199998,
                -15.624564232999944
              ],
              [
                -72.20294948199995,
                -15.62811848399997
              ],
              [
                -72.20375823199998,
                -15.632668482999918
              ],
              [
                -72.20499423099994,
                -15.63541698299997
              ],
              [
                -72.20822148199989,
                -15.637108857999976
              ],
              [
                -72.2125091069999,
                -15.64092635899982
              ],
              [
                -72.21732335699988,
                -15.642599107999956
              ],
              [
                -72.22018448199992,
                -15.644450232999873
              ],
              [
                -72.22266385699999,
                -15.648019732999899
              ],
              [
                -72.22560123199986,
                -15.654366482999933
              ],
              [
                -72.22684473199996,
                -15.66116810799997
              ],
              [
                -72.22631835699997,
                -15.66719723299991
              ],
              [
                -72.22782135699998,
                -15.673223357999916
              ],
              [
                -72.23084260699994,
                -15.680989233999867
              ],
              [
                -72.23134610699992,
                -15.683919857999967
              ],
              [
                -72.2335968569999,
                -15.688089357999957
              ],
              [
                -72.2346802319999,
                -15.693579732999865
              ],
              [
                -72.23710635699985,
                -15.696108858999935
              ],
              [
                -72.23759460699983,
                -15.699402857999928
              ],
              [
                -72.23550410699988,
                -15.70370773299993
              ],
              [
                -72.23330685699989,
                -15.711843483999871
              ],
              [
                -72.23625185699984,
                -15.716204607999941
              ],
              [
                -72.23638135699997,
                -15.721443232999945
              ],
              [
                -72.23722835699988,
                -15.723341982999841
              ],
              [
                -72.24119573099989,
                -15.727125107999939
              ],
              [
                -72.2446899819999,
                -15.729503607999845
              ],
              [
                -72.24528498099994,
                -15.735808357999872
              ],
              [
                -72.2463378569999,
                -15.737410482999906
              ],
              [
                -72.25384523199989,
                -15.740947608999932
              ],
              [
                -72.25861360699997,
                -15.740185733999965
              ],
              [
                -72.26422885599999,
                -15.741228108999962
              ],
              [
                -72.27153010699993,
                -15.73677635799993
              ],
              [
                -72.27273560699996,
                -15.734048857999937
              ],
              [
                -72.27602385599988,
                -15.730639482999948
              ],
              [
                -72.28287510699994,
                -15.727652607999971
              ],
              [
                -72.29056548199992,
                -15.7268818579999
              ],
              [
                -72.29430385699999,
                -15.72380260899996
              ],
              [
                -72.29792785599989,
                -15.719341358999941
              ],
              [
                -72.30164335699993,
                -15.719456733999891
              ],
              [
                -72.30576323199995,
                -15.721644357999878
              ],
              [
                -72.30927273199995,
                -15.719687483999962
              ],
              [
                -72.31517023199996,
                -15.718046233999871
              ],
              [
                -72.31819135699999,
                -15.72049348299987
              ],
              [
                -72.32221985699988,
                -15.721192357999882
              ],
              [
                -72.32735448199992,
                -15.720524732999877
              ],
              [
                -72.32954410699989,
                -15.721975357999895
              ],
              [
                -72.34268185699995,
                -15.719553982999969
              ],
              [
                -72.35034948199996,
                -15.722091732999957
              ],
              [
                -72.35368335699985,
                -15.72487923299991
              ],
              [
                -72.35816198199996,
                -15.730453483999895
              ],
              [
                -72.36009198199997,
                -15.72513298299998
              ],
              [
                -72.35965723199996,
                -15.721270482999955
              ],
              [
                -72.36439510699984,
                -15.717129733999911
              ],
              [
                -72.36527248199997,
                -15.712431858999878
              ],
              [
                -72.36547085699993,
                -15.707454732999906
              ],
              [
                -72.36708073199998,
                -15.702218982999966
              ],
              [
                -72.3673019819999,
                -15.698969857999884
              ],
              [
                -72.36876673199998,
                -15.697472607999885
              ],
              [
                -72.3722076069999,
                -15.696548483999834
              ],
              [
                -72.37097173199999,
                -15.691244107999978
              ],
              [
                -72.37239835699995,
                -15.682373982999934
              ],
              [
                -72.37329098199996,
                -15.680112857999916
              ],
              [
                -72.37096410699996,
                -15.668551482999874
              ],
              [
                -72.37129210699993,
                -15.665942232999896
              ],
              [
                -72.3700103569999,
                -15.66335385799988
              ],
              [
                -72.36713410699997,
                -15.660030357999972
              ],
              [
                -72.36958310699993,
                -15.657523107999907
              ],
              [
                -72.36953735699996,
                -15.65319448299988
              ],
              [
                -72.37400823199994,
                -15.648073357999976
              ],
              [
                -72.37468723199999,
                -15.645836857999939
              ],
              [
                -72.37776948199996,
                -15.64123535799996
              ],
              [
                -72.37786098199996,
                -15.639451982999958
              ],
              [
                -72.38029485699997,
                -15.635498107999922
              ],
              [
                -72.38300323199991,
                -15.633068107999861
              ],
              [
                -72.38514710699991,
                -15.63300798399996
              ],
              [
                -72.38530735699993,
                -15.626569732999883
              ],
              [
                -72.38759610699998,
                -15.624483107999879
              ],
              [
                -72.39004510699982,
                -15.61836623299996
              ],
              [
                -72.39014435699994,
                -15.612950357999921
              ],
              [
                -72.3869247319999,
                -15.607312232999902
              ],
              [
                -72.38672635699993,
                -15.605605107999963
              ],
              [
                -72.38993835699995,
                -15.602058357999965
              ],
              [
                -72.39064023199995,
                -15.59831048399991
              ],
              [
                -72.3840637319999,
                -15.597983357999965
              ],
              [
                -72.37726598199993,
                -15.598808232999886
              ],
              [
                -72.37465673199995,
                -15.597686732999932
              ],
              [
                -72.37168885699998,
                -15.60110573399993
              ],
              [
                -72.36638635599991,
                -15.602277733999927
              ],
              [
                -72.36353298199998,
                -15.60063460799995
              ],
              [
                -72.35923773099995,
                -15.602607732999957
              ],
              [
                -72.35775760699988,
                -15.606747607999978
              ],
              [
                -72.35422510699993,
                -15.609323482999969
              ],
              [
                -72.35129560699988,
                -15.608764607999888
              ],
              [
                -72.34843448099997,
                -15.607041357999947
              ],
              [
                -72.34542085699991,
                -15.603429857999913
              ],
              [
                -72.34168248199995,
                -15.60218998399995
              ],
              [
                -72.3379439819999,
                -15.602194732999976
              ],
              [
                -72.33183285699982,
                -15.601193483999964
              ],
              [
                -72.32958985699997,
                -15.60412785799997
              ],
              [
                -72.32792660699982,
                -15.604215607999947
              ],
              [
                -72.32331848199993,
                -15.602402732999963
              ],
              [
                -72.31995385599998,
                -15.60232448399995
              ],
              [
                -72.31658935699994,
                -15.60112573299989
              ],
              [
                -72.31015773199982,
                -15.600808107999967
              ],
              [
                -72.30847948199994,
                -15.599237482999968
              ],
              [
                -72.30620573199997,
                -15.59228423299993
              ],
              [
                -72.30576323099984,
                -15.58668798299982
              ],
              [
                -72.30240635699982,
                -15.583193732999973
              ],
              [
                -72.29724123199992,
                -15.579928357999961
              ],
              [
                -72.29439535699993,
                -15.576537108999958
              ],
              [
                -72.28651423199994,
                -15.57696148299982
              ],
              [
                -72.28237923199993,
                -15.576598107999928
              ],
              [
                -72.27847285699994,
                -15.575369857999931
              ],
              [
                -72.27550510699996,
                -15.577979982999977
              ],
              [
                -72.27347560699997,
                -15.582819983999968
              ],
              [
                -72.27028660699983,
                -15.58550185799993
              ],
              [
                -72.26663210699996,
                -15.585057232999873
              ],
              [
                -72.26343535699988,
                -15.586115857999971
              ],
              [
                -72.2596893569999,
                -15.585793482999975
              ],
              [
                -72.25788110599996,
                -15.58402635899995
              ],
              [
                -72.25933835699993,
                -15.580779108999934
              ],
              [
                -72.25920873099994,
                -15.577152232999879
              ],
              [
                -72.26117710699998,
                -15.574920607999957
              ],
              [
                -72.26345823199989,
                -15.567216857999938
              ],
              [
                -72.26101685699996,
                -15.564488357999949
              ],
              [
                -72.26218410699983,
                -15.558251357999836
              ],
              [
                -72.26217648199997,
                -15.553750982999873
              ],
              [
                -72.25695798199996,
                -15.54529560799989
              ],
              [
                -72.25690235599996,
                -15.542880857999933
              ],
              [
                -72.25051885699997,
                -15.538155607999954
              ],
              [
                -72.24447160699998,
                -15.536496357999965
              ],
              [
                -72.23604598199995,
                -15.535727733999977
              ],
              [
                -72.22820085699993,
                -15.531242607999957
              ],
              [
                -72.22239685699992,
                -15.529376982999963
              ],
              [
                -72.21807098199986,
                -15.527275982999925
              ],
              [
                -72.20989985699993,
                -15.529611607999982
              ],
              [
                -72.20725260599994,
                -15.529142357999888
              ],
              [
                -72.2048111069999,
                -15.530293482999923
              ],
              [
                -72.20024110699995,
                -15.529790857999899
              ]
            ]
          ]
        ],
        "type": "MultiPolygon"
      },
      "type": "Feature",
      "properties": {
        "PROVINCIA": "CASTILLA",
        "DISTRITO": "AYO",
        "name": "AYO",
        "ID": "040503",
        "DEPARTAMEN": "AREQUIPA"
      }
    }
  ]
}
