{
  "type": "FeatureCollection",
  "features": [
    {
      "geometry": {
        "coordinates": [
          [
            [
              [
                -72.39064023199995,
                -15.59831048399991
              ],
              [
                -72.38993835699995,
                -15.602058357999965
              ],
              [
                -72.38672635699993,
                -15.605605107999963
              ],
              [
                -72.3869247319999,
                -15.607312232999902
              ],
              [
                -72.39014435699994,
                -15.612950357999921
              ],
              [
                -72.39004510699982,
                -15.61836623299996
              ],
              [
                -72.38759610699998,
                -15.624483107999879
              ],
              [
                -72.38530735699993,
                -15.626569732999883
              ],
              [
                -72.3879014819999,
                -15.626956982999957
              ],
              [
                -72.39440923199993,
                -15.629369733999908
              ],
              [
                -72.40190885699991,
                -15.63596148299996
              ],
              [
                -72.40206148199991,
                -15.637462608999954
              ],
              [
                -72.40694423199989,
                -15.641935357999898
              ],
              [
                -72.41503923199997,
                -15.642936732999885
              ],
              [
                -72.42372135699998,
                -15.64979273399996
              ],
              [
                -72.42930598199996,
                -15.656561857999975
              ],
              [
                -72.43101498199997,
                -15.659298857999943
              ],
              [
                -72.42960373199998,
                -15.66474248299994
              ],
              [
                -72.43042760699996,
                -15.66644960799988
              ],
              [
                -72.43952173199983,
                -15.669374482999956
              ],
              [
                -72.44770048199985,
                -15.672409982999852
              ],
              [
                -72.45483398199997,
                -15.671903608999969
              ],
              [
                -72.45644373199991,
                -15.673053733999893
              ],
              [
                -72.45803073199994,
                -15.677885107999884
              ],
              [
                -72.45788573199997,
                -15.682032607999929
              ],
              [
                -72.45964048199994,
                -15.683702482999934
              ],
              [
                -72.46033473199998,
                -15.68791860899995
              ],
              [
                -72.46029660699986,
                -15.692922607999947
              ],
              [
                -72.4619598569999,
                -15.694160482999962
              ],
              [
                -72.46058660699998,
                -15.700726482999926
              ],
              [
                -72.45756535699991,
                -15.703648607999924
              ],
              [
                -72.45584873199988,
                -15.707277357999885
              ],
              [
                -72.45690923199999,
                -15.710589358999925
              ],
              [
                -72.45498660699997,
                -15.71668723299996
              ],
              [
                -72.45574948199993,
                -15.719397482999966
              ],
              [
                -72.45423123199998,
                -15.721355482999968
              ],
              [
                -72.45451348199998,
                -15.724783857999967
              ],
              [
                -72.4594726069999,
                -15.725807982999868
              ],
              [
                -72.46432498199994,
                -15.724471107999932
              ],
              [
                -72.46627048199997,
                -15.723287608999954
              ],
              [
                -72.47041323199988,
                -15.722562732999847
              ],
              [
                -72.47374723199988,
                -15.720558107999977
              ],
              [
                -72.47904973199996,
                -15.723587982999959
              ],
              [
                -72.47959898199991,
                -15.725312232999954
              ],
              [
                -72.47708135699997,
                -15.728124607999973
              ],
              [
                -72.47960660699994,
                -15.732397983999874
              ],
              [
                -72.48283385699995,
                -15.724808732999975
              ],
              [
                -72.48185735699997,
                -15.721484233999945
              ],
              [
                -72.48214723199999,
                -15.716802607999853
              ],
              [
                -72.48076635699994,
                -15.714713107999955
              ],
              [
                -72.48108673199982,
                -15.711519232999933
              ],
              [
                -72.48343660699999,
                -15.709595733999947
              ],
              [
                -72.48339085699996,
                -15.707687357999873
              ],
              [
                -72.48815160699996,
                -15.697519357999965
              ],
              [
                -72.48801423199995,
                -15.69393348299991
              ],
              [
                -72.48906710699993,
                -15.692332232999945
              ],
              [
                -72.49429323199996,
                -15.695391607999966
              ],
              [
                -72.49877160699998,
                -15.696258482999895
              ],
              [
                -72.50166323199994,
                -15.694626858999982
              ],
              [
                -72.50299835699991,
                -15.692056607999973
              ],
              [
                -72.50447848199991,
                -15.686521482999922
              ],
              [
                -72.50794985699997,
                -15.684656107999956
              ],
              [
                -72.50931548199992,
                -15.681893358999957
              ],
              [
                -72.51154323199995,
                -15.675236732999963
              ],
              [
                -72.51277160699988,
                -15.673816732999967
              ],
              [
                -72.51340473199997,
                -15.66890610799993
              ],
              [
                -72.51168060699996,
                -15.666857732999972
              ],
              [
                -72.51113123199997,
                -15.663058107999916
              ],
              [
                -72.51534273199991,
                -15.657888357999923
              ],
              [
                -72.51482385699995,
                -15.656101232999958
              ],
              [
                -72.51862335699991,
                -15.64997860799997
              ],
              [
                -72.52362060699994,
                -15.644902232999982
              ],
              [
                -72.52879335699993,
                -15.638421982999887
              ],
              [
                -72.52932735699989,
                -15.634400357999937
              ],
              [
                -72.53131110699996,
                -15.63143923299998
              ],
              [
                -72.53436273199998,
                -15.624407732999885
              ],
              [
                -72.53144073199996,
                -15.619127232999972
              ],
              [
                -72.53131860699995,
                -15.615074107999874
              ],
              [
                -72.52915973199987,
                -15.600437107999937
              ],
              [
                -72.52991485699982,
                -15.596601482999915
              ],
              [
                -72.5295791069999,
                -15.58813010799986
              ],
              [
                -72.5327453569999,
                -15.575999232999948
              ],
              [
                -72.53669735699992,
                -15.570716857999969
              ],
              [
                -72.54133623199988,
                -15.561922982999931
              ],
              [
                -72.54119110699997,
                -15.560156732999928
              ],
              [
                -72.54475398199997,
                -15.55732435799996
              ],
              [
                -72.54656223199993,
                -15.554086732999963
              ],
              [
                -72.54827885699996,
                -15.548343607999925
              ],
              [
                -72.55390948199988,
                -15.545261357999891
              ],
              [
                -72.55761723199998,
                -15.54220385799988
              ],
              [
                -72.55040735699993,
                -15.540067733999877
              ],
              [
                -72.54360960699995,
                -15.534378982999954
              ],
              [
                -72.54145048199985,
                -15.529411357999948
              ],
              [
                -72.53784948199996,
                -15.526146857999947
              ],
              [
                -72.53503423199999,
                -15.521587357999977
              ],
              [
                -72.53373710699998,
                -15.516745483999955
              ],
              [
                -72.52962998199996,
                -15.511597982999831
              ],
              [
                -72.5265176069999,
                -15.505386732999966
              ],
              [
                -72.5255309819999,
                -15.507030607999923
              ],
              [
                -72.52190048199998,
                -15.508318857999939
              ],
              [
                -72.51048273199996,
                -15.509074232999978
              ],
              [
                -72.50530248199988,
                -15.513935107999941
              ],
              [
                -72.50347898199993,
                -15.51668360799988
              ],
              [
                -72.49771885699982,
                -15.514316607999945
              ],
              [
                -72.48992923199995,
                -15.514648482999974
              ],
              [
                -72.48937223199994,
                -15.516776982999886
              ],
              [
                -72.48400110699998,
                -15.518017732999965
              ],
              [
                -72.48054498199991,
                -15.520048107999912
              ],
              [
                -72.47720335699995,
                -15.524939483999958
              ],
              [
                -72.4714813569999,
                -15.526614232999975
              ],
              [
                -72.46945948199993,
                -15.529213857999935
              ],
              [
                -72.46276860699993,
                -15.528535857999884
              ],
              [
                -72.4591292319999,
                -15.52415748299984
              ],
              [
                -72.44963073199995,
                -15.520149232999927
              ],
              [
                -72.44719698199992,
                -15.52024173299992
              ],
              [
                -72.44300073199992,
                -15.523663482999893
              ],
              [
                -72.4386519819999,
                -15.529614482999875
              ],
              [
                -72.43698885699996,
                -15.532632857999943
              ],
              [
                -72.43476873199995,
                -15.533715233999885
              ],
              [
                -72.42952710699996,
                -15.532729107999955
              ],
              [
                -72.42691035699988,
                -15.533715232999896
              ],
              [
                -72.42053985699994,
                -15.533011483999928
              ],
              [
                -72.41831210699996,
                -15.535931607999942
              ],
              [
                -72.41617585699998,
                -15.537067357999945
              ],
              [
                -72.41366573199986,
                -15.540230732999873
              ],
              [
                -72.40715785699996,
                -15.540230732999873
              ],
              [
                -72.4034042319999,
                -15.542279232999817
              ],
              [
                -72.39880373199992,
                -15.542948732999946
              ],
              [
                -72.39635473199996,
                -15.545623732999957
              ],
              [
                -72.39706423199988,
                -15.551499357999944
              ],
              [
                -72.39490510699994,
                -15.554495857999939
              ],
              [
                -72.3997802319999,
                -15.559575982999831
              ],
              [
                -72.40298473199994,
                -15.560978857999885
              ],
              [
                -72.40989685699992,
                -15.56534573399989
              ],
              [
                -72.41011048199994,
                -15.57189748299993
              ],
              [
                -72.40872198199997,
                -15.57578660799993
              ],
              [
                -72.40919498199997,
                -15.582580607999944
              ],
              [
                -72.41186523199991,
                -15.58499335799985
              ],
              [
                -72.40893560699988,
                -15.59154798399993
              ],
              [
                -72.40553285699991,
                -15.595396982999887
              ],
              [
                -72.40010073199994,
                -15.596374482999977
              ],
              [
                -72.39756773199997,
                -15.595733607999875
              ],
              [
                -72.3934478569999,
                -15.598110232999943
              ],
              [
                -72.39064023199995,
                -15.59831048399991
              ]
            ]
          ]
        ],
        "type": "MultiPolygon"
      },
      "type": "Feature",
      "properties": {
        "PROVINCIA": "CASTILLA",
        "DISTRITO": "MACHAGUAY",
        "name": "MACHAGUAY",
        "ID": "040508",
        "DEPARTAMEN": "AREQUIPA"
      }
    }
  ]
}
