{
  "type": "FeatureCollection",
  "features": [
    {
      "geometry": {
        "coordinates": [
          [
            [
              [
                -71.56905660599995,
                -13.562181605999967
              ],
              [
                -71.57355773099988,
                -13.569514605999927
              ],
              [
                -71.57713748099997,
                -13.568574355999942
              ],
              [
                -71.58162273099998,
                -13.565140981999889
              ],
              [
                -71.59001748099985,
                -13.564267855999958
              ],
              [
                -71.59353023099999,
                -13.562759480999944
              ],
              [
                -71.59677935599996,
                -13.562810606999903
              ],
              [
                -71.59896848099999,
                -13.564042855999958
              ],
              [
                -71.60459648099999,
                -13.564980855999977
              ],
              [
                -71.60797148199998,
                -13.567579480999939
              ],
              [
                -71.61120973099986,
                -13.564149106999878
              ],
              [
                -71.6136247309999,
                -13.563984480999864
              ],
              [
                -71.61656110599995,
                -13.565548730999978
              ],
              [
                -71.62012660699992,
                -13.564584980999882
              ],
              [
                -71.62362235599988,
                -13.564817980999976
              ],
              [
                -71.62660935599985,
                -13.566173855999978
              ],
              [
                -71.62914598199995,
                -13.563332105999962
              ],
              [
                -71.63251498099999,
                -13.56306260699995
              ],
              [
                -71.63278435699988,
                -13.557941605999929
              ],
              [
                -71.63568173099998,
                -13.554437856999982
              ],
              [
                -71.63581648099995,
                -13.55100148199989
              ],
              [
                -71.63992673199994,
                -13.54675660599986
              ],
              [
                -71.64336310599998,
                -13.545408981999913
              ],
              [
                -71.64369998099994,
                -13.54203998099996
              ],
              [
                -71.64262185599983,
                -13.540018480999947
              ],
              [
                -71.64241973099996,
                -13.533684980999908
              ],
              [
                -71.63947598099998,
                -13.518751230999953
              ],
              [
                -71.64062785599998,
                -13.518115605999924
              ],
              [
                -71.6470626059999,
                -13.523716356999955
              ],
              [
                -71.65107435599992,
                -13.524034105999874
              ],
              [
                -71.65381498099993,
                -13.522921856999972
              ],
              [
                -71.66096473199997,
                -13.524034106999977
              ],
              [
                -71.66537373099999,
                -13.523080731999869
              ],
              [
                -71.66708173099994,
                -13.52379573099995
              ],
              [
                -71.67286098199992,
                -13.52350285599988
              ],
              [
                -71.67628698099998,
                -13.52494273099984
              ],
              [
                -71.68291585599991,
                -13.531878980999977
              ],
              [
                -71.67936048099989,
                -13.537481480999816
              ],
              [
                -71.67938735699988,
                -13.541306355999893
              ],
              [
                -71.68070723099993,
                -13.544242230999828
              ],
              [
                -71.6885184809999,
                -13.547886105999964
              ],
              [
                -71.69125398099993,
                -13.548138605999895
              ],
              [
                -71.69468360699994,
                -13.547189480999975
              ],
              [
                -71.69722660599996,
                -13.544396480999978
              ],
              [
                -71.70123435699998,
                -13.543613230999938
              ],
              [
                -71.70684573199992,
                -13.543984355999896
              ],
              [
                -71.70708785599999,
                -13.53786723099995
              ],
              [
                -71.70849998099993,
                -13.535331980999956
              ],
              [
                -71.70930473099992,
                -13.53139448099995
              ],
              [
                -71.70803710599995,
                -13.529474605999894
              ],
              [
                -71.70593360599997,
                -13.52316410599991
              ],
              [
                -71.70604098099989,
                -13.521380855999894
              ],
              [
                -71.70260173199989,
                -13.51824998099994
              ],
              [
                -71.70037110699997,
                -13.514490230999968
              ],
              [
                -71.70424173099997,
                -13.512829730999897
              ],
              [
                -71.70984898199993,
                -13.509029230999943
              ],
              [
                -71.71077110699991,
                -13.506393730999946
              ],
              [
                -71.70783035599999,
                -13.502904730999944
              ],
              [
                -71.70728210699997,
                -13.492537480999943
              ],
              [
                -71.70842848099988,
                -13.48919798199995
              ],
              [
                -71.70633510599998,
                -13.484412980999878
              ],
              [
                -71.70678360599993,
                -13.479478480999887
              ],
              [
                -71.71186760599994,
                -13.475790230999905
              ],
              [
                -71.71371185599997,
                -13.46921098099989
              ],
              [
                -71.71779898099999,
                -13.463329480999903
              ],
              [
                -71.71118998099996,
                -13.460726855999951
              ],
              [
                -71.70785385699998,
                -13.462728480999886
              ],
              [
                -71.70439635599996,
                -13.462667856999872
              ],
              [
                -71.69826998099995,
                -13.46357773099993
              ],
              [
                -71.6947519819999,
                -13.46096948099995
              ],
              [
                -71.6906878559999,
                -13.456662730999938
              ],
              [
                -71.6874124819999,
                -13.457026730999928
              ],
              [
                -71.68237798099989,
                -13.456541480999931
              ],
              [
                -71.67635035599989,
                -13.45872123099997
              ],
              [
                -71.66621523099991,
                -13.46013785599996
              ],
              [
                -71.6597656059999,
                -13.460176230999934
              ],
              [
                -71.65723198199987,
                -13.463938605999942
              ],
              [
                -71.65676710599996,
                -13.469354855999882
              ],
              [
                -71.65487585699998,
                -13.472166355999832
              ],
              [
                -71.65108010599994,
                -13.470136730999855
              ],
              [
                -71.64602935599993,
                -13.465781231999813
              ],
              [
                -71.64282423099996,
                -13.46457810599992
              ],
              [
                -71.63990623099994,
                -13.464472605999958
              ],
              [
                -71.63790435699997,
                -13.462799980999876
              ],
              [
                -71.63554523199997,
                -13.462877731999981
              ],
              [
                -71.63065998099995,
                -13.467238730999952
              ],
              [
                -71.62774348099998,
                -13.470600855999976
              ],
              [
                -71.62644735599986,
                -13.473881855999934
              ],
              [
                -71.62290235599988,
                -13.476205105999952
              ],
              [
                -71.62097885599991,
                -13.475056605999953
              ],
              [
                -71.61461723199989,
                -13.466480480999849
              ],
              [
                -71.61238098199993,
                -13.47137310599993
              ],
              [
                -71.60961198099989,
                -13.472334105999948
              ],
              [
                -71.60625960599998,
                -13.463538481999876
              ],
              [
                -71.60426823199998,
                -13.460219355999982
              ],
              [
                -71.60432423099991,
                -13.456746105999912
              ],
              [
                -71.60061648099997,
                -13.458029230999955
              ],
              [
                -71.59934310699998,
                -13.459476355999925
              ],
              [
                -71.59471273099985,
                -13.461936231999971
              ],
              [
                -71.59482073099997,
                -13.464837980999903
              ],
              [
                -71.59355510599988,
                -13.471470230999955
              ],
              [
                -71.58854285699994,
                -13.474355980999974
              ],
              [
                -71.58808723099992,
                -13.476279855999906
              ],
              [
                -71.58434085599998,
                -13.48382335599996
              ],
              [
                -71.58322698099994,
                -13.492328855999972
              ],
              [
                -71.58135373099992,
                -13.492885730999888
              ],
              [
                -71.57629098099989,
                -13.491771980999943
              ],
              [
                -71.5747794809999,
                -13.4903043569999
              ],
              [
                -71.57095910599998,
                -13.490935606999926
              ],
              [
                -71.56645123099997,
                -13.490611355999818
              ],
              [
                -71.56879498099988,
                -13.494833981999875
              ],
              [
                -71.56795898099983,
                -13.49776948099992
              ],
              [
                -71.56898298199991,
                -13.500517355999932
              ],
              [
                -71.5674359809999,
                -13.501736105999953
              ],
              [
                -71.56298273099992,
                -13.502204855999935
              ],
              [
                -71.55965423099997,
                -13.505251855999973
              ],
              [
                -71.55890435599991,
                -13.509330230999979
              ],
              [
                -71.5569474809999,
                -13.511394355999812
              ],
              [
                -71.55645910599992,
                -13.513836355999956
              ],
              [
                -71.55948723099993,
                -13.51789023099991
              ],
              [
                -71.5605078559999,
                -13.520982480999976
              ],
              [
                -71.55643160599993,
                -13.528359355999896
              ],
              [
                -71.55540448099998,
                -13.533464856999899
              ],
              [
                -71.55252348199997,
                -13.535953106999898
              ],
              [
                -71.55215235599991,
                -13.539226605999943
              ],
              [
                -71.54968735599988,
                -13.54457223199995
              ],
              [
                -71.54747260599987,
                -13.551660105999929
              ],
              [
                -71.54871873099995,
                -13.557556605999935
              ],
              [
                -71.55194335599992,
                -13.55858985599997
              ],
              [
                -71.55911910599991,
                -13.562165980999964
              ],
              [
                -71.56327885599995,
                -13.560743355999932
              ],
              [
                -71.56703185599997,
                -13.560493230999896
              ],
              [
                -71.56905660599995,
                -13.562181605999967
              ]
            ]
          ]
        ],
        "type": "MultiPolygon"
      },
      "type": "Feature",
      "properties": {
        "PROVINCIA": "PAUCARTAMBO",
        "DISTRITO": "HUANCARANI",
        "name": "HUANCARANI",
        "ID": "071106",
        "DEPARTAMEN": "CUSCO"
      }
    }
  ]
}
