{
  "type": "FeatureCollection",
  "features": [
    {
      "geometry": {
        "coordinates": [
          [
            [
              [
                -76.5523974451527,
                -8.32730028624692,
                568.63910447183
              ],
              [
                -76.5513205791344,
                -8.32721560237545,
                563.118258176361
              ],
              [
                -76.5504475353699,
                -8.32802154237786,
                560.357835028626
              ],
              [
                -76.5497083992588,
                -8.32773819544836,
                558.977623454759
              ],
              [
                -76.5494111776188,
                -8.32693150947428,
                558.287517667826
              ],
              [
                -76.5491391312413,
                -8.3264469321091,
                557.942464774359
              ],
              [
                -76.5484862493524,
                -8.32658155361188,
                557.856201550992
              ],
              [
                -76.5478061668912,
                -8.32687770128039,
                557.769938327625
              ],
              [
                -76.5471260783715,
                -8.32660850189588,
                557.683675104259
              ],
              [
                -76.5465547909173,
                -8.3255047443699,
                557.640543492575
              ],
              [
                -76.5460647437244,
                -8.32453546499763,
                557.618977686734
              ],
              [
                -76.5460651059259,
                -8.32353950143119,
                557.608194783813
              ],
              [
                -76.5456298478783,
                -8.32313569120261,
                557.602803332352
              ],
              [
                -76.5447857271214,
                -8.32321627234498,
                557.600107606622
              ],
              [
                -76.5447321419151,
                -8.3226242056427,
                557.598759743757
              ],
              [
                -76.5447593383353,
                -8.32203193523379,
                557.598085812325
              ],
              [
                -76.5440510445073,
                -8.32189722255409,
                557.597748846608
              ],
              [
                -76.5429868135953,
                -8.32216585044008,
                557.59758036375
              ],
              [
                -76.542851167723,
                -8.32168155893998,
                557.597496122321
              ],
              [
                -76.5431517919047,
                -8.3212241957128,
                557.597454001607
              ],
              [
                -76.5431251052649,
                -8.3208205022089,
                557.597432941249
              ],
              [
                -76.5424976135268,
                -8.32103576860864,
                557.597422411071
              ],
              [
                -76.5418157490369,
                -8.32141229933065,
                557.597417145981
              ],
              [
                -76.5413589882258,
                -8.32138588846123,
                557.597414513437
              ],
              [
                -76.5410325554579,
                -8.3208205488606,
                557.597413197164
              ],
              [
                -76.541032548552,
                -8.32012059635612,
                557.597412539028
              ],
              [
                -76.5405973070645,
                -8.31968986345561,
                557.59741220996
              ],
              [
                -76.5410053364117,
                -8.31890913767895,
                557.597412045426
              ],
              [
                -76.541032536694,
                -8.31839763160604,
                557.597411963159
              ],
              [
                -76.5404068793936,
                -8.31823611534927,
                557.597411922026
              ],
              [
                -76.5394820056684,
                -8.31834381782916,
                557.597411901459
              ],
              [
                -76.5391283816111,
                -8.31920530379538,
                557.597411891175
              ],
              [
                -76.5383939220537,
                -8.31907070863572,
                557.597411886034
              ],
              [
                -76.5379858904525,
                -8.31853228947428,
                557.597411883463
              ],
              [
                -76.5370882249535,
                -8.31823616690943,
                557.597411882177
              ],
              [
                -76.5359457463029,
                -8.31834386335963,
                557.597411881535
              ],
              [
                -76.5355921231507,
                -8.31769776024987,
                557.597411881213
              ],
              [
                -76.534612864586,
                -8.31772468790292,
                557.597411881053
              ],
              [
                -76.5343408484903,
                -8.31694397922358,
                557.597411880972
              ],
              [
                -76.5345312310544,
                -8.31643190090542,
                557.597411880932
              ],
              [
                -76.5356196072684,
                -8.31610787495118,
                557.597411880912
              ],
              [
                -76.535728735707,
                -8.31562161136927,
                557.597411880902
              ],
              [
                -76.5350483470701,
                -8.31518914720911,
                557.597411880897
              ],
              [
                -76.5339321533903,
                -8.31529730053749,
                557.597411880895
              ],
              [
                -76.5328159565985,
                -8.31489307084784,
                557.597411880893
              ],
              [
                -76.5322720248856,
                -8.31408624126647,
                557.597411880893
              ],
              [
                -76.5326255566315,
                -8.31314232410784,
                557.597411880892
              ],
              [
                -76.532652755963,
                -8.3127111649916,
                557.597411880892
              ],
              [
                -76.5323264125043,
                -8.3124697908954,
                557.597411880892
              ],
              [
                -76.5318370581591,
                -8.31282157282531,
                557.597411880892
              ],
              [
                -76.531320727578,
                -8.31293095281611,
                557.597411880892
              ],
              [
                -76.5308860925864,
                -8.3132015634073,
                557.597411880892
              ],
              [
                -76.5303377014544,
                -8.3128976613948,
                557.597411880892
              ],
              [
                -76.5303646980292,
                -8.31173835796155,
                557.597411880892
              ],
              [
                -76.5301444022527,
                -8.31130210292632,
                557.597411880892
              ],
              [
                -76.5296817662136,
                -8.31138398335497,
                557.597411880892
              ],
              [
                -76.5293509521468,
                -8.31224676586548,
                557.597411880892
              ],
              [
                -76.5288069630863,
                -8.312650912674,
                557.597411880892
              ],
              [
                -76.5281544673987,
                -8.31359443289676,
                557.597411880892
              ],
              [
                -76.5276373738883,
                -8.31405303196757,
                557.597411880892
              ],
              [
                -76.5270108737175,
                -8.31399923866104,
                557.597411880892
              ],
              [
                -76.5265474319605,
                -8.31370232169462,
                557.597411880892
              ],
              [
                -76.526547503478,
                -8.31332494848843,
                557.597411880892
              ],
              [
                -76.5268744392578,
                -8.31297445816877,
                557.597411880892
              ],
              [
                -76.5268200431457,
                -8.31248912457488,
                557.597411880892
              ],
              [
                -76.5264932051669,
                -8.31208458178175,
                557.597411880892
              ],
              [
                -76.5261934877072,
                -8.31178790137525,
                557.597411880892
              ],
              [
                -76.5260027289972,
                -8.31143734958122,
                557.597411880892
              ],
              [
                -76.5255667517599,
                -8.31119465189234,
                557.597411880892
              ],
              [
                -76.5249945020158,
                -8.31130246030184,
                557.597411880892
              ],
              [
                -76.5242859288162,
                -8.31154511492336,
                557.597411880892
              ],
              [
                -76.5237679550102,
                -8.31127526321828,
                557.597411880892
              ],
              [
                -76.5234135284829,
                -8.31065476300702,
                557.597411880892
              ],
              [
                -76.5233592736531,
                -8.31019645869064,
                557.597411880892
              ],
              [
                -76.5231415253003,
                -8.30981915039019,
                557.597411880892
              ],
              [
                -76.522787279402,
                -8.30979217731329,
                557.597411880892
              ],
              [
                -76.5222959520817,
                -8.30995332566969,
                557.597411880892
              ],
              [
                -76.5218432047642,
                -8.30987125689452,
                557.597411880892
              ],
              [
                -76.5215594475462,
                -8.30956224573801,
                557.597411880892
              ],
              [
                -76.5214467375007,
                -8.30902896059521,
                557.597411880892
              ],
              [
                -76.5212199566209,
                -8.30866396224309,
                557.597411880892
              ],
              [
                -76.5208221082559,
                -8.30855125222913,
                557.597411880892
              ],
              [
                -76.5204237295808,
                -8.3083538263557,
                557.597411880892
              ],
              [
                -76.5202530628533,
                -8.30784766733698,
                557.597411880892
              ],
              [
                -76.5201392757261,
                -8.30745398144673,
                557.597411880892
              ],
              [
                -76.5196282830725,
                -8.30734172938431,
                557.597411880892
              ],
              [
                -76.519201417251,
                -8.30705989491251,
                557.597411880892
              ],
              [
                -76.5194297036685,
                -8.30672356125614,
                557.597411880892
              ],
              [
                -76.5197716576383,
                -8.30649992222313,
                557.597411880892
              ],
              [
                -76.5203111070847,
                -8.30607838440812,
                557.597411880892
              ],
              [
                -76.5204532705763,
                -8.30560091896461,
                557.597411880892
              ],
              [
                -76.5202829151705,
                -8.30506699943071,
                557.597411880892
              ],
              [
                -76.5197434578506,
                -8.30501078473834,
                557.597411880892
              ],
              [
                -76.5192025358395,
                -8.30509337928353,
                557.597411880892
              ],
              [
                -76.5190038147084,
                -8.30467185194313,
                557.597411880892
              ],
              [
                -76.519516312323,
                -8.30391483802787,
                557.597411880892
              ],
              [
                -76.519768932576,
                -8.30314900989595,
                557.597411880892
              ],
              [
                -76.5198261684707,
                -8.30261603359549,
                556.217200307025
              ],
              [
                -76.5195759747514,
                -8.30240924034698,
                556.206417404104
              ],
              [
                -76.5191411520044,
                -8.30249996909559,
                556.201025952644
              ],
              [
                -76.5186519081216,
                -8.30318356845174,
                556.198330226913
              ],
              [
                -76.5183256769627,
                -8.30318468752957,
                556.195634501183
              ],
              [
                -76.5180721283981,
                -8.30266573641164,
                556.190243049723
              ],
              [
                -76.5180905237119,
                -8.30212776310099,
                556.184851598262
              ],
              [
                -76.5187793208032,
                -8.30199966217589,
                556.182155872532
              ],
              [
                -76.5193052348241,
                -8.30183750760414,
                556.179460146802
              ],
              [
                -76.5198663709885,
                -8.30183530563198,
                556.174068695341
              ],
              [
                -76.5203748599314,
                -8.3020697044947,
                556.163285792421
              ],
              [
                -76.5207203969004,
                -8.30198120674498,
                556.1525028895
              ],
              [
                -76.5205753365036,
                -8.3013708151785,
                556.141719986579
              ],
              [
                -76.519975866575,
                -8.30093880216667,
                556.130937083658
              ],
              [
                -76.5193483047135,
                -8.30086668889579,
                556.109371277816
              ],
              [
                -76.5186708506157,
                -8.30116857628053,
                556.087805471975
              ],
              [
                -76.5184443718559,
                -8.30098168439869,
                556.082414020514
              ],
              [
                -76.5183873296949,
                -8.30053249890734,
                556.077022569054
              ],
              [
                -76.5185194467278,
                -8.30017792250416,
                556.066239666133
              ],
              [
                -76.5191042584144,
                -8.29991656548126,
                556.060848214673
              ],
              [
                -76.5198211036798,
                -8.29986054915113,
                556.055456763212
              ],
              [
                -76.5201028194617,
                -8.29959231712309,
                556.044673860291
              ],
              [
                -76.5199342841308,
                -8.29924441796732,
                556.001542248608
              ],
              [
                -76.5193872129152,
                -8.29892702012049,
                555.979976442766
              ],
              [
                -76.5191985626507,
                -8.29831089094481,
                555.958410636925
              ],
              [
                -76.5195569789076,
                -8.29793747596486,
                555.915279025241
              ],
              [
                -76.5200857184913,
                -8.29791915438053,
                555.8937132194
              ],
              [
                -76.5203583880503,
                -8.2977080771319,
                555.872147413558
              ],
              [
                -76.5201402566015,
                -8.29738463177039,
                555.829015801875
              ],
              [
                -76.5191957712161,
                -8.29740202549776,
                555.807449996033
              ],
              [
                -76.518832575398,
                -8.29722224717594,
                555.785884190191
              ],
              [
                -76.518704681665,
                -8.29677307823339,
                555.76431838435
              ],
              [
                -76.5188861677887,
                -8.29580418498333,
                555.742752578508
              ],
              [
                -76.5186140224879,
                -8.29526589556057,
                555.699620966825
              ],
              [
                -76.5177267935167,
                -8.29506809922414,
                555.613357743458
              ],
              [
                -76.5174000726196,
                -8.29452958870103,
                555.570226131774
              ],
              [
                -76.5174544647694,
                -8.29399102649343,
                555.548660325933
              ],
              [
                -76.5171279641858,
                -8.29372173351599,
                555.537877423012
              ],
              [
                -76.516493131202,
                -8.29388309117325,
                555.532485971552
              ],
              [
                -76.516166581706,
                -8.29368540205775,
                555.527094520091
              ],
              [
                -76.5163107419962,
                -8.29338185638371,
                555.524398794361
              ],
              [
                -76.5167439057517,
                -8.29308276236829,
                555.521703068631
              ],
              [
                -76.5171777894501,
                -8.29282136632865,
                555.51631161717
              ],
              [
                -76.517196642266,
                -8.29239193542769,
                555.50552871425
              ],
              [
                -76.5167627470097,
                -8.29231725618,
                555.494745811329
              ],
              [
                -76.5163099984347,
                -8.29252263946824,
                555.489354359868
              ],
              [
                -76.5159339190668,
                -8.29298997694594,
                555.486658634138
              ],
              [
                -76.5157650126222,
                -8.29330790468849,
                555.485310771273
              ],
              [
                -76.5153698180097,
                -8.29334586381135,
                555.483962908408
              ],
              [
                -76.5149547821499,
                -8.29267350617522,
                555.440831296725
              ],
              [
                -76.5146897376306,
                -8.29192600737182,
                555.397699685041
              ],
              [
                -76.5146670364611,
                -8.29145788312551,
                555.3761338792
              ],
              [
                -76.5146292190476,
                -8.29108455396001,
                555.354568073358
              ],
              [
                -76.5142537952626,
                -8.29093566134963,
                555.311436461675
              ],
              [
                -76.5133501396471,
                -8.2911043025583,
                555.268304849991
              ],
              [
                -76.5131052618603,
                -8.29018914007248,
                555.225173238308
              ],
              [
                -76.5128225260952,
                -8.29000237935114,
                555.203607432466
              ],
              [
                -76.5124450233242,
                -8.29022656378655,
                555.200911706736
              ],
              [
                -76.512086396405,
                -8.29035733913277,
                555.198215981006
              ],
              [
                -76.5117655125895,
                -8.29000238844764,
                555.192824529545
              ],
              [
                -76.512124133312,
                -8.28929248034054,
                555.187433078085
              ],
              [
                -76.5127092608698,
                -8.28878806774779,
                555.182041626624
              ],
              [
                -76.5136134577019,
                -8.28807870170782,
                555.138910014941
              ],
              [
                -76.513480267005,
                -8.28770563863181,
                555.12812711202
              ],
              [
                -76.5130845549061,
                -8.2875374078369,
                555.117344209099
              ],
              [
                -76.5124631172618,
                -8.28770490614239,
                555.095778403258
              ],
              [
                -76.5112558696765,
                -8.28729354128119,
                555.009515179891
              ],
              [
                -76.5110103091928,
                -8.28628498133905,
                554.923251956524
              ],
              [
                -76.5107839887074,
                -8.28563086168237,
                554.880120344841
              ],
              [
                -76.5104442384628,
                -8.28531327318957,
                554.836988733158
              ],
              [
                -76.5101033204286,
                -8.28559365074096,
                554.793857121474
              ],
              [
                -76.5099334520137,
                -8.28606070276927,
                554.772291315633
              ],
              [
                -76.5096914231139,
                -8.28632327427353,
                554.750725509791
              ],
              [
                -76.5093671710771,
                -8.28579916086955,
                554.707593898108
              ],
              [
                -76.5093671571218,
                -8.28523870287339,
                554.686028092266
              ],
              [
                -76.5091783891867,
                -8.28482770336034,
                554.664462286424
              ],
              [
                -76.5085554957691,
                -8.28465957592868,
                554.578199063057
              ],
              [
                -76.5081779924287,
                -8.28467826296435,
                554.535067451374
              ],
              [
                -76.5077061077241,
                -8.28445408754187,
                554.491935839691
              ],
              [
                -76.5071801757158,
                -8.28473468519114,
                554.319409392957
              ],
              [
                -76.506972220616,
                -8.28447298854685,
                554.276277781274
              ],
              [
                -76.5068189678612,
                -8.28393100870696,
                554.233146169591
              ],
              [
                -76.5065922944136,
                -8.28307168605506,
                554.190014557907
              ],
              [
                -76.5070816845017,
                -8.28258635976702,
                554.146882946224
              ],
              [
                -76.5077815815869,
                -8.28180126740579,
                554.060619722857
              ],
              [
                -76.5080269538204,
                -8.28124080522826,
                553.974356499491
              ],
              [
                -76.5078777431157,
                -8.28058586575735,
                553.931224887807
              ],
              [
                -76.507480334325,
                -8.2802501348141,
                553.888093276124
              ],
              [
                -76.5069133210997,
                -8.28026936676659,
                553.801830052757
              ],
              [
                -76.5060639482407,
                -8.2798957430203,
                553.629303606024
              ],
              [
                -76.5051768279526,
                -8.2795034366055,
                553.58617199434
              ],
              [
                -76.504742706911,
                -8.27959685293627,
                553.543040382657
              ],
              [
                -76.5043274637865,
                -8.2800825875503,
                553.499908770974
              ],
              [
                -76.5039311800156,
                -8.28010108384165,
                553.45677715929
              ],
              [
                -76.5037499035601,
                -8.27984083523454,
                553.44599425637
              ],
              [
                -76.5037630223363,
                -8.27948981546892,
                553.440602804909
              ],
              [
                -76.5039208666001,
                -8.27913889235667,
                553.435211353449
              ],
              [
                -76.5042211711713,
                -8.27890419903415,
                553.429819901988
              ],
              [
                -76.5045636091987,
                -8.2787095522872,
                553.424428450528
              ],
              [
                -76.5049702023075,
                -8.27872235972931,
                553.413645547607
              ],
              [
                -76.5052386294187,
                -8.27842504378232,
                553.370513935924
              ],
              [
                -76.5054526412867,
                -8.27808782154066,
                553.284250712557
              ],
              [
                -76.5051627551673,
                -8.27798357111722,
                553.19798748919
              ],
              [
                -76.5048477568183,
                -8.27806176207857,
                553.154855877507
              ],
              [
                -76.5044881243217,
                -8.27833356744262,
                553.133290071665
              ],
              [
                -76.5036219730906,
                -8.27872408571286,
                553.122507168745
              ],
              [
                -76.5028967610268,
                -8.27914710753842,
                553.111724265824
              ],
              [
                -76.5026300762111,
                -8.27981294843551,
                553.090158459982
              ],
              [
                -76.5021866677438,
                -8.27994475294818,
                553.06859265414
              ],
              [
                -76.5015731194414,
                -8.27971318633626,
                553.025461042457
              ],
              [
                -76.5013229460099,
                -8.27936169550612,
                552.982329430774
              ],
              [
                -76.5013986502612,
                -8.27874878123265,
                552.960763624932
              ],
              [
                -76.5017365230809,
                -8.27814860628444,
                552.93919781909
              ],
              [
                -76.5020931014632,
                -8.27782518679778,
                552.928414916169
              ],
              [
                -76.5024616517037,
                -8.27751348294117,
                552.917632013249
              ],
              [
                -76.5025444009991,
                -8.27700782463858,
                552.896066207407
              ],
              [
                -76.5021205321266,
                -8.27696804070934,
                552.874500401565
              ],
              [
                -76.501804805948,
                -8.27672092501265,
                552.852934595724
              ],
              [
                -76.5014107516857,
                -8.27635691903167,
                552.831368789882
              ],
              [
                -76.5008976728048,
                -8.27627879269846,
                552.80980298404
              ],
              [
                -76.5005809875165,
                -8.27657742204731,
                552.788237178199
              ],
              [
                -76.5005510969325,
                -8.27712515456058,
                552.766671372357
              ],
              [
                -76.500177640879,
                -8.27748639746543,
                552.723539760674
              ],
              [
                -76.4997394499186,
                -8.27754826114346,
                552.68040814899
              ],
              [
                -76.4993991383477,
                -8.27725980673179,
                552.658842343149
              ],
              [
                -76.4992985238284,
                -8.27690359959874,
                552.637276537307
              ],
              [
                -76.499342414851,
                -8.27658019715494,
                552.615710731465
              ],
              [
                -76.4995170186574,
                -8.27627644251997,
                552.594144925623
              ],
              [
                -76.4996223690955,
                -8.27603431595964,
                552.55101331394
              ],
              [
                -76.4996431119706,
                -8.27575222499468,
                552.507881702257
              ],
              [
                -76.4993756032826,
                -8.27564463287795,
                552.464750090573
              ],
              [
                -76.4990125891609,
                -8.27567734909247,
                552.42161847889
              ],
              [
                -76.4985586247491,
                -8.27607675793273,
                552.400052673048
              ],
              [
                -76.498331645906,
                -8.27652608638529,
                552.378486867207
              ],
              [
                -76.4980810246404,
                -8.27735032098055,
                552.335355255523
              ],
              [
                -76.4977775598617,
                -8.27700057826034,
                552.29222364384
              ],
              [
                -76.4977515677272,
                -8.27635135713013,
                552.270657837998
              ],
              [
                -76.4975245789108,
                -8.27585211170005,
                552.249092032157
              ],
              [
                -76.49790121119,
                -8.27497849039431,
                552.16282880879
              ],
              [
                -76.4975970897367,
                -8.27440470629143,
                552.076565585423
              ],
              [
                -76.4970638887925,
                -8.27429433880375,
                550.696354011556
              ],
              [
                -76.4965578446629,
                -8.27452735132231,
                550.006248224622
              ],
              [
                -76.496069477377,
                -8.27447364290044,
                549.661195331155
              ],
              [
                -76.4958162324861,
                -8.27395446160323,
                549.488668884422
              ],
              [
                -76.4961219928699,
                -8.27252137199357,
                549.402405661055
              ],
              [
                -76.4967527725417,
                -8.27127631789068,
                549.316142437689
              ],
              [
                -76.496763246361,
                -8.27063359282444,
                548.626036650755
              ],
              [
                -76.4964344221726,
                -8.27055165096416,
                548.280983757288
              ],
              [
                -76.4957744560271,
                -8.27059247969935,
                548.108457310555
              ],
              [
                -76.4956396704982,
                -8.27023579167968,
                548.022194087188
              ],
              [
                -76.4948042891887,
                -8.26962556761498,
                547.979062475505
              ],
              [
                -76.4923590158149,
                -8.26642825716018,
                547.957496669663
              ],
              [
                -76.4911914374432,
                -8.26546605349971,
                547.946713766742
              ],
              [
                -76.4900238590714,
                -8.26450384983924,
                547.935930863821
              ],
              [
                -76.4891348851993,
                -8.26252703978151,
                547.763404417088
              ],
              [
                -76.4899683417433,
                -8.26048566178546,
                547.590877970355
              ],
              [
                -76.4911361257987,
                -8.25916235677532,
                547.418351523621
              ],
              [
                -76.4922482394305,
                -8.25762118091495,
                547.245825076888
              ],
              [
                -76.488747387598,
                -8.25741049004399,
                546.900772183421
              ],
              [
                -76.4871370003231,
                -8.25653051196001,
                546.814508960054
              ],
              [
                -76.4860284647109,
                -8.25488043263655,
                546.728245736688
              ],
              [
                -76.4855271623051,
                -8.25279212397466,
                546.641982513321
              ],
              [
                -76.4860266047319,
                -8.25092306361707,
                546.598850901638
              ],
              [
                -76.4870815162634,
                -8.24800923828949,
                546.577285095796
              ],
              [
                -76.4884948095485,
                -8.24362928762327,
                546.566502192875
              ],
              [
                -76.4890195018099,
                -8.24091452724875,
                546.561110741415
              ],
              [
                -76.4886542022695,
                -8.23959669258619,
                546.55976287855
              ],
              [
                -76.4877401299375,
                -8.2383045814243,
                546.559088947117
              ],
              [
                -76.4862732273438,
                -8.2376674503335,
                546.558751981401
              ],
              [
                -76.4845891841299,
                -8.23728315266387,
                546.558583498543
              ],
              [
                -76.4826928165108,
                -8.2359953061538,
                546.558499257114
              ],
              [
                -76.4808635334052,
                -8.23453456408272,
                546.558457136399
              ],
              [
                -76.4798915935691,
                -8.23228986871711,
                546.558436076042
              ],
              [
                -76.4794028786463,
                -8.22939572018895,
                546.558415015685
              ],
              [
                -76.4800255729262,
                -8.22575359154815,
                546.557067152819
              ],
              [
                -76.4818915875388,
                -8.2227041383544,
                546.556393221387
              ],
              [
                -76.4824297678589,
                -8.2213388791903,
                546.556224738529
              ],
              [
                -76.4820776537004,
                -8.21997359633946,
                546.556056255671
              ],
              [
                -76.4816411574955,
                -8.21871910830027,
                546.555972014241
              ],
              [
                -76.4807993608661,
                -8.21768222631536,
                546.555929893527
              ],
              [
                -76.479682896417,
                -8.21703924243261,
                546.55590883317
              ],
              [
                -76.478544891261,
                -8.21657916929528,
                546.555898302991
              ],
              [
                -76.4773958612577,
                -8.21664017788597,
                546.555893037902
              ],
              [
                -76.4766790904854,
                -8.21717136919776,
                546.555890405357
              ],
              [
                -76.476037968761,
                -8.21799414814764,
                546.555887772812
              ],
              [
                -76.4753660281099,
                -8.21911425303906,
                546.555877242634
              ],
              [
                -76.4749206509242,
                -8.22060132143981,
                546.555866712455
              ],
              [
                -76.4738555366225,
                -8.22353454723125,
                546.555845652098
              ],
              [
                -76.4724735530249,
                -8.22591883221715,
                546.55582459174
              ],
              [
                -76.4711559902433,
                -8.22737143522985,
                546.555803531383
              ],
              [
                -76.4697228398864,
                -8.22812112131457,
                546.555793001205
              ],
              [
                -76.4680709043402,
                -8.22849660922672,
                546.555782471026
              ],
              [
                -76.4657706019479,
                -8.22871081405619,
                546.555771940847
              ],
              [
                -76.4633359512669,
                -8.22871174052783,
                546.555766675758
              ],
              [
                -76.4607716214541,
                -8.22868638004916,
                546.555761410669
              ],
              [
                -76.45910511549,
                -8.22868808057817,
                546.555740350311
              ],
              [
                -76.4566959387212,
                -8.22879373312876,
                546.555735085222
              ],
              [
                -76.454480040449,
                -8.2287667696161,
                546.55573376895
              ],
              [
                -76.4528604731083,
                -8.22863314070195,
                546.555732452678
              ],
              [
                -76.4518868558621,
                -8.22884639450491,
                546.555729820133
              ],
              [
                -76.4508745192766,
                -8.22946132313334,
                546.555724555044
              ],
              [
                -76.4499489700341,
                -8.23061226948531,
                546.555721922499
              ],
              [
                -76.449679477015,
                -8.23211131129175,
                546.555720606227
              ],
              [
                -76.4498450391448,
                -8.23398428389197,
                546.55571994809
              ],
              [
                -76.4507582908823,
                -8.23548540858664,
                546.555719619022
              ],
              [
                -76.4519723267091,
                -8.23690617349199,
                546.555719454488
              ],
              [
                -76.4535863669496,
                -8.23784996731464,
                546.555719413355
              ],
              [
                -76.4550989003203,
                -8.23790664684105,
                546.555719372221
              ],
              [
                -76.4568326375771,
                -8.23718259845941,
                546.555719331088
              ],
              [
                -76.4583420494583,
                -8.23640151815613,
                546.555719320804
              ],
              [
                -76.4601049275993,
                -8.23589123861311,
                546.555719310521
              ],
              [
                -76.4617307347626,
                -8.2357032606058,
                546.55571930795
              ],
              [
                -76.4633562219558,
                -8.23570294886657,
                546.555719305379
              ],
              [
                -76.4653044703434,
                -8.23586541592999,
                546.555719300238
              ],
              [
                -76.4667545470545,
                -8.23663271066012,
                546.555719297667
              ],
              [
                -76.4677927930338,
                -8.2375665609405,
                546.555719296381
              ],
              [
                -76.4688726941703,
                -8.23866519543107,
                546.555719295739
              ],
              [
                -76.4697650424468,
                -8.23984344127971,
                546.555719295417
              ],
              [
                -76.47065622465,
                -8.24156060507619,
                546.555719295096
              ],
              [
                -76.471003453907,
                -8.24294203352854,
                546.555719294775
              ],
              [
                -76.4714115971622,
                -8.24420138485384,
                546.555719294453
              ],
              [
                -76.4721443340536,
                -8.24561942394087,
                546.555719293811
              ],
              [
                -76.472793936336,
                -8.24706490010431,
                546.555719292525
              ],
              [
                -76.4732810277321,
                -8.24875096853529,
                546.555719291882
              ],
              [
                -76.4734168041215,
                -8.25029922556952,
                546.55571929124
              ],
              [
                -76.4730932324641,
                -8.25168446512407,
                546.555719291159
              ],
              [
                -76.4723613479333,
                -8.2529010069375,
                546.555719291079
              ],
              [
                -76.471332936367,
                -8.25378664061001,
                546.555719290918
              ],
              [
                -76.4701991063113,
                -8.25444896772385,
                546.555719290838
              ],
              [
                -76.4686840036686,
                -8.25466517927726,
                546.555719290758
              ],
              [
                -76.4665489971995,
                -8.25434183561464,
                546.555719290597
              ],
              [
                -76.464691502344,
                -8.25389020366566,
                546.555719290276
              ],
              [
                -76.463368900253,
                -8.25366986429916,
                546.555719290115
              ],
              [
                -76.4621246426763,
                -8.25385730723498,
                546.555719290035
              ],
              [
                -76.4606365704842,
                -8.25442599315559,
                546.555719289994
              ],
              [
                -76.459285178996,
                -8.25536421514921,
                546.555719289974
              ],
              [
                -76.4584210068486,
                -8.25630353910682,
                546.555719289964
              ],
              [
                -76.4573398865631,
                -8.25782658447278,
                546.555719289959
              ],
              [
                -76.4561519909123,
                -8.25969986878411,
                546.555719289957
              ],
              [
                -76.4555050260092,
                -8.26066345672541,
                546.555719289956
              ],
              [
                -76.4551812839272,
                -8.2615457304991,
                546.555719289955
              ],
              [
                -76.4552327627352,
                -8.26266763436996,
                546.555719289955
              ],
              [
                -76.4556914413392,
                -8.26400476883254,
                546.555719289955
              ],
              [
                -76.4563314134205,
                -8.26648849940001,
                546.555719289955
              ],
              [
                -76.4568446093778,
                -8.26832254092743,
                546.555719289955
              ],
              [
                -76.4577123837915,
                -8.2703592315152,
                546.555719289955
              ],
              [
                -76.4581627079125,
                -8.27175580938144,
                546.555719289955
              ],
              [
                -76.4582196143528,
                -8.27326037423368,
                546.555719289955
              ],
              [
                -76.4579927034937,
                -8.27471345207976,
                546.555719289955
              ],
              [
                -76.4571189966844,
                -8.27621995162978,
                546.555719289955
              ],
              [
                -76.4563593525447,
                -8.27736186196721,
                546.555719289955
              ],
              [
                -76.4556286410014,
                -8.27830782880912,
                546.555719289955
              ],
              [
                -76.4547014614197,
                -8.27897524393505,
                546.555719289955
              ],
              [
                -76.4534926947268,
                -8.27933707391998,
                546.555719289955
              ],
              [
                -76.4522273632497,
                -8.27942077055577,
                546.555719289955
              ],
              [
                -76.4509589472207,
                -8.2792826075803,
                546.555719289955
              ],
              [
                -76.4498008296132,
                -8.27886576304722,
                546.555719289955
              ],
              [
                -76.448412253517,
                -8.27828116165751,
                546.555719289955
              ],
              [
                -76.4461283153854,
                -8.27649949478646,
                546.555719289954
              ],
              [
                -76.445429491242,
                -8.27538755020244,
                546.555719289954
              ],
              [
                -76.4448417684137,
                -8.2743592597007,
                546.555719289954
              ],
              [
                -76.4446044871146,
                -8.27305507136567,
                546.555719289954
              ],
              [
                -76.4447447799068,
                -8.27155452666445,
                546.555719289954
              ],
              [
                -76.4450257012968,
                -8.26985819568086,
                546.555719289954
              ],
              [
                -76.4451100945111,
                -8.26852199228039,
                546.555719289954
              ],
              [
                -76.4449695163051,
                -8.26685231290926,
                546.555719289954
              ],
              [
                -76.4450257662386,
                -8.26604568081969,
                546.555719289954
              ],
              [
                -76.4448852715321,
                -8.26451649879133,
                546.555719289954
              ],
              [
                -76.4450257462352,
                -8.26295582136049,
                546.555719289954
              ],
              [
                -76.4452506997931,
                -8.26142420949297,
                546.555719289954
              ],
              [
                -76.445475697918,
                -8.25930773654938,
                546.555719289954
              ],
              [
                -76.4453353184819,
                -8.25792932662342,
                546.555719289954
              ],
              [
                -76.444969163349,
                -8.25675213143885,
                546.555719289954
              ],
              [
                -76.4440160753011,
                -8.25486501549344,
                546.555719289954
              ],
              [
                -76.4430743157545,
                -8.25415216890943,
                541.034872994485
              ],
              [
                -76.4420139903752,
                -8.25376316855725,
                538.274449846751
              ],
              [
                -76.4407735327556,
                -8.25355323167422,
                536.894238272884
              ],
              [
                -76.4393892161317,
                -8.25367346007021,
                536.549185379417
              ],
              [
                -76.4387274314506,
                -8.25346504769475,
                536.20413248595
              ],
              [
                -76.4378291088575,
                -8.25277480660251,
                535.514026699016
              ],
              [
                -76.4370414585987,
                -8.25216450421391,
                535.470895087333
              ],
              [
                -76.4359919078771,
                -8.25219998715042,
                535.449329281491
              ],
              [
                -76.435150068466,
                -8.25272014800663,
                535.438546378571
              ],
              [
                -76.4344490585023,
                -8.25310178251564,
                535.43315492711
              ],
              [
                -76.4330820590537,
                -8.25334463894799,
                535.43045920138
              ],
              [
                -76.4316099038251,
                -8.25334463773349,
                535.429111338515
              ],
              [
                -76.4305934798187,
                -8.25379565553415,
                535.428437407082
              ],
              [
                -76.4296100711665,
                -8.25393303414411,
                535.428100441366
              ],
              [
                -76.4284008123723,
                -8.25388500210519,
                535.427931958508
              ],
              [
                -76.4277081647177,
                -8.25350954574399,
                535.427847717079
              ],
              [
                -76.427119623703,
                -8.25254393960968,
                535.42776347565
              ],
              [
                -76.4257870610852,
                -8.25268172516519,
                535.341500252283
              ],
              [
                -76.4250184322649,
                -8.25216084902926,
                535.16897380555
              ],
              [
                -76.4245954714658,
                -8.25112095723246,
                535.082710582183
              ],
              [
                -76.4238957880368,
                -8.2507749562637,
                535.0395789705
              ],
              [
                -76.4226688863387,
                -8.25049694427794,
                534.996447358816
              ],
              [
                -76.42116134401,
                -8.24952494261133,
                534.823920912083
              ],
              [
                -76.4204244847978,
                -8.24831042876871,
                534.818529460622
              ],
              [
                -76.4194784815751,
                -8.24765139321644,
                534.813138009162
              ],
              [
                -76.419092334443,
                -8.24612599673163,
                534.802355106241
              ],
              [
                -76.4185312237187,
                -8.24519014807228,
                534.7807893004
              ],
              [
                -76.4177260943968,
                -8.24397792429105,
                534.737657688716
              ],
              [
                -76.4167464565006,
                -8.24290444146418,
                534.65139446535
              ],
              [
                -76.4156614186052,
                -8.24100332098251,
                534.478868018616
              ],
              [
                -76.4149626001471,
                -8.23962005692462,
                534.435736406933
              ],
              [
                -76.4141940512731,
                -8.23789147486017,
                534.392604795249
              ],
              [
                -76.4132168490197,
                -8.23637363318735,
                534.306341571883
              ],
              [
                -76.4121711198977,
                -8.23513236074072,
                534.133815125149
              ],
              [
                -76.4116137077699,
                -8.2345826794091,
                533.788762231682
              ],
              [
                -76.4110898034255,
                -8.23409772316266,
                533.443709338216
              ],
              [
                -76.4105698910095,
                -8.23317414085618,
                532.753603551282
              ],
              [
                -76.4100894484212,
                -8.23226152549862,
                529.993180403548
              ],
              [
                -76.4096661120281,
                -8.22946908892736,
                528.61296882968
              ],
              [
                -76.410125643383,
                -8.22666630352916,
                527.922863042747
              ],
              [
                -76.4081746862967,
                -8.22458480913195,
                527.57781014928
              ],
              [
                -76.4072927634471,
                -8.22277861347194,
                527.405283702547
              ],
              [
                -76.4069359566503,
                -8.22177485162677,
                527.31902047918
              ],
              [
                -76.404687716161,
                -8.22120311783009,
                527.275888867496
              ],
              [
                -76.4003866609364,
                -8.21800443256196,
                527.254323061655
              ],
              [
                -76.3983131472785,
                -8.21584885311777,
                527.243540158734
              ],
              [
                -76.3978868454992,
                -8.21397605951423,
                527.238148707273
              ],
              [
                -76.3978220999496,
                -8.21146165438162,
                527.235452981543
              ],
              [
                -76.3978407419126,
                -8.20933702669373,
                527.234105118678
              ],
              [
                -76.3935615746587,
                -8.20926518186057,
                527.233431187246
              ],
              [
                -76.3923573377736,
                -8.2079436028242,
                527.233094221529
              ],
              [
                -76.3916732110307,
                -8.20583721041363,
                527.232925738671
              ],
              [
                -76.3893662967311,
                -8.20520540950542,
                527.232841497242
              ],
              [
                -76.3865567308236,
                -8.20390250689294,
                527.232799376528
              ],
              [
                -76.3848796580392,
                -8.20245984009942,
                527.23277831617
              ],
              [
                -76.3836158423757,
                -8.20113035557578,
                527.232767785992
              ],
              [
                -76.3829080775825,
                -8.19914287304481,
                527.232757255813
              ],
              [
                -76.3813186456752,
                -8.19682167330536,
                527.06023080908
              ],
              [
                -76.3785996341524,
                -8.19347817032822,
                526.887704362346
              ],
              [
                -76.3788874571229,
                -8.19106072658782,
                526.715177915613
              ],
              [
                -76.3790361412641,
                -8.18957051337195,
                526.628914692246
              ],
              [
                -76.3798283746436,
                -8.18800903526064,
                526.585783080563
              ],
              [
                -76.3800539174503,
                -8.18688190238442,
                526.564217274721
              ],
              [
                -76.3793386953089,
                -8.18645758019172,
                526.5534343718
              ],
              [
                -76.3790469234184,
                -8.18517505645585,
                526.54804292034
              ],
              [
                -76.3766226489254,
                -8.18476100170604,
                526.54534719461
              ],
              [
                -76.3754785796208,
                -8.18334438746493,
                526.543999331745
              ],
              [
                -76.3739081437215,
                -8.18285235155008,
                526.54265146888
              ],
              [
                -76.3729882388841,
                -8.18116069235924,
                526.370125022146
              ],
              [
                -76.3700691377372,
                -8.18039284879724,
                526.283861798779
              ],
              [
                -76.3687273896329,
                -8.17934422464891,
                526.240730187096
              ],
              [
                -76.3670118273608,
                -8.17920194322338,
                526.197598575413
              ],
              [
                -76.3656002772574,
                -8.17666929780011,
                526.025072128679
              ],
              [
                -76.3639736286633,
                -8.1766807087016,
                525.981940516996
              ],
              [
                -76.3624198498787,
                -8.17549163791716,
                525.960374711154
              ],
              [
                -76.3605747674876,
                -8.17472139326561,
                525.938808905313
              ],
              [
                -76.3618157188982,
                -8.17292356140666,
                525.895677293629
              ],
              [
                -76.3619619230411,
                -8.17216812573726,
                525.874111487788
              ],
              [
                -76.3609235067034,
                -8.17174564828519,
                525.863328584867
              ],
              [
                -76.3594871255182,
                -8.17076283487394,
                525.857937133406
              ],
              [
                -76.3562734341613,
                -8.17068956221581,
                525.852545681946
              ],
              [
                -76.35498389558,
                -8.1697034345447,
                525.847154230486
              ],
              [
                -76.353777688708,
                -8.16963308439845,
                525.844458504755
              ],
              [
                -76.3528806030847,
                -8.16711102077954,
                525.84311064189
              ],
              [
                -76.3516364185412,
                -8.16703584822848,
                525.842436710458
              ],
              [
                -76.3511740502161,
                -8.16598679002826,
                525.842099744741
              ],
              [
                -76.3509368477947,
                -8.16437237760194,
                525.841931261883
              ],
              [
                -76.3506621166097,
                -8.16221326004337,
                525.841762779025
              ],
              [
                -76.3471441009881,
                -8.16063956011054,
                525.830979876104
              ],
              [
                -76.3470923608733,
                -8.15692511550503,
                525.809414070263
              ],
              [
                -76.3454662244452,
                -8.15448589375812,
                525.798631167342
              ],
              [
                -76.3454795069026,
                -8.15177802810874,
                525.787848264421
              ],
              [
                -76.3448690996367,
                -8.14956286995761,
                525.766282458579
              ],
              [
                -76.3450419414923,
                -8.14839815996484,
                525.723150846896
              ],
              [
                -76.3447064355807,
                -8.14694764972189,
                525.680019235213
              ],
              [
                -76.3455347941965,
                -8.14593985028926,
                525.636887623529
              ],
              [
                -76.3451177636398,
                -8.14462387409538,
                525.593756011846
              ],
              [
                -76.3466395664357,
                -8.14278626533259,
                525.507492788479
              ],
              [
                -76.3464778679344,
                -8.14129212664144,
                525.162439895012
              ],
              [
                -76.3465530222363,
                -8.13961581864401,
                524.472334108079
              ],
              [
                -76.3437494980733,
                -8.14087998954679,
                519.922631002406
              ],
              [
                -76.3424634127918,
                -8.14411682781412,
                517.647779449569
              ],
              [
                -76.3400052272058,
                -8.14815565253967,
                516.510353673151
              ],
              [
                -76.3360694812587,
                -8.15187262128738,
                516.474809117638
              ],
              [
                -76.3328833977254,
                -8.15567273325679,
                516.439264562125
              ],
              [
                -76.3302330551589,
                -8.15972274962269,
                516.368175451098
              ],
              [
                -76.3283982356819,
                -8.16379303951465,
                516.225997229046
              ],
              [
                -76.3291928214223,
                -8.16862832696889,
                516.083819006994
              ],
              [
                -76.3304414256973,
                -8.17320493669853,
                515.941640784942
              ],
              [
                -76.3334635336792,
                -8.17757250159558,
                515.79946256289
              ],
              [
                -76.3363641477091,
                -8.18255466527481,
                515.657284340837
              ],
              [
                -76.3360974503601,
                -8.18595440916377,
                515.639512063081
              ],
              [
                -76.3370159557993,
                -8.19000278940582,
                515.621739785324
              ],
              [
                -76.3373739893493,
                -8.19482637924489,
                515.586195229811
              ],
              [
                -76.3351347123819,
                -8.19974149246346,
                515.515106118785
              ],
              [
                -76.339637035585,
                -8.20126059119775,
                515.479561563272
              ],
              [
                -76.343284956477,
                -8.20313923598096,
                515.461789285515
              ],
              [
                -76.3471405101941,
                -8.20402553172739,
                515.452903146637
              ],
              [
                -76.3504838870201,
                -8.20716360368225,
                515.448460077198
              ],
              [
                -76.351644610825,
                -8.21092680340083,
                515.446238542478
              ],
              [
                -76.3542752995301,
                -8.21357090635133,
                515.444017007759
              ],
              [
                -76.3569651758615,
                -8.21333789766315,
                515.408472452246
              ],
              [
                -76.3590292735038,
                -8.2174976453946,
                515.390700174489
              ],
              [
                -76.3588610861491,
                -8.22168350212201,
                515.381814035611
              ],
              [
                -76.362115702693,
                -8.22565538998257,
                515.379592500891
              ],
              [
                -76.3649130875024,
                -8.22872186606272,
                515.377370966172
              ],
              [
                -76.3672046967078,
                -8.23077701420547,
                515.376260198812
              ],
              [
                -76.3685853075716,
                -8.23350159655367,
                515.375149431452
              ],
              [
                -76.369596954739,
                -8.23825455782989,
                515.374594047772
              ],
              [
                -76.3700878535094,
                -8.24265750910248,
                515.374038664092
              ],
              [
                -76.3706290925006,
                -8.24718496728078,
                515.372927896733
              ],
              [
                -76.3726399561058,
                -8.25243820492415,
                515.23074967468
              ],
              [
                -76.3758981775632,
                -8.25475485400077,
                515.088571452628
              ],
              [
                -76.3799106131494,
                -8.25849754214709,
                514.804215008524
              ],
              [
                -76.3806718670182,
                -8.25999767548664,
                514.519858564419
              ],
              [
                -76.3815049851602,
                -8.26263387265957,
                514.235502120314
              ],
              [
                -76.3835314957301,
                -8.26447977830671,
                513.098076343896
              ],
              [
                -76.383468448263,
                -8.26677465822219,
                513.08030406614
              ],
              [
                -76.382452621091,
                -8.26822948127322,
                513.062531788383
              ],
              [
                -76.3827617721463,
                -8.26952937931343,
                513.02698723287
              ],
              [
                -76.3833847404643,
                -8.27160770421742,
                512.955898121844
              ],
              [
                -76.3819571418322,
                -8.27505789750861,
                512.813719899792
              ],
              [
                -76.3806077453072,
                -8.27808938490692,
                512.529363455687
              ],
              [
                -76.3806915109812,
                -8.28113356784982,
                511.960650567478
              ],
              [
                -76.3834149910112,
                -8.28664763905469,
                511.676294123373
              ],
              [
                -76.3847848241275,
                -8.28988747110192,
                511.391937679269
              ],
              [
                -76.3855827645111,
                -8.29316767645545,
                510.823224791059
              ],
              [
                -76.3862060775452,
                -8.29497444555061,
                508.548373238223
              ],
              [
                -76.3845235589163,
                -8.29679758129392,
                507.979660350014
              ],
              [
                -76.3830012547419,
                -8.29909769330109,
                507.695303905909
              ],
              [
                -76.3823593588879,
                -8.30188074556493,
                507.553125683857
              ],
              [
                -76.3824795634491,
                -8.3039908237027,
                507.482036572831
              ],
              [
                -76.3817963567876,
                -8.30617637701214,
                507.446492017318
              ],
              [
                -76.3804375611899,
                -8.30822679119681,
                507.428719739561
              ],
              [
                -76.3780317574789,
                -8.30997041525785,
                507.419833600683
              ],
              [
                -76.3762175157478,
                -8.31143271317886,
                507.419764177723
              ],
              [
                -76.3751652291781,
                -8.31289064695694,
                507.419694754763
              ],
              [
                -76.3744846015127,
                -8.31455500043858,
                507.419555908843
              ],
              [
                -76.3739551485174,
                -8.31669163554119,
                507.419278217003
              ],
              [
                -76.3737894916023,
                -8.3189378978969,
                507.418722833323
              ],
              [
                -76.3740492997378,
                -8.32123471332599,
                507.417612065964
              ],
              [
                -76.3764059811059,
                -8.32269724014509,
                507.415390531244
              ],
              [
                -76.3745046166113,
                -8.32365700188502,
                507.410947461805
              ],
              [
                -76.353997692136,
                -8.32864691718573,
                506.842234573596
              ],
              [
                -76.3535674073541,
                -8.35630480776034,
                506.557878129491
              ],
              [
                -76.3537636223442,
                -8.35777826878869,
                506.415699907439
              ],
              [
                -76.3525193220963,
                -8.35876393911741,
                506.344610796413
              ],
              [
                -76.3521109922674,
                -8.35923820206074,
                506.326838518656
              ],
              [
                -76.3525019248263,
                -8.35982221722861,
                506.322395449217
              ],
              [
                -76.3529905980055,
                -8.35992082268626,
                506.320173914497
              ],
              [
                -76.3533083885674,
                -8.36072403693721,
                506.319063147138
              ],
              [
                -76.3537493308086,
                -8.36094387601873,
                506.318507763458
              ],
              [
                -76.3540687790589,
                -8.36104114564715,
                506.318230071618
              ],
              [
                -76.3540443883338,
                -8.36150298511665,
                506.318091225698
              ],
              [
                -76.3537738724923,
                -8.36186792276856,
                506.318021802738
              ],
              [
                -76.3538723699133,
                -8.36254856019353,
                506.317987091258
              ],
              [
                -76.3542173123966,
                -8.36342273948655,
                506.317952379778
              ],
              [
                -76.3544864722961,
                -8.36395914788637,
                506.317674687938
              ],
              [
                -76.3544117694119,
                -8.36461716662058,
                506.317396996098
              ],
              [
                -76.354756710539,
                -8.36507780031643,
                506.316841612418
              ],
              [
                -76.3552723498028,
                -8.36534604938999,
                506.315730845058
              ],
              [
                -76.3552465334002,
                -8.36598083426057,
                506.314620077699
              ],
              [
                -76.355147446241,
                -8.36668784459047,
                506.314064694019
              ],
              [
                -76.355220993301,
                -8.36719918933328,
                506.313509310339
              ],
              [
                -76.3556609937159,
                -8.36719401215563,
                506.313439887379
              ],
              [
                -76.3560046482033,
                -8.36704860214375,
                506.313370464419
              ],
              [
                -76.3563730811735,
                -8.36712206731865,
                506.313231618499
              ],
              [
                -76.3565199894197,
                -8.36748783831233,
                506.312953926659
              ],
              [
                -76.3567912891362,
                -8.36787632889463,
                506.312398542979
              ],
              [
                -76.3573329257071,
                -8.36821617052137,
                506.311287775619
              ],
              [
                -76.3574642859178,
                -8.36789666660148,
                506.310177008259
              ],
              [
                -76.3575860053896,
                -8.36754987465109,
                506.309621624579
              ],
              [
                -76.3575364144978,
                -8.3672994723267,
                506.309343932739
              ],
              [
                -76.3575043487111,
                -8.36702421063046,
                506.309205086819
              ],
              [
                -76.3576270860269,
                -8.36674928756701,
                506.309135663859
              ],
              [
                -76.3578630307869,
                -8.36659627331353,
                506.309100952379
              ],
              [
                -76.3581701389697,
                -8.36657249528693,
                506.309066240899
              ],
              [
                -76.3583992033284,
                -8.36678707576798,
                506.30462317146
              ],
              [
                -76.3584551719296,
                -8.36730909587776,
                506.302401636741
              ],
              [
                -76.3584305713891,
                -8.36757458426023,
                506.301290869381
              ],
              [
                -76.3582842909696,
                -8.36780814651622,
                506.300735485701
              ],
              [
                -76.3581236688719,
                -8.36846860827184,
                506.300457793861
              ],
              [
                -76.3579553934188,
                -8.36877293967793,
                506.300318947941
              ],
              [
                -76.3577531876757,
                -8.36903002432471,
                506.300249524981
              ],
              [
                -76.3575505398644,
                -8.36935119166061,
                506.300214813501
              ],
              [
                -76.3576161585602,
                -8.36965615688677,
                506.300197457761
              ],
              [
                -76.3577378220202,
                -8.36991430392695,
                506.300180102021
              ],
              [
                -76.3580703022209,
                -8.37001738071482,
                506.299069334662
              ],
              [
                -76.3583539192527,
                -8.36996935086372,
                506.298791642822
              ],
              [
                -76.3586465840065,
                -8.36986470323001,
                506.298513950982
              ],
              [
                -76.3589145788007,
                -8.36964788938522,
                506.297958567302
              ],
              [
                -76.3592793356,
                -8.36957571127208,
                506.296847799942
              ],
              [
                -76.3595953039772,
                -8.36968022044639,
                506.296292416262
              ],
              [
                -76.3597979700526,
                -8.36959211453087,
                506.296014724422
              ],
              [
                -76.3601225745524,
                -8.36960019989777,
                506.295737032582
              ],
              [
                -76.3602606728399,
                -8.36924684546729,
                506.294626265222
              ],
              [
                -76.3605288050251,
                -8.3689816042483,
                506.293515497863
              ],
              [
                -76.3608862420488,
                -8.36907805195539,
                506.292960114183
              ],
              [
                -76.3613010852067,
                -8.36938357424031,
                506.292404730503
              ],
              [
                -76.3617402734426,
                -8.36953642910365,
                506.291849346823
              ],
              [
                -76.3621785235682,
                -8.36960959929112,
                506.291293963143
              ],
              [
                -76.362358879178,
                -8.36973936696878,
                506.291224540183
              ],
              [
                -76.362512960756,
                -8.36989161602868,
                506.291155117223
              ],
              [
                -76.3625443391674,
                -8.3701454552069,
                506.291016271303
              ],
              [
                -76.3624622750363,
                -8.37037875665224,
                506.290738579463
              ],
              [
                -76.3622464947849,
                -8.3705306273471,
                506.290183195783
              ],
              [
                -76.3620821708766,
                -8.37063183868501,
                506.289905503943
              ],
              [
                -76.362081858741,
                -8.37083443963382,
                506.289766658023
              ],
              [
                -76.3621332700836,
                -8.37102724677172,
                506.289627812103
              ],
              [
                -76.3622609251335,
                -8.37128222908131,
                506.289072428423
              ],
              [
                -76.362728889057,
                -8.37133238572489,
                506.288933582503
              ],
              [
                -76.3628826640989,
                -8.37103818790144,
                506.288864159543
              ],
              [
                -76.3629845118529,
                -8.37067263001105,
                506.288794736583
              ],
              [
                -76.363198416321,
                -8.37046917573112,
                506.288517044744
              ],
              [
                -76.3633821596905,
                -8.37042833005577,
                506.287961661064
              ],
              [
                -76.3635764361604,
                -8.37048523516878,
                506.286850893704
              ],
              [
                -76.3636565680054,
                -8.3707906686477,
                506.286573201864
              ],
              [
                -76.3636080936922,
                -8.3711284620412,
                506.286295510024
              ],
              [
                -76.3634792655246,
                -8.37141866281353,
                506.285740126344
              ],
              [
                -76.36339025329,
                -8.37174066201312,
                506.284629358984
              ],
              [
                -76.3634786822584,
                -8.37199723392445,
                506.282407824265
              ],
              [
                -76.3637452271889,
                -8.37208440478408,
                506.282268978345
              ],
              [
                -76.3640218231624,
                -8.37200397060101,
                506.282130132425
              ],
              [
                -76.3642583709798,
                -8.37178752449634,
                506.281852440585
              ],
              [
                -76.3644855561397,
                -8.3714336007019,
                506.281297056905
              ],
              [
                -76.3647682625649,
                -8.37129620490466,
                506.280186289545
              ],
              [
                -76.3650440988154,
                -8.3712960775155,
                506.277964754826
              ],
              [
                -76.3651660279824,
                -8.37146488559359,
                506.277687062986
              ],
              [
                -76.3652229358925,
                -8.37169796912591,
                506.277409371146
              ],
              [
                -76.3650612932148,
                -8.37210024550647,
                506.276853987466
              ],
              [
                -76.3647954652486,
                -8.37273686274621,
                506.275743220106
              ],
              [
                -76.365039744979,
                -8.37292217029408,
                506.274632452746
              ],
              [
                -76.3657703156031,
                -8.37303169700926,
                506.273521685387
              ],
              [
                -76.3672695486003,
                -8.373305477135,
                510.046079381442
              ],
              [
                -76.3703776188177,
                -8.37215236533795,
                513.818637077498
              ],
              [
                -76.3747834334057,
                -8.37149764881913,
                517.591194773553
              ],
              [
                -76.3774175029854,
                -8.37210606917612,
                519.477473621581
              ],
              [
                -76.3796935939052,
                -8.3729769629634,
                521.363752469609
              ],
              [
                -76.3793518919248,
                -8.37465858456572,
                521.835322181616
              ],
              [
                -76.3796985490715,
                -8.37611346947201,
                522.306891893623
              ],
              [
                -76.3791911469285,
                -8.37765794721752,
                523.250031317637
              ],
              [
                -76.3795380752188,
                -8.37934591485206,
                525.136310165665
              ],
              [
                -76.3807230976923,
                -8.37948599552732,
                525.151046719165
              ],
              [
                -76.3817147365353,
                -8.37862119545882,
                525.165783272665
              ],
              [
                -76.3826809207288,
                -8.37866662423457,
                525.195256379666
              ],
              [
                -76.3845638442416,
                -8.37839180411644,
                525.254202593666
              ],
              [
                -76.3862114964317,
                -8.37884667242185,
                525.372095021668
              ],
              [
                -76.3876722028548,
                -8.37866169750779,
                525.607879877672
              ],
              [
                -76.3884506801344,
                -8.37879787564767,
                526.079449589679
              ],
              [
                -76.3900695580351,
                -8.3780670364493,
                527.022589013692
              ],
              [
                -76.3905710567632,
                -8.37611232658637,
                527.965728437706
              ],
              [
                -76.3901443093116,
                -8.3752358307844,
                528.437298149713
              ],
              [
                -76.3908734316201,
                -8.37463248469418,
                528.444666426464
              ],
              [
                -76.3924362132935,
                -8.37446646342434,
                528.452034703214
              ],
              [
                -76.3933975114575,
                -8.37468518243113,
                528.466771256714
              ],
              [
                -76.3947669000219,
                -8.37424441421493,
                528.496244363714
              ],
              [
                -76.3959307353583,
                -8.37435440034893,
                528.555190577715
              ],
              [
                -76.3973971913769,
                -8.37424272784515,
                528.673083005717
              ],
              [
                -76.3987119204143,
                -8.37473807134629,
                528.90886786172
              ],
              [
                -76.3995488359113,
                -8.37562052344603,
                529.144652717724
              ],
              [
                -76.4260335759307,
                -8.37473326972496,
                529.380437573727
              ],
              [
                -76.4262453840426,
                -8.38474654599925,
                529.852007285734
              ],
              [
                -76.4448873587422,
                -8.38443130595327,
                530.795146709748
              ],
              [
                -76.444142735139,
                -8.36682985909846,
                532.681425557776
              ],
              [
                -76.471838536719,
                -8.36652961940132,
                534.567704405804
              ],
              [
                -76.4717874049049,
                -8.36299959645484,
                535.510843829818
              ],
              [
                -76.5022635524024,
                -8.36232662495783,
                535.982413541824
              ],
              [
                -76.5022051423571,
                -8.35957171390988,
                536.218198397828
              ],
              [
                -76.5053838947144,
                -8.35935012690425,
                536.33609082583
              ],
              [
                -76.5080600102172,
                -8.35703318542582,
                536.395037039831
              ],
              [
                -76.5091841254491,
                -8.35491113622647,
                536.424510146831
              ],
              [
                -76.5098141237837,
                -8.35383765315623,
                536.439246700331
              ],
              [
                -76.5103913019107,
                -8.35284954922599,
                536.446614977081
              ],
              [
                -76.5111266855114,
                -8.35158355645472,
                536.450299115456
              ],
              [
                -76.5118440976198,
                -8.35080610555447,
                536.452141184644
              ],
              [
                -76.5117649995756,
                -8.35021278805562,
                536.453062219238
              ],
              [
                -76.5123372806153,
                -8.34990803073367,
                536.453292477886
              ],
              [
                -76.5127994868486,
                -8.34929706302051,
                536.45340760721
              ],
              [
                -76.5129163152686,
                -8.34878334979432,
                536.453465171873
              ],
              [
                -76.5129424483665,
                -8.34824201286445,
                536.453493954204
              ],
              [
                -76.5131520399869,
                -8.34791103552025,
                536.453497551995
              ],
              [
                -76.5134702191281,
                -8.34805542037905,
                536.453499350891
              ],
              [
                -76.5136301598898,
                -8.34784938090541,
                536.453501149786
              ],
              [
                -76.5137153316754,
                -8.3476328858196,
                536.45350159951
              ],
              [
                -76.513765833254,
                -8.34740792971894,
                536.453502049234
              ],
              [
                -76.5139786904725,
                -8.34746232156089,
                536.453502498958
              ],
              [
                -76.5141149457664,
                -8.34749443166534,
                536.453502948682
              ],
              [
                -76.5142312468081,
                -8.34734076336763,
                536.45350384813
              ],
              [
                -76.5144445918562,
                -8.34734117497424,
                536.453504072992
              ],
              [
                -76.5146675489368,
                -8.34728344535659,
                536.453504297854
              ],
              [
                -76.5148711298559,
                -8.3471779153253,
                536.453504522716
              ],
              [
                -76.515103780588,
                -8.34705323584283,
                536.453504747578
              ],
              [
                -76.5154527495498,
                -8.34692855799269,
                536.453506546473
              ],
              [
                -76.5158696464317,
                -8.34682294850311,
                536.453508345369
              ],
              [
                -76.5162186436119,
                -8.34668863509272,
                536.453508795093
              ],
              [
                -76.5165968020604,
                -8.34665977403236,
                536.453509244817
              ],
              [
                -76.5172117888407,
                -8.3463755877788,
                536.453510144265
              ],
              [
                -76.5179274641867,
                -8.3457685103965,
                536.45351194316
              ],
              [
                -76.5182859251286,
                -8.34560731287236,
                536.453515540952
              ],
              [
                -76.5196697124546,
                -8.34906668298624,
                536.453522736535
              ],
              [
                -76.5209324063713,
                -8.35026373159086,
                536.453752995183
              ],
              [
                -76.5212327646826,
                -8.35084613500771,
                536.453810559845
              ],
              [
                -76.5216036833993,
                -8.35130038753845,
                536.453868124507
              ],
              [
                -76.5220073515063,
                -8.35209402155253,
                536.453896906838
              ],
              [
                -76.522497342369,
                -8.35273632851885,
                536.453925689169
              ],
              [
                -76.5230736991244,
                -8.3536683106729,
                536.453932884752
              ],
              [
                -76.5240423126142,
                -8.35441205709433,
                536.453940080335
              ],
              [
                -76.5239826983404,
                -8.35623222191523,
                536.4539544715
              ],
              [
                -76.524821839686,
                -8.35690665468091,
                536.453961667083
              ],
              [
                -76.5254204425231,
                -8.3579613904433,
                536.453965264875
              ],
              [
                -76.5248883306129,
                -8.3590992692563,
                536.453968862666
              ],
              [
                -76.5250548509366,
                -8.36040817348715,
                536.453972460457
              ],
              [
                -76.5257366254521,
                -8.36092859173193,
                536.453976058249
              ],
              [
                -76.5256709713995,
                -8.36207758247081,
                536.45397965604
              ],
              [
                -76.5253540726131,
                -8.36367525184155,
                536.453983253831
              ],
              [
                -76.5271884696617,
                -8.3625041071621,
                540.477123406081
              ],
              [
                -76.5281408114632,
                -8.36089669355601,
                540.980015925113
              ],
              [
                -76.5286000124718,
                -8.35920759244803,
                541.482908444144
              ],
              [
                -76.5286633636902,
                -8.35773067071647,
                542.488693482206
              ],
              [
                -76.5289214937811,
                -8.35625500439898,
                544.500263558331
              ],
              [
                -76.5296412254208,
                -8.35489330450318,
                546.511833634456
              ],
              [
                -76.5305554001103,
                -8.35340714850792,
                547.517618672518
              ],
              [
                -76.531602920236,
                -8.35211804207228,
                548.02051119155
              ],
              [
                -76.5334385905348,
                -8.35237848276628,
                548.271957451065
              ],
              [
                -76.5341536308431,
                -8.35380036860835,
                548.397680580823
              ],
              [
                -76.5353335750593,
                -8.35509725002265,
                548.460542145702
              ],
              [
                -76.5361235380757,
                -8.35393381111831,
                548.523403710581
              ],
              [
                -76.5370487626552,
                -8.35225004989415,
                549.529188748643
              ],
              [
                -76.5386246017501,
                -8.35069219805855,
                550.032081267675
              ],
              [
                -76.5403302735608,
                -8.34848482136301,
                550.534973786706
              ],
              [
                -76.5426920269491,
                -8.34647215283269,
                552.546543862831
              ],
              [
                -76.544399739398,
                -8.34458841030349,
                552.672266992589
              ],
              [
                -76.545716211046,
                -8.34322264149049,
                552.797990122346
              ],
              [
                -76.5472242891578,
                -8.34159959365852,
                553.049436381862
              ],
              [
                -76.5493900162162,
                -8.33939126783863,
                553.552328900893
              ],
              [
                -76.5503771616836,
                -8.33672639148177,
                554.558113938956
              ],
              [
                -76.5493303751849,
                -8.33574935837942,
                556.56968401508
              ],
              [
                -76.548781244145,
                -8.33388760644456,
                560.59282416733
              ],
              [
                -76.5496984947227,
                -8.3328499775989,
                561.598609205393
              ],
              [
                -76.5500903032124,
                -8.33148894772731,
                562.604394243455
              ],
              [
                -76.5515481945041,
                -8.33011087452404,
                564.61596431958
              ],
              [
                -76.5523974451527,
                -8.32730028624692,
                568.63910447183
              ]
            ]
          ]
        ],
        "type": "MultiPolygon"
      },
      "type": "Feature",
      "properties": {
        "PROVINCIA": "TOCACHE",
        "DISTRITO": "SANTA LUCIA",
        "name": "SANTA LUCIA",
        "ID": "210806",
        "DEPARTAMEN": "SAN MARTIN"
      }
    }
  ]
}
