{
  "type": "FeatureCollection",
  "features": [
    {
      "geometry": {
        "coordinates": [
          [
            [
              [
                -72.46038323199991,
                -13.790212605999955
              ],
              [
                -72.46288673199996,
                -13.795777356999963
              ],
              [
                -72.46786910699996,
                -13.796886730999915
              ],
              [
                -72.46864448199983,
                -13.798996105999834
              ],
              [
                -72.47169723199988,
                -13.802648481999938
              ],
              [
                -72.47197260699994,
                -13.8079882319999
              ],
              [
                -72.47587885699994,
                -13.813767606999875
              ],
              [
                -72.47676373199988,
                -13.816968731999907
              ],
              [
                -72.47636910699993,
                -13.821294980999937
              ],
              [
                -72.47368160699995,
                -13.826025356999878
              ],
              [
                -72.47208198199996,
                -13.838945231999958
              ],
              [
                -72.47203710699995,
                -13.844636856999898
              ],
              [
                -72.47068748199996,
                -13.849865231999956
              ],
              [
                -72.47590235699994,
                -13.855960981999829
              ],
              [
                -72.47565048199988,
                -13.858212980999895
              ],
              [
                -72.47858598199986,
                -13.860623106999924
              ],
              [
                -72.47860160699997,
                -13.86590435599993
              ],
              [
                -72.48107623199991,
                -13.868289106999953
              ],
              [
                -72.48059960699993,
                -13.871128855999928
              ],
              [
                -72.48088873199987,
                -13.87928510699993
              ],
              [
                -72.48341210699994,
                -13.884536980999883
              ],
              [
                -72.48539060699994,
                -13.886613230999899
              ],
              [
                -72.48638673199991,
                -13.88993748199988
              ],
              [
                -72.49263473199989,
                -13.898818355999879
              ],
              [
                -72.49368748199987,
                -13.902343730999917
              ],
              [
                -72.4949589819999,
                -13.903521480999927
              ],
              [
                -72.49748060699983,
                -13.908533855999963
              ],
              [
                -72.50007273199998,
                -13.911355855999943
              ],
              [
                -72.50187873199991,
                -13.914951356999893
              ],
              [
                -72.50501360699997,
                -13.916809231999878
              ],
              [
                -72.50842673199992,
                -13.916563106999945
              ],
              [
                -72.51661623199993,
                -13.921002605999945
              ],
              [
                -72.51710748199997,
                -13.925787105999916
              ],
              [
                -72.52119135699996,
                -13.926597605999916
              ],
              [
                -72.52414848199993,
                -13.929089855999905
              ],
              [
                -72.52471285699988,
                -13.932208981999963
              ],
              [
                -72.52712698199997,
                -13.936535105999894
              ],
              [
                -72.53159960699986,
                -13.937810605999914
              ],
              [
                -72.5350932319999,
                -13.94114123099996
              ],
              [
                -72.53528798199994,
                -13.943655605999936
              ],
              [
                -72.53690610699988,
                -13.946098480999979
              ],
              [
                -72.5371543569999,
                -13.94967823199994
              ],
              [
                -72.54072285699993,
                -13.951233731999878
              ],
              [
                -72.5447844819999,
                -13.955309856999975
              ],
              [
                -72.54646248199992,
                -13.958219355999915
              ],
              [
                -72.54825210699994,
                -13.959223980999923
              ],
              [
                -72.55244710699986,
                -13.96546773199998
              ],
              [
                -72.5543916069999,
                -13.966013356999895
              ],
              [
                -72.55430823299992,
                -13.959813105999899
              ],
              [
                -72.55529623199988,
                -13.957723855999973
              ],
              [
                -72.55873773199994,
                -13.955173355999875
              ],
              [
                -72.55923710699989,
                -13.947900231999938
              ],
              [
                -72.56368160699992,
                -13.939203105999923
              ],
              [
                -72.56799485699992,
                -13.936758105999957
              ],
              [
                -72.57040723199998,
                -13.93140798199994
              ],
              [
                -72.57223210699988,
                -13.92983598199993
              ],
              [
                -72.57344285799996,
                -13.926077606999968
              ],
              [
                -72.57782448199993,
                -13.919736106999949
              ],
              [
                -72.58231160699995,
                -13.916612480999959
              ],
              [
                -72.58525085699995,
                -13.913408231999938
              ],
              [
                -72.59358673199989,
                -13.911215856999831
              ],
              [
                -72.5953407319999,
                -13.912944980999896
              ],
              [
                -72.60497998199997,
                -13.918697855999937
              ],
              [
                -72.60568760699988,
                -13.914177606999942
              ],
              [
                -72.60821835699994,
                -13.910769980999873
              ],
              [
                -72.61007460699989,
                -13.906437356999959
              ],
              [
                -72.61452898299996,
                -13.90209723199996
              ],
              [
                -72.6150813569999,
                -13.896914480999953
              ],
              [
                -72.61331698199984,
                -13.894049980999966
              ],
              [
                -72.61066473199986,
                -13.892105231999835
              ],
              [
                -72.60947135699996,
                -13.886158855999952
              ],
              [
                -72.61053923199995,
                -13.884254231999932
              ],
              [
                -72.61628710699983,
                -13.884836980999921
              ],
              [
                -72.62046748199992,
                -13.883106230999886
              ],
              [
                -72.62334510799991,
                -13.882967981999911
              ],
              [
                -72.62608973199991,
                -13.879739855999901
              ],
              [
                -72.62915285699995,
                -13.87437310599995
              ],
              [
                -72.63137898199994,
                -13.868660606999981
              ],
              [
                -72.63394748299999,
                -13.865187355999922
              ],
              [
                -72.63795123199998,
                -13.862230481999973
              ],
              [
                -72.63869698199994,
                -13.857470730999978
              ],
              [
                -72.64134610699995,
                -13.85442748099996
              ],
              [
                -72.64396510699993,
                -13.848296606999838
              ],
              [
                -72.64271960699989,
                -13.8407188569999
              ],
              [
                -72.64504723199991,
                -13.836919731999956
              ],
              [
                -72.6426744819999,
                -13.833633980999878
              ],
              [
                -72.63786510699998,
                -13.830488355999933
              ],
              [
                -72.63756873299997,
                -13.827409855999974
              ],
              [
                -72.6396893569999,
                -13.82200523199998
              ],
              [
                -72.64011035699991,
                -13.81887698099996
              ],
              [
                -72.64625473199999,
                -13.814586105999922
              ],
              [
                -72.6559057319999,
                -13.811190230999898
              ],
              [
                -72.65698023199997,
                -13.802141231999826
              ],
              [
                -72.6577976069999,
                -13.800296480999975
              ],
              [
                -72.66341473199998,
                -13.798667731999842
              ],
              [
                -72.66588748199996,
                -13.79644385599994
              ],
              [
                -72.66922373199986,
                -13.795207480999977
              ],
              [
                -72.67109573199986,
                -13.792603730999929
              ],
              [
                -72.67338198199991,
                -13.791152605999912
              ],
              [
                -72.67557735799994,
                -13.7879038559999
              ],
              [
                -72.67456998199998,
                -13.783637105999901
              ],
              [
                -72.67533060699986,
                -13.780310105999888
              ],
              [
                -72.67911548199993,
                -13.777206230999923
              ],
              [
                -72.67891598199998,
                -13.775998105999975
              ],
              [
                -72.67225198199998,
                -13.773753855999928
              ],
              [
                -72.66958073199999,
                -13.77033948099995
              ],
              [
                -72.66366798199988,
                -13.773558730999923
              ],
              [
                -72.65994073199988,
                -13.772346480999886
              ],
              [
                -72.65674485699986,
                -13.769109230999845
              ],
              [
                -72.65033873199997,
                -13.770867856999871
              ],
              [
                -72.64869573199991,
                -13.772017855999877
              ],
              [
                -72.64294573299998,
                -13.769869355999958
              ],
              [
                -72.64009773299995,
                -13.76661448099992
              ],
              [
                -72.64009773199996,
                -13.76380323199993
              ],
              [
                -72.64168898199989,
                -13.761790605999863
              ],
              [
                -72.64227010699994,
                -13.75805285599995
              ],
              [
                -72.6391483569999,
                -13.756063106999875
              ],
              [
                -72.63347123199992,
                -13.755807605999962
              ],
              [
                -72.63124485699996,
                -13.751704230999906
              ],
              [
                -72.61863010799988,
                -13.748122231999957
              ],
              [
                -72.60924710699999,
                -13.74896198099998
              ],
              [
                -72.60808860699996,
                -13.748274105999883
              ],
              [
                -72.60683748199983,
                -13.742645855999967
              ],
              [
                -72.60080223299997,
                -13.741512980999914
              ],
              [
                -72.59690560699988,
                -13.739028605999977
              ],
              [
                -72.59483085699998,
                -13.733464606999974
              ],
              [
                -72.59210473199994,
                -13.730316730999903
              ],
              [
                -72.58899560799989,
                -13.729785856999968
              ],
              [
                -72.58525448199998,
                -13.730913230999874
              ],
              [
                -72.5792304819999,
                -13.731191355999897
              ],
              [
                -72.57591073199995,
                -13.729862355999899
              ],
              [
                -72.57356248199989,
                -13.731849606999901
              ],
              [
                -72.57385960699997,
                -13.736468981999963
              ],
              [
                -72.57701410699997,
                -13.741934855999943
              ],
              [
                -72.57662460699987,
                -13.74355760599991
              ],
              [
                -72.57189298299988,
                -13.743004480999957
              ],
              [
                -72.5671204819999,
                -13.743138855999973
              ],
              [
                -72.56037023199997,
                -13.746773605999977
              ],
              [
                -72.55918635699987,
                -13.74841448099994
              ],
              [
                -72.5557098569999,
                -13.749170981999953
              ],
              [
                -72.55351610699995,
                -13.750823855999897
              ],
              [
                -72.55150148199994,
                -13.749722980999934
              ],
              [
                -72.54796835699995,
                -13.74954748099998
              ],
              [
                -72.54258435699995,
                -13.747927606999895
              ],
              [
                -72.53465698199994,
                -13.75067835699997
              ],
              [
                -72.52705648199992,
                -13.7510028559999
              ],
              [
                -72.52339973199997,
                -13.750346105999824
              ],
              [
                -72.52044510699994,
                -13.748861356999896
              ],
              [
                -72.51590173199997,
                -13.748206730999982
              ],
              [
                -72.51374160699993,
                -13.750159105999899
              ],
              [
                -72.51106223199986,
                -13.75038760699988
              ],
              [
                -72.50825835699993,
                -13.749182980999933
              ],
              [
                -72.50543373199991,
                -13.746648980999964
              ],
              [
                -72.50142510699999,
                -13.746939856999973
              ],
              [
                -72.49752735699997,
                -13.751692856999966
              ],
              [
                -72.49527960699999,
                -13.750531231999958
              ],
              [
                -72.49177748199992,
                -13.75061235599992
              ],
              [
                -72.48754198199987,
                -13.753046230999928
              ],
              [
                -72.48642898199995,
                -13.755953980999948
              ],
              [
                -72.48403585699992,
                -13.75884735699998
              ],
              [
                -72.47930098199993,
                -13.761829981999938
              ],
              [
                -72.47675198199988,
                -13.764134231999947
              ],
              [
                -72.47593423199999,
                -13.766284856999903
              ],
              [
                -72.47221673199988,
                -13.769374980999885
              ],
              [
                -72.46958048199991,
                -13.770716981999897
              ],
              [
                -72.4674709819999,
                -13.773756730999878
              ],
              [
                -72.46691035699996,
                -13.776866606999874
              ],
              [
                -72.46520235699995,
                -13.778931230999945
              ],
              [
                -72.46558673199996,
                -13.782621605999907
              ],
              [
                -72.46405898199993,
                -13.786595856999952
              ],
              [
                -72.46038323199991,
                -13.790212605999955
              ]
            ]
          ]
        ],
        "type": "MultiPolygon"
      },
      "type": "Feature",
      "properties": {
        "PROVINCIA": "GRAU",
        "DISTRITO": "MARISCAL GAMARRA",
        "name": "MARISCAL GAMARRA",
        "ID": "030605",
        "DEPARTAMEN": "APURIMAC"
      }
    }
  ]
}
