{
  "type": "FeatureCollection",
  "features": [
    {
      "geometry": {
        "coordinates": [
          [
            [
              [
                -75.80465623499992,
                -9.393929726999886
              ],
              [
                -75.8029394859999,
                -9.393888727999979
              ],
              [
                -75.80107035999998,
                -9.395140602999959
              ],
              [
                -75.80058198599988,
                -9.397855476999894
              ],
              [
                -75.79942385999988,
                -9.399431602999925
              ],
              [
                -75.79804298499994,
                -9.400546852999923
              ],
              [
                -75.79758398499996,
                -9.400429726999903
              ],
              [
                -75.79653910999997,
                -9.398017601999982
              ],
              [
                -75.79595110999998,
                -9.39802935199998
              ],
              [
                -75.79165623499995,
                -9.401085852999927
              ],
              [
                -75.78919935999988,
                -9.40200385199995
              ],
              [
                -75.78844535999997,
                -9.402585977999877
              ],
              [
                -75.78568360999998,
                -9.40508785299994
              ],
              [
                -75.78463673499994,
                -9.409566351999956
              ],
              [
                -75.7844472349999,
                -9.410786976999873
              ],
              [
                -75.78354685999994,
                -9.413675727999873
              ],
              [
                -75.78600385999994,
                -9.418751976999943
              ],
              [
                -75.78628510999994,
                -9.41898635299998
              ],
              [
                -75.78648435999997,
                -9.41971110299994
              ],
              [
                -75.78589648499991,
                -9.422667976999946
              ],
              [
                -75.78595698499993,
                -9.42410747699995
              ],
              [
                -75.78864260999995,
                -9.42745510199984
              ],
              [
                -75.78947460999996,
                -9.428638727999896
              ],
              [
                -75.79043548499993,
                -9.429124976999958
              ],
              [
                -75.79072660999998,
                -9.42948635199997
              ],
              [
                -75.79082423499995,
                -9.43000197699996
              ],
              [
                -75.78959573499992,
                -9.430574226999966
              ],
              [
                -75.78936723499993,
                -9.433070351999902
              ],
              [
                -75.78961911099998,
                -9.434906227999932
              ],
              [
                -75.7906034849999,
                -9.44019335199988
              ],
              [
                -75.79047461,
                -9.440800727999942
              ],
              [
                -75.78939848499994,
                -9.4444746019999
              ],
              [
                -75.78992385999999,
                -9.445097601999976
              ],
              [
                -75.79064273599994,
                -9.448199226999975
              ],
              [
                -75.79175585999997,
                -9.448521351999887
              ],
              [
                -75.79146485999996,
                -9.451208976999965
              ],
              [
                -75.79152735999998,
                -9.451632851999932
              ],
              [
                -75.78907035999998,
                -9.454894476999925
              ],
              [
                -75.78949798499991,
                -9.455624976999957
              ],
              [
                -75.79155660999999,
                -9.458904351999934
              ],
              [
                -75.79149610999997,
                -9.459726601999932
              ],
              [
                -75.7914042349999,
                -9.46073260199995
              ],
              [
                -75.79195298499991,
                -9.462249976999942
              ],
              [
                -75.79139648499995,
                -9.4640058519999
              ],
              [
                -75.79072660999998,
                -9.4660058529999
              ],
              [
                -75.78956635999998,
                -9.466914101999919
              ],
              [
                -75.78921485999996,
                -9.46724022699982
              ],
              [
                -75.7880624849999,
                -9.468896477999976
              ],
              [
                -75.78744535999988,
                -9.469685727999945
              ],
              [
                -75.7880409849999,
                -9.470335976999877
              ],
              [
                -75.78812498499991,
                -9.470478476999972
              ],
              [
                -75.78800198499994,
                -9.471095726999977
              ],
              [
                -75.78613285999995,
                -9.473830102999898
              ],
              [
                -75.78530073499991,
                -9.474066352999898
              ],
              [
                -75.78443161099995,
                -9.474503852999874
              ],
              [
                -75.78526360999996,
                -9.478617227999962
              ],
              [
                -75.78462298499988,
                -9.479232477999972
              ],
              [
                -75.78086910999997,
                -9.487490227999956
              ],
              [
                -75.78057035999996,
                -9.488349602999904
              ],
              [
                -75.7799687349999,
                -9.489978476999852
              ],
              [
                -75.77951760999997,
                -9.49036910299992
              ],
              [
                -75.77816798499993,
                -9.49073247799987
              ],
              [
                -75.77758785999998,
                -9.490933602999917
              ],
              [
                -75.77816010999999,
                -9.491818351999939
              ],
              [
                -75.77842773499992,
                -9.492388726999877
              ],
              [
                -75.77835935999997,
                -9.49283197799997
              ],
              [
                -75.77904498499993,
                -9.494095726999888
              ],
              [
                -75.77744335999995,
                -9.500609352999959
              ],
              [
                -75.77783985999997,
                -9.50178122799997
              ],
              [
                -75.77794135999994,
                -9.502822227999843
              ],
              [
                -75.77825385999995,
                -9.504847601999927
              ],
              [
                -75.77794135999994,
                -9.506861352999977
              ],
              [
                -75.77820510999999,
                -9.50792185299997
              ],
              [
                -75.77548235999996,
                -9.509570352999958
              ],
              [
                -75.77643160999997,
                -9.51103910199987
              ],
              [
                -75.77622848499988,
                -9.51298635199987
              ],
              [
                -75.7766679849999,
                -9.513822227999981
              ],
              [
                -75.77650785999998,
                -9.5164589769999
              ],
              [
                -75.77590035999998,
                -9.518566227999884
              ],
              [
                -75.7754979849999,
                -9.519861352999953
              ],
              [
                -75.77505473499991,
                -9.52390035299993
              ],
              [
                -75.77455460999994,
                -9.524789102999932
              ],
              [
                -75.77364660999996,
                -9.525769477999916
              ],
              [
                -75.77257798599999,
                -9.525984351999966
              ],
              [
                -75.77179485999994,
                -9.526828101999968
              ],
              [
                -75.77119335999998,
                -9.52890822799992
              ],
              [
                -75.77019135999996,
                -9.529486352999982
              ],
              [
                -75.77016985999995,
                -9.530529351999974
              ],
              [
                -75.76693748499991,
                -9.5326523519999
              ],
              [
                -75.76695898499992,
                -9.534820352999873
              ],
              [
                -75.76668748499986,
                -9.535249976999978
              ],
              [
                -75.76481448499999,
                -9.535617226999932
              ],
              [
                -75.7638222349999,
                -9.535949227999936
              ],
              [
                -75.76329885999996,
                -9.536302727999953
              ],
              [
                -75.76172460999999,
                -9.53675785299987
              ],
              [
                -75.76073823499985,
                -9.538789101999896
              ],
              [
                -75.75757810999994,
                -9.543105476999926
              ],
              [
                -75.75515435999995,
                -9.544830101999878
              ],
              [
                -75.75527735999998,
                -9.545769476999965
              ],
              [
                -75.75420110999994,
                -9.54798835199989
              ],
              [
                -75.75384960999997,
                -9.548763727999926
              ],
              [
                -75.75625385999996,
                -9.552298852999854
              ],
              [
                -75.75702148499988,
                -9.553537101999893
              ],
              [
                -75.75640035999993,
                -9.557896476999929
              ],
              [
                -75.75557810999993,
                -9.559490227999959
              ],
              [
                -75.75622460999995,
                -9.560070351999912
              ],
              [
                -75.75638673499998,
                -9.562111351999931
              ],
              [
                -75.75678310999996,
                -9.563765602999865
              ],
              [
                -75.75589648599998,
                -9.566191351999919
              ],
              [
                -75.75578323499985,
                -9.568240226999876
              ],
              [
                -75.75564648499989,
                -9.568578101999947
              ],
              [
                -75.75455473499989,
                -9.569933602999924
              ],
              [
                -75.75399410999995,
                -9.570394477999969
              ],
              [
                -75.75309960999994,
                -9.571328101999939
              ],
              [
                -75.75390035999993,
                -9.573623101999942
              ],
              [
                -75.75220510999998,
                -9.576242227999956
              ],
              [
                -75.75182223499996,
                -9.58491410199997
              ],
              [
                -75.74929685999996,
                -9.591195352999932
              ],
              [
                -75.74629885999997,
                -9.594658226999911
              ],
              [
                -75.74355460999993,
                -9.596677727999975
              ],
              [
                -75.74302923499994,
                -9.59743947699991
              ],
              [
                -75.74180660999991,
                -9.603197227999885
              ],
              [
                -75.73836523599994,
                -9.608160102999932
              ],
              [
                -75.72975973499996,
                -9.615007852999952
              ],
              [
                -75.72791210999992,
                -9.615525351999963
              ],
              [
                -75.72334373499996,
                -9.616802852999967
              ],
              [
                -75.72125198499998,
                -9.61750785299995
              ],
              [
                -75.71610948499995,
                -9.613779352999927
              ],
              [
                -75.71373823499994,
                -9.613033226999903
              ],
              [
                -75.71324610999989,
                -9.620611352999958
              ],
              [
                -75.71508785999998,
                -9.62433597799992
              ],
              [
                -75.71661323499995,
                -9.633349601999896
              ],
              [
                -75.71599610999988,
                -9.641499977999956
              ],
              [
                -75.71294335999988,
                -9.650124977999951
              ],
              [
                -75.71231835999998,
                -9.655173851999905
              ],
              [
                -75.7144238599999,
                -9.6641211029999
              ],
              [
                -75.71454685999998,
                -9.66849022699995
              ],
              [
                -75.71186135999989,
                -9.684621101999937
              ],
              [
                -75.71147073499998,
                -9.690771476999885
              ],
              [
                -75.71373823499994,
                -9.697767602999932
              ],
              [
                -75.72094710999988,
                -9.709476602999928
              ],
              [
                -75.72100785999993,
                -9.71365235299993
              ],
              [
                -75.72333598499995,
                -9.720763727999895
              ],
              [
                -75.72323635999993,
                -9.728290977999904
              ],
              [
                -75.7242071099999,
                -9.733427601999836
              ],
              [
                -75.72454485999987,
                -9.739999977999958
              ],
              [
                -75.72299998499994,
                -9.74635160299988
              ],
              [
                -75.71889448499996,
                -9.753730477999966
              ],
              [
                -75.71733785999999,
                -9.758499976999815
              ],
              [
                -75.71591210999986,
                -9.765673852999896
              ],
              [
                -75.71511910999999,
                -9.775667977999944
              ],
              [
                -75.71408785999989,
                -9.77871097699989
              ],
              [
                -75.71479098499998,
                -9.782208976999868
              ],
              [
                -75.7141641099999,
                -9.788070352999966
              ],
              [
                -75.71440023499991,
                -9.791281227999889
              ],
              [
                -75.71726560999991,
                -9.793197227999883
              ],
              [
                -75.71659573499994,
                -9.796937477999847
              ],
              [
                -75.71704298499998,
                -9.79933785299994
              ],
              [
                -75.71628323499993,
                -9.80230472799991
              ],
              [
                -75.7250468599999,
                -9.807328102999975
              ],
              [
                -75.73009173499997,
                -9.802343727999869
              ],
              [
                -75.73427735999991,
                -9.802091852999979
              ],
              [
                -75.73954673499998,
                -9.803730477999864
              ],
              [
                -75.74356835999993,
                -9.805706977999876
              ],
              [
                -75.74923635999994,
                -9.811828102999925
              ],
              [
                -75.75183010999996,
                -9.812716727999884
              ],
              [
                -75.75292573499996,
                -9.816982477999943
              ],
              [
                -75.75122848499996,
                -9.822876976999964
              ],
              [
                -75.75152535999996,
                -9.827007852999827
              ],
              [
                -75.75546673499997,
                -9.834855477999952
              ],
              [
                -75.75416985999993,
                -9.839249976999952
              ],
              [
                -75.75453910999994,
                -9.842062477999946
              ],
              [
                -75.75940623499997,
                -9.850912101999938
              ],
              [
                -75.76121873499989,
                -9.852271477999977
              ],
              [
                -75.76140823499986,
                -9.856443352999918
              ],
              [
                -75.75917973499986,
                -9.859882852999931
              ],
              [
                -75.75875198499989,
                -9.862845727999968
              ],
              [
                -75.75600798599999,
                -9.863568351999959
              ],
              [
                -75.7557207349999,
                -9.86682622799998
              ],
              [
                -75.75303510999993,
                -9.868794977999869
              ],
              [
                -75.75285735999995,
                -9.873664102999953
              ],
              [
                -75.75170898499988,
                -9.876763727999958
              ],
              [
                -75.75270923599999,
                -9.883516852999946
              ],
              [
                -75.75061010999991,
                -9.8845694769999
              ],
              [
                -75.74746173499994,
                -9.88388310299996
              ],
              [
                -75.74023598499997,
                -9.883898977999934
              ],
              [
                -75.73826135999997,
                -9.886850352999886
              ],
              [
                -75.7373957349999,
                -9.890665852999916
              ],
              [
                -75.73204773499998,
                -9.896629227999938
              ],
              [
                -75.73042273499993,
                -9.899637477999875
              ],
              [
                -75.7268191099999,
                -9.903921227999945
              ],
              [
                -75.72239585999995,
                -9.90658885299996
              ],
              [
                -75.71966285999997,
                -9.909310477999895
              ],
              [
                -75.71448323499993,
                -9.91261522799988
              ],
              [
                -75.71157110999997,
                -9.91343035299991
              ],
              [
                -75.70930335999998,
                -9.915804352999942
              ],
              [
                -75.70604135999992,
                -9.916504602999964
              ],
              [
                -75.70312660999997,
                -9.916163977999872
              ],
              [
                -75.69746735999996,
                -9.913228852999907
              ],
              [
                -75.69315573499995,
                -9.91370010299994
              ],
              [
                -75.68535435999996,
                -9.91747197799998
              ],
              [
                -75.68186460999988,
                -9.920888352999953
              ],
              [
                -75.67890585999993,
                -9.927423977999979
              ],
              [
                -75.67780885999997,
                -9.932453352999914
              ],
              [
                -75.67449373499994,
                -9.935869352999873
              ],
              [
                -75.67275398499993,
                -9.940148852999926
              ],
              [
                -75.6654108599999,
                -9.940394602999902
              ],
              [
                -75.66453910999996,
                -9.941667601999939
              ],
              [
                -75.6610442349999,
                -9.942714601999967
              ],
              [
                -75.65813373499998,
                -9.944569477999949
              ],
              [
                -75.64922348499994,
                -9.948227227999894
              ],
              [
                -75.64683360999999,
                -9.948174101999939
              ],
              [
                -75.64407985999992,
                -9.946506352999961
              ],
              [
                -75.63983523499991,
                -9.945991726999921
              ],
              [
                -75.63709785999993,
                -9.9470371029999
              ],
              [
                -75.62992785999995,
                -9.946530602999928
              ],
              [
                -75.62624648499991,
                -9.941625852999948
              ],
              [
                -75.62344798499993,
                -9.941168852999965
              ],
              [
                -75.62042085999991,
                -9.943081352999911
              ],
              [
                -75.61261473499985,
                -9.945233727999948
              ],
              [
                -75.60975773499996,
                -9.944661102999873
              ],
              [
                -75.60305473499994,
                -9.94455760299985
              ],
              [
                -75.59839348499992,
                -9.945374977999961
              ],
              [
                -75.59431198499982,
                -9.944515477999914
              ],
              [
                -75.59233410999997,
                -9.946599226999922
              ],
              [
                -75.59291385999995,
                -9.950324602999956
              ],
              [
                -75.59227335999998,
                -9.951962352999942
              ],
              [
                -75.59643335999993,
                -9.953708102999883
              ],
              [
                -75.5979661099999,
                -9.958111477999978
              ],
              [
                -75.59727323499988,
                -9.961499852999907
              ],
              [
                -75.59497635999998,
                -9.966036977999977
              ],
              [
                -75.59753685999993,
                -9.97231822799995
              ],
              [
                -75.59728335999989,
                -9.977211602999887
              ],
              [
                -75.59488335999993,
                -9.984671602999924
              ],
              [
                -75.59519335999983,
                -9.991111602999979
              ],
              [
                -75.59755948499992,
                -9.995944852999912
              ],
              [
                -75.59581123499999,
                -10.004163227999925
              ],
              [
                -75.59529498499995,
                -10.010173352999914
              ],
              [
                -75.59975648499989,
                -10.020645102999936
              ],
              [
                -75.60311185999996,
                -10.025475352999933
              ],
              [
                -75.60565035999997,
                -10.023402352999824
              ],
              [
                -75.60853510999988,
                -10.023521477999907
              ],
              [
                -75.61472260999989,
                -10.026406227999928
              ],
              [
                -75.61686323499998,
                -10.025394477999896
              ],
              [
                -75.6198378599999,
                -10.02631635299997
              ],
              [
                -75.62331835999987,
                -10.026138602999936
              ],
              [
                -75.62632223499998,
                -10.02456247799995
              ],
              [
                -75.62941398499999,
                -10.026970602999938
              ],
              [
                -75.63215223499998,
                -10.02723822799993
              ],
              [
                -75.64027148499997,
                -10.026406227999928
              ],
              [
                -75.6451796099999,
                -10.026927727999919
              ],
              [
                -75.64756635999993,
                -10.023374977999936
              ],
              [
                -75.64820310999994,
                -10.020527352999977
              ],
              [
                -75.65055848499998,
                -10.01959960299996
              ],
              [
                -75.65279485999991,
                -10.017386727999906
              ],
              [
                -75.65976560999997,
                -10.013269477999927
              ],
              [
                -75.65976560999997,
                -10.011747977999903
              ],
              [
                -75.66328710999994,
                -10.005845602999955
              ],
              [
                -75.66585735999996,
                -10.004656227999874
              ],
              [
                -75.66588085999996,
                -10.001611227999888
              ],
              [
                -75.66728510999997,
                -10.000015602999952
              ],
              [
                -75.67119310999993,
                -9.999134977999915
              ],
              [
                -75.67628998499987,
                -9.994921727999952
              ],
              [
                -75.68380110999988,
                -9.99370672799995
              ],
              [
                -75.68872435999998,
                -9.995537227999876
              ],
              [
                -75.69246060999996,
                -9.995934852999824
              ],
              [
                -75.69694548499996,
                -9.99542672799987
              ],
              [
                -75.70013298499998,
                -9.99668910299988
              ],
              [
                -75.70808585999998,
                -9.997683227999971
              ],
              [
                -75.71341935999993,
                -9.996799602999943
              ],
              [
                -75.71627448499999,
                -9.99902922799987
              ],
              [
                -75.7199994849999,
                -9.999971227999936
              ],
              [
                -75.72356573499997,
                -9.998835102999976
              ],
              [
                -75.72588523499991,
                -9.999923852999927
              ],
              [
                -75.73113985999993,
                -9.99916647799995
              ],
              [
                -75.73333323499998,
                -9.999829227999896
              ],
              [
                -75.7369941099999,
                -9.998614227999894
              ],
              [
                -75.74021323499989,
                -9.999671477999925
              ],
              [
                -75.74665123499994,
                -9.997967227999936
              ],
              [
                -75.75157448499994,
                -9.995047977999889
              ],
              [
                -75.75831235999993,
                -9.995947477999891
              ],
              [
                -75.7629516099999,
                -9.99842485299996
              ],
              [
                -75.76665973499996,
                -9.996310352999956
              ],
              [
                -75.77101498499997,
                -9.99629460299991
              ],
              [
                -75.7725298599999,
                -9.995347852999942
              ],
              [
                -75.77746885999994,
                -9.995126852999931
              ],
              [
                -75.78337035999988,
                -9.999261227999966
              ],
              [
                -75.78669985999994,
                -9.99429060299991
              ],
              [
                -75.78916148499997,
                -9.99242860299995
              ],
              [
                -75.79187560999998,
                -9.98897285299995
              ],
              [
                -75.79386385999993,
                -9.987789352999812
              ],
              [
                -75.79698823499996,
                -9.98801035299988
              ],
              [
                -75.79976535999998,
                -9.989809227999956
              ],
              [
                -75.80129598499997,
                -9.992396977999931
              ],
              [
                -75.80339473499998,
                -9.993485852999981
              ],
              [
                -75.80994323499993,
                -9.993927602999918
              ],
              [
                -75.81215236099996,
                -9.99242860299995
              ],
              [
                -75.81540298499993,
                -9.992933602999926
              ],
              [
                -75.82130460999991,
                -9.991844727999876
              ],
              [
                -75.8232612349999,
                -9.993012477999969
              ],
              [
                -75.82297723499994,
                -9.996184102999905
              ],
              [
                -75.82498123499994,
                -9.997241351999833
              ],
              [
                -75.82856323499993,
                -9.997288727999944
              ],
              [
                -75.83163873499996,
                -9.995554727999888
              ],
              [
                -75.83306635999992,
                -9.993613352999944
              ],
              [
                -75.83597848499994,
                -9.992443352999942
              ],
              [
                -75.84096473499994,
                -9.99162497799989
              ],
              [
                -75.84368360999991,
                -9.988378852999915
              ],
              [
                -75.84809573499984,
                -9.988580102999947
              ],
              [
                -75.85380660999994,
                -9.987994102999949
              ],
              [
                -75.86063461099991,
                -9.989953102999948
              ],
              [
                -75.86212298599997,
                -9.989681602999951
              ],
              [
                -75.8673104849999,
                -9.985447227999884
              ],
              [
                -75.87194923499993,
                -9.985472602999948
              ],
              [
                -75.87969135999998,
                -9.982994102999953
              ],
              [
                -75.88242773499991,
                -9.97838872799997
              ],
              [
                -75.88253323499993,
                -9.975238227999967
              ],
              [
                -75.88158986099995,
                -9.97251560299992
              ],
              [
                -75.88296285999996,
                -9.971437477999814
              ],
              [
                -75.88277923499993,
                -9.965956977999952
              ],
              [
                -75.8784257349999,
                -9.958861352999918
              ],
              [
                -75.87888086099997,
                -9.95563685299993
              ],
              [
                -75.87740423499991,
                -9.951412102999882
              ],
              [
                -75.87661323499992,
                -9.943933602999891
              ],
              [
                -75.87429685999996,
                -9.939617227999975
              ],
              [
                -75.87374410999996,
                -9.931511727999919
              ],
              [
                -75.87732223599988,
                -9.928580101999898
              ],
              [
                -75.87332610999994,
                -9.922898477999922
              ],
              [
                -75.86957035999995,
                -9.91957035299987
              ],
              [
                -75.8684394849999,
                -9.91587497799992
              ],
              [
                -75.87074610999997,
                -9.9115937279999
              ],
              [
                -75.87435936099996,
                -9.90810935299993
              ],
              [
                -75.87626560999996,
                -9.901771477999887
              ],
              [
                -75.8790332349999,
                -9.899531227999887
              ],
              [
                -75.88237885999996,
                -9.891037102999974
              ],
              [
                -75.88477923499994,
                -9.893351602999928
              ],
              [
                -75.88723048499992,
                -9.893558602999974
              ],
              [
                -75.89283985999998,
                -9.897888727999884
              ],
              [
                -75.89518760999988,
                -9.897179727999912
              ],
              [
                -75.89707223599993,
                -9.894373102999964
              ],
              [
                -75.89784960999998,
                -9.890443352999966
              ],
              [
                -75.9004843599999,
                -9.886716852999939
              ],
              [
                -75.90041798599992,
                -9.880326227999888
              ],
              [
                -75.90165035999996,
                -9.877164102999927
              ],
              [
                -75.90551173499995,
                -9.877429726999878
              ],
              [
                -75.90949998499997,
                -9.874224602999902
              ],
              [
                -75.91012498599991,
                -9.87243947799982
              ],
              [
                -75.90877348499998,
                -9.86591410299991
              ],
              [
                -75.90690823499995,
                -9.861886727999945
              ],
              [
                -75.91010348499998,
                -9.857384727999943
              ],
              [
                -75.91102348499999,
                -9.853339852999909
              ],
              [
                -75.91467773499994,
                -9.850652352999873
              ],
              [
                -75.91969535999993,
                -9.84487497699996
              ],
              [
                -75.92606048499994,
                -9.842828102999874
              ],
              [
                -75.92870098499998,
                -9.840109476999942
              ],
              [
                -75.92970310999993,
                -9.83582810299987
              ],
              [
                -75.93093548499996,
                -9.835128852999958
              ],
              [
                -75.93109960999993,
                -9.83167385299987
              ],
              [
                -75.93042573599996,
                -9.829111352999973
              ],
              [
                -75.92817773499996,
                -9.826431602999946
              ],
              [
                -75.92501348499997,
                -9.824281227999904
              ],
              [
                -75.92408398499998,
                -9.82114647799989
              ],
              [
                -75.92538473499997,
                -9.818365227999891
              ],
              [
                -75.92904485999992,
                -9.815369102999966
              ],
              [
                -75.93212098499998,
                -9.81140235199996
              ],
              [
                -75.93635935999993,
                -9.810388727999907
              ],
              [
                -75.93725786099992,
                -9.807646477999867
              ],
              [
                -75.9395824849999,
                -9.805535602999896
              ],
              [
                -75.93925886099993,
                -9.805009726999913
              ],
              [
                -75.93849035999995,
                -9.803169227999945
              ],
              [
                -75.93565873499995,
                -9.800823102999914
              ],
              [
                -75.93460698599989,
                -9.800883727999974
              ],
              [
                -75.93331260999992,
                -9.800903976999962
              ],
              [
                -75.93247035999997,
                -9.800297102999934
              ],
              [
                -75.93149235999994,
                -9.799488226999927
              ],
              [
                -75.92627410999984,
                -9.795341977999897
              ],
              [
                -75.92504035999997,
                -9.794856602999971
              ],
              [
                -75.92237973499994,
                -9.794940477999887
              ],
              [
                -75.92181948499996,
                -9.794966102999979
              ],
              [
                -75.91917648499992,
                -9.794995102999962
              ],
              [
                -75.91765811099998,
                -9.794431852999935
              ],
              [
                -75.91504898599999,
                -9.793784602999835
              ],
              [
                -75.91400373499994,
                -9.79354385299996
              ],
              [
                -75.91316598599991,
                -9.793664602999854
              ],
              [
                -75.91272310999994,
                -9.793845352999881
              ],
              [
                -75.91029610999993,
                -9.794067852999888
              ],
              [
                -75.90876310999994,
                -9.793672227999934
              ],
              [
                -75.90072948499994,
                -9.791822727999943
              ],
              [
                -75.89983335999995,
                -9.791809977999947
              ],
              [
                -75.89524835999993,
                -9.792227227999945
              ],
              [
                -75.89343136099995,
                -9.791207227999905
              ],
              [
                -75.89223473499999,
                -9.791033977999973
              ],
              [
                -75.89132460999991,
                -9.791074477999928
              ],
              [
                -75.89033360999997,
                -9.791236227999946
              ],
              [
                -75.8762499849999,
                -9.792959977999885
              ],
              [
                -75.87411685999996,
                -9.792912852999905
              ],
              [
                -75.87247448599999,
                -9.793926227999918
              ],
              [
                -75.87174648499996,
                -9.794573476999915
              ],
              [
                -75.87087673499997,
                -9.795503851999968
              ],
              [
                -75.87043173599989,
                -9.796191477999912
              ],
              [
                -75.87004748499999,
                -9.797870227999908
              ],
              [
                -75.86988573499991,
                -9.799022977999925
              ],
              [
                -75.8695013599999,
                -9.800944477999906
              ],
              [
                -75.86804510999997,
                -9.803533351999874
              ],
              [
                -75.86721598499992,
                -9.804382727999894
              ],
              [
                -75.86602260999996,
                -9.805131102999951
              ],
              [
                -75.86508148499996,
                -9.805526977999932
              ],
              [
                -75.86476861099993,
                -9.805616477999934
              ],
              [
                -75.86377760999983,
                -9.805778351999948
              ],
              [
                -75.86126960999997,
                -9.807355852999876
              ],
              [
                -75.85997523499998,
                -9.807821102999924
              ],
              [
                -75.85888310999997,
                -9.807922226999949
              ],
              [
                -75.85744710999995,
                -9.807942476999926
              ],
              [
                -75.85653685999989,
                -9.808205352999835
              ],
              [
                -75.85534360999992,
                -9.808508727999879
              ],
              [
                -75.85326035999987,
                -9.80964135299996
              ],
              [
                -75.84992323499995,
                -9.810693102999949
              ],
              [
                -75.84850735999999,
                -9.811805477999883
              ],
              [
                -75.84490960999995,
                -9.813918852999961
              ],
              [
                -75.84304660999999,
                -9.814111227999888
              ],
              [
                -75.8383947349999,
                -9.818277602999899
              ],
              [
                -75.83592723499993,
                -9.819389977999947
              ],
              [
                -75.83380348499998,
                -9.82005747799991
              ],
              [
                -75.83281248499998,
                -9.820603602999824
              ],
              [
                -75.83129560999998,
                -9.821452977999911
              ],
              [
                -75.83058773599993,
                -9.822383352999907
              ],
              [
                -75.8301601099999,
                -9.823410352999872
              ],
              [
                -75.82777635999992,
                -9.828026227999885
              ],
              [
                -75.82573360999993,
                -9.830331976999958
              ],
              [
                -75.82510073499998,
                -9.83109997799994
              ],
              [
                -75.82148623499995,
                -9.83108035299989
              ],
              [
                -75.81998960999994,
                -9.830453352999882
              ],
              [
                -75.81869510999996,
                -9.829118476999952
              ],
              [
                -75.81731985999994,
                -9.827500476999887
              ],
              [
                -75.81315335999989,
                -9.822282227999892
              ],
              [
                -75.81052410999996,
                -9.821614852999915
              ],
              [
                -75.80685773499982,
                -9.82171660299997
              ],
              [
                -75.80637785999988,
                -9.821918227999959
              ],
              [
                -75.80316198499992,
                -9.821008101999894
              ],
              [
                -75.80045185999995,
                -9.819632726999941
              ],
              [
                -75.7987124849999,
                -9.817953977999878
              ],
              [
                -75.79679098499992,
                -9.815810102999933
              ],
              [
                -75.79533473499993,
                -9.811582977999876
              ],
              [
                -75.79547635999995,
                -9.809762727999896
              ],
              [
                -75.79561798499992,
                -9.809277351999981
              ],
              [
                -75.79606285999989,
                -9.807901977999961
              ],
              [
                -75.79612360999994,
                -9.806708727999876
              ],
              [
                -75.79677073499994,
                -9.804382727999894
              ],
              [
                -75.79816635999993,
                -9.802461352999899
              ],
              [
                -75.79851023499998,
                -9.79453297799995
              ],
              [
                -75.79909673599991,
                -9.78927435299994
              ],
              [
                -75.80028998499995,
                -9.785209102999943
              ],
              [
                -75.80302048499993,
                -9.779606601999944
              ],
              [
                -75.80425423499997,
                -9.77802910299988
              ],
              [
                -75.80797573499996,
                -9.77349860299995
              ],
              [
                -75.80886385999997,
                -9.76856297799992
              ],
              [
                -75.80923498499988,
                -9.76607885299984
              ],
              [
                -75.80906373499994,
                -9.763808727999958
              ],
              [
                -75.80823560999994,
                -9.761524477999956
              ],
              [
                -75.80799298499994,
                -9.76039660299989
              ],
              [
                -75.80579435999994,
                -9.75804097699995
              ],
              [
                -75.80482348499999,
                -9.755799477999915
              ],
              [
                -75.80448085999996,
                -9.754657352999914
              ],
              [
                -75.80468073499998,
                -9.753686602999892
              ],
              [
                -75.80649385999999,
                -9.744649351999897
              ],
              [
                -75.80669373499995,
                -9.741208726999957
              ],
              [
                -75.80595135999988,
                -9.739709602999937
              ],
              [
                -75.80532323499995,
                -9.738067727999976
              ],
              [
                -75.80520898499998,
                -9.737225477999914
              ],
              [
                -75.80496623499988,
                -9.73475560299994
              ],
              [
                -75.80493773499995,
                -9.732571227999927
              ],
              [
                -75.80529460999998,
                -9.731357726999875
              ],
              [
                -75.80772160999999,
                -9.727245977999928
              ],
              [
                -75.80913510999994,
                -9.725447102999965
              ],
              [
                -75.80944910999989,
                -9.724576227999933
              ],
              [
                -75.80966335999994,
                -9.722606102999919
              ],
              [
                -75.80977748499998,
                -9.721692351999877
              ],
              [
                -75.81039148499997,
                -9.720350352999958
              ],
              [
                -75.8110196099999,
                -9.72003622699998
              ],
              [
                -75.81493910999995,
                -9.717521227999839
              ],
              [
                -75.81525348499991,
                -9.716675102999886
              ],
              [
                -75.81528835999995,
                -9.71658122699995
              ],
              [
                -75.81560248499994,
                -9.714682477999872
              ],
              [
                -75.81681598499989,
                -9.712697976999891
              ],
              [
                -75.81817223499985,
                -9.71186985299994
              ],
              [
                -75.81991198499998,
                -9.710093977999918
              ],
              [
                -75.82024235999995,
                -9.71001397799995
              ],
              [
                -75.82115610999989,
                -9.709942602999945
              ],
              [
                -75.82202698499992,
                -9.709414351999897
              ],
              [
                -75.82390673499992,
                -9.706859726999937
              ],
              [
                -75.82917960999993,
                -9.7021759779999
              ],
              [
                -75.83067873499994,
                -9.700091602999919
              ],
              [
                -75.8313354849999,
                -9.699277852999899
              ],
              [
                -75.83314860999997,
                -9.697521726999923
              ],
              [
                -75.83631998499993,
                -9.695189977999974
              ],
              [
                -75.84401773499991,
                -9.687912977999815
              ],
              [
                -75.84629748499998,
                -9.686742851999895
              ],
              [
                -75.8477679849999,
                -9.686014726999872
              ],
              [
                -75.84873885999986,
                -9.685543601999882
              ],
              [
                -75.85066623499989,
                -9.68518660299992
              ],
              [
                -75.85104260999987,
                -9.68498735299994
              ],
              [
                -75.85193685999997,
                -9.681660227999885
              ],
              [
                -75.85075185999995,
                -9.680689476999873
              ],
              [
                -75.85056623599996,
                -9.680104102999962
              ],
              [
                -75.85002373499992,
                -9.67791972699996
              ],
              [
                -75.84803923499999,
                -9.67225185299992
              ],
              [
                -75.84759673499997,
                -9.670295977999956
              ],
              [
                -75.84713986099996,
                -9.669325102999892
              ],
              [
                -75.84551223499994,
                -9.66788322799988
              ],
              [
                -75.84142911099997,
                -9.664570977999915
              ],
              [
                -75.83978723499985,
                -9.663371727999902
              ],
              [
                -75.83920198499999,
                -9.662286727999913
              ],
              [
                -75.84025835999984,
                -9.656890102999967
              ],
              [
                -75.84028698599997,
                -9.65624760299994
              ],
              [
                -75.84010135999989,
                -9.650765351999837
              ],
              [
                -75.8415623599999,
                -9.648951351999926
              ],
              [
                -75.84274260999996,
                -9.647909976999927
              ],
              [
                -75.84656873499995,
                -9.64456922799991
              ],
              [
                -75.8470113599999,
                -9.643070227999942
              ],
              [
                -75.84803923499999,
                -9.641242727999895
              ],
              [
                -75.85089460999995,
                -9.640714477999893
              ],
              [
                -75.85383560999992,
                -9.636902602999896
              ],
              [
                -75.85429248499997,
                -9.636145976999899
              ],
              [
                -75.85507773499995,
                -9.632805227999881
              ],
              [
                -75.85609135999988,
                -9.631377477999877
              ],
              [
                -75.85630548499995,
                -9.630520851999904
              ],
              [
                -75.85670523499988,
                -9.629492977999917
              ],
              [
                -75.85840423499997,
                -9.627694102999953
              ],
              [
                -75.8607169849999,
                -9.627280102999975
              ],
              [
                -75.86147373499989,
                -9.626808976999826
              ],
              [
                -75.86325823499993,
                -9.624610351999877
              ],
              [
                -75.86461461,
                -9.622839977999945
              ],
              [
                -75.86529985999994,
                -9.622069102999944
              ],
              [
                -75.86675610999998,
                -9.62066997799991
              ],
              [
                -75.86871198499989,
                -9.618813977999935
              ],
              [
                -75.87006836099994,
                -9.617329227999903
              ],
              [
                -75.87205273599989,
                -9.615059102999908
              ],
              [
                -75.87248110999991,
                -9.613117477999936
              ],
              [
                -75.8711962349999,
                -9.608234852999885
              ],
              [
                -75.87182435999995,
                -9.607378227999959
              ],
              [
                -75.87535073499993,
                -9.605507977999935
              ],
              [
                -75.87605310999999,
                -9.604586851999954
              ],
              [
                -75.87733523499998,
                -9.603295102999937
              ],
              [
                -75.88421660999995,
                -9.60033985299998
              ],
              [
                -75.88500348499997,
                -9.599277226999902
              ],
              [
                -75.88867098599991,
                -9.59755585299996
              ],
              [
                -75.88931335999996,
                -9.597113227999955
              ],
              [
                -75.89075535999996,
                -9.596028226999977
              ],
              [
                -75.89169035999998,
                -9.594910102999961
              ],
              [
                -75.89293973499997,
                -9.593172851999952
              ],
              [
                -75.89401048499991,
                -9.592016477999948
              ],
              [
                -75.89418110999992,
                -9.591796976999888
              ],
              [
                -75.89486710999995,
                -9.590845726999873
              ],
              [
                -75.89519535999989,
                -9.590131976999885
              ],
              [
                -75.89537073599996,
                -9.589412977999814
              ],
              [
                -75.89565223499994,
                -9.5872908529999
              ],
              [
                -75.89686585999993,
                -9.583593226999938
              ],
              [
                -75.89989248599989,
                -9.581151851999891
              ],
              [
                -75.90129160999999,
                -9.579766976999906
              ],
              [
                -75.90180560999988,
                -9.579238727999893
              ],
              [
                -75.90216248499996,
                -9.57898172799986
              ],
              [
                -75.90474660999996,
                -9.575369726999952
              ],
              [
                -75.90510348599992,
                -9.574941477999971
              ],
              [
                -75.90912460999994,
                -9.572057852999933
              ],
              [
                -75.91266935999994,
                -9.567450476999909
              ],
              [
                -75.91460948499997,
                -9.5628848529999
              ],
              [
                -75.91531998499994,
                -9.561269976999938
              ],
              [
                -75.91542998499989,
                -9.561029976999976
              ],
              [
                -75.91592998499988,
                -9.560359977999894
              ],
              [
                -75.91738723499992,
                -9.558705977999978
              ],
              [
                -75.91708123499996,
                -9.555278977999933
              ],
              [
                -75.9171722349999,
                -9.55376585199997
              ],
              [
                -75.91721348599998,
                -9.55191797699996
              ],
              [
                -75.91686623599998,
                -9.550429851999922
              ],
              [
                -75.92008660999983,
                -9.545014351999953
              ],
              [
                -75.9233607349999,
                -9.543526102999977
              ],
              [
                -75.92481998599993,
                -9.539044851999847
              ],
              [
                -75.92665548499997,
                -9.535985726999968
              ],
              [
                -75.92661410999989,
                -9.533720351999932
              ],
              [
                -75.9258617349999,
                -9.532281726999884
              ],
              [
                -75.92606848499997,
                -9.53091760299992
              ],
              [
                -75.92693660999993,
                -9.529098601999976
              ],
              [
                -75.92767248499996,
                -9.523269727999946
              ],
              [
                -75.92830910999999,
                -9.521496351999872
              ],
              [
                -75.92941698499999,
                -9.519809602999942
              ],
              [
                -75.92965673499992,
                -9.517064726999934
              ],
              [
                -75.92946998599996,
                -9.515399977999948
              ],
              [
                -75.93097998499991,
                -9.511559976999933
              ],
              [
                -75.93171998499986,
                -9.511109977999979
              ],
              [
                -75.93288998499992,
                -9.51079997699992
              ],
              [
                -75.9358199859999,
                -9.509479977999945
              ],
              [
                -75.93709998499992,
                -9.507999977999873
              ],
              [
                -75.93742998599998,
                -9.507299976999946
              ],
              [
                -75.93826998499992,
                -9.505745726999976
              ],
              [
                -75.93884860999992,
                -9.504682351999918
              ],
              [
                -75.93938885999995,
                -9.503671102999931
              ],
              [
                -75.94085823599994,
                -9.501207976999922
              ],
              [
                -75.94167960999994,
                -9.500236352999934
              ],
              [
                -75.9417659859999,
                -9.500181351999913
              ],
              [
                -75.94193085999996,
                -9.500055727999893
              ],
              [
                -75.94211773499995,
                -9.49986760299987
              ],
              [
                -75.94338373499983,
                -9.498862102999908
              ],
              [
                -75.94385423499995,
                -9.498764102999871
              ],
              [
                -75.94410298499992,
                -9.49874722699991
              ],
              [
                -75.94445960999991,
                -9.498723476999885
              ],
              [
                -75.94522061099991,
                -9.498069601999873
              ],
              [
                -75.94541085999992,
                -9.497796101999825
              ],
              [
                -75.94664398499992,
                -9.497025601999951
              ],
              [
                -75.9452139849999,
                -9.492865602999814
              ],
              [
                -75.94310398499994,
                -9.490555601999972
              ],
              [
                -75.94232398499997,
                -9.487965602999907
              ],
              [
                -75.93767398499989,
                -9.486155601999826
              ],
              [
                -75.93374398499998,
                -9.485295601999894
              ],
              [
                -75.93096398499983,
                -9.482885602999886
              ],
              [
                -75.93097398499992,
                -9.478445602999955
              ],
              [
                -75.9208939849999,
                -9.47051560299991
              ],
              [
                -75.91900798499995,
                -9.46841035299991
              ],
              [
                -75.91445898499995,
                -9.465052727999932
              ],
              [
                -75.90147460999998,
                -9.444980476999945
              ],
              [
                -75.89782036099996,
                -9.442454976999954
              ],
              [
                -75.89473635999997,
                -9.438664101999905
              ],
              [
                -75.89240236099994,
                -9.433152352999969
              ],
              [
                -75.88677148499994,
                -9.42775972699991
              ],
              [
                -75.88334573599991,
                -9.425343727999916
              ],
              [
                -75.87854098499992,
                -9.424613227999885
              ],
              [
                -75.87076561099997,
                -9.421521477999875
              ],
              [
                -75.86723235999995,
                -9.42170310199998
              ],
              [
                -75.86439448499988,
                -9.423093726999923
              ],
              [
                -75.86145110999996,
                -9.422664101999885
              ],
              [
                -75.85614848599988,
                -9.425490227999887
              ],
              [
                -75.85313473499997,
                -9.42638285199996
              ],
              [
                -75.84733598499997,
                -9.423412101999872
              ],
              [
                -75.84519135999994,
                -9.42101172699995
              ],
              [
                -75.84311723499997,
                -9.420646476999934
              ],
              [
                -75.84090423499998,
                -9.417123101999948
              ],
              [
                -75.83701360999993,
                -9.413072227999976
              ],
              [
                -75.83615035999992,
                -9.410353477999877
              ],
              [
                -75.82978910999992,
                -9.406271477999894
              ],
              [
                -75.82512698499994,
                -9.401769477999835
              ],
              [
                -75.82086898499995,
                -9.398929726999881
              ],
              [
                -75.82055660999987,
                -9.396831976999977
              ],
              [
                -75.81802348499997,
                -9.395435601999964
              ],
              [
                -75.81574998499997,
                -9.392537102999938
              ],
              [
                -75.81340035999989,
                -9.393828102999919
              ],
              [
                -75.81117185999989,
                -9.391265601999976
              ],
              [
                -75.80883011099996,
                -9.39112497699989
              ],
              [
                -75.80678123499996,
                -9.393109352999943
              ],
              [
                -75.80465623499992,
                -9.393929726999886
              ]
            ]
          ]
        ],
        "type": "MultiPolygon"
      },
      "type": "Feature",
      "properties": {
        "PROVINCIA": "PACHITEA",
        "DISTRITO": "CHAGLLA",
        "name": "CHAGLLA",
        "ID": "090702",
        "DEPARTAMEN": "HUANUCO"
      }
    }
  ]
}
