{
  "type": "FeatureCollection",
  "features": [
    {
      "geometry": {
        "coordinates": [
          [
            [
              [
                -76.0156873599999,
                -9.906439477999925
              ],
              [
                -76.01527536099996,
                -9.908955102999926
              ],
              [
                -76.01338285999992,
                -9.91040822799988
              ],
              [
                -76.00987110999989,
                -9.916070351999963
              ],
              [
                -76.00835160999992,
                -9.9174589779999
              ],
              [
                -76.00762698499994,
                -9.92177535299993
              ],
              [
                -76.00903123599994,
                -9.927783227999953
              ],
              [
                -76.0076503599999,
                -9.929914101999884
              ],
              [
                -76.00594336099988,
                -9.935054727999955
              ],
              [
                -76.00644536099998,
                -9.938499977999925
              ],
              [
                -76.00366410999999,
                -9.944548852999901
              ],
              [
                -76.00135936099997,
                -9.944093602999828
              ],
              [
                -75.99920698499994,
                -9.94522660299998
              ],
              [
                -75.99690823499998,
                -9.944205102999888
              ],
              [
                -75.99076948499993,
                -9.951486352999893
              ],
              [
                -75.98909748599988,
                -9.952585977999945
              ],
              [
                -75.9873124859999,
                -9.957068352999897
              ],
              [
                -75.98460348599991,
                -9.959833852999907
              ],
              [
                -75.97434373599998,
                -9.964081977999967
              ],
              [
                -75.97241410999999,
                -9.969831977999945
              ],
              [
                -75.96989060999994,
                -9.971947227999976
              ],
              [
                -75.96903710999999,
                -9.97855072799996
              ],
              [
                -75.96966785999996,
                -9.984412102999954
              ],
              [
                -75.97141210999996,
                -9.990609352999968
              ],
              [
                -75.97434173499988,
                -9.995792977999884
              ],
              [
                -75.97887498499989,
                -9.99991410299998
              ],
              [
                -75.98062110999996,
                -10.003040977999888
              ],
              [
                -75.98303123499994,
                -10.004857477999906
              ],
              [
                -75.9842499849999,
                -10.009789102999946
              ],
              [
                -75.98736523499991,
                -10.013574227999925
              ],
              [
                -75.99230073499996,
                -10.014984352999932
              ],
              [
                -75.99241210999998,
                -10.020474602999968
              ],
              [
                -75.99519335999997,
                -10.028042977999917
              ],
              [
                -75.99408010999997,
                -10.030380852999883
              ],
              [
                -75.99801360999999,
                -10.032644477999952
              ],
              [
                -76.00164848499998,
                -10.03275585299997
              ],
              [
                -76.00316985999984,
                -10.033792977999951
              ],
              [
                -76.00391210999999,
                -10.037652352999885
              ],
              [
                -76.00547073499996,
                -10.040955102999874
              ],
              [
                -76.00446873499993,
                -10.042845727999975
              ],
              [
                -76.00736323599995,
                -10.049433602999898
              ],
              [
                -76.0150078609999,
                -10.048378852999974
              ],
              [
                -76.01975973599997,
                -10.046833977999938
              ],
              [
                -76.02465236099988,
                -10.046705102999908
              ],
              [
                -76.03066210999992,
                -10.042697227999952
              ],
              [
                -76.03299998499995,
                -10.03943360299985
              ],
              [
                -76.03626360999993,
                -10.039507852999975
              ],
              [
                -76.04016010999993,
                -10.044552727999928
              ],
              [
                -76.04194135999995,
                -10.047632852999868
              ],
              [
                -76.04442573499983,
                -10.054904352999927
              ],
              [
                -76.04364648599994,
                -10.058724602999916
              ],
              [
                -76.03967773499988,
                -10.061767602999907
              ],
              [
                -76.04166410999994,
                -10.069539102999954
              ],
              [
                -76.04654098599997,
                -10.07378910299991
              ],
              [
                -76.05255073599994,
                -10.073826227999973
              ],
              [
                -76.05459173499997,
                -10.075531227999875
              ],
              [
                -76.05381248599997,
                -10.079427727999871
              ],
              [
                -76.04995510999998,
                -10.085103477999837
              ],
              [
                -76.05162298499988,
                -10.088888727999858
              ],
              [
                -76.05251560999994,
                -10.095220727999902
              ],
              [
                -76.0542948609999,
                -10.096382852999966
              ],
              [
                -76.05959960999996,
                -10.09341410299993
              ],
              [
                -76.06468361099996,
                -10.09152147799989
              ],
              [
                -76.07181448499989,
                -10.094994102999976
              ],
              [
                -76.0729159849999,
                -10.094361477999882
              ],
              [
                -76.07398823499989,
                -10.09019347799989
              ],
              [
                -76.07376760999995,
                -10.08637497799998
              ],
              [
                -76.08092973499993,
                -10.084646477999968
              ],
              [
                -76.08853123499995,
                -10.078787102999911
              ],
              [
                -76.09382611099994,
                -10.077923852999959
              ],
              [
                -76.09823648599996,
                -10.076410102999944
              ],
              [
                -76.10458010999992,
                -10.072660102999919
              ],
              [
                -76.1150663599999,
                -10.07378910299991
              ],
              [
                -76.11737698599995,
                -10.075699227999962
              ],
              [
                -76.12061523599994,
                -10.074589852999907
              ],
              [
                -76.12396485999994,
                -10.071019477999812
              ],
              [
                -76.12543160999991,
                -10.067855477999956
              ],
              [
                -76.12368748599994,
                -10.063880852999887
              ],
              [
                -76.12066411099988,
                -10.060017602999892
              ],
              [
                -76.11833010999993,
                -10.055808602999889
              ],
              [
                -76.11708786099985,
                -10.0516953529999
              ],
              [
                -76.11831835999993,
                -10.045679727999982
              ],
              [
                -76.12192385999992,
                -10.040392602999873
              ],
              [
                -76.12675585999995,
                -10.03755860299998
              ],
              [
                -76.12753323499999,
                -10.034441352999977
              ],
              [
                -76.12452923499995,
                -10.031246102999887
              ],
              [
                -76.12366798599999,
                -10.021833852999976
              ],
              [
                -76.12403123499996,
                -10.014603477999913
              ],
              [
                -76.12523635999992,
                -10.013091852999935
              ],
              [
                -76.13074410999991,
                -10.010261602999947
              ],
              [
                -76.13434173499996,
                -10.004175727999893
              ],
              [
                -76.13608398499997,
                -10.000189477999868
              ],
              [
                -76.13415035999992,
                -9.996187477999854
              ],
              [
                -76.13516598499996,
                -9.989085977999878
              ],
              [
                -76.13620898599999,
                -9.986281227999882
              ],
              [
                -76.13213286099989,
                -9.984244102999924
              ],
              [
                -76.12674023499994,
                -9.979580102999932
              ],
              [
                -76.12710348499996,
                -9.976931602999912
              ],
              [
                -76.12927348499983,
                -9.974072227999955
              ],
              [
                -76.12621673499996,
                -9.972089852999943
              ],
              [
                -76.12517185999991,
                -9.970187477999957
              ],
              [
                -76.12621673499996,
                -9.967574227999933
              ],
              [
                -76.1254101109999,
                -9.960160102999907
              ],
              [
                -76.12100385999992,
                -9.9582266029999
              ],
              [
                -76.11737498499997,
                -9.954777352999884
              ],
              [
                -76.1162148599999,
                -9.95226172799994
              ],
              [
                -76.11731048499996,
                -9.945496102999869
              ],
              [
                -76.11536323599995,
                -9.940105477999964
              ],
              [
                -76.11264848599996,
                -9.938597602999835
              ],
              [
                -76.11006248499996,
                -9.934812477999913
              ],
              [
                -76.10872848499997,
                -9.930509726999958
              ],
              [
                -76.10204885999991,
                -9.92824997799994
              ],
              [
                -76.09378323499993,
                -9.92765435299998
              ],
              [
                -76.08563861099998,
                -9.930447227999935
              ],
              [
                -76.08056048499992,
                -9.931187477999913
              ],
              [
                -76.07513285999994,
                -9.930923852999967
              ],
              [
                -76.07062110999993,
                -9.931978477999905
              ],
              [
                -76.0671679859999,
                -9.930605477999961
              ],
              [
                -76.06433010999996,
                -9.927458977999947
              ],
              [
                -76.05975198499988,
                -9.924425727999903
              ],
              [
                -76.05688673599997,
                -9.921333977999893
              ],
              [
                -76.05612110999994,
                -9.918732477999924
              ],
              [
                -76.0542832349999,
                -9.916974602999971
              ],
              [
                -76.04893548499996,
                -9.916023477999943
              ],
              [
                -76.0475312349999,
                -9.909675727999911
              ],
              [
                -76.04817773499997,
                -9.903640602999928
              ],
              [
                -76.04745111099993,
                -9.902042977999884
              ],
              [
                -76.04403910999997,
                -9.90222460299998
              ],
              [
                -76.03739648499999,
                -9.906544852999957
              ],
              [
                -76.03540035999993,
                -9.909304727999881
              ],
              [
                -76.03538473499998,
                -9.914533227999925
              ],
              [
                -76.03462498599998,
                -9.916499977999933
              ],
              [
                -76.03007423499997,
                -9.918906227999912
              ],
              [
                -76.02297848599994,
                -9.919890602999942
              ],
              [
                -76.01910161099988,
                -9.913591852999957
              ],
              [
                -76.01833785999992,
                -9.908511727999894
              ],
              [
                -76.0156873599999,
                -9.906439477999925
              ]
            ]
          ]
        ],
        "type": "MultiPolygon"
      },
      "type": "Feature",
      "properties": {
        "PROVINCIA": "PACHITEA",
        "DISTRITO": "MOLINO",
        "name": "MOLINO",
        "ID": "090704",
        "DEPARTAMEN": "HUANUCO"
      }
    }
  ]
}
