{
  "type": "FeatureCollection",
  "features": [
    {
      "geometry": {
        "coordinates": [
          [
            [
              [
                -77.31918411199996,
                -9.324105601999975
              ],
              [
                -77.31813423599993,
                -9.32797010299987
              ],
              [
                -77.323720112,
                -9.330472726999972
              ],
              [
                -77.32639261099996,
                -9.333063351999954
              ],
              [
                -77.3281724869999,
                -9.337754977999964
              ],
              [
                -77.32913811199995,
                -9.343937351999955
              ],
              [
                -77.33204198699997,
                -9.347940477999941
              ],
              [
                -77.33455623699996,
                -9.35272160199986
              ],
              [
                -77.34112498699994,
                -9.352093727999943
              ],
              [
                -77.34667323599996,
                -9.348053726999979
              ],
              [
                -77.34823636199997,
                -9.345312602999968
              ],
              [
                -77.3480101109999,
                -9.342056851999928
              ],
              [
                -77.34655661099998,
                -9.338437476999957
              ],
              [
                -77.3520194859999,
                -9.330611351999892
              ],
              [
                -77.35381648599991,
                -9.328736351999964
              ],
              [
                -77.35378123599992,
                -9.326234351999972
              ],
              [
                -77.35971286199998,
                -9.316623101999824
              ],
              [
                -77.36280661199999,
                -9.313910102999955
              ],
              [
                -77.37095898699988,
                -9.30980660299997
              ],
              [
                -77.3763554869999,
                -9.30591210199998
              ],
              [
                -77.38699223699996,
                -9.30185547699989
              ],
              [
                -77.38987111199998,
                -9.302585976999922
              ],
              [
                -77.39440423699995,
                -9.30032422699992
              ],
              [
                -77.39767573699993,
                -9.296976602999962
              ],
              [
                -77.40803898699994,
                -9.29699610199998
              ],
              [
                -77.41260736099991,
                -9.298546851999959
              ],
              [
                -77.41683211099996,
                -9.299070351999944
              ],
              [
                -77.42087886199988,
                -9.30280272799996
              ],
              [
                -77.42501361199987,
                -9.304626977999874
              ],
              [
                -77.42781623599996,
                -9.304851727999903
              ],
              [
                -77.43089448699999,
                -9.306439476999913
              ],
              [
                -77.43726561199992,
                -9.308121101999973
              ],
              [
                -77.44314261099998,
                -9.310792977999881
              ],
              [
                -77.44788673599987,
                -9.314113227999883
              ],
              [
                -77.45072848599989,
                -9.314490227999897
              ],
              [
                -77.45425973599993,
                -9.316083977999881
              ],
              [
                -77.45936911199993,
                -9.31669147699995
              ],
              [
                -77.46749223599994,
                -9.320294976999946
              ],
              [
                -77.4698027369999,
                -9.321751977999895
              ],
              [
                -77.47425386199996,
                -9.321865226999932
              ],
              [
                -77.47656836099998,
                -9.323845726999934
              ],
              [
                -77.48166211199998,
                -9.32364847699995
              ],
              [
                -77.48749223699991,
                -9.327086102999829
              ],
              [
                -77.49032811199999,
                -9.328150352999955
              ],
              [
                -77.49618948699992,
                -9.333359351999889
              ],
              [
                -77.50197661099992,
                -9.334748101999878
              ],
              [
                -77.50619336199998,
                -9.337880851999898
              ],
              [
                -77.50764848699998,
                -9.340527351999981
              ],
              [
                -77.51307611199991,
                -9.343687476999946
              ],
              [
                -77.51358986199989,
                -9.346820352999885
              ],
              [
                -77.51830861099995,
                -9.34897260199989
              ],
              [
                -77.52053123699994,
                -9.353085976999978
              ],
              [
                -77.52190423699994,
                -9.354017602999875
              ],
              [
                -77.52465423699994,
                -9.35309372799992
              ],
              [
                -77.53082423699982,
                -9.35574222799994
              ],
              [
                -77.53264848699996,
                -9.357753851999917
              ],
              [
                -77.53695511199993,
                -9.35807622699997
              ],
              [
                -77.53917773699999,
                -9.357263727999964
              ],
              [
                -77.54129486199992,
                -9.354419977999953
              ],
              [
                -77.54417973699998,
                -9.348056601999872
              ],
              [
                -77.54407423699996,
                -9.344884851999893
              ],
              [
                -77.54566811199999,
                -9.341458976999945
              ],
              [
                -77.54897861199998,
                -9.33885947799996
              ],
              [
                -77.55211198699999,
                -9.344133726999928
              ],
              [
                -77.55442698699994,
                -9.352225476999934
              ],
              [
                -77.55865648699995,
                -9.346502226999974
              ],
              [
                -77.56295711199994,
                -9.342700226999966
              ],
              [
                -77.5678186109999,
                -9.336903726999878
              ],
              [
                -77.56980473699991,
                -9.335414101999902
              ],
              [
                -77.57331511199993,
                -9.336354101999973
              ],
              [
                -77.57822836199995,
                -9.338920726999902
              ],
              [
                -77.58344273699998,
                -9.343389601999888
              ],
              [
                -77.58819536199996,
                -9.344322226999964
              ],
              [
                -77.59276361199983,
                -9.348537102999956
              ],
              [
                -77.59647698599991,
                -9.344388101999925
              ],
              [
                -77.59804298699993,
                -9.340573602999882
              ],
              [
                -77.59820361199996,
                -9.337843101999908
              ],
              [
                -77.60279486199988,
                -9.329189476999943
              ],
              [
                -77.60787698699994,
                -9.327462852999929
              ],
              [
                -77.61172423699992,
                -9.322581726999886
              ],
              [
                -77.6179863619999,
                -9.323023601999978
              ],
              [
                -77.62248823599998,
                -9.327833977999887
              ],
              [
                -77.62600973699995,
                -9.32787885199997
              ],
              [
                -77.63085736199992,
                -9.328855476999934
              ],
              [
                -77.63776036199988,
                -9.328902226999901
              ],
              [
                -77.63994686199999,
                -9.330935852999858
              ],
              [
                -77.64592136199997,
                -9.333451476999812
              ],
              [
                -77.64873511199994,
                -9.332966351999971
              ],
              [
                -77.64601998699993,
                -9.32863335199994
              ],
              [
                -77.64444873699995,
                -9.320047726999917
              ],
              [
                -77.64200011199995,
                -9.319174227999952
              ],
              [
                -77.63614211199996,
                -9.313449852999895
              ],
              [
                -77.6338583619999,
                -9.312728227999969
              ],
              [
                -77.63021886199994,
                -9.30898697799995
              ],
              [
                -77.62589623699995,
                -9.305715726999892
              ],
              [
                -77.62123436199988,
                -9.303482476999932
              ],
              [
                -77.61803723699995,
                -9.304191351999975
              ],
              [
                -77.61476173699998,
                -9.306556601999944
              ],
              [
                -77.61154311099995,
                -9.306851601999938
              ],
              [
                -77.60878511199991,
                -9.310296851999965
              ],
              [
                -77.60031448699993,
                -9.31133397699989
              ],
              [
                -77.59823086099993,
                -9.30921247699996
              ],
              [
                -77.59828073699998,
                -9.303389602999914
              ],
              [
                -77.59250786199988,
                -9.300818602999925
              ],
              [
                -77.58840598699999,
                -9.296381351999912
              ],
              [
                -77.58736686099996,
                -9.292352477999941
              ],
              [
                -77.58408011199998,
                -9.290839851999976
              ],
              [
                -77.57984373699992,
                -9.287482476999855
              ],
              [
                -77.56362898599991,
                -9.288462727999956
              ],
              [
                -77.55740761099992,
                -9.28810522699996
              ],
              [
                -77.55305648699988,
                -9.28549447699993
              ],
              [
                -77.55024023599992,
                -9.282772851999823
              ],
              [
                -77.54878598599998,
                -9.279691227999933
              ],
              [
                -77.54411023699998,
                -9.27328385199985
              ],
              [
                -77.54213786199995,
                -9.26791847699991
              ],
              [
                -77.53850211199995,
                -9.262378351999928
              ],
              [
                -77.53416748699993,
                -9.25823772699988
              ],
              [
                -77.5309981119999,
                -9.252996101999884
              ],
              [
                -77.52799973599997,
                -9.245858601999942
              ],
              [
                -77.52194023599998,
                -9.240772977999825
              ],
              [
                -77.5175703619999,
                -9.235902351999869
              ],
              [
                -77.51312873599994,
                -9.243319477999933
              ],
              [
                -77.51332686199999,
                -9.249405976999924
              ],
              [
                -77.51277923699996,
                -9.2519316019999
              ],
              [
                -77.5108271119999,
                -9.254347226999926
              ],
              [
                -77.5066416119999,
                -9.25638185199989
              ],
              [
                -77.50360673599988,
                -9.256196101999876
              ],
              [
                -77.4990349869999,
                -9.252505351999957
              ],
              [
                -77.49593961099993,
                -9.252600601999916
              ],
              [
                -77.49272511099997,
                -9.250862477999931
              ],
              [
                -77.49030198599996,
                -9.251339351999945
              ],
              [
                -77.48731998699998,
                -9.25341022699996
              ],
              [
                -77.48329598699996,
                -9.25393410299995
              ],
              [
                -77.48036723699994,
                -9.25531510199994
              ],
              [
                -77.4832941109999,
                -9.263139852999927
              ],
              [
                -77.4817244869999,
                -9.26899160299996
              ],
              [
                -77.48079136099994,
                -9.269970352999962
              ],
              [
                -77.47632398699989,
                -9.270839602999956
              ],
              [
                -77.47172761199994,
                -9.269875476999914
              ],
              [
                -77.46961761199987,
                -9.270278851999876
              ],
              [
                -77.46382036199998,
                -9.268382851999945
              ],
              [
                -77.4600933619999,
                -9.265786227999968
              ],
              [
                -77.45095936199988,
                -9.263994226999955
              ],
              [
                -77.44747973699992,
                -9.265298851999944
              ],
              [
                -77.43871111099998,
                -9.270588226999905
              ],
              [
                -77.43537636199994,
                -9.272073101999922
              ],
              [
                -77.43213461099992,
                -9.27551172699998
              ],
              [
                -77.42789973599992,
                -9.274871726999947
              ],
              [
                -77.42124348699997,
                -9.276607726999885
              ],
              [
                -77.41557173599989,
                -9.276329351999948
              ],
              [
                -77.41274473599992,
                -9.27558860299996
              ],
              [
                -77.40897948599996,
                -9.273131602999968
              ],
              [
                -77.40423911199997,
                -9.277146726999888
              ],
              [
                -77.40031211199994,
                -9.279414851999888
              ],
              [
                -77.39671098699995,
                -9.284751976999871
              ],
              [
                -77.39311086199996,
                -9.28612447799992
              ],
              [
                -77.38893523699988,
                -9.288942976999977
              ],
              [
                -77.3838202369999,
                -9.289238851999869
              ],
              [
                -77.38002748699995,
                -9.287899226999969
              ],
              [
                -77.37518061199995,
                -9.290126727999962
              ],
              [
                -77.37175836199992,
                -9.292335351999839
              ],
              [
                -77.36728598699989,
                -9.294122601999902
              ],
              [
                -77.36519536199995,
                -9.294167976999859
              ],
              [
                -77.36036198699998,
                -9.296916851999924
              ],
              [
                -77.35393698699994,
                -9.301250601999925
              ],
              [
                -77.34735236199992,
                -9.299855226999966
              ],
              [
                -77.33673823599997,
                -9.305069602999936
              ],
              [
                -77.33394936199994,
                -9.3069619769999
              ],
              [
                -77.32568248699994,
                -9.310049601999935
              ],
              [
                -77.32493536199985,
                -9.31164322799998
              ],
              [
                -77.32475973699997,
                -9.319257851999964
              ],
              [
                -77.32342386099992,
                -9.321445351999955
              ],
              [
                -77.31918411199996,
                -9.324105601999975
              ]
            ]
          ]
        ],
        "type": "MultiPolygon"
      },
      "type": "Feature",
      "properties": {
        "PROVINCIA": "CARHUAZ",
        "DISTRITO": "MARCARA",
        "name": "MARCARA",
        "ID": "020406",
        "DEPARTAMEN": "ANCASH"
      }
    }
  ]
}
