{
  "type": "FeatureCollection",
  "features": [
    {
      "geometry": {
        "coordinates": [
          [
            [
              [
                -77.566718112,
                -9.379198601999974
              ],
              [
                -77.56783186199993,
                -9.379221602999905
              ],
              [
                -77.57046961199995,
                -9.375525351999954
              ],
              [
                -77.57358811199998,
                -9.374169476999953
              ],
              [
                -77.57639761199988,
                -9.374120976999961
              ],
              [
                -77.58493748699993,
                -9.37529497699984
              ],
              [
                -77.58521073599991,
                -9.369703977999961
              ],
              [
                -77.58774661199993,
                -9.36743447699996
              ],
              [
                -77.5891106119999,
                -9.361849101999951
              ],
              [
                -77.5905799869999,
                -9.35869060199991
              ],
              [
                -77.58940636199998,
                -9.354931101999966
              ],
              [
                -77.59121873699996,
                -9.349578101999896
              ],
              [
                -77.59276361199983,
                -9.348537102999956
              ],
              [
                -77.58819536199996,
                -9.344322226999964
              ],
              [
                -77.58344273699998,
                -9.343389601999888
              ],
              [
                -77.57822836199995,
                -9.338920726999902
              ],
              [
                -77.57331511199993,
                -9.336354101999973
              ],
              [
                -77.56980473699991,
                -9.335414101999902
              ],
              [
                -77.5678186109999,
                -9.336903726999878
              ],
              [
                -77.56295711199994,
                -9.342700226999966
              ],
              [
                -77.55865648699995,
                -9.346502226999974
              ],
              [
                -77.55442698699994,
                -9.352225476999934
              ],
              [
                -77.55577186099987,
                -9.355096477999894
              ],
              [
                -77.5607812369999,
                -9.360154351999938
              ],
              [
                -77.56251948599993,
                -9.36404510199992
              ],
              [
                -77.56652898599998,
                -9.368410476999884
              ],
              [
                -77.56583973599993,
                -9.374705977999952
              ],
              [
                -77.566718112,
                -9.379198601999974
              ]
            ]
          ]
        ],
        "type": "MultiPolygon"
      },
      "type": "Feature",
      "properties": {
        "PROVINCIA": "CARHUAZ",
        "DISTRITO": "PARIAHUANCA",
        "name": "PARIAHUANCA",
        "ID": "020407",
        "DEPARTAMEN": "ANCASH"
      }
    }
  ]
}
