{
  "type": "FeatureCollection",
  "features": [
    {
      "geometry": {
        "coordinates": [
          [
            [
              [
                -77.33455623699996,
                -9.35272160199986
              ],
              [
                -77.33250111199993,
                -9.357215227999973
              ],
              [
                -77.33228548599993,
                -9.363823477999972
              ],
              [
                -77.33036948599994,
                -9.36855185199994
              ],
              [
                -77.33132436199992,
                -9.374255226999935
              ],
              [
                -77.33128523599999,
                -9.377349601999924
              ],
              [
                -77.33009086099997,
                -9.38239172799996
              ],
              [
                -77.33329873599996,
                -9.382803851999938
              ],
              [
                -77.3364952359999,
                -9.384270726999887
              ],
              [
                -77.34172623699993,
                -9.38571647799995
              ],
              [
                -77.34798461099996,
                -9.388281726999935
              ],
              [
                -77.35101861099997,
                -9.388461976999906
              ],
              [
                -77.35235436199991,
                -9.386099102999935
              ],
              [
                -77.35582323699998,
                -9.384498726999936
              ],
              [
                -77.35741448599998,
                -9.382286351999937
              ],
              [
                -77.36145711199998,
                -9.378614226999957
              ],
              [
                -77.36832861199991,
                -9.374868726999921
              ],
              [
                -77.3704408619999,
                -9.368251352999948
              ],
              [
                -77.37758223599997,
                -9.370145476999937
              ],
              [
                -77.38259473699992,
                -9.370572351999954
              ],
              [
                -77.39740386199998,
                -9.357819352999854
              ],
              [
                -77.39852398699998,
                -9.356078476999869
              ],
              [
                -77.39830811199994,
                -9.350234477999948
              ],
              [
                -77.39683698599998,
                -9.34822347699992
              ],
              [
                -77.39763673699997,
                -9.346607476999964
              ],
              [
                -77.40209173699992,
                -9.347337852999829
              ],
              [
                -77.40829948599992,
                -9.350973101999955
              ],
              [
                -77.41547461199991,
                -9.355769477999957
              ],
              [
                -77.42930711199995,
                -9.353677601999891
              ],
              [
                -77.43423048699998,
                -9.355175852999878
              ],
              [
                -77.43932798599997,
                -9.35370960199998
              ],
              [
                -77.44338561199993,
                -9.350879476999921
              ],
              [
                -77.44565323699999,
                -9.35584072699993
              ],
              [
                -77.44999623699988,
                -9.357925727999941
              ],
              [
                -77.45346873699998,
                -9.358156226999938
              ],
              [
                -77.45476586199999,
                -9.360659226999815
              ],
              [
                -77.46202873699997,
                -9.36431635199989
              ],
              [
                -77.46500811199996,
                -9.36698872799991
              ],
              [
                -77.46847011199998,
                -9.367335602999958
              ],
              [
                -77.47136498699996,
                -9.365272101999835
              ],
              [
                -77.47603236199996,
                -9.36369085299998
              ],
              [
                -77.47817211099988,
                -9.364506476999964
              ],
              [
                -77.4814647369999,
                -9.369205602999955
              ],
              [
                -77.48301361199998,
                -9.370140351999908
              ],
              [
                -77.48763786199999,
                -9.369922226999904
              ],
              [
                -77.49250223699994,
                -9.368451602999926
              ],
              [
                -77.49767148699988,
                -9.368744352999954
              ],
              [
                -77.50521848699992,
                -9.36839535199988
              ],
              [
                -77.51036311199988,
                -9.369017602999918
              ],
              [
                -77.51340511199999,
                -9.37324935199996
              ],
              [
                -77.52599411199992,
                -9.373333976999959
              ],
              [
                -77.53000511199997,
                -9.372714726999959
              ],
              [
                -77.53366573699998,
                -9.37491522699986
              ],
              [
                -77.53837498699983,
                -9.37950785199996
              ],
              [
                -77.54016798699996,
                -9.384790977999955
              ],
              [
                -77.54228911199993,
                -9.386591851999981
              ],
              [
                -77.54969948599995,
                -9.385145852999926
              ],
              [
                -77.55370136199997,
                -9.381777477999833
              ],
              [
                -77.56097073699988,
                -9.378917352999963
              ],
              [
                -77.566718112,
                -9.379198601999974
              ],
              [
                -77.56583973599993,
                -9.374705977999952
              ],
              [
                -77.56652898599998,
                -9.368410476999884
              ],
              [
                -77.56251948599993,
                -9.36404510199992
              ],
              [
                -77.5607812369999,
                -9.360154351999938
              ],
              [
                -77.55577186099987,
                -9.355096477999894
              ],
              [
                -77.55442698699994,
                -9.352225476999934
              ],
              [
                -77.55211198699999,
                -9.344133726999928
              ],
              [
                -77.54897861199998,
                -9.33885947799996
              ],
              [
                -77.54566811199999,
                -9.341458976999945
              ],
              [
                -77.54407423699996,
                -9.344884851999893
              ],
              [
                -77.54417973699998,
                -9.348056601999872
              ],
              [
                -77.54129486199992,
                -9.354419977999953
              ],
              [
                -77.53917773699999,
                -9.357263727999964
              ],
              [
                -77.53695511199993,
                -9.35807622699997
              ],
              [
                -77.53264848699996,
                -9.357753851999917
              ],
              [
                -77.53082423699982,
                -9.35574222799994
              ],
              [
                -77.52465423699994,
                -9.35309372799992
              ],
              [
                -77.52190423699994,
                -9.354017602999875
              ],
              [
                -77.52053123699994,
                -9.353085976999978
              ],
              [
                -77.51830861099995,
                -9.34897260199989
              ],
              [
                -77.51358986199989,
                -9.346820352999885
              ],
              [
                -77.51307611199991,
                -9.343687476999946
              ],
              [
                -77.50764848699998,
                -9.340527351999981
              ],
              [
                -77.50619336199998,
                -9.337880851999898
              ],
              [
                -77.50197661099992,
                -9.334748101999878
              ],
              [
                -77.49618948699992,
                -9.333359351999889
              ],
              [
                -77.49032811199999,
                -9.328150352999955
              ],
              [
                -77.48749223699991,
                -9.327086102999829
              ],
              [
                -77.48166211199998,
                -9.32364847699995
              ],
              [
                -77.47656836099998,
                -9.323845726999934
              ],
              [
                -77.47425386199996,
                -9.321865226999932
              ],
              [
                -77.4698027369999,
                -9.321751977999895
              ],
              [
                -77.46749223599994,
                -9.320294976999946
              ],
              [
                -77.45936911199993,
                -9.31669147699995
              ],
              [
                -77.45425973599993,
                -9.316083977999881
              ],
              [
                -77.45072848599989,
                -9.314490227999897
              ],
              [
                -77.44788673599987,
                -9.314113227999883
              ],
              [
                -77.44314261099998,
                -9.310792977999881
              ],
              [
                -77.43726561199992,
                -9.308121101999973
              ],
              [
                -77.43089448699999,
                -9.306439476999913
              ],
              [
                -77.42781623599996,
                -9.304851727999903
              ],
              [
                -77.42501361199987,
                -9.304626977999874
              ],
              [
                -77.42087886199988,
                -9.30280272799996
              ],
              [
                -77.41683211099996,
                -9.299070351999944
              ],
              [
                -77.41260736099991,
                -9.298546851999959
              ],
              [
                -77.40803898699994,
                -9.29699610199998
              ],
              [
                -77.39767573699993,
                -9.296976602999962
              ],
              [
                -77.39440423699995,
                -9.30032422699992
              ],
              [
                -77.38987111199998,
                -9.302585976999922
              ],
              [
                -77.38699223699996,
                -9.30185547699989
              ],
              [
                -77.3763554869999,
                -9.30591210199998
              ],
              [
                -77.37095898699988,
                -9.30980660299997
              ],
              [
                -77.36280661199999,
                -9.313910102999955
              ],
              [
                -77.35971286199998,
                -9.316623101999824
              ],
              [
                -77.35378123599992,
                -9.326234351999972
              ],
              [
                -77.35381648599991,
                -9.328736351999964
              ],
              [
                -77.3520194859999,
                -9.330611351999892
              ],
              [
                -77.34655661099998,
                -9.338437476999957
              ],
              [
                -77.3480101109999,
                -9.342056851999928
              ],
              [
                -77.34823636199997,
                -9.345312602999968
              ],
              [
                -77.34667323599996,
                -9.348053726999979
              ],
              [
                -77.34112498699994,
                -9.352093727999943
              ],
              [
                -77.33455623699996,
                -9.35272160199986
              ]
            ]
          ]
        ],
        "type": "MultiPolygon"
      },
      "type": "Feature",
      "properties": {
        "PROVINCIA": "CARHUAZ",
        "DISTRITO": "SAN MIGUEL DE ACO",
        "name": "SAN MIGUEL DE ACO",
        "ID": "020408",
        "DEPARTAMEN": "ANCASH"
      }
    }
  ]
}
