{
  "type": "FeatureCollection",
  "features": [
    {
      "geometry": {
        "coordinates": [
          [
            [
              [
                -77.58493748699993,
                -9.37529497699984
              ],
              [
                -77.58166411199983,
                -9.391479101999892
              ],
              [
                -77.58087473599988,
                -9.392252351999844
              ],
              [
                -77.58599886099995,
                -9.396148601999812
              ],
              [
                -77.58965636199997,
                -9.39778285299991
              ],
              [
                -77.59577373699994,
                -9.39903235199995
              ],
              [
                -77.60104636199998,
                -9.401066726999943
              ],
              [
                -77.60861898699994,
                -9.40813460299995
              ],
              [
                -77.6099869869999,
                -9.409942226999874
              ],
              [
                -77.60972648699993,
                -9.412987477999934
              ],
              [
                -77.6109477359999,
                -9.417693976999885
              ],
              [
                -77.61300586199991,
                -9.422083976999943
              ],
              [
                -77.61822736199997,
                -9.423458976999939
              ],
              [
                -77.62058198699998,
                -9.424699227999895
              ],
              [
                -77.62429361199997,
                -9.424706352999976
              ],
              [
                -77.62904261099999,
                -9.425893602999963
              ],
              [
                -77.63098573599996,
                -9.427734352999948
              ],
              [
                -77.63743486199996,
                -9.42917697799993
              ],
              [
                -77.64368311199996,
                -9.432591226999875
              ],
              [
                -77.64546286199993,
                -9.436941351999963
              ],
              [
                -77.64645698699997,
                -9.44133822699996
              ],
              [
                -77.6460368619999,
                -9.444073601999946
              ],
              [
                -77.64428748699993,
                -9.447190727999953
              ],
              [
                -77.64928811199997,
                -9.452799476999928
              ],
              [
                -77.65153498599989,
                -9.450383101999932
              ],
              [
                -77.65385698699998,
                -9.4448458519999
              ],
              [
                -77.65553611199994,
                -9.442273851999971
              ],
              [
                -77.6616447369999,
                -9.437879727999928
              ],
              [
                -77.66477161199998,
                -9.437416601999928
              ],
              [
                -77.66644361199997,
                -9.430903102999935
              ],
              [
                -77.6652516119999,
                -9.429000476999875
              ],
              [
                -77.66564411199994,
                -9.426659601999916
              ],
              [
                -77.67053348699994,
                -9.426121102999957
              ],
              [
                -77.67313423699994,
                -9.422115102999953
              ],
              [
                -77.67579623699999,
                -9.419755726999881
              ],
              [
                -77.67815873599989,
                -9.419493226999919
              ],
              [
                -77.68138048599991,
                -9.417655726999953
              ],
              [
                -77.67898436199994,
                -9.413438852999889
              ],
              [
                -77.67772673699994,
                -9.405927601999963
              ],
              [
                -77.67475973699993,
                -9.403052727999977
              ],
              [
                -77.67022611199991,
                -9.402612477999924
              ],
              [
                -77.66658973599993,
                -9.403194351999957
              ],
              [
                -77.66202461199998,
                -9.405419226999925
              ],
              [
                -77.66043198699992,
                -9.404164101999982
              ],
              [
                -77.65902598699995,
                -9.399460976999876
              ],
              [
                -77.65858961199996,
                -9.394273102999875
              ],
              [
                -77.65932636199994,
                -9.3911831019999
              ],
              [
                -77.65577748599992,
                -9.38956997799994
              ],
              [
                -77.65223923699989,
                -9.386015851999957
              ],
              [
                -77.64547623699997,
                -9.386230352999917
              ],
              [
                -77.64007098699994,
                -9.387570227999959
              ],
              [
                -77.62714473699998,
                -9.38561122699997
              ],
              [
                -77.62492211199998,
                -9.38392410299997
              ],
              [
                -77.62302373699998,
                -9.380592727999954
              ],
              [
                -77.62004823699988,
                -9.379505477999942
              ],
              [
                -77.61536186199999,
                -9.375194102999842
              ],
              [
                -77.61246961199998,
                -9.371819851999874
              ],
              [
                -77.60465411199988,
                -9.370666226999901
              ],
              [
                -77.5987833609999,
                -9.366790476999938
              ],
              [
                -77.59158398599999,
                -9.36406060299987
              ],
              [
                -77.5891106119999,
                -9.361849101999951
              ],
              [
                -77.58774661199993,
                -9.36743447699996
              ],
              [
                -77.58521073599991,
                -9.369703977999961
              ],
              [
                -77.58493748699993,
                -9.37529497699984
              ]
            ]
          ]
        ],
        "type": "MultiPolygon"
      },
      "type": "Feature",
      "properties": {
        "PROVINCIA": "CARHUAZ",
        "DISTRITO": "YUNGAR",
        "name": "YUNGAR",
        "ID": "020411",
        "DEPARTAMEN": "ANCASH"
      }
    }
  ]
}
