{
  "type": "FeatureCollection",
  "features": [
    {
      "geometry": {
        "coordinates": [
          [
            [
              [
                -73.18678348199995,
                -13.419839606999972
              ],
              [
                -73.18896748299994,
                -13.42256973099984
              ],
              [
                -73.19022585799996,
                -13.424001106999981
              ],
              [
                -73.19072685799983,
                -13.42515410599998
              ],
              [
                -73.19033860799993,
                -13.426646605999906
              ],
              [
                -73.18592123299993,
                -13.429925355999956
              ],
              [
                -73.18461285699993,
                -13.43126498099997
              ],
              [
                -73.18389798299995,
                -13.432315606999907
              ],
              [
                -73.18387085799992,
                -13.434096481999916
              ],
              [
                -73.18399573299996,
                -13.434463605999838
              ],
              [
                -73.18466360799988,
                -13.436420481999903
              ],
              [
                -73.18612435799997,
                -13.441134230999921
              ],
              [
                -73.18054335699986,
                -13.445113980999963
              ],
              [
                -73.17848260799997,
                -13.448527980999927
              ],
              [
                -73.17619298299996,
                -13.45121298099997
              ],
              [
                -73.17063248299996,
                -13.452296855999919
              ],
              [
                -73.16977823299999,
                -13.452438355999902
              ],
              [
                -73.1675422319999,
                -13.452282105999927
              ],
              [
                -73.16660010799995,
                -13.451247231999957
              ],
              [
                -73.16265060799998,
                -13.44782498099994
              ],
              [
                -73.16132760799997,
                -13.445798980999882
              ],
              [
                -73.16016435799997,
                -13.44333823099987
              ],
              [
                -73.15487823199993,
                -13.442915230999972
              ],
              [
                -73.14215185799998,
                -13.449011480999957
              ],
              [
                -73.14029335799995,
                -13.451836230999902
              ],
              [
                -73.13898860799992,
                -13.455620980999981
              ],
              [
                -73.13903785799982,
                -13.465393605999964
              ],
              [
                -73.13612085799997,
                -13.466630355999882
              ],
              [
                -73.13272385699992,
                -13.471904605999953
              ],
              [
                -73.13136373299989,
                -13.47762785599997
              ],
              [
                -73.12780273299995,
                -13.484734855999875
              ],
              [
                -73.12639573299998,
                -13.48646235599989
              ],
              [
                -73.11714373299998,
                -13.487913855999977
              ],
              [
                -73.11313660799993,
                -13.489365230999908
              ],
              [
                -73.10912948299983,
                -13.494708105999962
              ],
              [
                -73.10557648199995,
                -13.497967230999961
              ],
              [
                -73.10201173299993,
                -13.499398480999957
              ],
              [
                -73.09310348299988,
                -13.504076231999932
              ],
              [
                -73.08543323299995,
                -13.511557981999943
              ],
              [
                -73.07956998199995,
                -13.513934855999935
              ],
              [
                -73.07772123199999,
                -13.516047855999886
              ],
              [
                -73.07476323199995,
                -13.516734480999958
              ],
              [
                -73.07222773299986,
                -13.51594223099994
              ],
              [
                -73.07032623299989,
                -13.51816073099991
              ],
              [
                -73.06541373199997,
                -13.52016798099993
              ],
              [
                -73.06472710799983,
                -13.52175260599995
              ],
              [
                -73.05970898199985,
                -13.522597730999962
              ],
              [
                -73.05622273299997,
                -13.524340855999867
              ],
              [
                -73.05463810799995,
                -13.527298856999892
              ],
              [
                -73.04847998199995,
                -13.531099980999898
              ],
              [
                -73.04680998299989,
                -13.534229980999896
              ],
              [
                -73.04487998299999,
                -13.535889980999855
              ],
              [
                -73.04174998299999,
                -13.541160105999893
              ],
              [
                -73.04399260799994,
                -13.552018855999961
              ],
              [
                -73.04199998299998,
                -13.559359981999933
              ],
              [
                -73.04199148299983,
                -13.562476980999918
              ],
              [
                -73.03983398299994,
                -13.569701230999897
              ],
              [
                -73.03598048299995,
                -13.576513606999924
              ],
              [
                -73.03336273299988,
                -13.583239981999952
              ],
              [
                -73.03170510699988,
                -13.584261731999902
              ],
              [
                -73.02404260699996,
                -13.591493605999915
              ],
              [
                -73.02348710699988,
                -13.593216481999946
              ],
              [
                -73.02668223199993,
                -13.59886935599991
              ],
              [
                -73.02959735699983,
                -13.606505980999941
              ],
              [
                -73.03161873199991,
                -13.608773105999944
              ],
              [
                -73.03084185699993,
                -13.614232855999944
              ],
              [
                -73.02882235699991,
                -13.61742885599989
              ],
              [
                -73.02683598199997,
                -13.617751355999928
              ],
              [
                -73.02434398299994,
                -13.621212855999886
              ],
              [
                -73.02262185799998,
                -13.624838855999883
              ],
              [
                -73.0239334829999,
                -13.628291106999882
              ],
              [
                -73.02725485799988,
                -13.631108605999941
              ],
              [
                -73.03052610699996,
                -13.637490106999962
              ],
              [
                -73.0347218579999,
                -13.636720355999955
              ],
              [
                -73.03898210799997,
                -13.634925730999953
              ],
              [
                -73.04200973199994,
                -13.635754731999953
              ],
              [
                -73.04903173299988,
                -13.63121173199994
              ],
              [
                -73.0550241069999,
                -13.629776105999838
              ],
              [
                -73.05694360799993,
                -13.628184355999963
              ],
              [
                -73.06173435799991,
                -13.628574480999873
              ],
              [
                -73.06622860699997,
                -13.62646785599992
              ],
              [
                -73.07097898299992,
                -13.626533605999953
              ],
              [
                -73.0742462319999,
                -13.62921573199992
              ],
              [
                -73.0797254819999,
                -13.626203356999895
              ],
              [
                -73.08356048199988,
                -13.626119105999862
              ],
              [
                -73.08955873199994,
                -13.633116980999944
              ],
              [
                -73.09355748299998,
                -13.632117355999924
              ],
              [
                -73.0994338569999,
                -13.631532105999895
              ],
              [
                -73.10406660799998,
                -13.63036173099988
              ],
              [
                -73.10893760699986,
                -13.63144660599994
              ],
              [
                -73.11024948299996,
                -13.632831106999902
              ],
              [
                -73.11243548199997,
                -13.639425981999977
              ],
              [
                -73.11239648299994,
                -13.642095605999884
              ],
              [
                -73.11396823199988,
                -13.640367730999913
              ],
              [
                -73.12235873299994,
                -13.633913480999865
              ],
              [
                -73.1262809829999,
                -13.633195480999973
              ],
              [
                -73.13088748199993,
                -13.630408605999946
              ],
              [
                -73.13600948199996,
                -13.625038855999833
              ],
              [
                -73.13761298199995,
                -13.618448980999915
              ],
              [
                -73.14191510799992,
                -13.611807731999932
              ],
              [
                -73.13946248299987,
                -13.608645105999926
              ],
              [
                -73.13761260799993,
                -13.607836230999965
              ],
              [
                -73.13673810799997,
                -13.605467981999936
              ],
              [
                -73.1408553579999,
                -13.600840605999963
              ],
              [
                -73.14049098299995,
                -13.596103980999942
              ],
              [
                -73.14245848199994,
                -13.591986730999963
              ],
              [
                -73.14311435799993,
                -13.587359355999979
              ],
              [
                -73.14591673299992,
                -13.58537773099988
              ],
              [
                -73.14901473199984,
                -13.581924606999905
              ],
              [
                -73.14890760699996,
                -13.575590605999935
              ],
              [
                -73.14427085799997,
                -13.573308230999942
              ],
              [
                -73.14059198299998,
                -13.572533730999965
              ],
              [
                -73.13633210799992,
                -13.568790230999923
              ],
              [
                -73.13483335799992,
                -13.565063855999881
              ],
              [
                -73.13542635799996,
                -13.561599355999931
              ],
              [
                -73.13721035799995,
                -13.556833855999912
              ],
              [
                -73.14171098299994,
                -13.550789105999911
              ],
              [
                -73.13827548299997,
                -13.544564481999942
              ],
              [
                -73.13667385699989,
                -13.540339855999889
              ],
              [
                -73.1361621079999,
                -13.53383785699998
              ],
              [
                -73.1381523579999,
                -13.532117230999972
              ],
              [
                -73.14208985699992,
                -13.531476605999899
              ],
              [
                -73.14575973199999,
                -13.53191998099993
              ],
              [
                -73.14906248299997,
                -13.530970730999968
              ],
              [
                -73.15205473299994,
                -13.52905660599987
              ],
              [
                -73.15828710799991,
                -13.523742230999972
              ],
              [
                -73.16434573299983,
                -13.522603481999909
              ],
              [
                -73.17134185799995,
                -13.522330105999913
              ],
              [
                -73.18608785799995,
                -13.523792981999918
              ],
              [
                -73.19233198299986,
                -13.52541998199996
              ],
              [
                -73.19496098199994,
                -13.526613230999942
              ],
              [
                -73.20000385799995,
                -13.531165981999948
              ],
              [
                -73.20314060799996,
                -13.536054731999968
              ],
              [
                -73.21017385699986,
                -13.53975785699987
              ],
              [
                -73.22393748299993,
                -13.542556605999891
              ],
              [
                -73.22881010699996,
                -13.541906605999941
              ],
              [
                -73.22899810799998,
                -13.538640605999888
              ],
              [
                -73.23207423299993,
                -13.53106448099993
              ],
              [
                -73.2334632319999,
                -13.523944855999957
              ],
              [
                -73.23478785799995,
                -13.520500730999913
              ],
              [
                -73.23836448299983,
                -13.514407355999879
              ],
              [
                -73.23961435799993,
                -13.510628856999972
              ],
              [
                -73.23835448299997,
                -13.503896980999968
              ],
              [
                -73.23356660799993,
                -13.500765230999889
              ],
              [
                -73.23345898299993,
                -13.498476605999826
              ],
              [
                -73.23724410799986,
                -13.491884730999914
              ],
              [
                -73.23783010799991,
                -13.486679730999924
              ],
              [
                -73.23571485799988,
                -13.483874980999872
              ],
              [
                -73.23645660799997,
                -13.476658230999874
              ],
              [
                -73.23390323299992,
                -13.476586980999912
              ],
              [
                -73.2328444829999,
                -13.476248980999856
              ],
              [
                -73.22684723299989,
                -13.471715605999918
              ],
              [
                -73.22124285699982,
                -13.46630223099993
              ],
              [
                -73.22014873199998,
                -13.463081606999822
              ],
              [
                -73.22113623199988,
                -13.456889355999863
              ],
              [
                -73.22327148199997,
                -13.453428480999946
              ],
              [
                -73.2231824829999,
                -13.449780730999919
              ],
              [
                -73.21914335799994,
                -13.446088605999876
              ],
              [
                -73.21762198199997,
                -13.443028105999872
              ],
              [
                -73.21556948299997,
                -13.438235355999893
              ],
              [
                -73.21146523199997,
                -13.434745105999923
              ],
              [
                -73.21028210699995,
                -13.43336610599988
              ],
              [
                -73.20934798199983,
                -13.43121298099993
              ],
              [
                -73.21075360799995,
                -13.42174685599997
              ],
              [
                -73.21187560799996,
                -13.419064731999981
              ],
              [
                -73.20945423299992,
                -13.417049105999922
              ],
              [
                -73.20669385799994,
                -13.413812980999978
              ],
              [
                -73.20586698299991,
                -13.41248748199996
              ],
              [
                -73.20482110799998,
                -13.411719855999877
              ],
              [
                -73.20389723299985,
                -13.411960105999867
              ],
              [
                -73.19538648199989,
                -13.415438980999852
              ],
              [
                -73.18842473199993,
                -13.415687480999964
              ],
              [
                -73.18649460799986,
                -13.417021105999936
              ],
              [
                -73.18678348199995,
                -13.419839606999972
              ]
            ]
          ]
        ],
        "type": "MultiPolygon"
      },
      "type": "Feature",
      "properties": {
        "PROVINCIA": "ANDAHUAYLAS",
        "DISTRITO": "PACOBAMBA",
        "name": "PACOBAMBA",
        "ID": "030307",
        "DEPARTAMEN": "APURIMAC"
      }
    }
  ]
}
