{
  "type": "FeatureCollection",
  "features": [
    {
      "geometry": {
        "coordinates": [
          [
            [
              [
                -73.39653873299983,
                -14.15943160699993
              ],
              [
                -73.39858710799984,
                -14.165239106999934
              ],
              [
                -73.40057073299994,
                -14.166166481999937
              ],
              [
                -73.40742285799996,
                -14.165573981999955
              ],
              [
                -73.4111838579999,
                -14.16606348199997
              ],
              [
                -73.41243635799998,
                -14.172261981999895
              ],
              [
                -73.41488360799997,
                -14.176286981999965
              ],
              [
                -73.41536660799994,
                -14.180633981999904
              ],
              [
                -73.41382098299988,
                -14.182533731999968
              ],
              [
                -73.41021460699994,
                -14.18462673199997
              ],
              [
                -73.39731085799986,
                -14.187831106999965
              ],
              [
                -73.39594998299998,
                -14.190615980999894
              ],
              [
                -73.39479073299998,
                -14.196057856999857
              ],
              [
                -73.39628510799997,
                -14.19928910699997
              ],
              [
                -73.3937603579999,
                -14.207231231999913
              ],
              [
                -73.39591773299998,
                -14.210129231999815
              ],
              [
                -73.39543473299995,
                -14.212511981999967
              ],
              [
                -73.3909267329999,
                -14.216118481999956
              ],
              [
                -73.38802873299994,
                -14.21666573199991
              ],
              [
                -73.38590360799998,
                -14.21824360699992
              ],
              [
                -73.38195573299998,
                -14.225691856999958
              ],
              [
                -73.37956598299996,
                -14.233930356999963
              ],
              [
                -73.38052935799993,
                -14.246936731999881
              ],
              [
                -73.38059310799997,
                -14.257516606999957
              ],
              [
                -73.37849223299986,
                -14.262945356999978
              ],
              [
                -73.37557223199991,
                -14.263937481999847
              ],
              [
                -73.37436723299999,
                -14.265773481999872
              ],
              [
                -73.37688473299988,
                -14.271790981999857
              ],
              [
                -73.37595310799998,
                -14.275689481999905
              ],
              [
                -73.37451948299997,
                -14.277037106999956
              ],
              [
                -73.37112498299985,
                -14.277058606999958
              ],
              [
                -73.37007223299997,
                -14.278333981999879
              ],
              [
                -73.37019523299983,
                -14.285752356999865
              ],
              [
                -73.37497485799997,
                -14.28984023199996
              ],
              [
                -73.37711323199989,
                -14.29455698199996
              ],
              [
                -73.37642123299992,
                -14.30040585699993
              ],
              [
                -73.37054873299996,
                -14.30942773199996
              ],
              [
                -73.36876623299997,
                -14.3107352319999
              ],
              [
                -73.36894710799993,
                -14.313748981999936
              ],
              [
                -73.37046810799995,
                -14.320268981999845
              ],
              [
                -73.38219348199993,
                -14.322905981999895
              ],
              [
                -73.38689210799987,
                -14.32630973199997
              ],
              [
                -73.39181260799995,
                -14.32762148199987
              ],
              [
                -73.39566123299994,
                -14.330581731999928
              ],
              [
                -73.40224323299992,
                -14.334012731999962
              ],
              [
                -73.40903473299988,
                -14.336091231999887
              ],
              [
                -73.41170510799998,
                -14.338037106999934
              ],
              [
                -73.4140262329999,
                -14.340941481999948
              ],
              [
                -73.41715748299998,
                -14.34212348199992
              ],
              [
                -73.42125135799995,
                -14.345967106999979
              ],
              [
                -73.42152798299992,
                -14.347508231999939
              ],
              [
                -73.42577823299996,
                -14.355171481999946
              ],
              [
                -73.42661523299995,
                -14.360659231999875
              ],
              [
                -73.42575348299988,
                -14.366274981999936
              ],
              [
                -73.4265266079999,
                -14.368832856999916
              ],
              [
                -73.42670510799991,
                -14.37493023199994
              ],
              [
                -73.42905485799992,
                -14.377874856999938
              ],
              [
                -73.43170198299993,
                -14.378410231999908
              ],
              [
                -73.43669885799994,
                -14.381741481999939
              ],
              [
                -73.44788235799996,
                -14.395958856999982
              ],
              [
                -73.45199373299994,
                -14.399879356999918
              ],
              [
                -73.45312823299992,
                -14.402548606999972
              ],
              [
                -73.45039648299996,
                -14.40852398199985
              ],
              [
                -73.44812023299983,
                -14.417641731999936
              ],
              [
                -73.44951823299994,
                -14.421389356999953
              ],
              [
                -73.4521951079999,
                -14.425077356999907
              ],
              [
                -73.45973060799997,
                -14.432218731999967
              ],
              [
                -73.46099910799995,
                -14.43480348199995
              ],
              [
                -73.46019598299995,
                -14.440335731999937
              ],
              [
                -73.46219685799997,
                -14.441569356999935
              ],
              [
                -73.4668971079999,
                -14.446650231999968
              ],
              [
                -73.4729942329999,
                -14.44651673199985
              ],
              [
                -73.47493698299996,
                -14.453500606999853
              ],
              [
                -73.47316548299995,
                -14.455472356999906
              ],
              [
                -73.4720046079999,
                -14.458699356999944
              ],
              [
                -73.47632285799989,
                -14.464967606999949
              ],
              [
                -73.47704248299993,
                -14.469703606999872
              ],
              [
                -73.47183060799989,
                -14.47473273199995
              ],
              [
                -73.47532160799983,
                -14.475731106999945
              ],
              [
                -73.47717885799995,
                -14.47796560699993
              ],
              [
                -73.48304085799992,
                -14.482956981999905
              ],
              [
                -73.4864616079999,
                -14.48783135699989
              ],
              [
                -73.49023773299996,
                -14.49105360699997
              ],
              [
                -73.48975385799997,
                -14.496347606999961
              ],
              [
                -73.49087623299994,
                -14.503967481999894
              ],
              [
                -73.49328498299985,
                -14.507217606999973
              ],
              [
                -73.49206610799996,
                -14.511048357999925
              ],
              [
                -73.49240598299997,
                -14.51633598299992
              ],
              [
                -73.49183398299988,
                -14.522540232999972
              ],
              [
                -73.49081823299986,
                -14.527734731999885
              ],
              [
                -73.48694535799996,
                -14.530124981999961
              ],
              [
                -73.48523635799995,
                -14.532716856999912
              ],
              [
                -73.48649610799998,
                -14.535031231999938
              ],
              [
                -73.49623823299993,
                -14.539830106999943
              ],
              [
                -73.50086135799995,
                -14.540953106999893
              ],
              [
                -73.50701173299996,
                -14.544308606999948
              ],
              [
                -73.50897598299997,
                -14.541253231999917
              ],
              [
                -73.51174035799988,
                -14.53852485699997
              ],
              [
                -73.52075160799996,
                -14.53354773299992
              ],
              [
                -73.52224548299984,
                -14.52698610699997
              ],
              [
                -73.52249035799991,
                -14.522088106999945
              ],
              [
                -73.52183985799985,
                -14.52030023299983
              ],
              [
                -73.52222173299998,
                -14.516152606999924
              ],
              [
                -73.52385648299997,
                -14.511588231999951
              ],
              [
                -73.52900348299988,
                -14.510163981999938
              ],
              [
                -73.53246223299988,
                -14.507242231999953
              ],
              [
                -73.53375448299988,
                -14.501916356999914
              ],
              [
                -73.53668410799997,
                -14.498196731999826
              ],
              [
                -73.53505660799988,
                -14.491544981999937
              ],
              [
                -73.54035160799992,
                -14.485953106999943
              ],
              [
                -73.5457656079999,
                -14.482692981999946
              ],
              [
                -73.55456060799992,
                -14.480695356999945
              ],
              [
                -73.55459110799995,
                -14.479302106999853
              ],
              [
                -73.55182523299999,
                -14.472675231999972
              ],
              [
                -73.55140485799996,
                -14.465004481999927
              ],
              [
                -73.55231398299992,
                -14.463841981999906
              ],
              [
                -73.55784985799994,
                -14.46248248199987
              ],
              [
                -73.56317110799995,
                -14.459891231999961
              ],
              [
                -73.56693948299989,
                -14.460240231999876
              ],
              [
                -73.56898835799996,
                -14.459329981999872
              ],
              [
                -73.57255985799998,
                -14.452893731999893
              ],
              [
                -73.5732761079999,
                -14.448270481999828
              ],
              [
                -73.5747327329999,
                -14.44328773199993
              ],
              [
                -73.57476773299993,
                -14.439014481999948
              ],
              [
                -73.57377685799986,
                -14.435716981999974
              ],
              [
                -73.57389210799988,
                -14.431974106999974
              ],
              [
                -73.57960935799997,
                -14.425256231999981
              ],
              [
                -73.58170310799994,
                -14.419504481999923
              ],
              [
                -73.5817499829999,
                -14.416134731999932
              ],
              [
                -73.57301648299983,
                -14.415896731999965
              ],
              [
                -73.56685173299991,
                -14.413444856999945
              ],
              [
                -73.55963623299994,
                -14.409907106999981
              ],
              [
                -73.55557310799992,
                -14.402481481999928
              ],
              [
                -73.55385673299992,
                -14.401220481999871
              ],
              [
                -73.5538217329999,
                -14.39642185699995
              ],
              [
                -73.55515273299989,
                -14.388926106999861
              ],
              [
                -73.5545573579999,
                -14.382761356999936
              ],
              [
                -73.55350635799982,
                -14.3775073569999
              ],
              [
                -73.55052923299996,
                -14.376176356999906
              ],
              [
                -73.54834160799999,
                -14.373514856999975
              ],
              [
                -73.54846260799985,
                -14.368855731999929
              ],
              [
                -73.54699148299989,
                -14.366543981999882
              ],
              [
                -73.54217573299997,
                -14.36549410699996
              ],
              [
                -73.53994135799991,
                -14.36352973199996
              ],
              [
                -73.53552010799996,
                -14.357800856999972
              ],
              [
                -73.5338354829999,
                -14.35429410699993
              ],
              [
                -73.53215760799998,
                -14.344786481999904
              ],
              [
                -73.52950198299999,
                -14.332242231999942
              ],
              [
                -73.52944560799995,
                -14.326687356999969
              ],
              [
                -73.5280098579999,
                -14.322561981999854
              ],
              [
                -73.52306348299993,
                -14.31446760699987
              ],
              [
                -73.51719135799988,
                -14.309361356999887
              ],
              [
                -73.51671685799988,
                -14.304460981999966
              ],
              [
                -73.51514448299991,
                -14.300128856999947
              ],
              [
                -73.51585748299993,
                -14.294312481999896
              ],
              [
                -73.51545698299992,
                -14.29010748199994
              ],
              [
                -73.51353910799997,
                -14.281861356999968
              ],
              [
                -73.51396685799989,
                -14.274974606999933
              ],
              [
                -73.51244135799988,
                -14.27126760699997
              ],
              [
                -73.51224998299995,
                -14.268158231999905
              ],
              [
                -73.51447260799983,
                -14.26536323199997
              ],
              [
                -73.51814260799989,
                -14.263224606999927
              ],
              [
                -73.51757623299994,
                -14.259539106999966
              ],
              [
                -73.51982223299996,
                -14.25793948199987
              ],
              [
                -73.51916010799988,
                -14.255984356999932
              ],
              [
                -73.51973635799999,
                -14.252624981999872
              ],
              [
                -73.52112110799999,
                -14.25012698199987
              ],
              [
                -73.51883010799997,
                -14.246902356999897
              ],
              [
                -73.51953323299995,
                -14.245224606999898
              ],
              [
                -73.51915623299993,
                -14.240831981999975
              ],
              [
                -73.52132810799998,
                -14.237466856999902
              ],
              [
                -73.52121873299996,
                -14.235623106999924
              ],
              [
                -73.52325385799998,
                -14.231716856999924
              ],
              [
                -73.52336323299994,
                -14.22833010699992
              ],
              [
                -73.52884373299997,
                -14.227753856999982
              ],
              [
                -73.52951173299994,
                -14.22615048199998
              ],
              [
                -73.52862310799992,
                -14.221115231999931
              ],
              [
                -73.53329198299997,
                -14.21870285599988
              ],
              [
                -73.53421098299998,
                -14.215681606999965
              ],
              [
                -73.53854873299997,
                -14.215015606999884
              ],
              [
                -73.53896285799988,
                -14.21236910599987
              ],
              [
                -73.54405860799989,
                -14.20866410699989
              ],
              [
                -73.54307810799992,
                -14.205869106999955
              ],
              [
                -73.54575973299995,
                -14.202339731999928
              ],
              [
                -73.54520123299994,
                -14.196984356999963
              ],
              [
                -73.54840035799992,
                -14.196396481999898
              ],
              [
                -73.55313285799991,
                -14.192113231999883
              ],
              [
                -73.55402535799993,
                -14.18651960699998
              ],
              [
                -73.55626373299998,
                -14.18324023199989
              ],
              [
                -73.55612110799996,
                -14.179675731999907
              ],
              [
                -73.55772073299988,
                -14.176175731999876
              ],
              [
                -73.56025585799995,
                -14.174943356999961
              ],
              [
                -73.56140823299984,
                -14.171341856999959
              ],
              [
                -73.56485348299998,
                -14.167710981999903
              ],
              [
                -73.56493748299988,
                -14.164533231999883
              ],
              [
                -73.56667385799994,
                -14.162847606999946
              ],
              [
                -73.56858773299996,
                -14.158646356999895
              ],
              [
                -73.56931248299998,
                -14.155058606999944
              ],
              [
                -73.57293360799997,
                -14.149113231999934
              ],
              [
                -73.57537885799997,
                -14.148806606999926
              ],
              [
                -73.57728323299989,
                -14.147175731999937
              ],
              [
                -73.57794335799997,
                -14.144728481999948
              ],
              [
                -73.57860348299988,
                -14.142539106999891
              ],
              [
                -73.57773048299987,
                -14.139925731999938
              ],
              [
                -73.57996873299999,
                -14.138216855999929
              ],
              [
                -73.58026385799997,
                -14.133183606999921
              ],
              [
                -73.58193748299988,
                -14.130593730999976
              ],
              [
                -73.58185348299986,
                -14.1258183569999
              ],
              [
                -73.58306248299988,
                -14.12267398199998
              ],
              [
                -73.58268160799997,
                -14.11985348199994
              ],
              [
                -73.58564848299989,
                -14.115412106999884
              ],
              [
                -73.58662510799996,
                -14.11034185699998
              ],
              [
                -73.58171223299996,
                -14.11092998199996
              ],
              [
                -73.57667985799998,
                -14.11234335699993
              ],
              [
                -73.57102148299998,
                -14.11131248199996
              ],
              [
                -73.56771110799997,
                -14.111497231999977
              ],
              [
                -73.56441498299984,
                -14.112893231999863
              ],
              [
                -73.56273585799988,
                -14.116716981999957
              ],
              [
                -73.56019523299994,
                -14.117115231999946
              ],
              [
                -73.55271873299995,
                -14.11408598099996
              ],
              [
                -73.55036135799992,
                -14.114099606999844
              ],
              [
                -73.5475088579999,
                -14.11691735599993
              ],
              [
                -73.54637948299995,
                -14.121208856999829
              ],
              [
                -73.54634185799995,
                -14.12738235699993
              ],
              [
                -73.54116460799997,
                -14.12967210599993
              ],
              [
                -73.53181135799997,
                -14.131372606999946
              ],
              [
                -73.52966560799996,
                -14.130958605999979
              ],
              [
                -73.52608948299991,
                -14.12813523099993
              ],
              [
                -73.52243798299997,
                -14.128210731999957
              ],
              [
                -73.51815035799984,
                -14.129662106999888
              ],
              [
                -73.51387098299995,
                -14.130256106999923
              ],
              [
                -73.51028135799999,
                -14.135700981999946
              ],
              [
                -73.50881173299996,
                -14.139820606999933
              ],
              [
                -73.50449923299993,
                -14.143627230999925
              ],
              [
                -73.49014035799996,
                -14.145554606999895
              ],
              [
                -73.48676748299988,
                -14.145771356999887
              ],
              [
                -73.48281635799998,
                -14.143916231999981
              ],
              [
                -73.47803560799986,
                -14.143277606999959
              ],
              [
                -73.47481773299995,
                -14.141381980999881
              ],
              [
                -73.47184898299992,
                -14.138589981999871
              ],
              [
                -73.46567573299996,
                -14.136894481999946
              ],
              [
                -73.46336323299982,
                -14.132156231999943
              ],
              [
                -73.46068498299991,
                -14.128765856999905
              ],
              [
                -73.45725435799994,
                -14.12595898099994
              ],
              [
                -73.45490823299997,
                -14.124985106999816
              ],
              [
                -73.45083573299996,
                -14.121930605999921
              ],
              [
                -73.44702435799991,
                -14.121820981999917
              ],
              [
                -73.44397435799988,
                -14.120912480999891
              ],
              [
                -73.4369359829999,
                -14.114493856999957
              ],
              [
                -73.43184535799998,
                -14.111704980999946
              ],
              [
                -73.42836485799995,
                -14.110759231999964
              ],
              [
                -73.42321323299996,
                -14.110288480999884
              ],
              [
                -73.41759135699994,
                -14.107853855999963
              ],
              [
                -73.40981248299994,
                -14.107335981999938
              ],
              [
                -73.41147460799988,
                -14.112621731999866
              ],
              [
                -73.41054385799998,
                -14.11936910699984
              ],
              [
                -73.40523135799998,
                -14.126465481999901
              ],
              [
                -73.40513610799991,
                -14.129384731999949
              ],
              [
                -73.39984798299997,
                -14.13462573199996
              ],
              [
                -73.3995164829999,
                -14.139759105999929
              ],
              [
                -73.40240760799992,
                -14.141722356999878
              ],
              [
                -73.40469835799996,
                -14.146863731999929
              ],
              [
                -73.40284598299996,
                -14.15167048099994
              ],
              [
                -73.40005573299993,
                -14.156195856999886
              ],
              [
                -73.39653873299983,
                -14.15943160699993
              ]
            ]
          ]
        ],
        "type": "MultiPolygon"
      },
      "type": "Feature",
      "properties": {
        "PROVINCIA": "ANDAHUAYLAS",
        "DISTRITO": "PAMPACHIRI",
        "name": "PAMPACHIRI",
        "ID": "030308",
        "DEPARTAMEN": "APURIMAC"
      }
    }
  ]
}
