{
  "type": "FeatureCollection",
  "features": [
    {
      "geometry": {
        "coordinates": [
          [
            [
              [
                -73.49845898299992,
                -13.713529355999867
              ],
              [
                -73.50441960799998,
                -13.71135860599992
              ],
              [
                -73.50705635799994,
                -13.711428980999813
              ],
              [
                -73.51264635799998,
                -13.713819480999973
              ],
              [
                -73.51552910799995,
                -13.715788355999905
              ],
              [
                -73.52041598299996,
                -13.71765160699988
              ],
              [
                -73.52340423299995,
                -13.717300105999925
              ],
              [
                -73.52468948299997,
                -13.7117563569999
              ],
              [
                -73.52680073299996,
                -13.70740035599988
              ],
              [
                -73.5282256079999,
                -13.701345230999834
              ],
              [
                -73.5308102329999,
                -13.69714248199989
              ],
              [
                -73.53212685799986,
                -13.693278730999964
              ],
              [
                -73.53323898299993,
                -13.69301548199985
              ],
              [
                -73.53616410799992,
                -13.695876980999913
              ],
              [
                -73.5391788579999,
                -13.701817855999934
              ],
              [
                -73.54150260799997,
                -13.704373980999947
              ],
              [
                -73.54800898299999,
                -13.709346730999982
              ],
              [
                -73.55223798299994,
                -13.711112605999915
              ],
              [
                -73.55549123299983,
                -13.71371523199997
              ],
              [
                -73.55855848299996,
                -13.71408698099998
              ],
              [
                -73.56069623299999,
                -13.713203981999925
              ],
              [
                -73.56636760799984,
                -13.713706355999932
              ],
              [
                -73.57227923299985,
                -13.717803480999919
              ],
              [
                -73.57733010799996,
                -13.719167856999945
              ],
              [
                -73.57906885799991,
                -13.72192998199995
              ],
              [
                -73.58072648299998,
                -13.729190980999931
              ],
              [
                -73.58147073299989,
                -13.736898481999958
              ],
              [
                -73.58831448299992,
                -13.731679731999975
              ],
              [
                -73.59428710799995,
                -13.729503856999884
              ],
              [
                -73.60035160799998,
                -13.728925731999936
              ],
              [
                -73.6038124829999,
                -13.728085981999982
              ],
              [
                -73.60618360799998,
                -13.728767606999895
              ],
              [
                -73.60570310799983,
                -13.724968730999933
              ],
              [
                -73.60685748299994,
                -13.72299810599992
              ],
              [
                -73.61203923299996,
                -13.720482480999976
              ],
              [
                -73.61308010799985,
                -13.718304731999922
              ],
              [
                -73.61386910799996,
                -13.711324230999935
              ],
              [
                -73.61300585799984,
                -13.707935605999978
              ],
              [
                -73.61497460799984,
                -13.703632855999842
              ],
              [
                -73.61392185799997,
                -13.698884605999979
              ],
              [
                -73.61157423299994,
                -13.697851606999961
              ],
              [
                -73.6088319829999,
                -13.694064480999941
              ],
              [
                -73.60560935799998,
                -13.691914105999956
              ],
              [
                -73.60480273299993,
                -13.689080105999949
              ],
              [
                -73.60490473299996,
                -13.68388948199987
              ],
              [
                -73.60330398299999,
                -13.680527980999955
              ],
              [
                -73.60327860799987,
                -13.677764605999926
              ],
              [
                -73.60162335799987,
                -13.664121231999843
              ],
              [
                -73.59367385799999,
                -13.656542980999973
              ],
              [
                -73.59267760799997,
                -13.650182980999887
              ],
              [
                -73.59285310799993,
                -13.646502605999899
              ],
              [
                -73.59570085799993,
                -13.641071605999969
              ],
              [
                -73.59979260799992,
                -13.636319480999873
              ],
              [
                -73.6043857329999,
                -13.628642730999957
              ],
              [
                -73.60698085899986,
                -13.622219480999945
              ],
              [
                -73.60518473299993,
                -13.61767323099997
              ],
              [
                -73.60443160799997,
                -13.609931605999975
              ],
              [
                -73.59822185799999,
                -13.607658106999963
              ],
              [
                -73.59278073299998,
                -13.607217355999978
              ],
              [
                -73.58957460899984,
                -13.609571105999976
              ],
              [
                -73.58677448299989,
                -13.60928710599984
              ],
              [
                -73.58348735799996,
                -13.607623230999934
              ],
              [
                -73.57940298299997,
                -13.60224423099993
              ],
              [
                -73.57597885799998,
                -13.600419231999922
              ],
              [
                -73.57040298299995,
                -13.596258356999897
              ],
              [
                -73.56643748299985,
                -13.600287106999929
              ],
              [
                -73.56225398299989,
                -13.603630606999957
              ],
              [
                -73.55808635799997,
                -13.604251980999948
              ],
              [
                -73.55124998299982,
                -13.608565980999856
              ],
              [
                -73.54976623299996,
                -13.60882760599992
              ],
              [
                -73.54682635799992,
                -13.606555230999845
              ],
              [
                -73.54385348299996,
                -13.60538085599984
              ],
              [
                -73.54165473299992,
                -13.605594105999899
              ],
              [
                -73.53934673299995,
                -13.607294855999953
              ],
              [
                -73.53631848299995,
                -13.611916605999966
              ],
              [
                -73.53256498299987,
                -13.614067980999891
              ],
              [
                -73.53162910799995,
                -13.616436980999879
              ],
              [
                -73.52844123299991,
                -13.615618105999886
              ],
              [
                -73.5271543579999,
                -13.612751855999875
              ],
              [
                -73.5232061079999,
                -13.608511230999966
              ],
              [
                -73.51989085799988,
                -13.603582730999904
              ],
              [
                -73.51253110799996,
                -13.60160898099997
              ],
              [
                -73.5087789829999,
                -13.598129730999915
              ],
              [
                -73.50393723299999,
                -13.597665730999893
              ],
              [
                -73.50047860799998,
                -13.596189480999954
              ],
              [
                -73.49809398299993,
                -13.598604731999956
              ],
              [
                -73.49922398299998,
                -13.601105355999948
              ],
              [
                -73.49914198299996,
                -13.603822855999965
              ],
              [
                -73.49745898299989,
                -13.606943355999874
              ],
              [
                -73.49465235799994,
                -13.609980481999912
              ],
              [
                -73.49185748299993,
                -13.61685160699983
              ],
              [
                -73.49322260799994,
                -13.621019480999962
              ],
              [
                -73.49317385799998,
                -13.624363230999961
              ],
              [
                -73.49107810799995,
                -13.627611355999875
              ],
              [
                -73.48768360799994,
                -13.629521480999927
              ],
              [
                -73.48379110799993,
                -13.633978480999929
              ],
              [
                -73.48243160799996,
                -13.636874980999949
              ],
              [
                -73.47949998299998,
                -13.637974605999887
              ],
              [
                -73.47363473299998,
                -13.641533355999968
              ],
              [
                -73.47286548299991,
                -13.644468230999905
              ],
              [
                -73.47282835799996,
                -13.6488211059999
              ],
              [
                -73.46640085799999,
                -13.66232460699996
              ],
              [
                -73.46706760799998,
                -13.6646954819999
              ],
              [
                -73.4726616079999,
                -13.66739998199995
              ],
              [
                -73.47871873299988,
                -13.668770605999953
              ],
              [
                -73.48020810799994,
                -13.670106355999962
              ],
              [
                -73.48264573299991,
                -13.67703198099997
              ],
              [
                -73.48333098299986,
                -13.68281123099996
              ],
              [
                -73.48533148299998,
                -13.684941355999968
              ],
              [
                -73.49124223299992,
                -13.685507855999958
              ],
              [
                -73.49409298299992,
                -13.686812231999966
              ],
              [
                -73.49857760799989,
                -13.691854606999982
              ],
              [
                -73.49811310799998,
                -13.708664605999957
              ],
              [
                -73.49845898299992,
                -13.713529355999867
              ]
            ]
          ]
        ],
        "type": "MultiPolygon"
      },
      "type": "Feature",
      "properties": {
        "PROVINCIA": "ANDAHUAYLAS",
        "DISTRITO": "SANTA MARIA DE CHICMO",
        "name": "SANTA MARIA DE CHICMO",
        "ID": "030315",
        "DEPARTAMEN": "APURIMAC"
      }
    }
  ]
}
