{
  "type": "FeatureCollection",
  "features": [
    {
      "geometry": {
        "coordinates": [
          [
            [
              [
                -77.86189648699991,
                -8.596138725999879
              ],
              [
                -77.86642573699993,
                -8.600435601999948
              ],
              [
                -77.87134761199997,
                -8.601880851999965
              ],
              [
                -77.87614061199997,
                -8.601800725999908
              ],
              [
                -77.8791347369999,
                -8.60280660199993
              ],
              [
                -77.88475973699991,
                -8.611031226999899
              ],
              [
                -77.88640823799994,
                -8.615255851999962
              ],
              [
                -77.88991411199999,
                -8.619033226999875
              ],
              [
                -77.89212698699998,
                -8.620001976999902
              ],
              [
                -77.89491011199988,
                -8.622988226999894
              ],
              [
                -77.89896086199997,
                -8.623292976999892
              ],
              [
                -77.90212498699998,
                -8.626232475999927
              ],
              [
                -77.90333011199988,
                -8.629728475999912
              ],
              [
                -77.90399223699995,
                -8.63429497699991
              ],
              [
                -77.90599998699997,
                -8.638164101999962
              ],
              [
                -77.90890036199988,
                -8.64194535199988
              ],
              [
                -77.90880661199992,
                -8.639451225999949
              ],
              [
                -77.91072111299997,
                -8.63395322699995
              ],
              [
                -77.91392823699994,
                -8.631523476999917
              ],
              [
                -77.91852373699999,
                -8.630047851999961
              ],
              [
                -77.92299436199994,
                -8.630279976999873
              ],
              [
                -77.93129798699988,
                -8.624314226999843
              ],
              [
                -77.93475523799987,
                -8.615713600999982
              ],
              [
                -77.93665236199996,
                -8.612762475999887
              ],
              [
                -77.94045311199994,
                -8.609706976999973
              ],
              [
                -77.94348211199991,
                -8.60622772599993
              ],
              [
                -77.94685498699994,
                -8.596952601999874
              ],
              [
                -77.95473873699996,
                -8.59088160199991
              ],
              [
                -77.95768998699998,
                -8.586707851999904
              ],
              [
                -77.9606411119999,
                -8.581227101999957
              ],
              [
                -77.96280648799996,
                -8.580400350999923
              ],
              [
                -77.96598511199994,
                -8.581404475999875
              ],
              [
                -77.9670268619999,
                -8.577121726999906
              ],
              [
                -77.96877936199996,
                -8.573800600999903
              ],
              [
                -77.97178036199983,
                -8.570019225999943
              ],
              [
                -77.98158198699991,
                -8.559671100999935
              ],
              [
                -77.98205198699998,
                -8.557869600999936
              ],
              [
                -77.98517898699998,
                -8.552804100999936
              ],
              [
                -77.9906223619999,
                -8.542882851999877
              ],
              [
                -77.99283873699994,
                -8.540863850999926
              ],
              [
                -77.99150786199988,
                -8.535490225999922
              ],
              [
                -77.99279886199986,
                -8.532410101999972
              ],
              [
                -77.99025786199991,
                -8.529501976999939
              ],
              [
                -77.98841798699993,
                -8.525515601999928
              ],
              [
                -77.98648048699994,
                -8.524083975999929
              ],
              [
                -77.98344911199996,
                -8.517696601999887
              ],
              [
                -77.98381373699993,
                -8.513440726999931
              ],
              [
                -77.98281048699994,
                -8.511843725999881
              ],
              [
                -77.97978123699994,
                -8.511958976999892
              ],
              [
                -77.9794724869999,
                -8.50931535199993
              ],
              [
                -77.97607673699997,
                -8.506288350999966
              ],
              [
                -77.97201398699997,
                -8.507339351999974
              ],
              [
                -77.96831873699995,
                -8.504084725999974
              ],
              [
                -77.96762336199998,
                -8.500131475999979
              ],
              [
                -77.96823923699992,
                -8.49230972699985
              ],
              [
                -77.9695722379999,
                -8.48865272699993
              ],
              [
                -77.97339298699995,
                -8.484048601999973
              ],
              [
                -77.97639861199985,
                -8.478673725999954
              ],
              [
                -77.97593898799994,
                -8.475774101999946
              ],
              [
                -77.9710504869999,
                -8.477031601999954
              ],
              [
                -77.96553861299986,
                -8.48070410199989
              ],
              [
                -77.95188373699989,
                -8.481036351999933
              ],
              [
                -77.94895886199993,
                -8.480830726999955
              ],
              [
                -77.94743836199996,
                -8.47623385099996
              ],
              [
                -77.94110986199985,
                -8.471470850999935
              ],
              [
                -77.94155861199994,
                -8.466646476999927
              ],
              [
                -77.93901948699988,
                -8.462447225999938
              ],
              [
                -77.93618398699994,
                -8.461587225999892
              ],
              [
                -77.93472261199992,
                -8.459298851999904
              ],
              [
                -77.93371673699983,
                -8.454826225999966
              ],
              [
                -77.93392186199992,
                -8.449294976999965
              ],
              [
                -77.92633786199991,
                -8.45441997599994
              ],
              [
                -77.91983011199994,
                -8.456113225999957
              ],
              [
                -77.91631248699997,
                -8.457982476999973
              ],
              [
                -77.91421311199997,
                -8.462429351999958
              ],
              [
                -77.91231136199985,
                -8.472761726999977
              ],
              [
                -77.91378148699988,
                -8.483667101999913
              ],
              [
                -77.91366273699992,
                -8.48770760199983
              ],
              [
                -77.91427661199992,
                -8.495288600999913
              ],
              [
                -77.91380111199999,
                -8.501970851999943
              ],
              [
                -77.91062748699989,
                -8.504689101999872
              ],
              [
                -77.90867723699989,
                -8.511003726999945
              ],
              [
                -77.90653786199988,
                -8.514305225999976
              ],
              [
                -77.90426636199999,
                -8.515520100999936
              ],
              [
                -77.90223398699993,
                -8.519359101999953
              ],
              [
                -77.89734123699998,
                -8.526978351999958
              ],
              [
                -77.89516961199996,
                -8.52935147699992
              ],
              [
                -77.8931993619999,
                -8.534559851999859
              ],
              [
                -77.88916036199993,
                -8.535474350999948
              ],
              [
                -77.88679798699997,
                -8.537277851999931
              ],
              [
                -77.88475798699994,
                -8.543957726999906
              ],
              [
                -77.87879098699995,
                -8.546074351999891
              ],
              [
                -77.87615236199997,
                -8.545804726999961
              ],
              [
                -77.87600623699996,
                -8.549340725999969
              ],
              [
                -77.87853648699996,
                -8.553895100999966
              ],
              [
                -77.87877461199986,
                -8.556872101999886
              ],
              [
                -77.8756697369999,
                -8.562807226999894
              ],
              [
                -77.8731506119999,
                -8.569204601999957
              ],
              [
                -77.87483223699996,
                -8.570388101999981
              ],
              [
                -77.87600111199998,
                -8.57610172699998
              ],
              [
                -77.87264261199982,
                -8.579720601999895
              ],
              [
                -77.87188298699994,
                -8.582246851999855
              ],
              [
                -77.86984911199994,
                -8.584714101999964
              ],
              [
                -77.86812411199998,
                -8.590793600999916
              ],
              [
                -77.86189648699991,
                -8.596138725999879
              ]
            ]
          ]
        ],
        "type": "MultiPolygon"
      },
      "type": "Feature",
      "properties": {
        "PROVINCIA": "CORONGO",
        "DISTRITO": "CORONGO",
        "name": "CORONGO",
        "ID": "020601",
        "DEPARTAMEN": "ANCASH"
      }
    }
  ]
}
