{
  "type": "FeatureCollection",
  "features": [
    {
      "geometry": {
        "coordinates": [
          [
            [
              [
                -77.69055273699996,
                -8.569511600999931
              ],
              [
                -77.69020761199994,
                -8.572410476999892
              ],
              [
                -77.68866061199992,
                -8.576356975999943
              ],
              [
                -77.69393161199997,
                -8.579400226999951
              ],
              [
                -77.69610148699996,
                -8.582961850999936
              ],
              [
                -77.70394473699997,
                -8.582849851999981
              ],
              [
                -77.70656211199997,
                -8.583365976999971
              ],
              [
                -77.70915098699993,
                -8.586270600999967
              ],
              [
                -77.71032148699999,
                -8.590814101999968
              ],
              [
                -77.70733086199988,
                -8.594005851999952
              ],
              [
                -77.69959973699997,
                -8.597833600999934
              ],
              [
                -77.69566223699996,
                -8.602331351999965
              ],
              [
                -77.69673436199997,
                -8.6033473519999
              ],
              [
                -77.70068948699998,
                -8.603811351999923
              ],
              [
                -77.70311998699992,
                -8.606772101999923
              ],
              [
                -77.70513073699993,
                -8.607545476999974
              ],
              [
                -77.70862198699996,
                -8.612295975999928
              ],
              [
                -77.70793686199994,
                -8.614107976999946
              ],
              [
                -77.70477723699997,
                -8.616162851999945
              ],
              [
                -77.7023908619999,
                -8.621067850999907
              ],
              [
                -77.70303161199996,
                -8.624978975999966
              ],
              [
                -77.70181636099989,
                -8.627453601999889
              ],
              [
                -77.70301761199988,
                -8.629798850999975
              ],
              [
                -77.70528536199993,
                -8.629928351999922
              ],
              [
                -77.70760536199998,
                -8.631961100999888
              ],
              [
                -77.71235598699991,
                -8.631165726999882
              ],
              [
                -77.71363748699997,
                -8.631828600999938
              ],
              [
                -77.71502948699998,
                -8.636623351999901
              ],
              [
                -77.71615648599999,
                -8.644400976999975
              ],
              [
                -77.721437112,
                -8.650057475999972
              ],
              [
                -77.72190123699994,
                -8.65281947699998
              ],
              [
                -77.72073023699994,
                -8.65653147699993
              ],
              [
                -77.73016511199995,
                -8.65527210199997
              ],
              [
                -77.73699261199982,
                -8.661900725999885
              ],
              [
                -77.74110698699997,
                -8.65899060199996
              ],
              [
                -77.74369911199994,
                -8.65951447599997
              ],
              [
                -77.74865636199996,
                -8.659186850999959
              ],
              [
                -77.75287111199998,
                -8.663379975999874
              ],
              [
                -77.75885473699992,
                -8.664253351999946
              ],
              [
                -77.75964086199997,
                -8.666502726999965
              ],
              [
                -77.76317598699995,
                -8.669869101999893
              ],
              [
                -77.77247061199995,
                -8.673824476999869
              ],
              [
                -77.77643948699995,
                -8.669452726999907
              ],
              [
                -77.77784486199988,
                -8.664046975999952
              ],
              [
                -77.78315823699995,
                -8.654958976999978
              ],
              [
                -77.78397298699997,
                -8.645234976999973
              ],
              [
                -77.7879644869999,
                -8.645021226999916
              ],
              [
                -77.7919748619999,
                -8.643388726999945
              ],
              [
                -77.7961687369999,
                -8.640557351999973
              ],
              [
                -77.79859548699994,
                -8.640813351999952
              ],
              [
                -77.80026736199994,
                -8.642334225999946
              ],
              [
                -77.80297073699995,
                -8.638894476999894
              ],
              [
                -77.80427348699999,
                -8.634015601999977
              ],
              [
                -77.80921486199992,
                -8.625703101999932
              ],
              [
                -77.81593748699999,
                -8.616501975999938
              ],
              [
                -77.81996873699995,
                -8.612914101999934
              ],
              [
                -77.82291411199992,
                -8.613443350999944
              ],
              [
                -77.82489448699994,
                -8.612388726999882
              ],
              [
                -77.82797461199993,
                -8.606621101999963
              ],
              [
                -77.83425198699996,
                -8.597583976999886
              ],
              [
                -77.83514461199997,
                -8.592970726999965
              ],
              [
                -77.83824223699997,
                -8.588203100999976
              ],
              [
                -77.84032036199994,
                -8.587113225999872
              ],
              [
                -77.84617773699989,
                -8.591136725999888
              ],
              [
                -77.84825973699998,
                -8.59174410199995
              ],
              [
                -77.85225786199999,
                -8.59107222699987
              ],
              [
                -77.85796486199996,
                -8.59316222599989
              ],
              [
                -77.85833011199998,
                -8.58739647699997
              ],
              [
                -77.85944336199998,
                -8.584542976999955
              ],
              [
                -77.85898436199994,
                -8.580119100999923
              ],
              [
                -77.85338861199995,
                -8.57333985199989
              ],
              [
                -77.8528847369999,
                -8.571581976999937
              ],
              [
                -77.85232036199994,
                -8.558078101999968
              ],
              [
                -77.85308198699988,
                -8.551884726999958
              ],
              [
                -77.8564882369999,
                -8.546095725999976
              ],
              [
                -77.85316798699989,
                -8.539045101999875
              ],
              [
                -77.85375586199996,
                -8.53249222699992
              ],
              [
                -77.85254486199995,
                -8.53095510199995
              ],
              [
                -77.85302923699999,
                -8.52753710199994
              ],
              [
                -77.85713086199996,
                -8.527632851999954
              ],
              [
                -77.85866986199994,
                -8.524496101999944
              ],
              [
                -77.85924986199996,
                -8.520931601999962
              ],
              [
                -77.86285161199999,
                -8.518095725999899
              ],
              [
                -77.86533598699992,
                -8.517796851999947
              ],
              [
                -77.86998236199997,
                -8.512929726999914
              ],
              [
                -77.8719179869999,
                -8.512201225999945
              ],
              [
                -77.87413086199996,
                -8.509583976999977
              ],
              [
                -77.87514261199988,
                -8.506431601999964
              ],
              [
                -77.87799611199995,
                -8.500990351999974
              ],
              [
                -77.8771854869999,
                -8.491970725999977
              ],
              [
                -77.87728911199997,
                -8.487597600999948
              ],
              [
                -77.88027836199996,
                -8.477335351999955
              ],
              [
                -77.87905861199988,
                -8.475585975999877
              ],
              [
                -77.87657648699997,
                -8.475467101999925
              ],
              [
                -77.87455486199997,
                -8.473918475999938
              ],
              [
                -77.87309948699988,
                -8.467873225999881
              ],
              [
                -77.87460448699994,
                -8.462510725999948
              ],
              [
                -77.87294036199995,
                -8.456926475999921
              ],
              [
                -77.869818362,
                -8.455199475999962
              ],
              [
                -77.87071223699996,
                -8.45076710099994
              ],
              [
                -77.87236848699996,
                -8.447009225999977
              ],
              [
                -77.87407823699994,
                -8.445014475999926
              ],
              [
                -77.87667861199998,
                -8.44419522699991
              ],
              [
                -77.88064386199989,
                -8.439812851999875
              ],
              [
                -77.88250898699994,
                -8.435969601999943
              ],
              [
                -77.88196823699997,
                -8.43041997599994
              ],
              [
                -77.87945511199996,
                -8.427865225999938
              ],
              [
                -77.88029136199992,
                -8.418980726999905
              ],
              [
                -77.87713661199996,
                -8.409318851999899
              ],
              [
                -77.878019237,
                -8.401502100999949
              ],
              [
                -77.87688873699994,
                -8.39809085099995
              ],
              [
                -77.86787573699985,
                -8.396743725999954
              ],
              [
                -77.86229786199993,
                -8.393644976999894
              ],
              [
                -77.86073473699997,
                -8.393372100999954
              ],
              [
                -77.85574773699994,
                -8.401540600999908
              ],
              [
                -77.85353073699997,
                -8.403314100999921
              ],
              [
                -77.84971948699996,
                -8.401875225999902
              ],
              [
                -77.84349461199997,
                -8.397358850999979
              ],
              [
                -77.83964698699992,
                -8.395424975999902
              ],
              [
                -77.8363792369999,
                -8.392301100999873
              ],
              [
                -77.83041823699989,
                -8.390972225999974
              ],
              [
                -77.8278281119999,
                -8.388720725999974
              ],
              [
                -77.82395623699989,
                -8.388639101999956
              ],
              [
                -77.81935823699996,
                -8.38616047599993
              ],
              [
                -77.81738323699989,
                -8.38576547699995
              ],
              [
                -77.81424798699999,
                -8.386939476999942
              ],
              [
                -77.80926198699996,
                -8.385277850999842
              ],
              [
                -77.8056237369999,
                -8.381298350999884
              ],
              [
                -77.80208911199992,
                -8.379028225999946
              ],
              [
                -77.79885936199997,
                -8.38118735199987
              ],
              [
                -77.79596336199995,
                -8.383649225999932
              ],
              [
                -77.79192061199996,
                -8.388826726999923
              ],
              [
                -77.79064398699995,
                -8.391923725999959
              ],
              [
                -77.78622298699997,
                -8.39785785099997
              ],
              [
                -77.78411023699994,
                -8.401524100999893
              ],
              [
                -77.78218161199999,
                -8.403240225999866
              ],
              [
                -77.77913061199996,
                -8.402893350999932
              ],
              [
                -77.77692261199996,
                -8.39770160099988
              ],
              [
                -77.7745429869999,
                -8.395867226999883
              ],
              [
                -77.77166798699994,
                -8.39648435099997
              ],
              [
                -77.76708198699993,
                -8.399128851999933
              ],
              [
                -77.76536523699991,
                -8.401029350999977
              ],
              [
                -77.75915361199998,
                -8.40336622599989
              ],
              [
                -77.75919023699998,
                -8.406235101999926
              ],
              [
                -77.76061973699996,
                -8.410401850999904
              ],
              [
                -77.75860873699997,
                -8.413728351999907
              ],
              [
                -77.75543161199994,
                -8.416339850999975
              ],
              [
                -77.75522911199988,
                -8.418685851999953
              ],
              [
                -77.75738473699988,
                -8.420988226999896
              ],
              [
                -77.76175411199995,
                -8.422042976999876
              ],
              [
                -77.7616596119999,
                -8.425589226999932
              ],
              [
                -77.76506836199997,
                -8.428080100999978
              ],
              [
                -77.76481473699994,
                -8.440994475999958
              ],
              [
                -77.75632611199995,
                -8.447126975999936
              ],
              [
                -77.75165848699993,
                -8.453295101999913
              ],
              [
                -77.74139773699989,
                -8.459995475999904
              ],
              [
                -77.73885348699997,
                -8.465084850999915
              ],
              [
                -77.73932036199994,
                -8.472273475999827
              ],
              [
                -77.73578411199992,
                -8.477486101999887
              ],
              [
                -77.72544786199995,
                -8.48387185099989
              ],
              [
                -77.72258173699993,
                -8.486842101999969
              ],
              [
                -77.71832611099995,
                -8.489742850999903
              ],
              [
                -77.71745036199991,
                -8.493702975999952
              ],
              [
                -77.71764586199998,
                -8.49675347699997
              ],
              [
                -77.71591573699993,
                -8.499351351999906
              ],
              [
                -77.71500911199996,
                -8.502521226999932
              ],
              [
                -77.71083786199989,
                -8.506013851999967
              ],
              [
                -77.70415661199996,
                -8.509871226999906
              ],
              [
                -77.70401723599991,
                -8.513272725999968
              ],
              [
                -77.71011323699997,
                -8.518351601999939
              ],
              [
                -77.71196336199995,
                -8.522361851999904
              ],
              [
                -77.70859573699994,
                -8.527433601999974
              ],
              [
                -77.70848048699997,
                -8.530931600999963
              ],
              [
                -77.71383136199995,
                -8.536915850999947
              ],
              [
                -77.71385923699995,
                -8.541599851999877
              ],
              [
                -77.70745998699994,
                -8.546009726999955
              ],
              [
                -77.70418436199998,
                -8.547006225999894
              ],
              [
                -77.69857448699997,
                -8.551722225999924
              ],
              [
                -77.69458086199995,
                -8.553789100999893
              ],
              [
                -77.69102498699988,
                -8.557592226999873
              ],
              [
                -77.69224486199994,
                -8.56294447599987
              ],
              [
                -77.69070761099994,
                -8.566992850999895
              ],
              [
                -77.69055273699996,
                -8.569511600999931
              ]
            ]
          ]
        ],
        "type": "MultiPolygon"
      },
      "type": "Feature",
      "properties": {
        "PROVINCIA": "CORONGO",
        "DISTRITO": "CUSCA",
        "name": "CUSCA",
        "ID": "020604",
        "DEPARTAMEN": "ANCASH"
      }
    }
  ]
}
