{
  "type": "FeatureCollection",
  "features": [
    {
      "geometry": {
        "coordinates": [
          [
            [
              [
                -74.54952882831596,
                -12.19721423416832
              ],
              [
                -74.54833403290326,
                -12.20104141156909
              ],
              [
                -74.54720781237269,
                -12.20222794268962
              ],
              [
                -74.54632582187357,
                -12.20407246610772
              ],
              [
                -74.54339050610015,
                -12.2033368887329
              ],
              [
                -74.54005379273787,
                -12.20424778438062
              ],
              [
                -74.53831637662822,
                -12.20577430443654
              ],
              [
                -74.53675660516657,
                -12.20592897372958
              ],
              [
                -74.53552051962112,
                -12.20528908843358
              ],
              [
                -74.5326899970846,
                -12.2021989552454
              ],
              [
                -74.53094189862095,
                -12.1981303266195
              ],
              [
                -74.5313886578387,
                -12.19578310183443
              ],
              [
                -74.52980023245553,
                -12.19294696803469
              ],
              [
                -74.52984655554373,
                -12.19005669892631
              ],
              [
                -74.5254484151849,
                -12.1888037138172
              ],
              [
                -74.52151370732031,
                -12.18817696722843
              ],
              [
                -74.5193092662917,
                -12.18558094868499
              ],
              [
                -74.51727826193196,
                -12.1818255884764
              ],
              [
                -74.51882301406154,
                -12.17698822629143
              ],
              [
                -74.5208986513677,
                -12.17261533669573
              ],
              [
                -74.52280888481243,
                -12.17027924381131
              ],
              [
                -74.52481202394034,
                -12.1686544951545
              ],
              [
                -74.52653429691871,
                -12.16535873714661
              ],
              [
                -74.52750203708872,
                -12.16226529652211
              ],
              [
                -74.52733479037691,
                -12.15915794556739
              ],
              [
                -74.52465662747208,
                -12.15727097896996
              ],
              [
                -74.52254639808554,
                -12.15776148901038
              ],
              [
                -74.5202863873092,
                -12.156910040657
              ],
              [
                -74.51851558843666,
                -12.15519355202412
              ],
              [
                -74.51664175669724,
                -12.1550073184228
              ],
              [
                -74.5142787269352,
                -12.15342764589134
              ],
              [
                -74.51127778752098,
                -12.15176083651429
              ],
              [
                -74.50672063826708,
                -12.151581063111
              ],
              [
                -74.50149285870981,
                -12.14988718057106
              ],
              [
                -74.49858598266766,
                -12.15015801553336
              ],
              [
                -74.49568352302796,
                -12.14898176203905
              ],
              [
                -74.49403852363649,
                -12.14983061891293
              ],
              [
                -74.49440255651623,
                -12.15196359047959
              ],
              [
                -74.49248479867937,
                -12.15373744341713
              ],
              [
                -74.48715266371963,
                -12.15362797412725
              ],
              [
                -74.48284181460735,
                -12.15527585732577
              ],
              [
                -74.47891652282561,
                -12.15625454887614
              ],
              [
                -74.47615080402548,
                -12.15737455863786
              ],
              [
                -74.47267133239187,
                -12.1577350053726
              ],
              [
                -74.46749437403328,
                -12.16000552752231
              ],
              [
                -74.46836037080617,
                -12.16283583716882
              ],
              [
                -74.46891179987242,
                -12.16560479430583
              ],
              [
                -74.47081125728455,
                -12.17085365249712
              ],
              [
                -74.47304123897749,
                -12.17219103067155
              ],
              [
                -74.47412810874675,
                -12.17413764905231
              ],
              [
                -74.4768539963249,
                -12.17485977073681
              ],
              [
                -74.47904347885684,
                -12.17340997679386
              ],
              [
                -74.48691171212002,
                -12.16924215352977
              ],
              [
                -74.4891075021545,
                -12.16861511998184
              ],
              [
                -74.49074184063045,
                -12.16760711542307
              ],
              [
                -74.49185497021634,
                -12.16807415667799
              ],
              [
                -74.49129209402166,
                -12.1721934146073
              ],
              [
                -74.49182707707628,
                -12.17523959099638
              ],
              [
                -74.49593764505858,
                -12.18156934398491
              ],
              [
                -74.49948021980927,
                -12.1887473221335
              ],
              [
                -74.49938719558081,
                -12.19224446096082
              ],
              [
                -74.50027091205675,
                -12.19517149246301
              ],
              [
                -74.50303470333554,
                -12.19806884693837
              ],
              [
                -74.50415452474189,
                -12.19941200236147
              ],
              [
                -74.50450235341575,
                -12.20348992757883
              ],
              [
                -74.50387752756426,
                -12.20529983840387
              ],
              [
                -74.50647189803347,
                -12.21125993225522
              ],
              [
                -74.50642834031922,
                -12.21297880904836
              ],
              [
                -74.50544618938159,
                -12.2149010704898
              ],
              [
                -74.50660214810955,
                -12.22274105623633
              ],
              [
                -74.50890250101837,
                -12.22657884335349
              ],
              [
                -74.51234341924433,
                -12.23078946496749
              ],
              [
                -74.51401609689526,
                -12.23162620351078
              ],
              [
                -74.51551579433595,
                -12.23150843965207
              ],
              [
                -74.51650624452408,
                -12.23286186851859
              ],
              [
                -74.51654221208464,
                -12.23491005456378
              ],
              [
                -74.5160733935837,
                -12.23662442210342
              ],
              [
                -74.5152765906173,
                -12.23697262174389
              ],
              [
                -74.51408267284533,
                -12.2384188960381
              ],
              [
                -74.5141003610209,
                -12.23952580225365
              ],
              [
                -74.51201230835021,
                -12.24281423446318
              ],
              [
                -74.51177068927964,
                -12.2442299207529
              ],
              [
                -74.50896721234739,
                -12.24782865679373
              ],
              [
                -74.50835854579995,
                -12.24921063510158
              ],
              [
                -74.51749441069045,
                -12.25425804480112
              ],
              [
                -74.52136205901947,
                -12.25412587527916
              ],
              [
                -74.52380248348989,
                -12.25528114304128
              ],
              [
                -74.52602602795643,
                -12.25533897055064
              ],
              [
                -74.52773694794612,
                -12.25781786736736
              ],
              [
                -74.52931461634685,
                -12.25888352455085
              ],
              [
                -74.53048718506597,
                -12.2591470416449
              ],
              [
                -74.53339203999352,
                -12.26243631001815
              ],
              [
                -74.53482491490122,
                -12.26327922152147
              ],
              [
                -74.53641103352646,
                -12.26325230605715
              ],
              [
                -74.53807327683259,
                -12.26238579151375
              ],
              [
                -74.53920582918472,
                -12.26220493743805
              ],
              [
                -74.54098488198827,
                -12.26234536794987
              ],
              [
                -74.54486444398806,
                -12.26061922294279
              ],
              [
                -74.54693056401571,
                -12.25592333092677
              ],
              [
                -74.54789028705126,
                -12.25516738131806
              ],
              [
                -74.54911113287478,
                -12.2556690618461
              ],
              [
                -74.55289823883956,
                -12.25602740005102
              ],
              [
                -74.55452804854848,
                -12.25524632636549
              ],
              [
                -74.55602031154469,
                -12.25532258677519
              ],
              [
                -74.55731749232972,
                -12.25652942387944
              ],
              [
                -74.55752570213534,
                -12.2591841011334
              ],
              [
                -74.55908454499715,
                -12.26185221880318
              ],
              [
                -74.56019473334027,
                -12.26400166482623
              ],
              [
                -74.56193663177592,
                -12.26651577958702
              ],
              [
                -74.56830682273439,
                -12.26675275235579
              ],
              [
                -74.57426450981161,
                -12.26370615947213
              ],
              [
                -74.57671825961714,
                -12.26203769223921
              ],
              [
                -74.57987923859126,
                -12.26343623316788
              ],
              [
                -74.5822797733971,
                -12.26577203408851
              ],
              [
                -74.5862366860866,
                -12.26696561753099
              ],
              [
                -74.58820777562974,
                -12.26427832804672
              ],
              [
                -74.58875641550095,
                -12.25805367321658
              ],
              [
                -74.59261830792421,
                -12.25789075815243
              ],
              [
                -74.59361498470071,
                -12.2557524083655
              ],
              [
                -74.59336559648793,
                -12.2534715925562
              ],
              [
                -74.59221563095358,
                -12.2499697943062
              ],
              [
                -74.5890488863832,
                -12.24672551246981
              ],
              [
                -74.58616975094561,
                -12.24168949075583
              ],
              [
                -74.58505465502336,
                -12.22924585120609
              ],
              [
                -74.58849922427389,
                -12.22263331451329
              ],
              [
                -74.5902175176064,
                -12.21879449888297
              ],
              [
                -74.58968937493994,
                -12.21165384648519
              ],
              [
                -74.58593826578326,
                -12.2098113749468
              ],
              [
                -74.58278949345454,
                -12.20936184281645
              ],
              [
                -74.57844524853216,
                -12.20502172409057
              ],
              [
                -74.57292597041845,
                -12.20157827656975
              ],
              [
                -74.56519086152102,
                -12.19842089600915
              ],
              [
                -74.56220769436354,
                -12.19920154900265
              ],
              [
                -74.55980587804149,
                -12.19786480344725
              ],
              [
                -74.55738050539155,
                -12.1942831410501
              ],
              [
                -74.55246214775462,
                -12.19175233128995
              ],
              [
                -74.55150451035892,
                -12.19417263569845
              ],
              [
                -74.54952882831596,
                -12.19721423416832
              ]
            ]
          ]
        ],
        "type": "MultiPolygon"
      },
      "type": "Feature",
      "properties": {
        "PROVINCIA": "TAYACAJA",
        "DISTRITO": "COCHABAMBA",
        "name": "COCHABAMBA",
        "ID": "080534",
        "DEPARTAMEN": "HUANCAVELICA"
      }
    }
  ]
}
