{
  "type": "FeatureCollection",
  "features": [
    {
      "geometry": {
        "coordinates": [
          [
            [
              [
                -74.85517943258117,
                -12.35209094517819
              ],
              [
                -74.85538010899995,
                -12.353207354999938
              ],
              [
                -74.86016123499996,
                -12.356523230999926
              ],
              [
                -74.86185773399995,
                -12.357063104999838
              ],
              [
                -74.86517373399988,
                -12.357564354999909
              ],
              [
                -74.86875960999993,
                -12.359415104999925
              ],
              [
                -74.87272235899991,
                -12.363662855999848
              ],
              [
                -74.87815485899989,
                -12.37192872999998
              ],
              [
                -74.87739535999992,
                -12.374662979999869
              ],
              [
                -74.87372948399991,
                -12.378703604999885
              ],
              [
                -74.86959798399994,
                -12.380181854999819
              ],
              [
                -74.86688373499999,
                -12.38270810499995
              ],
              [
                -74.86489648399998,
                -12.386990229999867
              ],
              [
                -74.86540035899998,
                -12.38882035599994
              ],
              [
                -74.86483785899998,
                -12.390792979999901
              ],
              [
                -74.86245310899994,
                -12.396226604999981
              ],
              [
                -74.86238673399998,
                -12.399218729999916
              ],
              [
                -74.86302935899994,
                -12.40185160499982
              ],
              [
                -74.86223823399985,
                -12.403884729999902
              ],
              [
                -74.85973435899996,
                -12.405611354999962
              ],
              [
                -74.84815035999992,
                -12.408642605999944
              ],
              [
                -74.84347460999987,
                -12.412159354999858
              ],
              [
                -74.83780173399998,
                -12.41451410499991
              ],
              [
                -74.83610485899999,
                -12.41699197999992
              ],
              [
                -74.8311477339999,
                -12.420921854999847
              ],
              [
                -74.82973048399998,
                -12.424291979999964
              ],
              [
                -74.82643373499997,
                -12.426986979999924
              ],
              [
                -74.8270878589999,
                -12.42913260499995
              ],
              [
                -74.82174860899994,
                -12.435224729999959
              ],
              [
                -74.8172003599999,
                -12.438035604999982
              ],
              [
                -74.81336760899995,
                -12.44350347999989
              ],
              [
                -74.81474473399987,
                -12.445295104999957
              ],
              [
                -74.81466748399998,
                -12.453908229999968
              ],
              [
                -74.81357910899999,
                -12.456326854999872
              ],
              [
                -74.81258535899997,
                -12.459751229999881
              ],
              [
                -74.81295698399992,
                -12.462068229999943
              ],
              [
                -74.80800098399993,
                -12.467310604999966
              ],
              [
                -74.80529685899984,
                -12.469205104999958
              ],
              [
                -74.80288473399992,
                -12.46966210599993
              ],
              [
                -74.80440235899988,
                -12.470839854999952
              ],
              [
                -74.81074023399998,
                -12.47362110499995
              ],
              [
                -74.81136510899995,
                -12.473919979999891
              ],
              [
                -74.81348435899997,
                -12.474710979999884
              ],
              [
                -74.81537698399995,
                -12.476148354999964
              ],
              [
                -74.82089448399995,
                -12.480935605999946
              ],
              [
                -74.81802935999997,
                -12.485572229999889
              ],
              [
                -74.81834185899987,
                -12.48706448099989
              ],
              [
                -74.82179098399996,
                -12.490331980999883
              ],
              [
                -74.8212441089999,
                -12.494410105999975
              ],
              [
                -74.82217973399997,
                -12.498515604999966
              ],
              [
                -74.82607223399998,
                -12.499576229999946
              ],
              [
                -74.82934973399995,
                -12.499206979999883
              ],
              [
                -74.83266398399996,
                -12.498496104999958
              ],
              [
                -74.83738473399995,
                -12.496960979999926
              ],
              [
                -74.83934573399995,
                -12.498111354999821
              ],
              [
                -74.84315823499998,
                -12.505308604999982
              ],
              [
                -74.84412110999989,
                -12.50834185499997
              ],
              [
                -74.84693560999989,
                -12.509896480999885
              ],
              [
                -74.84763085999992,
                -12.510275479999962
              ],
              [
                -74.84975198399997,
                -12.510353479999935
              ],
              [
                -74.85067773399999,
                -12.510050730999922
              ],
              [
                -74.85241223399998,
                -12.509671854999965
              ],
              [
                -74.85283598399997,
                -12.510089854999876
              ],
              [
                -74.8536836099999,
                -12.511984354999981
              ],
              [
                -74.85376173399999,
                -12.512742229999958
              ],
              [
                -74.85383785899995,
                -12.513121104999982
              ],
              [
                -74.85430073399988,
                -12.514257730999873
              ],
              [
                -74.85460748399998,
                -12.515017604999969
              ],
              [
                -74.85815435899997,
                -12.518580104999899
              ],
              [
                -74.85892573399997,
                -12.518960854999875
              ],
              [
                -74.85954298399997,
                -12.519453104999968
              ],
              [
                -74.86016010899993,
                -12.51994535499989
              ],
              [
                -74.86077748399993,
                -12.520515604999844
              ],
              [
                -74.86355273399988,
                -12.523054730999945
              ],
              [
                -74.86432423399998,
                -12.52324410499989
              ],
              [
                -74.86581835899995,
                -12.523705104999863
              ],
              [
                -74.86668573499986,
                -12.523165104999862
              ],
              [
                -74.86976910899989,
                -12.521184729999959
              ],
              [
                -74.87119798499998,
                -12.519304604999832
              ],
              [
                -74.8715489839999,
                -12.515945354999872
              ],
              [
                -74.87020010899994,
                -12.511837729999911
              ],
              [
                -74.87081348399988,
                -12.509138729999961
              ],
              [
                -74.8722856089999,
                -12.500387480999962
              ],
              [
                -74.87522998399999,
                -12.496011855999939
              ],
              [
                -74.87653860899991,
                -12.490123104999952
              ],
              [
                -74.87743823399984,
                -12.487792229999911
              ],
              [
                -74.8789922339999,
                -12.48599285499995
              ],
              [
                -74.8818854839999,
                -12.475812229999974
              ],
              [
                -74.8823027339999,
                -12.471605104999867
              ],
              [
                -74.8823027339999,
                -12.470561979999957
              ],
              [
                -74.88112073399998,
                -12.467015354999887
              ],
              [
                -74.87875623399998,
                -12.464824855999836
              ],
              [
                -74.87865185899989,
                -12.461382605999972
              ],
              [
                -74.87719160899996,
                -12.458809604999942
              ],
              [
                -74.87403635899983,
                -12.45563122999988
              ],
              [
                -74.87085210899988,
                -12.453732479999871
              ],
              [
                -74.87088135999988,
                -12.449204479999878
              ],
              [
                -74.86985885899986,
                -12.445465105999915
              ],
              [
                -74.86942073499995,
                -12.441083355999922
              ],
              [
                -74.86755110999997,
                -12.43670147999984
              ],
              [
                -74.86728810899996,
                -12.430651479999938
              ],
              [
                -74.86649935899999,
                -12.428869354999904
              ],
              [
                -74.86697835899992,
                -12.424898230999872
              ],
              [
                -74.87538560899998,
                -12.423735605999866
              ],
              [
                -74.87748723399989,
                -12.42239398099997
              ],
              [
                -74.87806860899997,
                -12.419084854999824
              ],
              [
                -74.87668235899991,
                -12.415104855999914
              ],
              [
                -74.87247873399991,
                -12.410051604999978
              ],
              [
                -74.87229985899995,
                -12.407681729999922
              ],
              [
                -74.87351948399998,
                -12.405193355999927
              ],
              [
                -74.87361135899994,
                -12.399730479999903
              ],
              [
                -74.87185748499985,
                -12.39195310499997
              ],
              [
                -74.87341623399993,
                -12.388605729999938
              ],
              [
                -74.88927010899994,
                -12.377457104999962
              ],
              [
                -74.88999060899988,
                -12.374048105999975
              ],
              [
                -74.89043585899992,
                -12.371154229999831
              ],
              [
                -74.89003935999989,
                -12.369041605999826
              ],
              [
                -74.88964010899991,
                -12.364898229999937
              ],
              [
                -74.88889123399997,
                -12.359557104999965
              ],
              [
                -74.88934060899999,
                -12.353966229999912
              ],
              [
                -74.8902889849569,
                -12.353067730041232
              ],
              [
                -74.88737218657849,
                -12.351997214805635
              ],
              [
                -74.87842676421172,
                -12.355283288374721
              ],
              [
                -74.87410701047213,
                -12.35498224237432
              ],
              [
                -74.87021379012435,
                -12.35342518141016
              ],
              [
                -74.8613200388856,
                -12.353160018447852
              ],
              [
                -74.8590100389032,
                -12.35205001817576
              ],
              [
                -74.85517943258117,
                -12.35209094517819
              ]
            ]
          ]
        ],
        "type": "MultiPolygon"
      },
      "type": "Feature",
      "properties": {
        "PROVINCIA": "TAYACAJA",
        "DISTRITO": "PAMPAS",
        "name": "PAMPAS",
        "ID": "080501",
        "DEPARTAMEN": "HUANCAVELICA"
      }
    }
  ]
}
