{
  "type": "FeatureCollection",
  "features": [
    {
      "geometry": {
        "coordinates": [
          [
            [
              [
                -74.72008998399997,
                -12.059129979999966
              ],
              [
                -74.72068560899987,
                -12.061720728999887
              ],
              [
                -74.7227441089999,
                -12.062851604999935
              ],
              [
                -74.7235586089999,
                -12.065257854999913
              ],
              [
                -74.72270898399995,
                -12.069634729999962
              ],
              [
                -74.72649810899992,
                -12.075652354999932
              ],
              [
                -74.72688085899989,
                -12.07851947999984
              ],
              [
                -74.72520523399999,
                -12.082488228999921
              ],
              [
                -74.72175585899998,
                -12.085495979999962
              ],
              [
                -74.71771098399995,
                -12.087328104999926
              ],
              [
                -74.71112885999997,
                -12.088595604999966
              ],
              [
                -74.71024610899997,
                -12.089824354999962
              ],
              [
                -74.71211723399995,
                -12.093507854999928
              ],
              [
                -74.71061723399998,
                -12.094908229999874
              ],
              [
                -74.70575385899997,
                -12.096412104999956
              ],
              [
                -74.70113285899998,
                -12.09607222999989
              ],
              [
                -74.69929298399995,
                -12.097093854999969
              ],
              [
                -74.69834373399993,
                -12.10019335499993
              ],
              [
                -74.69853910899997,
                -12.10598247999991
              ],
              [
                -74.69632810899998,
                -12.111052729999926
              ],
              [
                -74.69932423399996,
                -12.11837110499988
              ],
              [
                -74.70038873399994,
                -12.128781229999959
              ],
              [
                -74.70134573399991,
                -12.135175729999958
              ],
              [
                -74.70391598399993,
                -12.139275354999882
              ],
              [
                -74.7034981089999,
                -12.142068354999878
              ],
              [
                -74.70447260899988,
                -12.149830104999921
              ],
              [
                -74.708796609,
                -12.151750729999947
              ],
              [
                -74.71245435899993,
                -12.154642979999892
              ],
              [
                -74.71611223499991,
                -12.15902385499993
              ],
              [
                -74.72057823399996,
                -12.162851854999928
              ],
              [
                -74.72606498399989,
                -12.163532354999973
              ],
              [
                -74.72946760899998,
                -12.164510604999919
              ],
              [
                -74.73478423399996,
                -12.169019104999848
              ],
              [
                -74.74303560999994,
                -12.173995479999917
              ],
              [
                -74.74615798399998,
                -12.17479810499998
              ],
              [
                -74.74899073399996,
                -12.17445472999998
              ],
              [
                -74.75372848399996,
                -12.182210979999866
              ],
              [
                -74.7559017339999,
                -12.183539479999922
              ],
              [
                -74.75882710899992,
                -12.182442604999949
              ],
              [
                -74.75969910899994,
                -12.179685979999931
              ],
              [
                -74.75857398399995,
                -12.17830760499993
              ],
              [
                -74.76062735899995,
                -12.17060035499992
              ],
              [
                -74.7650153589999,
                -12.168040604999874
              ],
              [
                -74.76473423499993,
                -12.16328685499991
              ],
              [
                -74.76749073399998,
                -12.162246104999952
              ],
              [
                -74.77320085899993,
                -12.161486604999936
              ],
              [
                -74.77410098399997,
                -12.158898854999961
              ],
              [
                -74.77125998399993,
                -12.15383560499987
              ],
              [
                -74.76864398399994,
                -12.151135229999909
              ],
              [
                -74.76999435899995,
                -12.14615660499993
              ],
              [
                -74.77418535899994,
                -12.141262104999953
              ],
              [
                -74.77457923399993,
                -12.138871104999907
              ],
              [
                -74.77730885899996,
                -12.132805854999901
              ],
              [
                -74.78210373399992,
                -12.126840479999885
              ],
              [
                -74.78496623399997,
                -12.12510122999987
              ],
              [
                -74.78608585899997,
                -12.122505229999945
              ],
              [
                -74.78921373399987,
                -12.120024479999927
              ],
              [
                -74.79241348399995,
                -12.11944922999993
              ],
              [
                -74.79442685899988,
                -12.11718397899989
              ],
              [
                -74.80057485899994,
                -12.114559604999954
              ],
              [
                -74.80294773399999,
                -12.11258222999993
              ],
              [
                -74.80144335999995,
                -12.10465435499998
              ],
              [
                -74.80183323399996,
                -12.094098729999928
              ],
              [
                -74.80479573399992,
                -12.088346229999956
              ],
              [
                -74.80692423499994,
                -12.086419229999933
              ],
              [
                -74.8077869849999,
                -12.083974354999896
              ],
              [
                -74.8109796089999,
                -12.080494104999957
              ],
              [
                -74.81718360899998,
                -12.075466854999945
              ],
              [
                -74.81408598399997,
                -12.072289104999925
              ],
              [
                -74.81042385899985,
                -12.067511729999978
              ],
              [
                -74.80711535899991,
                -12.068394479999824
              ],
              [
                -74.80426760999995,
                -12.06708985499995
              ],
              [
                -74.80074223399993,
                -12.063624979999815
              ],
              [
                -74.79847260899999,
                -12.062972604999914
              ],
              [
                -74.7942799839999,
                -12.05828997899988
              ],
              [
                -74.78630998399996,
                -12.056509978999884
              ],
              [
                -74.77992998399998,
                -12.052999854999882
              ],
              [
                -74.77144998399996,
                -12.052929979999874
              ],
              [
                -74.76843998399994,
                -12.051879979999967
              ],
              [
                -74.76310998399998,
                -12.051899979999916
              ],
              [
                -74.75911998399982,
                -12.051119978999964
              ],
              [
                -74.75486998399998,
                -12.04624997999997
              ],
              [
                -74.74860998399993,
                -12.041419978999954
              ],
              [
                -74.7435701089999,
                -12.040949978999947
              ],
              [
                -74.7407199839999,
                -12.041999979999957
              ],
              [
                -74.73401998499997,
                -12.04582997999995
              ],
              [
                -74.73052998399993,
                -12.046939979999877
              ],
              [
                -74.72480998499998,
                -12.05235997899996
              ],
              [
                -74.7219399839999,
                -12.053319979999912
              ],
              [
                -74.71998998399994,
                -12.056049978999908
              ],
              [
                -74.72008998399997,
                -12.059129979999966
              ]
            ]
          ]
        ],
        "type": "MultiPolygon"
      },
      "type": "Feature",
      "properties": {
        "PROVINCIA": "TAYACAJA",
        "DISTRITO": "SALCAHUASI",
        "name": "SALCAHUASI",
        "ID": "080526",
        "DEPARTAMEN": "HUANCAVELICA"
      }
    }
  ]
}
