{
  "type": "FeatureCollection",
  "features": [
    {
      "geometry": {
        "coordinates": [
          [
            [
              [
                -74.45739260899995,
                -12.802347605999955
              ],
              [
                -74.45543560899995,
                -12.809025229999918
              ],
              [
                -74.45428323399983,
                -12.817802729999926
              ],
              [
                -74.45530273399999,
                -12.823013730999946
              ],
              [
                -74.45760935899995,
                -12.82676173099992
              ],
              [
                -74.45819923399984,
                -12.830380854999873
              ],
              [
                -74.45692973399997,
                -12.833697230999974
              ],
              [
                -74.45703123399983,
                -12.84218748099994
              ],
              [
                -74.45755860899993,
                -12.8459238559999
              ],
              [
                -74.45604298299986,
                -12.852456980999932
              ],
              [
                -74.45726560899993,
                -12.857642604999967
              ],
              [
                -74.45567185899995,
                -12.862150355999916
              ],
              [
                -74.45226373399998,
                -12.864865230999953
              ],
              [
                -74.44813285899994,
                -12.865697229999853
              ],
              [
                -74.44607998399994,
                -12.871203855999909
              ],
              [
                -74.44305860899993,
                -12.874705980999977
              ],
              [
                -74.44268098399988,
                -12.87965010499994
              ],
              [
                -74.44103298399995,
                -12.88335810599989
              ],
              [
                -74.44065523399996,
                -12.889847229999873
              ],
              [
                -74.44110148399994,
                -12.89300598099993
              ],
              [
                -74.44384835899984,
                -12.895855730999926
              ],
              [
                -74.44474098399996,
                -12.900799855999935
              ],
              [
                -74.44426035899983,
                -12.90319285499993
              ],
              [
                -74.44553073399993,
                -12.90576798099994
              ],
              [
                -74.44415735899992,
                -12.912085354999931
              ],
              [
                -74.44458498299997,
                -12.917426730999921
              ],
              [
                -74.44418548399995,
                -12.92097735599998
              ],
              [
                -74.44618273399988,
                -12.927013354999872
              ],
              [
                -74.44471823399994,
                -12.932339229999911
              ],
              [
                -74.4459164839999,
                -12.935490355999889
              ],
              [
                -74.4435197329999,
                -12.940731980999885
              ],
              [
                -74.44329785899993,
                -12.943439230999957
              ],
              [
                -74.44721523399988,
                -12.950396980999926
              ],
              [
                -74.44897148399997,
                -12.951439979999918
              ],
              [
                -74.44969360899995,
                -12.953832105999936
              ],
              [
                -74.44906173399988,
                -12.95699172999997
              ],
              [
                -74.44955823299995,
                -12.959835230999886
              ],
              [
                -74.44646873399995,
                -12.965132855999911
              ],
              [
                -74.44726560899994,
                -12.966708980999954
              ],
              [
                -74.45317573399996,
                -12.96656635499994
              ],
              [
                -74.45525785899991,
                -12.963904354999954
              ],
              [
                -74.46083398399998,
                -12.960281230999954
              ],
              [
                -74.46509373399988,
                -12.955361355999912
              ],
              [
                -74.46661323299992,
                -12.9518651059999
              ],
              [
                -74.46840623399999,
                -12.949933604999956
              ],
              [
                -74.46806448399985,
                -12.946433605999914
              ],
              [
                -74.46874998399988,
                -12.944246105999923
              ],
              [
                -74.47127148399989,
                -12.942099604999896
              ],
              [
                -74.47202735899998,
                -12.937734355999908
              ],
              [
                -74.47392385799998,
                -12.935078105999878
              ],
              [
                -74.47503910899997,
                -12.930904354999939
              ],
              [
                -74.47706060899998,
                -12.92913473099992
              ],
              [
                -74.48186523399988,
                -12.928583979999928
              ],
              [
                -74.48433010899998,
                -12.926238230999957
              ],
              [
                -74.48983785899998,
                -12.924341855999899
              ],
              [
                -74.49871885899984,
                -12.923056730999974
              ],
              [
                -74.50286523399996,
                -12.923890604999883
              ],
              [
                -74.50406435899998,
                -12.922642604999908
              ],
              [
                -74.50205860899996,
                -12.921212730999912
              ],
              [
                -74.49966598399993,
                -12.914882855999963
              ],
              [
                -74.49966010899993,
                -12.912777355999822
              ],
              [
                -74.50156448399991,
                -12.91016598099992
              ],
              [
                -74.50143748399995,
                -12.907455105999816
              ],
              [
                -74.50279885899988,
                -12.902865229999918
              ],
              [
                -74.5011659839999,
                -12.895417979999934
              ],
              [
                -74.50171485899995,
                -12.890581980999855
              ],
              [
                -74.50081635899994,
                -12.886068354999964
              ],
              [
                -74.49934373399992,
                -12.882095730999879
              ],
              [
                -74.49568448399992,
                -12.877090105999969
              ],
              [
                -74.49081373399997,
                -12.874869229999888
              ],
              [
                -74.48889560899994,
                -12.871058479999874
              ],
              [
                -74.49046035899988,
                -12.866667105999966
              ],
              [
                -74.49058648399995,
                -12.860812104999866
              ],
              [
                -74.48904373399989,
                -12.85900335599996
              ],
              [
                -74.48895798399991,
                -12.849313105999954
              ],
              [
                -74.48960110899992,
                -12.846311604999926
              ],
              [
                -74.49911985899996,
                -12.839965855999878
              ],
              [
                -74.5034472339999,
                -12.831992230999958
              ],
              [
                -74.50544535899996,
                -12.829722604999915
              ],
              [
                -74.50428323399996,
                -12.824177605999978
              ],
              [
                -74.5048222339999,
                -12.81978510499988
              ],
              [
                -74.50800973399993,
                -12.81808598099991
              ],
              [
                -74.50855273399992,
                -12.815328105999981
              ],
              [
                -74.51107810899998,
                -12.814400355999965
              ],
              [
                -74.50891410899999,
                -12.80687110599996
              ],
              [
                -74.50615435899988,
                -12.803744105999954
              ],
              [
                -74.50605860899998,
                -12.798806605999971
              ],
              [
                -74.5019882339999,
                -12.795472604999816
              ],
              [
                -74.50120498399991,
                -12.793369104999954
              ],
              [
                -74.49876760899997,
                -12.791216855999949
              ],
              [
                -74.49719710899996,
                -12.788193354999976
              ],
              [
                -74.49444348399993,
                -12.788359355999944
              ],
              [
                -74.4911132339999,
                -12.785822230999884
              ],
              [
                -74.48937698399993,
                -12.787951230999909
              ],
              [
                -74.48714648399988,
                -12.792921855999964
              ],
              [
                -74.48349610899999,
                -12.793339855999932
              ],
              [
                -74.47964648399989,
                -12.792652355999962
              ],
              [
                -74.47801373399989,
                -12.794078105999972
              ],
              [
                -74.47446485899997,
                -12.799226605999934
              ],
              [
                -74.46991798399989,
                -12.800943355999948
              ],
              [
                -74.46560735899993,
                -12.804886729999964
              ],
              [
                -74.46069535899994,
                -12.804886730999897
              ],
              [
                -74.45739260899995,
                -12.802347605999955
              ]
            ]
          ]
        ],
        "type": "MultiPolygon"
      },
      "type": "Feature",
      "properties": {
        "PROVINCIA": "ACOBAMBA",
        "DISTRITO": "CAJA",
        "name": "CAJA",
        "ID": "080204",
        "DEPARTAMEN": "HUANCAVELICA"
      }
    }
  ]
}
