{
  "type": "FeatureCollection",
  "features": [
    {
      "geometry": {
        "coordinates": [
          [
            [
              [
                -75.54720998499988,
                -11.503589978999912
              ],
              [
                -75.55118185999999,
                -11.511247978999904
              ],
              [
                -75.55190235899994,
                -11.513976604999982
              ],
              [
                -75.5511376099999,
                -11.518607728999939
              ],
              [
                -75.54742385999992,
                -11.525705228999982
              ],
              [
                -75.55027910899992,
                -11.526660228999958
              ],
              [
                -75.55458373499994,
                -11.530190478999941
              ],
              [
                -75.56061635999998,
                -11.53048422899991
              ],
              [
                -75.56495385999995,
                -11.532233729999973
              ],
              [
                -75.56719560999983,
                -11.534293229999946
              ],
              [
                -75.56864898499998,
                -11.538810728999977
              ],
              [
                -75.57300998499994,
                -11.542489978999924
              ],
              [
                -75.57211585999994,
                -11.54522797999988
              ],
              [
                -75.56921548499997,
                -11.548875728999974
              ],
              [
                -75.56822535999993,
                -11.551410353999927
              ],
              [
                -75.56981835999994,
                -11.554489228999955
              ],
              [
                -75.56854523499993,
                -11.55695060499994
              ],
              [
                -75.5610479849999,
                -11.564957229999834
              ],
              [
                -75.56033123499992,
                -11.567784604999929
              ],
              [
                -75.5583083599999,
                -11.571061353999937
              ],
              [
                -75.55544323499998,
                -11.573270854999976
              ],
              [
                -75.55330798499995,
                -11.577131978999887
              ],
              [
                -75.55058548499994,
                -11.585477228999821
              ],
              [
                -75.54933285999994,
                -11.58750197899991
              ],
              [
                -75.54867748499998,
                -11.591462603999958
              ],
              [
                -75.54981835999996,
                -11.593208979999872
              ],
              [
                -75.54909573499998,
                -11.598285103999956
              ],
              [
                -75.55056460899993,
                -11.599839354999858
              ],
              [
                -75.55560048499996,
                -11.601030729999934
              ],
              [
                -75.55684885999995,
                -11.598573478999924
              ],
              [
                -75.55717723499993,
                -11.595093103999886
              ],
              [
                -75.55984360999992,
                -11.593253353999899
              ],
              [
                -75.56229498499988,
                -11.593339853999964
              ],
              [
                -75.56549123499991,
                -11.59108522899993
              ],
              [
                -75.56783985999994,
                -11.587351604999924
              ],
              [
                -75.57170635999984,
                -11.583259229999953
              ],
              [
                -75.57624398499985,
                -11.58163385399996
              ],
              [
                -75.57784535999991,
                -11.583608979999951
              ],
              [
                -75.58060348499993,
                -11.589445228999864
              ],
              [
                -75.57999835999988,
                -11.594285103999937
              ],
              [
                -75.58330360999997,
                -11.59416572999993
              ],
              [
                -75.58626960999999,
                -11.58897522899997
              ],
              [
                -75.58943548499991,
                -11.584482478999917
              ],
              [
                -75.59343273499996,
                -11.582541353999886
              ],
              [
                -75.5962527349999,
                -11.578611979999948
              ],
              [
                -75.59930535999996,
                -11.577163729999938
              ],
              [
                -75.6007879849999,
                -11.57762847999993
              ],
              [
                -75.60212510899993,
                -11.581819729999893
              ],
              [
                -75.60373173499994,
                -11.583557478999978
              ],
              [
                -75.60763360999994,
                -11.584475603999977
              ],
              [
                -75.61176498499998,
                -11.582377104999978
              ],
              [
                -75.61340435999989,
                -11.582475479999971
              ],
              [
                -75.61825910999994,
                -11.586809228999812
              ],
              [
                -75.62279123499997,
                -11.588625478999973
              ],
              [
                -75.62502648499998,
                -11.589096728999891
              ],
              [
                -75.62749173499992,
                -11.588113728999929
              ],
              [
                -75.63197048499995,
                -11.583889478999879
              ],
              [
                -75.63367635999998,
                -11.575764603999971
              ],
              [
                -75.63400973499995,
                -11.568503854999904
              ],
              [
                -75.63566598499995,
                -11.566048854999906
              ],
              [
                -75.6395721099999,
                -11.564060604999895
              ],
              [
                -75.64433985999995,
                -11.564330103999964
              ],
              [
                -75.64919298499996,
                -11.570153103999928
              ],
              [
                -75.65527473499992,
                -11.569458103999978
              ],
              [
                -75.66076948499989,
                -11.569656228999975
              ],
              [
                -75.66455385999996,
                -11.569110604999935
              ],
              [
                -75.6708094849999,
                -11.567199104999872
              ],
              [
                -75.67901123499996,
                -11.566990479999845
              ],
              [
                -75.68380723499996,
                -11.565461478999964
              ],
              [
                -75.68832510999994,
                -11.560109478999891
              ],
              [
                -75.68936448499994,
                -11.556357228999957
              ],
              [
                -75.69147410999994,
                -11.551551603999883
              ],
              [
                -75.68949110999995,
                -11.546752478999906
              ],
              [
                -75.68842460999997,
                -11.536064103999934
              ],
              [
                -75.68729360999993,
                -11.53247572999993
              ],
              [
                -75.68622085999988,
                -11.525440103999927
              ],
              [
                -75.68862460999992,
                -11.517438353999978
              ],
              [
                -75.69129610999988,
                -11.514225353999961
              ],
              [
                -75.69383923499998,
                -11.50793885499985
              ],
              [
                -75.69535773499996,
                -11.50038197999993
              ],
              [
                -75.6939476099999,
                -11.497742479999943
              ],
              [
                -75.68957260999991,
                -11.49513922899996
              ],
              [
                -75.68426998499996,
                -11.494279978999828
              ],
              [
                -75.67859660999994,
                -11.494360478999909
              ],
              [
                -75.67322435999995,
                -11.49366047899997
              ],
              [
                -75.66681098499998,
                -11.490038228999936
              ],
              [
                -75.66459998499994,
                -11.488159979999978
              ],
              [
                -75.65293948499988,
                -11.485489854999855
              ],
              [
                -75.64929573499995,
                -11.48405760399993
              ],
              [
                -75.64238373499995,
                -11.482660978999832
              ],
              [
                -75.63838960999993,
                -11.480664978999869
              ],
              [
                -75.63554998499984,
                -11.477297603999887
              ],
              [
                -75.6324399849999,
                -11.47701997899992
              ],
              [
                -75.62373923499996,
                -11.474457978999965
              ],
              [
                -75.61876360999997,
                -11.47096497899986
              ],
              [
                -75.61723523499995,
                -11.467830228999901
              ],
              [
                -75.62025998499996,
                -11.461259978999863
              ],
              [
                -75.62083998499998,
                -11.456379978999962
              ],
              [
                -75.62023010999997,
                -11.453049978999843
              ],
              [
                -75.61521998499995,
                -11.450229978999914
              ],
              [
                -75.61385998499992,
                -11.448149979999869
              ],
              [
                -75.6058099839999,
                -11.444079979999913
              ],
              [
                -75.60105023499995,
                -11.442717853999909
              ],
              [
                -75.59944585999995,
                -11.443540479999967
              ],
              [
                -75.59609035999995,
                -11.447746603999974
              ],
              [
                -75.59297335999997,
                -11.453690354999878
              ],
              [
                -75.58757385999996,
                -11.461828853999862
              ],
              [
                -75.58540423499988,
                -11.467466853999952
              ],
              [
                -75.58268873499998,
                -11.471313353999903
              ],
              [
                -75.58169235999998,
                -11.477619729999958
              ],
              [
                -75.58030185999996,
                -11.480367728999965
              ],
              [
                -75.57570885999996,
                -11.48296322899995
              ],
              [
                -75.56504998499992,
                -11.485759978999909
              ],
              [
                -75.56038998499992,
                -11.487569978999943
              ],
              [
                -75.55645998499989,
                -11.490569978999815
              ],
              [
                -75.5523399839999,
                -11.490989978999835
              ],
              [
                -75.54970998499988,
                -11.492439979999972
              ],
              [
                -75.54777998499998,
                -11.497779978999972
              ],
              [
                -75.54720998499988,
                -11.503589978999912
              ]
            ]
          ]
        ],
        "type": "MultiPolygon"
      },
      "type": "Feature",
      "properties": {
        "PROVINCIA": "TARMA",
        "DISTRITO": "HUARICOLCA",
        "name": "HUARICOLCA",
        "ID": "110503",
        "DEPARTAMEN": "JUNIN"
      }
    }
  ]
}
