{
  "type": "FeatureCollection",
  "features": [
    {
      "geometry": {
        "coordinates": [
          [
            [
              [
                -72.29924810599988,
                -13.117264855999906
              ],
              [
                -72.29844085699989,
                -13.116404980999903
              ],
              [
                -72.29715998199987,
                -13.113790479999977
              ],
              [
                -72.29584385699985,
                -13.112193730999934
              ],
              [
                -72.29468573199995,
                -13.10868423099987
              ],
              [
                -72.29275560699995,
                -13.10803498099989
              ],
              [
                -72.29129910699999,
                -13.107350605999954
              ],
              [
                -72.2905446069999,
                -13.106859355999973
              ],
              [
                -72.28935135699993,
                -13.105788979999943
              ],
              [
                -72.28810548199988,
                -13.105332605999934
              ],
              [
                -72.28354323099995,
                -13.106982105999975
              ],
              [
                -72.28196398199987,
                -13.107578605999947
              ],
              [
                -72.28081685699988,
                -13.109261105999906
              ],
              [
                -72.27998335599983,
                -13.110906105999959
              ],
              [
                -72.2775266069998,
                -13.116916105999849
              ],
              [
                -72.27757060699986,
                -13.118122605999929
              ],
              [
                -72.27754848199999,
                -13.12092998099996
              ],
              [
                -72.27641410699994,
                -13.12281060599986
              ],
              [
                -72.27432448199988,
                -13.122057105999943
              ],
              [
                -72.27244435699993,
                -13.121996480999826
              ],
              [
                -72.27056410700004,
                -13.120844105999936
              ],
              [
                -72.26853235699997,
                -13.119327855999927
              ],
              [
                -72.26798648199986,
                -13.119145855999932
              ],
              [
                -72.2665916069999,
                -13.119782730999873
              ],
              [
                -72.26546948199996,
                -13.120419605999928
              ],
              [
                -72.26352860699978,
                -13.121026105999931
              ],
              [
                -72.26270985699989,
                -13.121511230999886
              ],
              [
                -72.26043535699989,
                -13.122239105999824
              ],
              [
                -72.25876748199983,
                -13.12320948099989
              ],
              [
                -72.25694798199993,
                -13.123088230999826
              ],
              [
                -72.25461285699998,
                -13.123148855999943
              ],
              [
                -72.25267198199987,
                -13.123452105999888
              ],
              [
                -72.25292598200002,
                -13.129134355999952
              ],
              [
                -72.25212210599994,
                -13.131503729999963
              ],
              [
                -72.25142910699998,
                -13.132473980999976
              ],
              [
                -72.24898048199998,
                -13.135684980999883
              ],
              [
                -72.2472017319999,
                -13.137325105999878
              ],
              [
                -72.2451688569999,
                -13.139288730999908
              ],
              [
                -72.24410623199992,
                -13.139727605999894
              ],
              [
                -72.24306660699995,
                -13.140489980999916
              ],
              [
                -72.24144960699994,
                -13.140998105999927
              ],
              [
                -72.24043323199993,
                -13.140859604999946
              ],
              [
                -72.23791523199998,
                -13.141067480999936
              ],
              [
                -72.2356976069999,
                -13.141806730999974
              ],
              [
                -72.23528385699984,
                -13.141918480999891
              ],
              [
                -72.23256698099993,
                -13.142874230999837
              ],
              [
                -72.23010810699998,
                -13.14292910599994
              ],
              [
                -72.22912010700003,
                -13.139899355999887
              ],
              [
                -72.22954485699984,
                -13.136756980999962
              ],
              [
                -72.2274513569999,
                -13.132606105999969
              ],
              [
                -72.22802885699997,
                -13.131198480999956
              ],
              [
                -72.23084423199987,
                -13.128852230999883
              ],
              [
                -72.23160223199989,
                -13.127191855999968
              ],
              [
                -72.2316744819999,
                -13.126289480999844
              ],
              [
                -72.22730698199985,
                -13.121705480999879
              ],
              [
                -72.2270542309999,
                -13.119431480999936
              ],
              [
                -72.22510523099993,
                -13.116327355999886
              ],
              [
                -72.22496085699987,
                -13.114703105999979
              ],
              [
                -72.22698210599987,
                -13.109794230999967
              ],
              [
                -72.2271627319999,
                -13.10809773099993
              ],
              [
                -72.227234732,
                -13.106762230999948
              ],
              [
                -72.22629635699991,
                -13.106148605999977
              ],
              [
                -72.22488860699985,
                -13.104740980999907
              ],
              [
                -72.224166857,
                -13.101781230999904
              ],
              [
                -72.22221760699983,
                -13.099507230999961
              ],
              [
                -72.22008798099984,
                -13.099507230999961
              ],
              [
                -72.21402410699977,
                -13.099976480999885
              ],
              [
                -72.21207498199988,
                -13.099651605999895
              ],
              [
                -72.2112808569999,
                -13.099507230999961
              ],
              [
                -72.20940398200003,
                -13.099398980999979
              ],
              [
                -72.20720210699983,
                -13.101131480999982
              ],
              [
                -72.20662448199982,
                -13.102358730999981
              ],
              [
                -72.20471173199985,
                -13.102900105999936
              ],
              [
                -72.20131873199978,
                -13.103477605999956
              ],
              [
                -72.19886423199989,
                -13.104704855999955
              ],
              [
                -72.19684298099997,
                -13.105210229999955
              ],
              [
                -72.19583235700003,
                -13.103658105999955
              ],
              [
                -72.19583235700003,
                -13.10181723099987
              ],
              [
                -72.19525473200002,
                -13.09968773099996
              ],
              [
                -72.19363048199983,
                -13.098388230999944
              ],
              [
                -72.19063460699994,
                -13.096150355999953
              ],
              [
                -72.18442123199992,
                -13.099435604999883
              ],
              [
                -72.18241098199985,
                -13.10194835599998
              ],
              [
                -72.180994607,
                -13.106699980999906
              ],
              [
                -72.17843610700004,
                -13.109167105999973
              ],
              [
                -72.17578610599998,
                -13.110263605999819
              ],
              [
                -72.17021223200004,
                -13.10994385600003
              ],
              [
                -72.16664860599997,
                -13.112136855999893
              ],
              [
                -72.16536923099989,
                -13.116568605999873
              ],
              [
                -72.16258235599986,
                -13.120223605999968
              ],
              [
                -72.16340473199989,
                -13.126254480999876
              ],
              [
                -72.16446485599977,
                -13.128640605999976
              ],
              [
                -72.16098323199998,
                -13.13041210599988
              ],
              [
                -72.16025223199989,
                -13.131736980999904
              ],
              [
                -72.15691510699992,
                -13.132991230999949
              ],
              [
                -72.15242160699984,
                -13.138597855999933
              ],
              [
                -72.15328035699991,
                -13.142186230999926
              ],
              [
                -72.15159748099995,
                -13.14485060599992
              ],
              [
                -72.15008098199996,
                -13.153247230999966
              ],
              [
                -72.14905023200004,
                -13.155578605999949
              ],
              [
                -72.15130660700004,
                -13.158142605999956
              ],
              [
                -72.14987398199997,
                -13.162183855999956
              ],
              [
                -72.15058173199992,
                -13.164448480999908
              ],
              [
                -72.15002760699991,
                -13.168788855999935
              ],
              [
                -72.14839848199983,
                -13.171494480999911
              ],
              [
                -72.14947485599998,
                -13.174491230999877
              ],
              [
                -72.148802982,
                -13.177080230999877
              ],
              [
                -72.14592385599991,
                -13.180065980999927
              ],
              [
                -72.13776273199994,
                -13.180854730999897
              ],
              [
                -72.13734273099982,
                -13.184016605999943
              ],
              [
                -72.13789448099982,
                -13.188037105999967
              ],
              [
                -72.1342222319999,
                -13.188707355999895
              ],
              [
                -72.13120698099982,
                -13.191666605999899
              ],
              [
                -72.12777310699994,
                -13.191610855999897
              ],
              [
                -72.120039732,
                -13.18979610599996
              ],
              [
                -72.11680123099984,
                -13.190717480999979
              ],
              [
                -72.11175385699983,
                -13.188927730999922
              ],
              [
                -72.10507548099997,
                -13.190326605999871
              ],
              [
                -72.10040373199996,
                -13.188750105999816
              ],
              [
                -72.098309857,
                -13.188968355999918
              ],
              [
                -72.08827673199994,
                -13.193243105999954
              ],
              [
                -72.08776035699987,
                -13.195717355999932
              ],
              [
                -72.08443273099994,
                -13.19541235599985
              ],
              [
                -72.07719873199994,
                -13.201710480999964
              ],
              [
                -72.075118982,
                -13.206597980999959
              ],
              [
                -72.07061285700001,
                -13.207637855999849
              ],
              [
                -72.06697323099996,
                -13.210930730999962
              ],
              [
                -72.06267510599986,
                -13.212039980999918
              ],
              [
                -72.05955548099996,
                -13.214986355999883
              ],
              [
                -72.05768298099991,
                -13.219448980999914
              ],
              [
                -72.05846673199983,
                -13.221626105999917
              ],
              [
                -72.05742173199997,
                -13.223890480999955
              ],
              [
                -72.05853648099992,
                -13.228035855999963
              ],
              [
                -72.05747660599997,
                -13.231035105999979
              ],
              [
                -72.05566473199991,
                -13.233429605999902
              ],
              [
                -72.05592485699992,
                -13.23881873099998
              ],
              [
                -72.05503298199994,
                -13.24108585599987
              ],
              [
                -72.05538598099992,
                -13.244393606000017
              ],
              [
                -72.0525794809999,
                -13.246914980999975
              ],
              [
                -72.05339423099997,
                -13.250433855999972
              ],
              [
                -72.05012435699996,
                -13.25499810599996
              ],
              [
                -72.04702935700004,
                -13.256556605999947
              ],
              [
                -72.0483758559999,
                -13.261310855999966
              ],
              [
                -72.0479981069999,
                -13.264232480999851
              ],
              [
                -72.04490523199996,
                -13.269394355999907
              ],
              [
                -72.04532110699984,
                -13.27461998099983
              ],
              [
                -72.04438085699991,
                -13.278832855999951
              ],
              [
                -72.04485098199984,
                -13.281490855999891
              ],
              [
                -72.0437118559999,
                -13.284329730999957
              ],
              [
                -72.04412773199994,
                -13.290567855999882
              ],
              [
                -72.04252510600003,
                -13.299733855999932
              ],
              [
                -72.03865248099999,
                -13.306743105999942
              ],
              [
                -72.03996910599994,
                -13.312435730999937
              ],
              [
                -72.03989173199983,
                -13.316153480999958
              ],
              [
                -72.03837798199999,
                -13.31912048099997
              ],
              [
                -72.03437885699987,
                -13.324507855999911
              ],
              [
                -72.03151560700002,
                -13.32258398099998
              ],
              [
                -72.03286323099996,
                -13.318982480999978
              ],
              [
                -72.02874398199992,
                -13.320435605999876
              ],
              [
                -72.02610748199993,
                -13.31606248099996
              ],
              [
                -72.02416635599991,
                -13.31576598099997
              ],
              [
                -72.02095248199998,
                -13.317248855999821
              ],
              [
                -72.017623856,
                -13.32031210599996
              ],
              [
                -72.011213107,
                -13.327355480999927
              ],
              [
                -72.00767023199995,
                -13.334947105999845
              ],
              [
                -72.00657373199982,
                -13.3400082309999
              ],
              [
                -72.00214523199986,
                -13.34553323099982
              ],
              [
                -71.99949748199998,
                -13.351036980999936
              ],
              [
                -71.994374106,
                -13.354452605999825
              ],
              [
                -71.99291035599987,
                -13.35689223099996
              ],
              [
                -71.99120273099982,
                -13.36255235599998
              ],
              [
                -71.98692185699997,
                -13.367816355999935
              ],
              [
                -71.98554248199997,
                -13.371432855999956
              ],
              [
                -71.98530748199983,
                -13.377604730999906
              ],
              [
                -71.98267198199989,
                -13.380378855999936
              ],
              [
                -71.97823335699991,
                -13.380212480999944
              ],
              [
                -71.97468298199993,
                -13.38178573099998
              ],
              [
                -71.97408510599996,
                -13.38421423099993
              ],
              [
                -71.97498198099998,
                -13.38765148099992
              ],
              [
                -71.97274385599991,
                -13.39139885599991
              ],
              [
                -71.97169773199994,
                -13.394537230999958
              ],
              [
                -71.96867898200003,
                -13.398602105999942
              ],
              [
                -71.96888810699983,
                -13.400485105999962
              ],
              [
                -71.97194423099984,
                -13.40891373099987
              ],
              [
                -71.97267923099997,
                -13.411822855999958
              ],
              [
                -71.97258898199988,
                -13.417714355999976
              ],
              [
                -71.97390248200003,
                -13.422755105999897
              ],
              [
                -71.97827898199978,
                -13.428141480999955
              ],
              [
                -71.98021685699996,
                -13.429496105999874
              ],
              [
                -71.9818207319999,
                -13.430672230999846
              ],
              [
                -71.98369373099996,
                -13.434043481999879
              ],
              [
                -71.99187210699995,
                -13.441535230999818
              ],
              [
                -72.000603232,
                -13.444038231999969
              ],
              [
                -72.005967231,
                -13.441222105999941
              ],
              [
                -72.009487982,
                -13.44177060599992
              ],
              [
                -72.01269485699993,
                -13.440982980999934
              ],
              [
                -72.01443885599991,
                -13.43952023099996
              ],
              [
                -72.0178672319999,
                -13.438848605999908
              ],
              [
                -72.02239448199992,
                -13.44563673099998
              ],
              [
                -72.03004298199994,
                -13.446222605999935
              ],
              [
                -72.03424410699984,
                -13.447109355999942
              ],
              [
                -72.03847060600003,
                -13.450003730999981
              ],
              [
                -72.04054298199998,
                -13.452224605999902
              ],
              [
                -72.05065435699993,
                -13.453669981999951
              ],
              [
                -72.05423248099987,
                -13.453076231999944
              ],
              [
                -72.06077485599985,
                -13.450965230999884
              ],
              [
                -72.06536085599987,
                -13.445562355999868
              ],
              [
                -72.07000998200004,
                -13.438337605999834
              ],
              [
                -72.07264848199986,
                -13.436390105999976
              ],
              [
                -72.07767435699986,
                -13.433751481
              ],
              [
                -72.08465010599991,
                -13.432999230999826
              ],
              [
                -72.09349998200003,
                -13.431464730999949
              ],
              [
                -72.09674610699994,
                -13.431732481999973
              ],
              [
                -72.09869535699983,
                -13.431034605999969
              ],
              [
                -72.10089285700002,
                -13.428523230999929
              ],
              [
                -72.10829323199994,
                -13.422917106999876
              ],
              [
                -72.10927985699993,
                -13.420360481999921
              ],
              [
                -72.11322673099983,
                -13.41672773099998
              ],
              [
                -72.11443760700001,
                -13.412377230999937
              ],
              [
                -72.1173711059999,
                -13.404933605999872
              ],
              [
                -72.11486898099992,
                -13.400792980999938
              ],
              [
                -72.11554998199995,
                -13.398214480999968
              ],
              [
                -72.117671482,
                -13.396494355999891
              ],
              [
                -72.12288910699993,
                -13.394143605999943
              ],
              [
                -72.12903623199998,
                -13.39026998099996
              ],
              [
                -72.13314085699989,
                -13.389180980999981
              ],
              [
                -72.14210273199984,
                -13.391693605999876
              ],
              [
                -72.15101698099988,
                -13.391947105999975
              ],
              [
                -72.15726960699993,
                -13.392834480999966
              ],
              [
                -72.16081835699993,
                -13.39393273099995
              ],
              [
                -72.16669073199989,
                -13.39342598099995
              ],
              [
                -72.17425298199987,
                -13.39046848099997
              ],
              [
                -72.17716798100003,
                -13.387173230999963
              ],
              [
                -72.17695160699986,
                -13.38399935599989
              ],
              [
                -72.17906398199995,
                -13.38199260599987
              ],
              [
                -72.18629885599984,
                -13.378824105999968
              ],
              [
                -72.19121023199995,
                -13.37491623099993
              ],
              [
                -72.19406998199997,
                -13.376297480999938
              ],
              [
                -72.19613360699992,
                -13.375675605999959
              ],
              [
                -72.19969510599998,
                -13.372424855999952
              ],
              [
                -72.20996035599995,
                -13.366779480999924
              ],
              [
                -72.21194785699993,
                -13.364526980999926
              ],
              [
                -72.212521982,
                -13.361302730999967
              ],
              [
                -72.21106448199993,
                -13.357946105999929
              ],
              [
                -72.21446535599978,
                -13.35397110599996
              ],
              [
                -72.21380285700002,
                -13.351365230999818
              ],
              [
                -72.215480357,
                -13.342579605999958
              ],
              [
                -72.21475398099994,
                -13.339855605999901
              ],
              [
                -72.21173973199984,
                -13.335679230999915
              ],
              [
                -72.21153498200005,
                -13.331310230999918
              ],
              [
                -72.21286348199993,
                -13.329715980999936
              ],
              [
                -72.21952173199998,
                -13.326280980999911
              ],
              [
                -72.22170873200002,
                -13.326022105999982
              ],
              [
                -72.22752148199993,
                -13.326885230999892
              ],
              [
                -72.23171485699987,
                -13.328601605999893
              ],
              [
                -72.23355035699979,
                -13.331144605999896
              ],
              [
                -72.23896773199982,
                -13.330136730999982
              ],
              [
                -72.24425923199988,
                -13.327566605999891
              ],
              [
                -72.24934910699983,
                -13.326785480999831
              ],
              [
                -72.25605148199992,
                -13.328566355999897
              ],
              [
                -72.25865623199985,
                -13.327925730999937
              ],
              [
                -72.26107123100002,
                -13.32940298099993
              ],
              [
                -72.26550048199994,
                -13.33058410599989
              ],
              [
                -72.26712448199993,
                -13.330239605999964
              ],
              [
                -72.26889610699988,
                -13.327336230999833
              ],
              [
                -72.27150448199995,
                -13.324875230999965
              ],
              [
                -72.27386673199993,
                -13.321282730999883
              ],
              [
                -72.27766398199986,
                -13.318178230999877
              ],
              [
                -72.27783623199991,
                -13.316390730999956
              ],
              [
                -72.28175598199988,
                -13.31352635599984
              ],
              [
                -72.28537373199981,
                -13.311714105999897
              ],
              [
                -72.29365923199992,
                -13.316324105999968
              ],
              [
                -72.29957735699986,
                -13.316822480999974
              ],
              [
                -72.30327360699988,
                -13.317653105999966
              ],
              [
                -72.30975248199985,
                -13.315389730999982
              ],
              [
                -72.313531732,
                -13.313209355999902
              ],
              [
                -72.31282573199985,
                -13.308806980999975
              ],
              [
                -72.31538860699982,
                -13.307779855999968
              ],
              [
                -72.32005735699983,
                -13.30921810599989
              ],
              [
                -72.32342073200005,
                -13.311983980999855
              ],
              [
                -72.32623073199983,
                -13.312957480999955
              ],
              [
                -72.32954973199992,
                -13.315148105999981
              ],
              [
                -72.3357232319999,
                -13.314749730999893
              ],
              [
                -72.33955110699992,
                -13.312957480999955
              ],
              [
                -72.34142573199995,
                -13.31095510599988
              ],
              [
                -72.34513048199989,
                -13.309426230999975
              ],
              [
                -72.34618160699989,
                -13.306788105999829
              ],
              [
                -72.34622298200003,
                -13.30359323099998
              ],
              [
                -72.348139732,
                -13.297368480999978
              ],
              [
                -72.35615773199993,
                -13.29017498099995
              ],
              [
                -72.35838385699992,
                -13.286299855999971
              ],
              [
                -72.36348160699993,
                -13.28480448099998
              ],
              [
                -72.3670476069999,
                -13.286260605999928
              ],
              [
                -72.37150523199989,
                -13.290688480999904
              ],
              [
                -72.37566560699986,
                -13.296513105999907
              ],
              [
                -72.37704685699993,
                -13.300267480999878
              ],
              [
                -72.38223310699993,
                -13.300495230999957
              ],
              [
                -72.38579910699985,
                -13.30448973099982
              ],
              [
                -72.38356535699995,
                -13.307612480999978
              ],
              [
                -72.38334510700003,
                -13.310224105999907
              ],
              [
                -72.38188610700001,
                -13.314128230999813
              ],
              [
                -72.38439873199991,
                -13.319234730999824
              ],
              [
                -72.38360173199993,
                -13.322611980999909
              ],
              [
                -72.38050823199995,
                -13.325881230999869
              ],
              [
                -72.38198073199993,
                -13.329001730999948
              ],
              [
                -72.38349373199998,
                -13.334202730999891
              ],
              [
                -72.38126335699991,
                -13.342436980999878
              ],
              [
                -72.38031360699995,
                -13.342901355999913
              ],
              [
                -72.37571498199986,
                -13.341660730999934
              ],
              [
                -72.37373660699984,
                -13.342282980999926
              ],
              [
                -72.37402735699993,
                -13.344855480999968
              ],
              [
                -72.37340823200003,
                -13.352127980999967
              ],
              [
                -72.37105898199991,
                -13.356898980999915
              ],
              [
                -72.36914335699993,
                -13.358814605999953
              ],
              [
                -72.37048060699982,
                -13.360947105999912
              ],
              [
                -72.37386498199999,
                -13.363216355999896
              ],
              [
                -72.37799860699988,
                -13.36405548099998
              ],
              [
                -72.38082085699989,
                -13.36548048099985
              ],
              [
                -72.38305648199986,
                -13.365245105999918
              ],
              [
                -72.3872358569999,
                -13.36239885599997
              ],
              [
                -72.39169473199996,
                -13.356663355999956
              ],
              [
                -72.39574598199988,
                -13.353083980999827
              ],
              [
                -72.39892835699993,
                -13.352511855999921
              ],
              [
                -72.40092910700002,
                -13.351082855999891
              ],
              [
                -72.40483523199998,
                -13.34634298099985
              ],
              [
                -72.40759823199983,
                -13.346200105999912
              ],
              [
                -72.408979607,
                -13.34489010599998
              ],
              [
                -72.4139338569999,
                -13.345985730999871
              ],
              [
                -72.41498185699993,
                -13.347367105999922
              ],
              [
                -72.41955498199985,
                -13.348462855999912
              ],
              [
                -72.42522373199995,
                -13.34917748099997
              ],
              [
                -72.42786760699994,
                -13.348700980999979
              ],
              [
                -72.43039235699985,
                -13.34586648099986
              ],
              [
                -72.43379835699983,
                -13.345556980999902
              ],
              [
                -72.43694235700002,
                -13.34612860599998
              ],
              [
                -72.43910160699988,
                -13.344052730999977
              ],
              [
                -72.44368298200004,
                -13.344675730999938
              ],
              [
                -72.44475473199998,
                -13.348296105999964
              ],
              [
                -72.44280160700004,
                -13.352750105999917
              ],
              [
                -72.44368298200004,
                -13.354988856999967
              ],
              [
                -72.44939935699989,
                -13.359228730999916
              ],
              [
                -72.45125723199988,
                -13.362539480999942
              ],
              [
                -72.4537104819999,
                -13.362968105999812
              ],
              [
                -72.45671160699987,
                -13.361300855999957
              ],
              [
                -72.458902857,
                -13.36203923099987
              ],
              [
                -72.46309485699993,
                -13.365183230999946
              ],
              [
                -72.46571485699991,
                -13.364825980999967
              ],
              [
                -72.46814423199999,
                -13.361586730999932
              ],
              [
                -72.47264085699999,
                -13.361329856999987
              ],
              [
                -72.47606473199994,
                -13.364642105999849
              ],
              [
                -72.48153548199991,
                -13.366614605999871
              ],
              [
                -72.48473610699995,
                -13.366726230999973
              ],
              [
                -72.49144373199982,
                -13.368769605999944
              ],
              [
                -72.49578110699997,
                -13.366955230999906
              ],
              [
                -72.50223385699991,
                -13.365688731999853
              ],
              [
                -72.50669660699987,
                -13.367950230999895
              ],
              [
                -72.50775198199995,
                -13.372382730999846
              ],
              [
                -72.51411423199994,
                -13.374010981000026
              ],
              [
                -72.52451710699995,
                -13.370724356999858
              ],
              [
                -72.53335198299999,
                -13.372895355999958
              ],
              [
                -72.54067923199989,
                -13.367799480999963
              ],
              [
                -72.54089035699985,
                -13.363909730999978
              ],
              [
                -72.53802573199988,
                -13.356371355999954
              ],
              [
                -72.53511973199988,
                -13.351686355999902
              ],
              [
                -72.5355343579999,
                -13.34912335599995
              ],
              [
                -72.54103735699994,
                -13.343808855999953
              ],
              [
                -72.54252085799993,
                -13.335996105999925
              ],
              [
                -72.54668160699993,
                -13.332609355999864
              ],
              [
                -72.546125232,
                -13.32514510599998
              ],
              [
                -72.54550423200004,
                -13.322412105999888
              ],
              [
                -72.54607798199999,
                -13.314775855999926
              ],
              [
                -72.54536823199999,
                -13.30905835599998
              ],
              [
                -72.5443378569999,
                -13.304645605999838
              ],
              [
                -72.54518910699983,
                -13.30135285599988
              ],
              [
                -72.54763060700003,
                -13.29635785599993
              ],
              [
                -72.54913673199997,
                -13.291226605999952
              ],
              [
                -72.55052148199985,
                -13.288320481000028
              ],
              [
                -72.552376982,
                -13.28664848099993
              ],
              [
                -72.55511523199982,
                -13.279019480999978
              ],
              [
                -72.55558398199986,
                -13.27239060599993
              ],
              [
                -72.55472673199989,
                -13.268894355999919
              ],
              [
                -72.55157223199984,
                -13.261294980999878
              ],
              [
                -72.5516093569999,
                -13.253968730999816
              ],
              [
                -72.55370310699993,
                -13.239179730999979
              ],
              [
                -72.5529628569999,
                -13.233982480999941
              ],
              [
                -72.5544238569999,
                -13.230080105999889
              ],
              [
                -72.5541426069999,
                -13.226453105999894
              ],
              [
                -72.55286523199982,
                -13.224167980999937
              ],
              [
                -72.55171685699992,
                -13.218871105999881
              ],
              [
                -72.55518560699994,
                -13.216089855999883
              ],
              [
                -72.56041998199987,
                -13.215361355999846
              ],
              [
                -72.56436910699995,
                -13.212277355999959
              ],
              [
                -72.56491210699994,
                -13.209867230999919
              ],
              [
                -72.564027232,
                -13.20793360599987
              ],
              [
                -72.56395123200002,
                -13.203771480999933
              ],
              [
                -72.56498635699995,
                -13.201517605999982
              ],
              [
                -72.56720698200002,
                -13.199644480999893
              ],
              [
                -72.57072260699994,
                -13.193392605999975
              ],
              [
                -72.57167773200001,
                -13.190294980999909
              ],
              [
                -72.57141210699996,
                -13.187406230000022
              ],
              [
                -72.56797260699994,
                -13.179806605999943
              ],
              [
                -72.56656060699993,
                -13.175273480999863
              ],
              [
                -72.56742573199983,
                -13.174232480999876
              ],
              [
                -72.57582035699983,
                -13.174769480999885
              ],
              [
                -72.57942385699994,
                -13.172562480999886
              ],
              [
                -72.58048048200004,
                -13.168695355999944
              ],
              [
                -72.5797617319999,
                -13.160826230999874
              ],
              [
                -72.58122460699997,
                -13.157724605999931
              ],
              [
                -72.58152535699998,
                -13.15312885599991
              ],
              [
                -72.5792089819999,
                -13.14964260599993
              ],
              [
                -72.57999810699982,
                -13.14529885600001
              ],
              [
                -72.58431048200003,
                -13.138539105999882
              ],
              [
                -72.58854498300002,
                -13.136449230999972
              ],
              [
                -72.59002923199989,
                -13.130925730999934
              ],
              [
                -72.5897856069999,
                -13.12754272999996
              ],
              [
                -72.59389723200002,
                -13.121261355999934
              ],
              [
                -72.59584810699988,
                -13.119027855999946
              ],
              [
                -72.59578435700001,
                -13.117286605999936
              ],
              [
                -72.59836435699987,
                -13.112272480999934
              ],
              [
                -72.59977148300004,
                -13.10724223099993
              ],
              [
                -72.59694535699998,
                -13.107902355999954
              ],
              [
                -72.59251948199989,
                -13.105992230999902
              ],
              [
                -72.5898887319999,
                -13.102249980999886
              ],
              [
                -72.58640235699983,
                -13.099249981000014
              ],
              [
                -72.58015435699997,
                -13.097654355999964
              ],
              [
                -72.57892573200002,
                -13.096642605999932
              ],
              [
                -72.57359960699995,
                -13.094712855999944
              ],
              [
                -72.57016210699993,
                -13.092914230999952
              ],
              [
                -72.56374023199999,
                -13.092486479999934
              ],
              [
                -72.55958148199994,
                -13.095405980999885
              ],
              [
                -72.55279435699998,
                -13.095069980999824
              ],
              [
                -72.55104723199992,
                -13.093860354999833
              ],
              [
                -72.54581498199991,
                -13.084839730999875
              ],
              [
                -72.542055732,
                -13.082345979999957
              ],
              [
                -72.53216110700004,
                -13.085971855999958
              ],
              [
                -72.52722910699998,
                -13.087258355999893
              ],
              [
                -72.52196010700004,
                -13.093139980999979
              ],
              [
                -72.51672185699988,
                -13.093078730999821
              ],
              [
                -72.5113303569999,
                -13.094150979999881
              ],
              [
                -72.50207910699999,
                -13.098225104999926
              ],
              [
                -72.49567660699995,
                -13.098347730999933
              ],
              [
                -72.4902852319999,
                -13.099726230999977
              ],
              [
                -72.48581273199994,
                -13.101809229999901
              ],
              [
                -72.48201410699988,
                -13.104443730999947
              ],
              [
                -72.47832648199994,
                -13.109133730999929
              ],
              [
                -72.48048310699988,
                -13.111741355999982
              ],
              [
                -72.47811085699988,
                -13.114329230999942
              ],
              [
                -72.4750719819998,
                -13.118975605999879
              ],
              [
                -72.46907273199992,
                -13.12372023099988
              ],
              [
                -72.46309523199994,
                -13.12393035599996
              ],
              [
                -72.45995735699984,
                -13.121898604999899
              ],
              [
                -72.45687685699988,
                -13.126064606
              ],
              [
                -72.45276960699994,
                -13.127795480999907
              ],
              [
                -72.44877960699978,
                -13.127912980999952
              ],
              [
                -72.4477528569999,
                -13.12926235599997
              ],
              [
                -72.44825160699986,
                -13.132342855999923
              ],
              [
                -72.446168607,
                -13.135188605999929
              ],
              [
                -72.44537648199992,
                -13.14196573099997
              ],
              [
                -72.44188310699997,
                -13.142872105999913
              ],
              [
                -72.43860048199997,
                -13.14629273099996
              ],
              [
                -72.4363936069999,
                -13.151616605999948
              ],
              [
                -72.4339386069999,
                -13.151754480999955
              ],
              [
                -72.42624235699992,
                -13.155119855999885
              ],
              [
                -72.42147023199988,
                -13.155423355999972
              ],
              [
                -72.4172497319999,
                -13.157161105999933
              ],
              [
                -72.41646348199987,
                -13.159539479999921
              ],
              [
                -72.41448623199989,
                -13.16134023099994
              ],
              [
                -72.41061985699997,
                -13.168543230999887
              ],
              [
                -72.39967323199994,
                -13.173184980999963
              ],
              [
                -72.39220785699996,
                -13.174201855999911
              ],
              [
                -72.38955473099992,
                -13.174134730999981
              ],
              [
                -72.38549110699995,
                -13.170272731000011
              ],
              [
                -72.382838107,
                -13.17003760599988
              ],
              [
                -72.37612148199992,
                -13.166242730999954
              ],
              [
                -72.37025198200001,
                -13.164363230999982
              ],
              [
                -72.36969698199982,
                -13.162766855999962
              ],
              [
                -72.36679560699986,
                -13.160671355999966
              ],
              [
                -72.36432373199995,
                -13.161584855999934
              ],
              [
                -72.3558071069998,
                -13.160859355999946
              ],
              [
                -72.34856098199987,
                -13.157695356000033
              ],
              [
                -72.342358107,
                -13.157193355999937
              ],
              [
                -72.3359292319999,
                -13.158738731000028
              ],
              [
                -72.332716607,
                -13.162266855999974
              ],
              [
                -72.327983732,
                -13.16433210599996
              ],
              [
                -72.32596685700003,
                -13.164214730999959
              ],
              [
                -72.32442685699988,
                -13.162639730999842
              ],
              [
                -72.32138635699994,
                -13.16146373099997
              ],
              [
                -72.31897685699988,
                -13.156702105999898
              ],
              [
                -72.31891960699983,
                -13.154579480999928
              ],
              [
                -72.31337010699986,
                -13.14950173099993
              ],
              [
                -72.31113985699989,
                -13.146486355999912
              ],
              [
                -72.30346848200003,
                -13.14238510599995
              ],
              [
                -72.30299285699994,
                -13.139023980999923
              ],
              [
                -72.30070985699979,
                -13.135726355999964
              ],
              [
                -72.30200985699986,
                -13.132396980999886
              ],
              [
                -72.30528660699991,
                -13.130233855999961
              ],
              [
                -72.30609023199997,
                -13.118462730999909
              ],
              [
                -72.30503860599993,
                -13.117071855999939
              ],
              [
                -72.29924810599988,
                -13.117264855999906
              ]
            ]
          ]
        ],
        "type": "MultiPolygon"
      },
      "type": "Feature",
      "properties": {
        "PROVINCIA": "URUBAMBA",
        "name": "URUBAMBA",
        "ID": "071300",
        "DEPARTAMEN": "CUSCO"
      }
    }
  ]
}
