{
  "type": "FeatureCollection",
  "features": [
    {
      "geometry": {
        "coordinates": [
          [
            [
              [
                -80.35372008499996,
                -5.140145546999918
              ],
              [
                -80.34970616199996,
                -5.148083860999918
              ],
              [
                -80.35233241999998,
                -5.174021436999908
              ],
              [
                -80.35321414699996,
                -5.176222082999914
              ],
              [
                -80.3561151269999,
                -5.187569883999856
              ],
              [
                -80.35687023999992,
                -5.196282726999925
              ],
              [
                -80.35824796799989,
                -5.203129331999946
              ],
              [
                -80.3599763709999,
                -5.20728781899993
              ],
              [
                -80.36054081699996,
                -5.212270997999951
              ],
              [
                -80.3618807449999,
                -5.218344909999871
              ],
              [
                -80.36264961999984,
                -5.225975304999963
              ],
              [
                -80.36426490699989,
                -5.232497915999943
              ],
              [
                -80.37501512399996,
                -5.231466484999942
              ],
              [
                -80.38754221099987,
                -5.230806803999883
              ],
              [
                -80.39614424799998,
                -5.231322441999907
              ],
              [
                -80.40230123699996,
                -5.2310465139999
              ],
              [
                -80.40997569099989,
                -5.231448345999922
              ],
              [
                -80.41450386399993,
                -5.232427723999876
              ],
              [
                -80.42245761999999,
                -5.231713618999947
              ],
              [
                -80.4361756799999,
                -5.232966165999926
              ],
              [
                -80.44815250899995,
                -5.232272248999891
              ],
              [
                -80.45587521699997,
                -5.233250863999956
              ],
              [
                -80.45905887899994,
                -5.234085482999831
              ],
              [
                -80.46937250099995,
                -5.23880090699987
              ],
              [
                -80.47264261399988,
                -5.23939847399987
              ],
              [
                -80.48065943299991,
                -5.23985758799995
              ],
              [
                -80.48576081699986,
                -5.241153800999882
              ],
              [
                -80.49202148999996,
                -5.240976597999975
              ],
              [
                -80.50322154299994,
                -5.238546851999899
              ],
              [
                -80.51272522399995,
                -5.23694786599998
              ],
              [
                -80.5168325699999,
                -5.235618831999943
              ],
              [
                -80.5201894889999,
                -5.238191472999915
              ],
              [
                -80.52490823999983,
                -5.240619097999968
              ],
              [
                -80.52895698899988,
                -5.244085972999926
              ],
              [
                -80.53301761399996,
                -5.24470509899993
              ],
              [
                -80.53536136499997,
                -5.245974598999965
              ],
              [
                -80.54019536499999,
                -5.250345722999953
              ],
              [
                -80.54258598899992,
                -5.251787097999966
              ],
              [
                -80.54521286399995,
                -5.251761722999959
              ],
              [
                -80.55117386399996,
                -5.255873098999871
              ],
              [
                -80.55543194699999,
                -5.258100841999919
              ],
              [
                -80.56683084199983,
                -5.256191048999938
              ],
              [
                -80.60022563599989,
                -5.247981176999929
              ],
              [
                -80.62188291399991,
                -5.248989756999947
              ],
              [
                -80.62911023499998,
                -5.235424537999961
              ],
              [
                -80.63570921799993,
                -5.231158520999941
              ],
              [
                -80.63810842199996,
                -5.233168206999949
              ],
              [
                -80.64851705699988,
                -5.2259370189999
              ],
              [
                -80.64916011399998,
                -5.223589847999961
              ],
              [
                -80.64638086399998,
                -5.221490223999979
              ],
              [
                -80.64393948999987,
                -5.222142598999937
              ],
              [
                -80.63954098999989,
                -5.221699223999963
              ],
              [
                -80.6356894889999,
                -5.218849598999952
              ],
              [
                -80.63433986499996,
                -5.215519473999962
              ],
              [
                -80.62978323999988,
                -5.209224598999924
              ],
              [
                -80.62785348999984,
                -5.204867222999894
              ],
              [
                -80.62499643799998,
                -5.20031395999996
              ],
              [
                -80.62373048899991,
                -5.195130847999906
              ],
              [
                -80.62447073999988,
                -5.185119097999916
              ],
              [
                -80.62538086499995,
                -5.182800722999957
              ],
              [
                -80.62336911499995,
                -5.179320347999919
              ],
              [
                -80.62157274399993,
                -5.170249113999887
              ],
              [
                -80.61977923999996,
                -5.165150348999816
              ],
              [
                -80.6167891149999,
                -5.161349597999845
              ],
              [
                -80.6142891149999,
                -5.15681447299994
              ],
              [
                -80.61460548999997,
                -5.154953098999954
              ],
              [
                -80.61683986399993,
                -5.151701223999908
              ],
              [
                -80.61788673899986,
                -5.148617222999917
              ],
              [
                -80.6167011149999,
                -5.144111347999967
              ],
              [
                -80.61765236499991,
                -5.137914097999953
              ],
              [
                -80.62013473999997,
                -5.137347597999963
              ],
              [
                -80.62598048899991,
                -5.139576222999949
              ],
              [
                -80.62774611499992,
                -5.138962847999949
              ],
              [
                -80.62932223999996,
                -5.136119097999938
              ],
              [
                -80.62887886499993,
                -5.126466848999939
              ],
              [
                -80.63007036499994,
                -5.119308598999908
              ],
              [
                -80.63114648999988,
                -5.115947222999978
              ],
              [
                -80.6308964889999,
                -5.110363222999979
              ],
              [
                -80.63241411499996,
                -5.107230473999948
              ],
              [
                -80.63270111399999,
                -5.103427723999971
              ],
              [
                -80.63172261499994,
                -5.099855472999877
              ],
              [
                -80.62923436499995,
                -5.097429722999948
              ],
              [
                -80.62414848899988,
                -5.094917972999951
              ],
              [
                -80.61876761499991,
                -5.088820347999899
              ],
              [
                -80.61768948899999,
                -5.086960973999965
              ],
              [
                -80.61837498999995,
                -5.081646473999967
              ],
              [
                -80.61498436499994,
                -5.077277348999871
              ],
              [
                -80.6114648649999,
                -5.074636722999969
              ],
              [
                -80.61071673999999,
                -5.072066347999851
              ],
              [
                -80.61181248999998,
                -5.069019473999901
              ],
              [
                -80.61467773999982,
                -5.064427722999937
              ],
              [
                -80.61654886499991,
                -5.063287098999979
              ],
              [
                -80.62230661399997,
                -5.061902348999979
              ],
              [
                -80.62755861499994,
                -5.057896472999914
              ],
              [
                -80.62961136499996,
                -5.054623098999969
              ],
              [
                -80.6295644899999,
                -5.050361347999967
              ],
              [
                -80.63034573999988,
                -5.048285097999951
              ],
              [
                -80.63079886399998,
                -5.041831972999887
              ],
              [
                -80.62929098899991,
                -5.040052722999917
              ],
              [
                -80.62137698999999,
                -5.039617223999869
              ],
              [
                -80.61465823999998,
                -5.037886722999929
              ],
              [
                -80.60917973999995,
                -5.034136722999904
              ],
              [
                -80.60605273999994,
                -5.029742097999929
              ],
              [
                -80.60530073999996,
                -5.018255847999967
              ],
              [
                -80.60631048999994,
                -5.016462847999946
              ],
              [
                -80.59864848999996,
                -5.012029347999942
              ],
              [
                -80.59593548999993,
                -5.006517598999892
              ],
              [
                -80.59417665299998,
                -4.995986256999913
              ],
              [
                -80.59567307299989,
                -4.989879971999869
              ],
              [
                -80.59797589499982,
                -4.986504731999958
              ],
              [
                -80.60173678699994,
                -4.984649861999969
              ],
              [
                -80.60232009099997,
                -4.983484591999968
              ],
              [
                -80.60272201599992,
                -4.975107855999852
              ],
              [
                -80.59408956599998,
                -4.975165917999959
              ],
              [
                -80.58489488599992,
                -4.966212245999941
              ],
              [
                -80.58281322799996,
                -4.965533697999945
              ],
              [
                -80.5805053439999,
                -4.966660960999945
              ],
              [
                -80.57901526299997,
                -4.970443427999896
              ],
              [
                -80.57965417899999,
                -4.979060538999931
              ],
              [
                -80.57772009299993,
                -4.980495416999929
              ],
              [
                -80.57510670499988,
                -4.980529637999894
              ],
              [
                -80.5677733849999,
                -4.971979978999968
              ],
              [
                -80.56209051499991,
                -4.967826910999975
              ],
              [
                -80.55913684499995,
                -4.973967425999888
              ],
              [
                -80.55526384299998,
                -4.978922227999874
              ],
              [
                -80.55328858399997,
                -4.97864949999996
              ],
              [
                -80.55214027199997,
                -4.995999624999968
              ],
              [
                -80.50353487499984,
                -4.999999285999934
              ],
              [
                -80.50242958899997,
                -4.982403418999979
              ],
              [
                -80.42090198899996,
                -5.057648018999942
              ],
              [
                -80.42175038199997,
                -5.061916403999874
              ],
              [
                -80.42376381399998,
                -5.066323633999957
              ],
              [
                -80.42873834099998,
                -5.074207481999906
              ],
              [
                -80.43150791099998,
                -5.079456897999933
              ],
              [
                -80.43358423599989,
                -5.086710804999882
              ],
              [
                -80.4326267909999,
                -5.090031782999972
              ],
              [
                -80.43447844999992,
                -5.104206998999871
              ],
              [
                -80.43707164199998,
                -5.111880878999955
              ],
              [
                -80.4370395339999,
                -5.116497617999926
              ],
              [
                -80.44017710599996,
                -5.12446710699993
              ],
              [
                -80.44134933499998,
                -5.132491171999959
              ],
              [
                -80.44300067499984,
                -5.138460631999976
              ],
              [
                -80.4461961639999,
                -5.14457218799987
              ],
              [
                -80.44003254899991,
                -5.144839978999926
              ],
              [
                -80.40768425699991,
                -5.146964839999953
              ],
              [
                -80.39801584199995,
                -5.147314792999964
              ],
              [
                -80.38787091299997,
                -5.14670676399993
              ],
              [
                -80.35372008499996,
                -5.140145546999918
              ]
            ]
          ]
        ],
        "type": "MultiPolygon"
      },
      "type": "Feature",
      "properties": {
        "PROVINCIA": "PIURA",
        "DISTRITO": "CASTILLA",
        "name": "CASTILLA",
        "ID": "190103",
        "DEPARTAMEN": "PIURA"
      }
    }
  ]
}
