{
  "type": "FeatureCollection",
  "features": [
    {
      "geometry": {
        "coordinates": [
          [
            [
              [
                -80.2213949149999,
                -4.595393903999877
              ],
              [
                -80.21305435099993,
                -4.601517198999829
              ],
              [
                -80.21212467599992,
                -4.603568363999898
              ],
              [
                -80.20484950099996,
                -4.609023395999941
              ],
              [
                -80.20123243299992,
                -4.610414480999964
              ],
              [
                -80.19913529599978,
                -4.607445080999923
              ],
              [
                -80.19658874399983,
                -4.607108872999902
              ],
              [
                -80.19372880799989,
                -4.605095192999954
              ],
              [
                -80.18585974599984,
                -4.603362995999873
              ],
              [
                -80.18335435799986,
                -4.604221738999968
              ],
              [
                -80.17770130600002,
                -4.6044306309999
              ],
              [
                -80.17283743099983,
                -4.602845364999951
              ],
              [
                -80.16747086999987,
                -4.602839105999976
              ],
              [
                -80.16088932799994,
                -4.601610759999915
              ],
              [
                -80.15738327400004,
                -4.601534815999969
              ],
              [
                -80.1534162719999,
                -4.604189902999963
              ],
              [
                -80.15259031599993,
                -4.607276786999932
              ],
              [
                -80.1506402899999,
                -4.610433690999969
              ],
              [
                -80.14931493400002,
                -4.617784492999931
              ],
              [
                -80.149886009,
                -4.618933987999981
              ],
              [
                -80.1478781369999,
                -4.622550328999978
              ],
              [
                -80.14730150199989,
                -4.626053504999959
              ],
              [
                -80.14391798299994,
                -4.631104179999966
              ],
              [
                -80.14305584700003,
                -4.633975155999906
              ],
              [
                -80.14402584099992,
                -4.636618589999955
              ],
              [
                -80.14184759499989,
                -4.639028443999962
              ],
              [
                -80.14065233799977,
                -4.642783588999976
              ],
              [
                -80.13876126699995,
                -4.644389611999884
              ],
              [
                -80.13503830699995,
                -4.645993382999904
              ],
              [
                -80.13280092899993,
                -4.649896569999896
              ],
              [
                -80.13285388899993,
                -4.653400488999921
              ],
              [
                -80.12832828199998,
                -4.655922264999958
              ],
              [
                -80.12545926299981,
                -4.661318073999894
              ],
              [
                -80.12499730400003,
                -4.664534143999902
              ],
              [
                -80.12607840099986,
                -4.669877418999874
              ],
              [
                -80.12321185999991,
                -4.673205364000012
              ],
              [
                -80.12120673999993,
                -4.674351653999963
              ],
              [
                -80.11874549299978,
                -4.674003921999883
              ],
              [
                -80.11508059499977,
                -4.674803462999876
              ],
              [
                -80.11336170300001,
                -4.675950086999876
              ],
              [
                -80.11007535399995,
                -4.672373522999976
              ],
              [
                -80.10568640199989,
                -4.67076941299996
              ],
              [
                -80.1047986939999,
                -4.666011695999941
              ],
              [
                -80.10130456499991,
                -4.663589952999928
              ],
              [
                -80.09501092699998,
                -4.662568173999944
              ],
              [
                -80.08797978099989,
                -4.660960563999879
              ],
              [
                -80.08137337599999,
                -4.661458803999892
              ],
              [
                -80.07935340499989,
                -4.660988301999964
              ],
              [
                -80.07573759099978,
                -4.66258206699996
              ],
              [
                -80.07383368399996,
                -4.662501582999937
              ],
              [
                -80.06626696699988,
                -4.660464189999971
              ],
              [
                -80.06331362199995,
                -4.660616211999923
              ],
              [
                -80.05935216599983,
                -4.659133278999946
              ],
              [
                -80.04707339099986,
                -4.659116740999934
              ],
              [
                -80.04373386599985,
                -4.657513707999897
              ],
              [
                -80.04039272099999,
                -4.657119279999961
              ],
              [
                -80.03767530099987,
                -4.655244157999959
              ],
              [
                -80.02915841399994,
                -4.66057375399987
              ],
              [
                -80.0232505329999,
                -4.661774179999895
              ],
              [
                -80.02040686399988,
                -4.666916565999941
              ],
              [
                -80.0155838799999,
                -4.670301720999817
              ],
              [
                -80.01305424700001,
                -4.673105255999872
              ],
              [
                -80.01060454999993,
                -4.674310409999919
              ],
              [
                -80.00830984399994,
                -4.678650492999964
              ],
              [
                -80.008796904,
                -4.688487469999927
              ],
              [
                -80.01086728299998,
                -4.69193669699996
              ],
              [
                -80.011960214,
                -4.695184903999973
              ],
              [
                -80.01469877099993,
                -4.697604569999953
              ],
              [
                -80.01967618399982,
                -4.699909119999859
              ],
              [
                -80.02081434099983,
                -4.704792978999933
              ],
              [
                -80.0233837479999,
                -4.709678850999978
              ],
              [
                -80.02463779599992,
                -4.713586421999878
              ],
              [
                -80.02577471099994,
                -4.719389295999974
              ],
              [
                -80.03040881200002,
                -4.721693324999933
              ],
              [
                -80.03275274999999,
                -4.724109014999954
              ],
              [
                -80.03824576099998,
                -4.72635676099992
              ],
              [
                -80.04294044499994,
                -4.726305821999972
              ],
              [
                -80.04746039999992,
                -4.728437282999948
              ],
              [
                -80.04969007999983,
                -4.730737896999869
              ],
              [
                -80.05636090399986,
                -4.730021853999972
              ],
              [
                -80.06158127099997,
                -4.732900896999979
              ],
              [
                -80.06838979500003,
                -4.732254930999886
              ],
              [
                -80.07280211599988,
                -4.732919012999957
              ],
              [
                -80.07715695099995,
                -4.731967512999915
              ],
              [
                -80.07983986599999,
                -4.732569409999883
              ],
              [
                -80.08204355299989,
                -4.734786142999894
              ],
              [
                -80.0866916469999,
                -4.737604430999966
              ],
              [
                -80.08972921899988,
                -4.740659905999962
              ],
              [
                -80.09360285899993,
                -4.742878810999969
              ],
              [
                -80.09610225199987,
                -4.747070384999972
              ],
              [
                -80.09633395599985,
                -4.752335976999973
              ],
              [
                -80.09281167899991,
                -4.755023823999977
              ],
              [
                -80.0892862309999,
                -4.760104950999846
              ],
              [
                -80.08613108999998,
                -4.760004310999932
              ],
              [
                -80.08441211399986,
                -4.764054722999958
              ],
              [
                -80.0815429889999,
                -4.765445347999844
              ],
              [
                -80.07937111399985,
                -4.774853472999951
              ],
              [
                -80.07725786400005,
                -4.776933597999857
              ],
              [
                -80.07680473899995,
                -4.77885347299997
              ],
              [
                -80.07779098899994,
                -4.782810722999955
              ],
              [
                -80.07973236399988,
                -4.786115222999968
              ],
              [
                -80.08148823899995,
                -4.788593722999963
              ],
              [
                -80.0827069899999,
                -4.790246097999898
              ],
              [
                -80.08334761399988,
                -4.792373097999928
              ],
              [
                -80.08506048999993,
                -4.794275347999928
              ],
              [
                -80.09084373899998,
                -4.797494097999902
              ],
              [
                -80.09481836399988,
                -4.799437472999955
              ],
              [
                -80.10048823899984,
                -4.800613222999971
              ],
              [
                -80.10323636399994,
                -4.800841847999948
              ],
              [
                -80.10633198899984,
                -4.802677722999817
              ],
              [
                -80.1100586149999,
                -4.80325784799993
              ],
              [
                -80.11163086399995,
                -4.803347597999903
              ],
              [
                -80.1125038639999,
                -4.803708972999971
              ],
              [
                -80.11424411399992,
                -4.8047558479999
              ],
              [
                -80.11404686399993,
                -4.805945348999899
              ],
              [
                -80.1135976139999,
                -4.806710972999952
              ],
              [
                -80.11232223899987,
                -4.807792972999948
              ],
              [
                -80.11199998999996,
                -4.808228472999872
              ],
              [
                -80.11093748899998,
                -4.810505847999934
              ],
              [
                -80.10984373899998,
                -4.81352147299998
              ],
              [
                -80.10988774599997,
                -4.813839783999924
              ],
              [
                -80.108197378,
                -4.814982251999936
              ],
              [
                -80.10702401999998,
                -4.816517293999937
              ],
              [
                -80.10567091999985,
                -4.817690548999963
              ],
              [
                -80.1050381789999,
                -4.819226296999943
              ],
              [
                -80.10314372999983,
                -4.820941152999978
              ],
              [
                -80.10314029099999,
                -4.823562371999969
              ],
              [
                -80.10421645099996,
                -4.826162419999946
              ],
              [
                -80.10498942399988,
                -4.82801825699994
              ],
              [
                -80.10504373599991,
                -4.832086960999959
              ],
              [
                -80.10438573399983,
                -4.833522079999966
              ],
              [
                -80.10396584599982,
                -4.835316508999938
              ],
              [
                -80.10229493499986,
                -4.835912624999878
              ],
              [
                -80.1008183639999,
                -4.836445347999927
              ],
              [
                -80.09851948899995,
                -4.837052722999886
              ],
              [
                -80.09749411399991,
                -4.837517597999977
              ],
              [
                -80.09352923899996,
                -4.84253709799998
              ],
              [
                -80.09352923899996,
                -4.8441054729999
              ],
              [
                -80.09442973899985,
                -4.846050722999905
              ],
              [
                -80.09507423899998,
                -4.847101597999938
              ],
              [
                -80.09769370599992,
                -4.850956522999923
              ],
              [
                -80.09776561399991,
                -4.853189473999919
              ],
              [
                -80.09584573899997,
                -4.856054722999943
              ],
              [
                -80.09425198899999,
                -4.858447222999928
              ],
              [
                -80.0949101139999,
                -4.859630847999881
              ],
              [
                -80.09613086399992,
                -4.862660097999878
              ],
              [
                -80.09800961499985,
                -4.865730472999928
              ],
              [
                -80.09835936399992,
                -4.866130847999841
              ],
              [
                -80.10074023899983,
                -4.86765034799987
              ],
              [
                -80.10218948899984,
                -4.868769473999919
              ],
              [
                -80.10371098999997,
                -4.870439597999905
              ],
              [
                -80.1068906139999,
                -4.872390722999967
              ],
              [
                -80.10928911399992,
                -4.874830097999904
              ],
              [
                -80.11213086399994,
                -4.878099597999892
              ],
              [
                -80.117089739,
                -4.882369097999913
              ],
              [
                -80.11845460099994,
                -4.885505473999899
              ],
              [
                -80.11928894299996,
                -4.886615975999973
              ],
              [
                -80.12089261399996,
                -4.889603472999966
              ],
              [
                -80.1214297389999,
                -4.890181598999845
              ],
              [
                -80.12194536399977,
                -4.891523473999939
              ],
              [
                -80.12198636499994,
                -4.892494097999929
              ],
              [
                -80.12134761399994,
                -4.893960972999935
              ],
              [
                -80.11587498900002,
                -4.898722597999893
              ],
              [
                -80.11184761399994,
                -4.900671847999945
              ],
              [
                -80.11135161399994,
                -4.901621097999907
              ],
              [
                -80.11071098899987,
                -4.903521472999955
              ],
              [
                -80.110154239,
                -4.904388722999954
              ],
              [
                -80.10924411399992,
                -4.906908222999959
              ],
              [
                -80.10942735299989,
                -4.908609024999976
              ],
              [
                -80.1094969809999,
                -4.908760037999969
              ],
              [
                -80.10998823899985,
                -4.910171847999948
              ],
              [
                -80.11044336399993,
                -4.911658222999961
              ],
              [
                -80.11054437199994,
                -4.91235811599995
              ],
              [
                -80.11263017299996,
                -4.914456880999865
              ],
              [
                -80.1130418169999,
                -4.918944889999921
              ],
              [
                -80.11470709099984,
                -4.922776405999969
              ],
              [
                -80.11488186399993,
                -4.925947776999919
              ],
              [
                -80.11636787500004,
                -4.930018384999926
              ],
              [
                -80.11618534699994,
                -4.932710619999909
              ],
              [
                -80.13329090499997,
                -4.944879273999902
              ],
              [
                -80.13547073899991,
                -4.945999972999914
              ],
              [
                -80.13733986399996,
                -4.945580097999937
              ],
              [
                -80.14051948899998,
                -4.946470598999952
              ],
              [
                -80.14358011399997,
                -4.949710972999924
              ],
              [
                -80.15056048899987,
                -4.952660097999967
              ],
              [
                -80.15422073899992,
                -4.953259597999931
              ],
              [
                -80.15766986399984,
                -4.955060597999875
              ],
              [
                -80.16115036399987,
                -4.958630722999942
              ],
              [
                -80.16253123899992,
                -4.961880847999964
              ],
              [
                -80.16291011399994,
                -4.965240222999967
              ],
              [
                -80.1656406149998,
                -4.967949222999948
              ],
              [
                -80.16851800799992,
                -4.969396348999965
              ],
              [
                -80.16791787699992,
                -4.972207768999965
              ],
              [
                -80.17167102499985,
                -4.976580350999939
              ],
              [
                -80.17232467699978,
                -4.978675348999957
              ],
              [
                -80.17417252799999,
                -4.979994009999928
              ],
              [
                -80.17548045299992,
                -4.983705336999947
              ],
              [
                -80.17611501999988,
                -4.98809104399993
              ],
              [
                -80.18213931799994,
                -4.990477384999906
              ],
              [
                -80.1863186519999,
                -4.986430764999966
              ],
              [
                -80.19215211400001,
                -4.9912931369999
              ],
              [
                -80.19335394799998,
                -4.993729837999979
              ],
              [
                -80.19782294999993,
                -4.996839658999932
              ],
              [
                -80.20045007199985,
                -5.001234619999934
              ],
              [
                -80.20408855799997,
                -5.003459599999928
              ],
              [
                -80.20936837599993,
                -5.001331794999885
              ],
              [
                -80.21120951399996,
                -4.994437955999956
              ],
              [
                -80.21643864599997,
                -4.99348197899991
              ],
              [
                -80.22006666799996,
                -4.994177140999966
              ],
              [
                -80.22540660799984,
                -4.993134865999878
              ],
              [
                -80.22828913199993,
                -4.98967171399994
              ],
              [
                -80.23098116499983,
                -4.991315622999934
              ],
              [
                -80.23741828399989,
                -4.993303658999935
              ],
              [
                -80.24557092299989,
                -4.997284241999921
              ],
              [
                -80.2511797389999,
                -4.998091091999925
              ],
              [
                -80.25142186499983,
                -5.000431597999921
              ],
              [
                -80.2539354889999,
                -5.002296972999886
              ],
              [
                -80.25712298999986,
                -5.002556598999888
              ],
              [
                -80.25896861399997,
                -5.003771472999972
              ],
              [
                -80.25872836499997,
                -5.00585147299995
              ],
              [
                -80.25523636399998,
                -5.007593722999957
              ],
              [
                -80.25137711399987,
                -5.006964847999939
              ],
              [
                -80.24292186399998,
                -5.00382022399998
              ],
              [
                -80.23895511399996,
                -5.005794973999969
              ],
              [
                -80.23474798899986,
                -5.00872072299984
              ],
              [
                -80.232189614,
                -5.012552722999885
              ],
              [
                -80.23394536399996,
                -5.017255847999934
              ],
              [
                -80.23444536399995,
                -5.021222598999941
              ],
              [
                -80.23385936399995,
                -5.022869097999944
              ],
              [
                -80.22986323899988,
                -5.025599597999928
              ],
              [
                -80.2279843639999,
                -5.025712847999955
              ],
              [
                -80.22199998999997,
                -5.02992772399989
              ],
              [
                -80.22072073999982,
                -5.033720722999931
              ],
              [
                -80.22130661399996,
                -5.037921847999939
              ],
              [
                -80.22466598899985,
                -5.042343722999931
              ],
              [
                -80.22455861399993,
                -5.044224598999961
              ],
              [
                -80.22264861399998,
                -5.046978472999911
              ],
              [
                -80.22150198899988,
                -5.05044922299993
              ],
              [
                -80.22227923899987,
                -5.05354497299993
              ],
              [
                -80.22581636399997,
                -5.05590822299996
              ],
              [
                -80.2285194889999,
                -5.05586909799996
              ],
              [
                -80.23679486399993,
                -5.063189472999966
              ],
              [
                -80.23905661399982,
                -5.064853474000017
              ],
              [
                -80.24607423899988,
                -5.067234347999886
              ],
              [
                -80.25416599000005,
                -5.069136722999929
              ],
              [
                -80.26891798899993,
                -5.070564472999934
              ],
              [
                -80.27510548899977,
                -5.070921847999898
              ],
              [
                -80.27867386499986,
                -5.070564472999934
              ],
              [
                -80.28706048899994,
                -5.06848247399995
              ],
              [
                -80.28961911499988,
                -5.071517598999833
              ],
              [
                -80.2905703639999,
                -5.077228472999934
              ],
              [
                -80.29259373899998,
                -5.081628847999866
              ],
              [
                -80.2930703639999,
                -5.085912097999881
              ],
              [
                -80.295449239,
                -5.089005848999875
              ],
              [
                -80.29830486399993,
                -5.091265598
              ],
              [
                -80.30199236399994,
                -5.093167973999925
              ],
              [
                -80.30449023899985,
                -5.093646472999978
              ],
              [
                -80.31032036499988,
                -5.093050723999966
              ],
              [
                -80.31460348899986,
                -5.096025348999888
              ],
              [
                -80.31638861399995,
                -5.099238222999816
              ],
              [
                -80.32031448899988,
                -5.103283223999938
              ],
              [
                -80.3245976149999,
                -5.111373097999945
              ],
              [
                -80.32804686399993,
                -5.113513723999972
              ],
              [
                -80.33173648899992,
                -5.116964847999952
              ],
              [
                -80.33554298900003,
                -5.121720723999886
              ],
              [
                -80.33697073999997,
                -5.128505847999975
              ],
              [
                -80.33673236399983,
                -5.129695347999927
              ],
              [
                -80.33806836399998,
                -5.137165972999924
              ],
              [
                -80.35372008499996,
                -5.140145546999918
              ],
              [
                -80.34970616200002,
                -5.148083860999918
              ],
              [
                -80.35233241999998,
                -5.174021436999908
              ],
              [
                -80.35321414700002,
                -5.176222083000027
              ],
              [
                -80.3561151269999,
                -5.187569883999856
              ],
              [
                -80.35687023999992,
                -5.196282726999925
              ],
              [
                -80.35824796799989,
                -5.203129331999946
              ],
              [
                -80.3599763709999,
                -5.20728781899993
              ],
              [
                -80.36054081699996,
                -5.212270997999951
              ],
              [
                -80.3618807449999,
                -5.218344909999871
              ],
              [
                -80.36264961999984,
                -5.225975304999963
              ],
              [
                -80.36426490699989,
                -5.232497915999943
              ],
              [
                -80.35415614999988,
                -5.234196508999958
              ],
              [
                -80.34665925399997,
                -5.233203485999923
              ],
              [
                -80.34662767400005,
                -5.239806457999975
              ],
              [
                -80.34773993199997,
                -5.246613041999922
              ],
              [
                -80.34934160199998,
                -5.251095799999973
              ],
              [
                -80.35140520899995,
                -5.259830736999959
              ],
              [
                -80.330290386,
                -5.284060564999947
              ],
              [
                -80.25913375899995,
                -5.330330319999916
              ],
              [
                -80.23744531199992,
                -5.35968945299993
              ],
              [
                -80.23356249999989,
                -5.364744140999846
              ],
              [
                -80.18683593699996,
                -5.428667968999889
              ],
              [
                -80.17008203099982,
                -5.450466796999933
              ],
              [
                -80.16297265599997,
                -5.459912108999845
              ],
              [
                -80.14467773399991,
                -5.485367186999952
              ],
              [
                -80.13876171899983,
                -5.493769531999817
              ],
              [
                -80.13052097999991,
                -5.504433414999937
              ],
              [
                -80.126826128,
                -5.510812798000018
              ],
              [
                -80.10668348099989,
                -5.518923764999897
              ],
              [
                -80.10697761099988,
                -5.520721049999906
              ],
              [
                -80.10542908399992,
                -5.526031763999981
              ],
              [
                -80.10294749099978,
                -5.532346225999902
              ],
              [
                -80.09749445999995,
                -5.537112499999921
              ],
              [
                -80.093968744,
                -5.540798837999944
              ],
              [
                -80.08981600399994,
                -5.543550700999958
              ],
              [
                -80.08755480699983,
                -5.546167826999977
              ],
              [
                -80.08438901499989,
                -5.55452733199985
              ],
              [
                -80.08287286200004,
                -5.560409119999974
              ],
              [
                -80.07857501599989,
                -5.559888714999886
              ],
              [
                -80.072736991,
                -5.555461668999953
              ],
              [
                -80.07078595699988,
                -5.557205213999907
              ],
              [
                -80.06822224299992,
                -5.557303915999967
              ],
              [
                -80.05802998099989,
                -5.554926495999837
              ],
              [
                -80.05561515199997,
                -5.553790677999928
              ],
              [
                -80.0525151839999,
                -5.556247655999925
              ],
              [
                -80.05283694699989,
                -5.563572663999878
              ],
              [
                -80.05297173899993,
                -5.564307697999936
              ],
              [
                -80.05333943199997,
                -5.5658369329999
              ],
              [
                -80.05448987299997,
                -5.569040794999978
              ],
              [
                -80.05593484899987,
                -5.574370760999898
              ],
              [
                -80.05695106299993,
                -5.576841741999885
              ],
              [
                -80.05706691099977,
                -5.577791678999972
              ],
              [
                -80.05696517599995,
                -5.579311116999918
              ],
              [
                -80.05688174199997,
                -5.580676814999947
              ],
              [
                -80.05719159399985,
                -5.584512494999956
              ],
              [
                -80.05716902599994,
                -5.587334574999943
              ],
              [
                -80.0567045529998,
                -5.589857450999887
              ],
              [
                -80.05583985999982,
                -5.594233956999972
              ],
              [
                -80.0564865729998,
                -5.596306356999946
              ],
              [
                -80.05687172899985,
                -5.598215521999919
              ],
              [
                -80.05649438699999,
                -5.60269230699987
              ],
              [
                -80.05628377199992,
                -5.60453719599991
              ],
              [
                -80.05578816999991,
                -5.609556500999929
              ],
              [
                -80.05659663299991,
                -5.612108561999946
              ],
              [
                -80.05713142299993,
                -5.615033745999938
              ],
              [
                -80.05741152799993,
                -5.616279728999928
              ],
              [
                -80.0577042029999,
                -5.619557958999906
              ],
              [
                -80.06764971899992,
                -5.63911167699996
              ],
              [
                -80.06886215599985,
                -5.64317155599997
              ],
              [
                -80.06907621199997,
                -5.644827179999936
              ],
              [
                -80.06995891999992,
                -5.646170673999961
              ],
              [
                -80.06840536699991,
                -5.652165188999902
              ],
              [
                -80.06621393199987,
                -5.656141576999971
              ],
              [
                -80.06761091499988,
                -5.663367593999908
              ],
              [
                -80.0682625469999,
                -5.668054079999877
              ],
              [
                -80.06899192899994,
                -5.669303496999873
              ],
              [
                -80.07105335399996,
                -5.673253921999901
              ],
              [
                -80.06965962899994,
                -5.675238253999964
              ],
              [
                -80.06758945699988,
                -5.676736429999892
              ],
              [
                -80.06349289999986,
                -5.680555941999955
              ],
              [
                -80.06106673899984,
                -5.684399607999978
              ],
              [
                -80.06637196199995,
                -5.698211238999932
              ],
              [
                -80.06838637300001,
                -5.697749810999881
              ],
              [
                -80.06995777399999,
                -5.697625715999891
              ],
              [
                -80.07254822999994,
                -5.698326376999887
              ],
              [
                -80.07398353299993,
                -5.698609088999831
              ],
              [
                -80.07547310399991,
                -5.69883761299991
              ],
              [
                -80.08065372499982,
                -5.700446917999898
              ],
              [
                -80.08215227899984,
                -5.700711620999869
              ],
              [
                -80.0838041429999,
                -5.701103198999931
              ],
              [
                -80.08648499799995,
                -5.701767763999953
              ],
              [
                -80.08819976599989,
                -5.702358426999979
              ],
              [
                -80.09043849199986,
                -5.70281423299997
              ],
              [
                -80.0938248299999,
                -5.702765302999978
              ],
              [
                -80.09517055199996,
                -5.702607986999965
              ],
              [
                -80.09387388499988,
                -5.704297292999911
              ],
              [
                -80.09357898499991,
                -5.705154470999958
              ],
              [
                -80.09399166000003,
                -5.707188961999975
              ],
              [
                -80.0939158089999,
                -5.708757104999961
              ],
              [
                -80.09131976499992,
                -5.710639821999962
              ],
              [
                -80.08992104299983,
                -5.713382064999905
              ],
              [
                -80.09111471099993,
                -5.71656948499998
              ],
              [
                -80.090962053,
                -5.720293862999938
              ],
              [
                -80.09135087599992,
                -5.721936251999978
              ],
              [
                -80.09149494900004,
                -5.723651764999943
              ],
              [
                -80.09114738799997,
                -5.726861246999931
              ],
              [
                -80.0914876339998,
                -5.728283021999971
              ],
              [
                -80.09329339099997,
                -5.731177363999961
              ],
              [
                -80.09866695599999,
                -5.736086770999918
              ],
              [
                -80.09880582099993,
                -5.739668928999947
              ],
              [
                -80.09899342099993,
                -5.740622063999922
              ],
              [
                -80.10002568399995,
                -5.743907769999907
              ],
              [
                -80.099688029,
                -5.746870607999938
              ],
              [
                -80.0997310429999,
                -5.748025234999886
              ],
              [
                -80.1001270459999,
                -5.74868652299989
              ],
              [
                -80.10127089900004,
                -5.750246980999975
              ],
              [
                -80.10144324099991,
                -5.750606447999928
              ],
              [
                -80.10158318199979,
                -5.751209604999929
              ],
              [
                -80.10155551199989,
                -5.752518061999922
              ],
              [
                -80.101405533,
                -5.754230422999967
              ],
              [
                -80.10151873999985,
                -5.75554551599987
              ],
              [
                -80.10155007499986,
                -5.755981732999885
              ],
              [
                -80.10171509799977,
                -5.756924882999954
              ],
              [
                -80.10196325299995,
                -5.757945134999886
              ],
              [
                -80.10228157999984,
                -5.759138680999968
              ],
              [
                -80.10246632999991,
                -5.75975473699998
              ],
              [
                -80.10278970199994,
                -5.76061840999995
              ],
              [
                -80.10247418599994,
                -5.76723574399989
              ],
              [
                -80.10217478199979,
                -5.768112665999979
              ],
              [
                -80.10137684499983,
                -5.770146598999872
              ],
              [
                -80.09966572999991,
                -5.772830345999978
              ],
              [
                -80.09809653599984,
                -5.777133416999959
              ],
              [
                -80.09731660199998,
                -5.779185457999972
              ],
              [
                -80.09520607299987,
                -5.783120179999969
              ],
              [
                -80.09236894099996,
                -5.79509126499994
              ],
              [
                -80.10282131199989,
                -5.79097962599991
              ],
              [
                -80.10917904399986,
                -5.787907161999897
              ],
              [
                -80.11141316599998,
                -5.785091760999933
              ],
              [
                -80.12380181499998,
                -5.777371818999939
              ],
              [
                -80.12686164399992,
                -5.774726012999963
              ],
              [
                -80.13625970599992,
                -5.769265289999964
              ],
              [
                -80.1406992389999,
                -5.765189598999882
              ],
              [
                -80.14740655799994,
                -5.763018833999979
              ],
              [
                -80.14973828099994,
                -5.761164062999967
              ],
              [
                -80.17213395799996,
                -5.750543431999972
              ],
              [
                -80.17735736399987,
                -5.746679723999932
              ],
              [
                -80.1818853929999,
                -5.740584958999875
              ],
              [
                -80.19170687000002,
                -5.732559374999937
              ],
              [
                -80.19972513199991,
                -5.727913837999949
              ],
              [
                -80.20755413899985,
                -5.721833515999947
              ],
              [
                -80.21106637499992,
                -5.720065699999964
              ],
              [
                -80.21557696499991,
                -5.719786322999937
              ],
              [
                -80.22181674699982,
                -5.716507215999968
              ],
              [
                -80.2358437389999,
                -5.711503108999977
              ],
              [
                -80.24127591099995,
                -5.710770774999958
              ],
              [
                -80.24448740699984,
                -5.708878583999876
              ],
              [
                -80.245908322,
                -5.706727752999939
              ],
              [
                -80.251096405,
                -5.696893620999901
              ],
              [
                -80.25339483499982,
                -5.694421729999931
              ],
              [
                -80.25828553600002,
                -5.693996037999966
              ],
              [
                -80.26489002099981,
                -5.690951169999948
              ],
              [
                -80.26802116399989,
                -5.688875665999944
              ],
              [
                -80.2805774819999,
                -5.684271176999914
              ],
              [
                -80.29272620699993,
                -5.678098944999931
              ],
              [
                -80.29565084099988,
                -5.677414230999943
              ],
              [
                -80.29998535999988,
                -5.677426816999912
              ],
              [
                -80.30594357400003,
                -5.67662123599996
              ],
              [
                -80.31165030200003,
                -5.678304843999911
              ],
              [
                -80.31798720699999,
                -5.67870043299996
              ],
              [
                -80.32248948699998,
                -5.679935076999811
              ],
              [
                -80.44784960899983,
                -5.633472655999981
              ],
              [
                -80.50230468699982,
                -5.614117187999966
              ],
              [
                -80.5346295189999,
                -5.601606252999886
              ],
              [
                -80.53752704600004,
                -5.568173931999922
              ],
              [
                -80.552580875,
                -5.492269863999979
              ],
              [
                -80.56757067199993,
                -5.486871257999951
              ],
              [
                -80.5914623079999,
                -5.479368981999869
              ],
              [
                -80.60151953999991,
                -5.479205516999968
              ],
              [
                -80.64519005499994,
                -5.487112324999941
              ],
              [
                -80.64503795099989,
                -5.486016819999975
              ],
              [
                -80.64690051899981,
                -5.475795772999902
              ],
              [
                -80.64754326999986,
                -5.465499530999921
              ],
              [
                -80.64868144199988,
                -5.461840963999919
              ],
              [
                -80.64843938099978,
                -5.459482647999948
              ],
              [
                -80.64665761899994,
                -5.453626826999937
              ],
              [
                -80.64724992899994,
                -5.446529294999948
              ],
              [
                -80.64222703299993,
                -5.444764757999963
              ],
              [
                -80.64428692599984,
                -5.442189023999902
              ],
              [
                -80.64431699599999,
                -5.436732858999903
              ],
              [
                -80.65369511299986,
                -5.433843544999945
              ],
              [
                -80.6629465289999,
                -5.432010035999951
              ],
              [
                -80.66913976399996,
                -5.430481171999929
              ],
              [
                -80.68099068499993,
                -5.428035881999904
              ],
              [
                -80.69037772899992,
                -5.426336833999926
              ],
              [
                -80.69037680600002,
                -5.428146107999964
              ],
              [
                -80.69750417499989,
                -5.427048382999942
              ],
              [
                -80.70376518199987,
                -5.424905167999952
              ],
              [
                -80.7208913909999,
                -5.419738775999974
              ],
              [
                -80.7197730399999,
                -5.417648541999938
              ],
              [
                -80.72375434299988,
                -5.416483384999935
              ],
              [
                -80.72299827999996,
                -5.411697493999895
              ],
              [
                -80.72671787699994,
                -5.411277365999922
              ],
              [
                -80.73100594499982,
                -5.409408553999924
              ],
              [
                -80.73235536599992,
                -5.407972911999934
              ],
              [
                -80.7379043379998,
                -5.405201346999945
              ],
              [
                -80.73847922300001,
                -5.407321984999953
              ],
              [
                -80.74349448099991,
                -5.409351191999974
              ],
              [
                -80.74434946199989,
                -5.411369692999926
              ],
              [
                -80.74903049599993,
                -5.41349069599994
              ],
              [
                -80.75305898999983,
                -5.410653151999895
              ],
              [
                -80.75190519700004,
                -5.402663590999907
              ],
              [
                -80.77221250299982,
                -5.400231142999928
              ],
              [
                -80.77318069499984,
                -5.40036065299995
              ],
              [
                -80.85101994399992,
                -5.406045055999925
              ],
              [
                -80.95975805499995,
                -5.350716252999916
              ],
              [
                -80.96108224900001,
                -5.350446675999933
              ],
              [
                -80.96044606399988,
                -5.34879505899994
              ],
              [
                -80.96094434199989,
                -5.333881418999965
              ],
              [
                -80.96109031099996,
                -5.321697929999971
              ],
              [
                -80.96169163899998,
                -5.310176215999945
              ],
              [
                -80.99531987099982,
                -5.276687092999964
              ],
              [
                -81.01714463799988,
                -5.266544928999963
              ],
              [
                -81.02250645399994,
                -5.242092696999919
              ],
              [
                -81.02164449000003,
                -5.238654347999955
              ],
              [
                -81.01985748999988,
                -5.236269472999879
              ],
              [
                -81.01651574000005,
                -5.234281223999972
              ],
              [
                -81.00656248999985,
                -5.232716848999928
              ],
              [
                -81.00223636499993,
                -5.233646473999897
              ],
              [
                -80.99813073999997,
                -5.230868973999975
              ],
              [
                -80.99005273999984,
                -5.234679723999875
              ],
              [
                -80.98749998999995,
                -5.236990223999896
              ],
              [
                -80.97953911499991,
                -5.238609348999944
              ],
              [
                -80.97555073999996,
                -5.238990223999906
              ],
              [
                -80.97061136499997,
                -5.241335973999924
              ],
              [
                -80.96625973999994,
                -5.240919973999894
              ],
              [
                -80.96056836499986,
                -5.237587848999965
              ],
              [
                -80.95465423999991,
                -5.237005848999956
              ],
              [
                -80.9457069899999,
                -5.23795897399998
              ],
              [
                -80.93923236499995,
                -5.237542973999894
              ],
              [
                -80.93618161499978,
                -5.238456973999973
              ],
              [
                -80.93023636499998,
                -5.241808598999967
              ],
              [
                -80.92715423999988,
                -5.244224598999949
              ],
              [
                -80.92401761499997,
                -5.247611348999953
              ],
              [
                -80.92262886499992,
                -5.250287098999934
              ],
              [
                -80.91692774,
                -5.252812473999882
              ],
              [
                -80.90622849,
                -5.261986348999869
              ],
              [
                -80.90386724000001,
                -5.26251372400003
              ],
              [
                -80.89787111500004,
                -5.262568348999821
              ],
              [
                -80.89306048999998,
                -5.266955098999972
              ],
              [
                -80.88636911499998,
                -5.271007723999901
              ],
              [
                -80.87911911500004,
                -5.276173848999974
              ],
              [
                -80.87509373999995,
                -5.278505848999885
              ],
              [
                -80.86949611499983,
                -5.280394473999934
              ],
              [
                -80.86455073999991,
                -5.279410098999961
              ],
              [
                -80.85954782099998,
                -5.280638759999874
              ],
              [
                -80.84912059899989,
                -5.293223913999896
              ],
              [
                -80.84328123899991,
                -5.286874973999943
              ],
              [
                -80.83985548999988,
                -5.279113222999968
              ],
              [
                -80.83969536499984,
                -5.272740223999961
              ],
              [
                -80.83600586499995,
                -5.267632848999881
              ],
              [
                -80.83488861399996,
                -5.265103473999943
              ],
              [
                -80.83489327799998,
                -5.26064531399993
              ],
              [
                -80.8360547399999,
                -5.254617222999968
              ],
              [
                -80.83624611499982,
                -5.247552722999956
              ],
              [
                -80.83376949,
                -5.24124022299992
              ],
              [
                -80.83036911499994,
                -5.235859347999963
              ],
              [
                -80.83035936399983,
                -5.231460973999901
              ],
              [
                -80.82947073900004,
                -5.227699222999888
              ],
              [
                -80.82769924000002,
                -5.22500972399996
              ],
              [
                -80.82179647600003,
                -5.222224851999897
              ],
              [
                -80.82103141099986,
                -5.219285814999921
              ],
              [
                -80.82176065699991,
                -5.216782698999907
              ],
              [
                -80.80508302799979,
                -5.221934258999852
              ],
              [
                -80.80280859399988,
                -5.215726562999919
              ],
              [
                -80.79723048900001,
                -5.205388723999818
              ],
              [
                -80.79449414099992,
                -5.20155078099998
              ],
              [
                -80.79034761499986,
                -5.196714722999957
              ],
              [
                -80.78725386500003,
                -5.190499973999977
              ],
              [
                -80.78558986500002,
                -5.184589847999916
              ],
              [
                -80.78147073899993,
                -5.179806597999914
              ],
              [
                -80.77927148999993,
                -5.178603472999953
              ],
              [
                -80.77574023999995,
                -5.173845722999943
              ],
              [
                -80.77363286399992,
                -5.164574222999931
              ],
              [
                -80.77204886399988,
                -5.159605473999932
              ],
              [
                -80.76945698999992,
                -5.155535098999962
              ],
              [
                -80.76770910099998,
                -5.151406896999902
              ],
              [
                -80.75926411599988,
                -5.138817271999869
              ],
              [
                -80.7416037999999,
                -5.123639389999937
              ],
              [
                -80.70032421899998,
                -5.017623046999915
              ],
              [
                -80.6859765619999,
                -5.019154296999886
              ],
              [
                -80.67724218799992,
                -5.020804686999952
              ],
              [
                -80.6676386719999,
                -5.021869139999978
              ],
              [
                -80.65688146699989,
                -5.023554296999976
              ],
              [
                -80.65762123299999,
                -5.02112832
              ],
              [
                -80.65633379999997,
                -5.018375064999816
              ],
              [
                -80.65427000499983,
                -5.016889976999948
              ],
              [
                -80.65178537299994,
                -5.009936977999928
              ],
              [
                -80.64944222799988,
                -5.006631062999872
              ],
              [
                -80.64971949099993,
                -5.001389345999939
              ],
              [
                -80.64749606699979,
                -4.997105276999946
              ],
              [
                -80.64631119599989,
                -4.992567299000029
              ],
              [
                -80.647114428,
                -4.98566234999987
              ],
              [
                -80.64528565300003,
                -4.978582317999894
              ],
              [
                -80.62995506699997,
                -4.974927225999977
              ],
              [
                -80.62912886399982,
                -4.968820347999895
              ],
              [
                -80.62734961499996,
                -4.966249972999947
              ],
              [
                -80.62703899000002,
                -4.961359347999974
              ],
              [
                -80.61993948999987,
                -4.947599597999954
              ],
              [
                -80.61802923899984,
                -4.940759722999928
              ],
              [
                -80.61136911499989,
                -4.933259722999878
              ],
              [
                -80.60627923999982,
                -4.929490222999902
              ],
              [
                -80.60568948899987,
                -4.927249972999903
              ],
              [
                -80.60528911499989,
                -4.91800984799994
              ],
              [
                -80.598740239,
                -4.911400347999916
              ],
              [
                -80.59568948999998,
                -4.906060597999954
              ],
              [
                -80.5929198639999,
                -4.905509722999966
              ],
              [
                -80.58869923999998,
                -4.905650347999938
              ],
              [
                -80.58648048999993,
                -4.904259723999928
              ],
              [
                -80.58259961499988,
                -4.905509722999966
              ],
              [
                -80.58027923999992,
                -4.903359347999924
              ],
              [
                -80.57358786499987,
                -4.899720723999963
              ],
              [
                -80.57314061499983,
                -4.898300722999977
              ],
              [
                -80.57380073999991,
                -4.891720722999935
              ],
              [
                -80.57224023899994,
                -4.884830097999895
              ],
              [
                -80.56746098899998,
                -4.883210972999962
              ],
              [
                -80.56289061499984,
                -4.883169972999951
              ],
              [
                -80.55751948999989,
                -4.880119097999909
              ],
              [
                -80.55298048899994,
                -4.875550722999947
              ],
              [
                -80.55233011399986,
                -4.873330098999872
              ],
              [
                -80.5534297399999,
                -4.871150347999844
              ],
              [
                -80.553289114,
                -4.867550724000012
              ],
              [
                -80.55452923999991,
                -4.863050723999891
              ],
              [
                -80.55178911499985,
                -4.861470724000014
              ],
              [
                -80.54961923999991,
                -4.858970722999914
              ],
              [
                -80.54553911499983,
                -4.846570347999943
              ],
              [
                -80.54005073899992,
                -4.839789097999926
              ],
              [
                -80.52200973999982,
                -4.82606059799997
              ],
              [
                -80.50742973999985,
                -4.823369097999944
              ],
              [
                -80.50584961499987,
                -4.823859347999928
              ],
              [
                -80.49881048999998,
                -4.829419972999915
              ],
              [
                -80.49706248899997,
                -4.829949222999915
              ],
              [
                -80.49426948999997,
                -4.82896097399987
              ],
              [
                -80.489169989,
                -4.831199222999885
              ],
              [
                -80.48682223899982,
                -4.831029348999948
              ],
              [
                -80.48090036500002,
                -4.828529347999961
              ],
              [
                -80.47652936400004,
                -4.825830097999926
              ],
              [
                -80.47372073899999,
                -4.827529347999928
              ],
              [
                -80.46852923899996,
                -4.828140597999948
              ],
              [
                -80.46483011399988,
                -4.830650347999949
              ],
              [
                -80.46082036400003,
                -4.831009722999909
              ],
              [
                -80.45443948999991,
                -4.832570347999933
              ],
              [
                -80.45225974000004,
                -4.829380847999971
              ],
              [
                -80.45051949000003,
                -4.828130847999944
              ],
              [
                -80.43757036399984,
                -4.825460972999906
              ],
              [
                -80.43489248899988,
                -4.825960972999894
              ],
              [
                -80.43023048899988,
                -4.828609347999929
              ],
              [
                -80.42299023899989,
                -4.828369097999939
              ],
              [
                -80.41886911399996,
                -4.82896097299988
              ],
              [
                -80.41748048900001,
                -4.827119097999969
              ],
              [
                -80.41346098999998,
                -4.825150348999898
              ],
              [
                -80.40883986499989,
                -4.821740222999892
              ],
              [
                -80.40709948999995,
                -4.819349597999974
              ],
              [
                -80.40496111499994,
                -4.812562472999957
              ],
              [
                -80.40339061399993,
                -4.810900222999976
              ],
              [
                -80.39992973900002,
                -4.80948822299996
              ],
              [
                -80.39507036399993,
                -4.808900347999952
              ],
              [
                -80.3928906139999,
                -4.807999973999927
              ],
              [
                -80.38599023899997,
                -4.807101598000031
              ],
              [
                -80.38225198899983,
                -4.802359347999925
              ],
              [
                -80.38190823899998,
                -4.799589847999925
              ],
              [
                -80.38024023899999,
                -4.798339848000012
              ],
              [
                -80.37667973999993,
                -4.798171847999924
              ],
              [
                -80.37168961500004,
                -4.800070348999895
              ],
              [
                -80.361849614,
                -4.801009722999936
              ],
              [
                -80.35672073899991,
                -4.798720722999974
              ],
              [
                -80.35180073899988,
                -4.794769472999974
              ],
              [
                -80.34990036499994,
                -4.792210972999953
              ],
              [
                -80.34799023999989,
                -4.792619097999875
              ],
              [
                -80.34742916599993,
                -4.789650166999877
              ],
              [
                -80.34881340799996,
                -4.786380209999948
              ],
              [
                -80.35329427199991,
                -4.78549601799989
              ],
              [
                -80.36010658599992,
                -4.777900536999937
              ],
              [
                -80.35943912899984,
                -4.775480688999892
              ],
              [
                -80.35575381199993,
                -4.771076654999945
              ],
              [
                -80.36793004399976,
                -4.765520011999968
              ],
              [
                -80.37339004399996,
                -4.759210010999936
              ],
              [
                -80.37699004399985,
                -4.757580011999892
              ],
              [
                -80.38041004399992,
                -4.754040010999915
              ],
              [
                -80.38525004399992,
                -4.747090010999898
              ],
              [
                -80.3852800439999,
                -4.745250011999872
              ],
              [
                -80.38786004400004,
                -4.741910011999948
              ],
              [
                -80.38852004400002,
                -4.735090011999887
              ],
              [
                -80.3904100439999,
                -4.733720011999878
              ],
              [
                -80.39161004399989,
                -4.729440010999951
              ],
              [
                -80.39279004399992,
                -4.728150011999901
              ],
              [
                -80.39613004399996,
                -4.72783001099998
              ],
              [
                -80.39869004399998,
                -4.725710011999979
              ],
              [
                -80.40123004400004,
                -4.720710010999881
              ],
              [
                -80.40008004399988,
                -4.718670010999972
              ],
              [
                -80.4024800439999,
                -4.717620011999941
              ],
              [
                -80.40287004399994,
                -4.714440010999908
              ],
              [
                -80.40213004399999,
                -4.711120010999934
              ],
              [
                -80.40437004399996,
                -4.710760010999877
              ],
              [
                -80.40612004399992,
                -4.708410010999955
              ],
              [
                -80.40689004400002,
                -4.704990011999939
              ],
              [
                -80.40623004400004,
                -4.701630010999963
              ],
              [
                -80.40456004399988,
                -4.70025001099998
              ],
              [
                -80.4015300449999,
                -4.700780010999949
              ],
              [
                -80.3986100439999,
                -4.691270010999972
              ],
              [
                -80.39661004499987,
                -4.688370010999961
              ],
              [
                -80.39455004399997,
                -4.683920010999941
              ],
              [
                -80.39216004399992,
                -4.68129001199992
              ],
              [
                -80.39186004399988,
                -4.679060010999876
              ],
              [
                -80.39305004399984,
                -4.675180010999952
              ],
              [
                -80.38803004499988,
                -4.666620011999896
              ],
              [
                -80.38306113099998,
                -4.664545941999904
              ],
              [
                -80.37316096,
                -4.665135541999916
              ],
              [
                -80.37116612199998,
                -4.661782898999888
              ],
              [
                -80.36430891799989,
                -4.660729585999889
              ],
              [
                -80.35819822299993,
                -4.658539994000023
              ],
              [
                -80.35417278999984,
                -4.658566225999948
              ],
              [
                -80.35083215399993,
                -4.659700043999976
              ],
              [
                -80.348597111,
                -4.658291817999896
              ],
              [
                -80.34843004399994,
                -4.652430010999922
              ],
              [
                -80.34725004400002,
                -4.649870010999848
              ],
              [
                -80.3472000439998,
                -4.644170010999915
              ],
              [
                -80.34535004399993,
                -4.640230010999971
              ],
              [
                -80.34305004399988,
                -4.638230011999951
              ],
              [
                -80.3388185529999,
                -4.637780052999972
              ],
              [
                -80.33870203999993,
                -4.634818039999914
              ],
              [
                -80.3370659659999,
                -4.630687792999879
              ],
              [
                -80.33680004099995,
                -4.628084659999956
              ],
              [
                -80.31230004399981,
                -4.620130011999947
              ],
              [
                -80.30978068899992,
                -4.61904186299995
              ],
              [
                -80.30549297599998,
                -4.613101937999943
              ],
              [
                -80.30182235899991,
                -4.610369815000013
              ],
              [
                -80.29943965499984,
                -4.607782553999868
              ],
              [
                -80.29610207899992,
                -4.606008110999881
              ],
              [
                -80.29333569799991,
                -4.605526679999912
              ],
              [
                -80.29066610500001,
                -4.603657141999975
              ],
              [
                -80.28599186199989,
                -4.602886566999871
              ],
              [
                -80.28222491900004,
                -4.601207373999955
              ],
              [
                -80.27368684499987,
                -4.600289209999914
              ],
              [
                -80.27044537699999,
                -4.597940337999887
              ],
              [
                -80.2693027329999,
                -4.595737215999975
              ],
              [
                -80.26611008099985,
                -4.592335272999946
              ],
              [
                -80.26344047099985,
                -4.590609255999937
              ],
              [
                -80.25824118999998,
                -4.590268789999925
              ],
              [
                -80.24875376799991,
                -4.585041217999958
              ],
              [
                -80.24479305499983,
                -4.586377351999943
              ],
              [
                -80.24273998099994,
                -4.588146302999917
              ],
              [
                -80.237872487,
                -4.58986437599998
              ],
              [
                -80.23162548700003,
                -4.587942950999945
              ],
              [
                -80.22518364199993,
                -4.589802840999937
              ],
              [
                -80.22389282799998,
                -4.592434178999952
              ],
              [
                -80.2213949149999,
                -4.595393903999877
              ]
            ]
          ]
        ],
        "type": "MultiPolygon"
      },
      "type": "Feature",
      "properties": {
        "PROVINCIA": "PIURA",
        "name": "PIURA",
        "ID": "190100",
        "DEPARTAMEN": "PIURA"
      }
    }
  ]
}
