{
  "type": "FeatureCollection",
  "features": [
    {
      "geometry": {
        "coordinates": [
          [
            [
              [
                -80.6540498469999,
                -5.217450593999956
              ],
              [
                -80.66340343999997,
                -5.214573847999873
              ],
              [
                -80.66714597399982,
                -5.218936209999924
              ],
              [
                -80.69168980499995,
                -5.202104271999929
              ],
              [
                -80.69030174999995,
                -5.19889210599996
              ],
              [
                -80.69334987999997,
                -5.19402441099993
              ],
              [
                -80.70702827999992,
                -5.174190586999941
              ],
              [
                -80.70732428299993,
                -5.170141554999873
              ],
              [
                -80.70954917999995,
                -5.169751045999874
              ],
              [
                -80.72468107799995,
                -5.165043654999977
              ],
              [
                -80.73099347199997,
                -5.161819791999847
              ],
              [
                -80.73485966699985,
                -5.161381429999892
              ],
              [
                -80.73931638199991,
                -5.157472340999959
              ],
              [
                -80.76776441999993,
                -5.151495319999924
              ],
              [
                -80.75926411599988,
                -5.138817271999869
              ],
              [
                -80.7416037999999,
                -5.123639389999937
              ],
              [
                -80.68749008599991,
                -5.117608401999917
              ],
              [
                -80.68156056699985,
                -5.139534074999972
              ],
              [
                -80.66233027099997,
                -5.145341038999902
              ],
              [
                -80.65985016999997,
                -5.153117832999953
              ],
              [
                -80.657795863,
                -5.157127612999943
              ],
              [
                -80.65123971999992,
                -5.164902458999904
              ],
              [
                -80.65654770399982,
                -5.16799916399998
              ],
              [
                -80.66033047999997,
                -5.173166768999977
              ],
              [
                -80.65816844799997,
                -5.177392272999839
              ],
              [
                -80.64806076699989,
                -5.180823848999978
              ],
              [
                -80.64678173999994,
                -5.182314322999957
              ],
              [
                -80.64909034499988,
                -5.184740043999909
              ],
              [
                -80.65898169199994,
                -5.18128067899994
              ],
              [
                -80.66026991799993,
                -5.185198468999943
              ],
              [
                -80.65368180599984,
                -5.187266522999892
              ],
              [
                -80.65508727299994,
                -5.191256756999906
              ],
              [
                -80.65422015399997,
                -5.192866543999969
              ],
              [
                -80.64780337399998,
                -5.194961761999934
              ],
              [
                -80.64878110499996,
                -5.189172609999957
              ],
              [
                -80.63910579299994,
                -5.19325612699987
              ],
              [
                -80.6499662359999,
                -5.208352916999957
              ],
              [
                -80.65241108499993,
                -5.212602789999949
              ],
              [
                -80.6540498469999,
                -5.217450593999956
              ]
            ]
          ]
        ],
        "type": "MultiPolygon"
      },
      "type": "Feature",
      "properties": {
        "PROVINCIA": "PIURA",
        "DISTRITO": "VEINTISEIS DE OCTUBRE",
        "name": "VEINTISEIS DE OCTUBRE",
        "ID": "190115",
        "DEPARTAMEN": "PIURA"
      }
    }
  ]
}
