{
  "type": "FeatureCollection",
  "features": [
    {
      "geometry": {
        "coordinates": [
          [
            [
              [
                -72.78778835699984,
                -15.251831981999885
              ],
              [
                -72.78671260699991,
                -15.254327732999968
              ],
              [
                -72.78791048199997,
                -15.259413732999974
              ],
              [
                -72.78977198299998,
                -15.261883856999816
              ],
              [
                -72.7891387329999,
                -15.266290607999906
              ],
              [
                -72.7894821079999,
                -15.26950935799988
              ],
              [
                -72.78847498199997,
                -15.274204231999931
              ],
              [
                -72.78908535699986,
                -15.27692798299995
              ],
              [
                -72.79140473199993,
                -15.278710357999898
              ],
              [
                -72.7970276069999,
                -15.280657732999941
              ],
              [
                -72.80012510799997,
                -15.283078232999912
              ],
              [
                -72.8011398569999,
                -15.286854732999927
              ],
              [
                -72.8037033569999,
                -15.29096510799991
              ],
              [
                -72.80936435799998,
                -15.29383473299987
              ],
              [
                -72.81214160699989,
                -15.29685748299994
              ],
              [
                -72.81137110699984,
                -15.303550732999952
              ],
              [
                -72.81573473299994,
                -15.307102107999981
              ],
              [
                -72.83013910699998,
                -15.312185232999923
              ],
              [
                -72.83468623199991,
                -15.315021481999963
              ],
              [
                -72.83719635699993,
                -15.317884482999943
              ],
              [
                -72.83870698199996,
                -15.32343860799989
              ],
              [
                -72.8386537319999,
                -15.327238107999847
              ],
              [
                -72.8410797329999,
                -15.336790232999874
              ],
              [
                -72.84307860699994,
                -15.33867448299992
              ],
              [
                -72.84346785699995,
                -15.343927357999974
              ],
              [
                -72.84104923199988,
                -15.349340482999935
              ],
              [
                -72.84217073299993,
                -15.35493185799993
              ],
              [
                -72.84368898199989,
                -15.357839732999878
              ],
              [
                -72.84561923299998,
                -15.363802857999929
              ],
              [
                -72.84841160699995,
                -15.36784360799993
              ],
              [
                -72.85345460799994,
                -15.372044607999896
              ],
              [
                -72.85625460699987,
                -15.375881232999973
              ],
              [
                -72.85689548199997,
                -15.378642982999963
              ],
              [
                -72.85650635699983,
                -15.382686607999972
              ],
              [
                -72.85771173199998,
                -15.38753885799997
              ],
              [
                -72.86068723299996,
                -15.390177732999916
              ],
              [
                -72.86101548299996,
                -15.395980857999916
              ],
              [
                -72.86350248199994,
                -15.398869482999942
              ],
              [
                -72.86608123199989,
                -15.399363357999846
              ],
              [
                -72.87067410699996,
                -15.404218732999936
              ],
              [
                -72.87371823199993,
                -15.406326232999959
              ],
              [
                -72.87506860799994,
                -15.40608973299993
              ],
              [
                -72.87741848299993,
                -15.402788107999982
              ],
              [
                -72.88510135699994,
                -15.403513857999883
              ],
              [
                -72.8899842319999,
                -15.40348623299991
              ],
              [
                -72.88744348199992,
                -15.397486732999823
              ],
              [
                -72.88678735699989,
                -15.393284857999959
              ],
              [
                -72.88396448299994,
                -15.391412732999981
              ],
              [
                -72.88217160699992,
                -15.384788482999966
              ],
              [
                -72.87928023199999,
                -15.381531732999974
              ],
              [
                -72.87763210699995,
                -15.37716385799996
              ],
              [
                -72.87819673199994,
                -15.370215357999882
              ],
              [
                -72.87911985699992,
                -15.36782260799987
              ],
              [
                -72.87884523299994,
                -15.363004732999968
              ],
              [
                -72.88021848199998,
                -15.354676357999892
              ],
              [
                -72.88381960699996,
                -15.35093773299991
              ],
              [
                -72.88738248199996,
                -15.34308810799996
              ],
              [
                -72.88957973199996,
                -15.34022048299994
              ],
              [
                -72.89006048199991,
                -15.337305107999953
              ],
              [
                -72.89237973199988,
                -15.330413857999872
              ],
              [
                -72.89226535699993,
                -15.32789798199991
              ],
              [
                -72.88960260699997,
                -15.32161135799987
              ],
              [
                -72.88973998299997,
                -15.315859732999968
              ],
              [
                -72.89073185799998,
                -15.312841357999957
              ],
              [
                -72.8894271069999,
                -15.30962660699987
              ],
              [
                -72.88687898199993,
                -15.306670232999977
              ],
              [
                -72.88698573199997,
                -15.298904357999845
              ],
              [
                -72.88823698199997,
                -15.294619607999948
              ],
              [
                -72.89060973199997,
                -15.29176710799993
              ],
              [
                -72.89319610699994,
                -15.285607357999936
              ],
              [
                -72.89494323199989,
                -15.284084357999916
              ],
              [
                -72.89335635699996,
                -15.280010107999885
              ],
              [
                -72.88616185699993,
                -15.272470482999836
              ],
              [
                -72.88428498299999,
                -15.265054732999886
              ],
              [
                -72.88448335799995,
                -15.260794607999912
              ],
              [
                -72.8875732329999,
                -15.25388435799988
              ],
              [
                -72.89254760799992,
                -15.252392732999908
              ],
              [
                -72.89671323299996,
                -15.25255773299989
              ],
              [
                -72.90409085699997,
                -15.246508607999885
              ],
              [
                -72.90994260699989,
                -15.244293232999894
              ],
              [
                -72.91762548199989,
                -15.243987106999896
              ],
              [
                -72.92258448199988,
                -15.242470732999948
              ],
              [
                -72.92723848299994,
                -15.239369357999976
              ],
              [
                -72.92902373299995,
                -15.23633098299996
              ],
              [
                -72.93357848299996,
                -15.23337560799996
              ],
              [
                -72.93565373199988,
                -15.226879107999935
              ],
              [
                -72.93936923199982,
                -15.225071857999978
              ],
              [
                -72.94179535799998,
                -15.222972857999935
              ],
              [
                -72.93661498199992,
                -15.219383232999974
              ],
              [
                -72.93464660799987,
                -15.21448423299995
              ],
              [
                -72.93155673199993,
                -15.212472857999899
              ],
              [
                -72.9272232319999,
                -15.211459107999872
              ],
              [
                -72.92472073199997,
                -15.209511732999943
              ],
              [
                -72.9214782329999,
                -15.208785107999972
              ],
              [
                -72.9190521079999,
                -15.205950732999895
              ],
              [
                -72.91800685699985,
                -15.203203232999954
              ],
              [
                -72.91736598199992,
                -15.197524857999895
              ],
              [
                -72.91474910799997,
                -15.195694982999896
              ],
              [
                -72.91168210699993,
                -15.191492107999977
              ],
              [
                -72.90838623299999,
                -15.194216732999905
              ],
              [
                -72.90641798199994,
                -15.200935357999981
              ],
              [
                -72.90325923299997,
                -15.204355231999955
              ],
              [
                -72.89992523199999,
                -15.20448210799998
              ],
              [
                -72.89766698199992,
                -15.204353357999935
              ],
              [
                -72.89270785699995,
                -15.199194857999942
              ],
              [
                -72.88732910799996,
                -15.197878857999967
              ],
              [
                -72.88565060799993,
                -15.199089982999965
              ],
              [
                -72.88336948299991,
                -15.19833560799998
              ],
              [
                -72.88040923199992,
                -15.194779357999835
              ],
              [
                -72.87891385799992,
                -15.191628482999874
              ],
              [
                -72.8735046079999,
                -15.189967107999905
              ],
              [
                -72.87082673199995,
                -15.190226607999818
              ],
              [
                -72.86728673199997,
                -15.191968857999882
              ],
              [
                -72.8628997319999,
                -15.189511357999947
              ],
              [
                -72.85971073199994,
                -15.183810232999974
              ],
              [
                -72.85868835699989,
                -15.18084335799989
              ],
              [
                -72.8559417329999,
                -15.184724857999981
              ],
              [
                -72.85535435799989,
                -15.189375857999948
              ],
              [
                -72.85433210799994,
                -15.19201948299991
              ],
              [
                -72.84941098299993,
                -15.201474232999885
              ],
              [
                -72.84573360799993,
                -15.206155732999832
              ],
              [
                -72.8464049829999,
                -15.212536857999964
              ],
              [
                -72.84619898299991,
                -15.216433482999946
              ],
              [
                -72.84315485699994,
                -15.219661732999896
              ],
              [
                -72.84195698299993,
                -15.22263335699995
              ],
              [
                -72.83536535799988,
                -15.224560857999961
              ],
              [
                -72.83193210699994,
                -15.22396273299995
              ],
              [
                -72.82757573299989,
                -15.226194357999873
              ],
              [
                -72.82363885699993,
                -15.235095982999894
              ],
              [
                -72.81885523199992,
                -15.23853298299997
              ],
              [
                -72.81433110799998,
                -15.240886732999968
              ],
              [
                -72.81190485699994,
                -15.243986107999888
              ],
              [
                -72.80459598199997,
                -15.248603857999967
              ],
              [
                -72.79780573199992,
                -15.25028598299997
              ],
              [
                -72.79541010699995,
                -15.25202848299989
              ],
              [
                -72.79177098199995,
                -15.252485232999959
              ],
              [
                -72.79009248299997,
                -15.251244482999937
              ],
              [
                -72.78778835699984,
                -15.251831981999885
              ]
            ]
          ]
        ],
        "type": "MultiPolygon"
      },
      "type": "Feature",
      "properties": {
        "PROVINCIA": "LA UNION",
        "DISTRITO": "COTAHUASI",
        "name": "COTAHUASI",
        "ID": "040801",
        "DEPARTAMEN": "AREQUIPA"
      }
    }
  ]
}
