{
  "type": "FeatureCollection",
  "features": [
    {
      "geometry": {
        "coordinates": [
          [
            [
              [
                -71.51016998099993,
                -15.004634857999974
              ],
              [
                -71.50845335699995,
                -15.007133481999915
              ],
              [
                -71.50712585699995,
                -15.013829106999879
              ],
              [
                -71.50499723099995,
                -15.016273482999964
              ],
              [
                -71.50372310599988,
                -15.020950356999947
              ],
              [
                -71.50431060599982,
                -15.025307606999888
              ],
              [
                -71.50366985599999,
                -15.027326606999964
              ],
              [
                -71.50064085599996,
                -15.029239607999955
              ],
              [
                -71.49721523099998,
                -15.032427732999963
              ],
              [
                -71.49240110599993,
                -15.03327748299995
              ],
              [
                -71.48638910599988,
                -15.037087481999947
              ],
              [
                -71.48460385599998,
                -15.039325732999941
              ],
              [
                -71.4822082309999,
                -15.047717107999972
              ],
              [
                -71.48268123099996,
                -15.05236723299987
              ],
              [
                -71.48587035599996,
                -15.059104857999955
              ],
              [
                -71.49092098099987,
                -15.064472232999947
              ],
              [
                -71.49562073099997,
                -15.067257857999948
              ],
              [
                -71.49977873099994,
                -15.067390482999826
              ],
              [
                -71.50494398199999,
                -15.07132723299992
              ],
              [
                -71.5090789809999,
                -15.075264857999969
              ],
              [
                -71.5117111059999,
                -15.079447732999938
              ],
              [
                -71.51456448099992,
                -15.079447731999949
              ],
              [
                -71.5189591059999,
                -15.076421732999847
              ],
              [
                -71.52561185599995,
                -15.075823856999932
              ],
              [
                -71.53035735599997,
                -15.074524857999904
              ],
              [
                -71.53960423099994,
                -15.074290232999942
              ],
              [
                -71.54421998099997,
                -15.072331481999981
              ],
              [
                -71.54649348099997,
                -15.068491981999898
              ],
              [
                -71.55132685599983,
                -15.066911732999927
              ],
              [
                -71.55602260599994,
                -15.066876356999899
              ],
              [
                -71.56188023099992,
                -15.064154607999967
              ],
              [
                -71.57062723199988,
                -15.061207231999902
              ],
              [
                -71.57234373099988,
                -15.061931607999952
              ],
              [
                -71.57195835699997,
                -15.065675857999963
              ],
              [
                -71.57271885599994,
                -15.07023948299991
              ],
              [
                -71.57603460599984,
                -15.077456482999935
              ],
              [
                -71.5761871059999,
                -15.080665606999958
              ],
              [
                -71.57778173199989,
                -15.087873481999964
              ],
              [
                -71.58002473099992,
                -15.091852232999884
              ],
              [
                -71.58383173199996,
                -15.095996857999978
              ],
              [
                -71.58361810599996,
                -15.102387482999916
              ],
              [
                -71.58647160599998,
                -15.110410731999934
              ],
              [
                -71.58673860699997,
                -15.118168857999876
              ],
              [
                -71.5876007309999,
                -15.125595106999981
              ],
              [
                -71.58914173099993,
                -15.12887673199998
              ],
              [
                -71.59302523099984,
                -15.130834607999816
              ],
              [
                -71.60149385599993,
                -15.132644607999907
              ],
              [
                -71.60155485599984,
                -15.135150856999871
              ],
              [
                -71.60291285599993,
                -15.139182107999943
              ],
              [
                -71.6062241059999,
                -15.140240606999953
              ],
              [
                -71.61262510599988,
                -15.145173107999938
              ],
              [
                -71.61760710599998,
                -15.14606473299989
              ],
              [
                -71.62904360599998,
                -15.14218235699991
              ],
              [
                -71.63602448099994,
                -15.139139232999923
              ],
              [
                -71.64357760599995,
                -15.130709607999961
              ],
              [
                -71.64357760699994,
                -15.126981731999877
              ],
              [
                -71.64643860699988,
                -15.124360106999859
              ],
              [
                -71.64903260599993,
                -15.120671232999882
              ],
              [
                -71.65415185599994,
                -15.116847107999945
              ],
              [
                -71.65777585599994,
                -15.11329560799993
              ],
              [
                -71.66167448099998,
                -15.111497856999847
              ],
              [
                -71.66371923199989,
                -15.108579607999957
              ],
              [
                -71.66359710599994,
                -15.100923481999928
              ],
              [
                -71.66452785699994,
                -15.099305107999896
              ],
              [
                -71.66777023199995,
                -15.097935732999929
              ],
              [
                -71.66732785599987,
                -15.09382623199997
              ],
              [
                -71.66795348099993,
                -15.091896106999968
              ],
              [
                -71.67144010599986,
                -15.089779857999929
              ],
              [
                -71.67557523099998,
                -15.088599232999968
              ],
              [
                -71.67918398199993,
                -15.08849048199994
              ],
              [
                -71.68459323199994,
                -15.09052373299994
              ],
              [
                -71.69107823099989,
                -15.091177982999966
              ],
              [
                -71.69827273099997,
                -15.088970231999838
              ],
              [
                -71.70194248099995,
                -15.088347482999893
              ],
              [
                -71.70674135699994,
                -15.089281106999977
              ],
              [
                -71.7127762319999,
                -15.08903210799997
              ],
              [
                -71.71558385699996,
                -15.088160482999967
              ],
              [
                -71.72126010599993,
                -15.083946232999892
              ],
              [
                -71.72837835599995,
                -15.082501357999888
              ],
              [
                -71.73448948099997,
                -15.082141857999886
              ],
              [
                -71.74111935599996,
                -15.07994273199995
              ],
              [
                -71.74414823099994,
                -15.081376982999927
              ],
              [
                -71.75637060699995,
                -15.084654981999904
              ],
              [
                -71.7591171059999,
                -15.083958606999943
              ],
              [
                -71.76548773099995,
                -15.078683857999977
              ],
              [
                -71.76786035599991,
                -15.078881232999947
              ],
              [
                -71.76956935599992,
                -15.081451356999878
              ],
              [
                -71.77253735599999,
                -15.082439481999927
              ],
              [
                -71.77592473199996,
                -15.080794356999888
              ],
              [
                -71.78047948199998,
                -15.076333107999972
              ],
              [
                -71.78455348099999,
                -15.070514731999936
              ],
              [
                -71.78630060699993,
                -15.069550482999944
              ],
              [
                -71.79117585599994,
                -15.070227607999982
              ],
              [
                -71.79459385599995,
                -15.069859482999902
              ],
              [
                -71.79811098099998,
                -15.06813235699991
              ],
              [
                -71.8029556059999,
                -15.067440981999937
              ],
              [
                -71.80784610599989,
                -15.069912107999926
              ],
              [
                -71.8089523559999,
                -15.071542731999898
              ],
              [
                -71.81211085599995,
                -15.072751982999876
              ],
              [
                -71.81389623199988,
                -15.076906232999875
              ],
              [
                -71.81547548099991,
                -15.078221357999894
              ],
              [
                -71.81883998199993,
                -15.078063982999936
              ],
              [
                -71.82241823199996,
                -15.07664398199995
              ],
              [
                -71.8326721059999,
                -15.077064482999901
              ],
              [
                -71.83763123099999,
                -15.074841482999943
              ],
              [
                -71.83868410599996,
                -15.07308573299997
              ],
              [
                -71.84016423199995,
                -15.065401981999969
              ],
              [
                -71.84585573199996,
                -15.056760731999873
              ],
              [
                -71.84844210599988,
                -15.05187698299983
              ],
              [
                -71.84931948199994,
                -15.04508973299994
              ],
              [
                -71.84357448099985,
                -15.042705481999917
              ],
              [
                -71.83873748099995,
                -15.042630232999898
              ],
              [
                -71.83473210699998,
                -15.040588231999891
              ],
              [
                -71.83253473199989,
                -15.038092607999886
              ],
              [
                -71.82292935699996,
                -15.034991232999971
              ],
              [
                -71.82149510599999,
                -15.03317648199993
              ],
              [
                -71.81513973199992,
                -15.02788260799997
              ],
              [
                -71.81135560599989,
                -15.023571981999964
              ],
              [
                -71.80503848199993,
                -15.021386106999955
              ],
              [
                -71.79679110599994,
                -15.020160731999908
              ],
              [
                -71.79234323099996,
                -15.016997107999885
              ],
              [
                -71.7778917309999,
                -15.013289231999977
              ],
              [
                -71.77427373099994,
                -15.011726857999918
              ],
              [
                -71.76745610599994,
                -15.010523982999871
              ],
              [
                -71.76497648099996,
                -15.00830560799983
              ],
              [
                -71.76371760599989,
                -15.003816607999909
              ],
              [
                -71.76347223099992,
                -14.99479535699993
              ],
              [
                -71.76447298099993,
                -14.991615356999887
              ],
              [
                -71.76761623099998,
                -14.986581857999965
              ],
              [
                -71.77024073199993,
                -14.984484732999931
              ],
              [
                -71.77024073199993,
                -14.982176732999903
              ],
              [
                -71.76866910699994,
                -14.978402107999955
              ],
              [
                -71.76300048099995,
                -14.971060732999888
              ],
              [
                -71.76038360699988,
                -14.966761607999956
              ],
              [
                -71.75843460599992,
                -14.961365857999908
              ],
              [
                -71.75572848099995,
                -14.955448107999928
              ],
              [
                -71.75409285599994,
                -14.953366356999936
              ],
              [
                -71.75031623099994,
                -14.951106356999958
              ],
              [
                -71.74771885599995,
                -14.948301356999877
              ],
              [
                -71.74595998099994,
                -14.939869982999937
              ],
              [
                -71.74502535599987,
                -14.939044982999974
              ],
              [
                -71.74223823199992,
                -14.932517607999898
              ],
              [
                -71.74390623199997,
                -14.92784960799986
              ],
              [
                -71.74648048099994,
                -14.92592385699993
              ],
              [
                -71.74683185699996,
                -14.923915982999972
              ],
              [
                -71.74532035599992,
                -14.917255857999976
              ],
              [
                -71.74145910599992,
                -14.91217573199998
              ],
              [
                -71.74089648199993,
                -14.907917981999958
              ],
              [
                -71.74118560699998,
                -14.90228123199995
              ],
              [
                -71.73981835599989,
                -14.899501982999936
              ],
              [
                -71.74182623199994,
                -14.892912107999962
              ],
              [
                -71.73878123099996,
                -14.887581982999905
              ],
              [
                -71.73910548099997,
                -14.88255660699997
              ],
              [
                -71.73774223099997,
                -14.880665981999925
              ],
              [
                -71.73193360699997,
                -14.878490231999933
              ],
              [
                -71.72656635699997,
                -14.873455106999813
              ],
              [
                -71.7237051059999,
                -14.871474606999982
              ],
              [
                -71.72076173099993,
                -14.87111910699997
              ],
              [
                -71.71854298099993,
                -14.869749981999917
              ],
              [
                -71.71398435699996,
                -14.868398481999918
              ],
              [
                -71.71370510699995,
                -14.870564481999907
              ],
              [
                -71.71085935699995,
                -14.87388085699996
              ],
              [
                -71.70854298199987,
                -14.872630856999933
              ],
              [
                -71.70626948199998,
                -14.86980473199992
              ],
              [
                -71.69863285699995,
                -14.868820357999937
              ],
              [
                -71.69307810699996,
                -14.867146482999885
              ],
              [
                -71.69033785599999,
                -14.865083982999977
              ],
              [
                -71.68979298199997,
                -14.86313085799992
              ],
              [
                -71.68729498099992,
                -14.86181248299988
              ],
              [
                -71.68295510599995,
                -14.862396481999895
              ],
              [
                -71.6776699809999,
                -14.865107481999928
              ],
              [
                -71.67418360599993,
                -14.862281232999976
              ],
              [
                -71.67192573099999,
                -14.863845731999902
              ],
              [
                -71.66831060599992,
                -14.856771482999875
              ],
              [
                -71.66605860599992,
                -14.855718732999946
              ],
              [
                -71.65751773099998,
                -14.85585548299997
              ],
              [
                -71.65345123099996,
                -14.857853481999882
              ],
              [
                -71.65203123099997,
                -14.860222606999969
              ],
              [
                -71.64881635599988,
                -14.862855482999976
              ],
              [
                -71.63887310599989,
                -14.864570356999934
              ],
              [
                -71.63202935599986,
                -14.864927732999888
              ],
              [
                -71.62944923099997,
                -14.866371107999953
              ],
              [
                -71.62642185599998,
                -14.866845731999888
              ],
              [
                -71.62324023099995,
                -14.869586107999964
              ],
              [
                -71.61990623099996,
                -14.8699257319999
              ],
              [
                -71.61915823099991,
                -14.871414107999954
              ],
              [
                -71.61569335699994,
                -14.870515607999948
              ],
              [
                -71.60974023099993,
                -14.874708981999902
              ],
              [
                -71.60688873099991,
                -14.87865435699996
              ],
              [
                -71.6047909809999,
                -14.879642607999926
              ],
              [
                -71.60136323099988,
                -14.879099607999933
              ],
              [
                -71.60061323199989,
                -14.876939481999898
              ],
              [
                -71.59733010599996,
                -14.874740231999908
              ],
              [
                -71.58817385599997,
                -14.873212857999931
              ],
              [
                -71.58679885599997,
                -14.873937481999917
              ],
              [
                -71.58612310599995,
                -14.881578107999928
              ],
              [
                -71.58748248099988,
                -14.884146481999949
              ],
              [
                -71.58611310599991,
                -14.8876172329999
              ],
              [
                -71.58401948099998,
                -14.889617231999921
              ],
              [
                -71.58201760599997,
                -14.889615231999926
              ],
              [
                -71.57974023099985,
                -14.891296856999872
              ],
              [
                -71.57740623199999,
                -14.895556607999936
              ],
              [
                -71.57190623099996,
                -14.897580107999943
              ],
              [
                -71.56958198099983,
                -14.897869106999963
              ],
              [
                -71.56527935599996,
                -14.901540981999972
              ],
              [
                -71.55843160599989,
                -14.903003856999874
              ],
              [
                -71.55598248099994,
                -14.902828107999824
              ],
              [
                -71.55398823099995,
                -14.901097606999883
              ],
              [
                -71.55112698099998,
                -14.90256435799995
              ],
              [
                -71.54923635599988,
                -14.907914107999886
              ],
              [
                -71.55253710599993,
                -14.912033232999931
              ],
              [
                -71.55338285599993,
                -14.914134732999912
              ],
              [
                -71.55629098099996,
                -14.917111357999886
              ],
              [
                -71.56306248099997,
                -14.918687481999939
              ],
              [
                -71.56890235599991,
                -14.927040982999927
              ],
              [
                -71.57213085599994,
                -14.928646481999976
              ],
              [
                -71.57542773099988,
                -14.932126982999932
              ],
              [
                -71.57616210599997,
                -14.934624982999935
              ],
              [
                -71.58481248099986,
                -14.94122260699993
              ],
              [
                -71.59324810599998,
                -14.944849607999913
              ],
              [
                -71.59679098199985,
                -14.951220731999854
              ],
              [
                -71.59751173099988,
                -14.955175732999976
              ],
              [
                -71.59961523099992,
                -14.956378857999937
              ],
              [
                -71.60018948099992,
                -14.958390607999945
              ],
              [
                -71.59512223099995,
                -14.961815732999924
              ],
              [
                -71.59139160599995,
                -14.962163981999879
              ],
              [
                -71.58860610599993,
                -14.96425310799998
              ],
              [
                -71.58557185599989,
                -14.970271856999886
              ],
              [
                -71.57950335599998,
                -14.97748435799997
              ],
              [
                -71.57104723099991,
                -14.981463732999885
              ],
              [
                -71.56468035599988,
                -14.982458607999888
              ],
              [
                -71.56159648199991,
                -14.986039981999909
              ],
              [
                -71.55522948099997,
                -14.9916607319999
              ],
              [
                -71.54950898099997,
                -14.993700107999928
              ],
              [
                -71.54376948099997,
                -14.996493482999938
              ],
              [
                -71.53894910599985,
                -14.997514232999833
              ],
              [
                -71.53680273199996,
                -14.996787106999875
              ],
              [
                -71.52854285599983,
                -14.997769481999967
              ],
              [
                -71.52542385599997,
                -14.999073732999818
              ],
              [
                -71.52279073099987,
                -15.003236857999923
              ],
              [
                -71.5190588559999,
                -15.003335106999884
              ],
              [
                -71.51301910599994,
                -15.00461173299982
              ],
              [
                -71.51016998099993,
                -15.004634857999974
              ]
            ]
          ]
        ],
        "type": "MultiPolygon"
      },
      "type": "Feature",
      "properties": {
        "PROVINCIA": "ESPINAR",
        "DISTRITO": "SUYCKUTAMBO",
        "name": "SUYCKUTAMBO",
        "ID": "070807",
        "DEPARTAMEN": "CUSCO"
      }
    }
  ]
}
