{
  "type": "FeatureCollection",
  "features": [
    {
      "geometry": {
        "coordinates": [
          [
            [
              [
                -75.90837998499995,
                -11.77391997999996
              ],
              [
                -75.90666161099995,
                -11.774296729999946
              ],
              [
                -75.90130660999989,
                -11.77336422899998
              ],
              [
                -75.89783385999982,
                -11.778350979999914
              ],
              [
                -75.89314448499994,
                -11.78362885499996
              ],
              [
                -75.89391335999989,
                -11.790060229999938
              ],
              [
                -75.89184823499988,
                -11.797568979999937
              ],
              [
                -75.89361723499997,
                -11.800084979999895
              ],
              [
                -75.89831235999998,
                -11.803257354999914
              ],
              [
                -75.89623235999983,
                -11.810154354999952
              ],
              [
                -75.89634373499996,
                -11.814277354999945
              ],
              [
                -75.90068960999992,
                -11.821724729999971
              ],
              [
                -75.90146698499996,
                -11.8237891039999
              ],
              [
                -75.9011036099999,
                -11.82924522999997
              ],
              [
                -75.8980409859999,
                -11.83931635499988
              ],
              [
                -75.89559185999997,
                -11.844921853999892
              ],
              [
                -75.89802535999996,
                -11.8523106049999
              ],
              [
                -75.90017748499992,
                -11.856086104999918
              ],
              [
                -75.90213985999992,
                -11.857267104999949
              ],
              [
                -75.90443985999997,
                -11.860408479999876
              ],
              [
                -75.90496785999989,
                -11.86587185399992
              ],
              [
                -75.90210611099997,
                -11.869183353999915
              ],
              [
                -75.9066542359999,
                -11.873640604999935
              ],
              [
                -75.91174998499997,
                -11.873246104999907
              ],
              [
                -75.91669535999989,
                -11.875525228999834
              ],
              [
                -75.92109760999989,
                -11.87647072999988
              ],
              [
                -75.92693873499985,
                -11.875383979999867
              ],
              [
                -75.93337910999998,
                -11.873156103999918
              ],
              [
                -75.93554448499992,
                -11.86961010399989
              ],
              [
                -75.94410698499996,
                -11.86921110399993
              ],
              [
                -75.94655336099999,
                -11.870194979999951
              ],
              [
                -75.95574710999995,
                -11.870492854999895
              ],
              [
                -75.95664498499997,
                -11.874107354999921
              ],
              [
                -75.95815248499991,
                -11.876533354999935
              ],
              [
                -75.96246748499982,
                -11.87831360499996
              ],
              [
                -75.96657285999993,
                -11.878674229999945
              ],
              [
                -75.97438486099998,
                -11.88343872999991
              ],
              [
                -75.97562836099985,
                -11.886657229999855
              ],
              [
                -75.97872485999989,
                -11.891338478999955
              ],
              [
                -75.98172385999999,
                -11.89336222999998
              ],
              [
                -75.98401573599989,
                -11.893679229999975
              ],
              [
                -75.9879899849999,
                -11.896214978999922
              ],
              [
                -75.98980185999989,
                -11.896172978999914
              ],
              [
                -75.99347598499998,
                -11.899628479999933
              ],
              [
                -75.99789448499996,
                -11.89886910499996
              ],
              [
                -76.00715086099996,
                -11.89939460499994
              ],
              [
                -76.00991798499996,
                -11.900056604999975
              ],
              [
                -76.01161098499989,
                -11.902893104999919
              ],
              [
                -76.01565660999995,
                -11.904036479999945
              ],
              [
                -76.01951986099994,
                -11.901004353999895
              ],
              [
                -76.02004698599995,
                -11.898737478999976
              ],
              [
                -76.02433011099998,
                -11.89763472999988
              ],
              [
                -76.02962223499998,
                -11.90735485499988
              ],
              [
                -76.02976023499991,
                -11.908903104999979
              ],
              [
                -76.02660973599984,
                -11.912753603999931
              ],
              [
                -76.02843010999999,
                -11.914830729999892
              ],
              [
                -76.02864760999995,
                -11.918121854999981
              ],
              [
                -76.03377885999998,
                -11.929179353999814
              ],
              [
                -76.0362717349999,
                -11.932797728999958
              ],
              [
                -76.03901698499993,
                -11.932180229999858
              ],
              [
                -76.04061798499998,
                -11.935948853999946
              ],
              [
                -76.04495160999988,
                -11.937412604999963
              ],
              [
                -76.0518614859999,
                -11.938962104999916
              ],
              [
                -76.05516373599994,
                -11.9379272299999
              ],
              [
                -76.05531235999996,
                -11.934774729999958
              ],
              [
                -76.05367598499993,
                -11.930977353999879
              ],
              [
                -76.05424073499995,
                -11.927491854999971
              ],
              [
                -76.05711098499995,
                -11.92476285499987
              ],
              [
                -76.05601448499988,
                -11.920717479999894
              ],
              [
                -76.05802223499995,
                -11.916603603999874
              ],
              [
                -76.05822073599984,
                -11.912808604999952
              ],
              [
                -76.05183536099997,
                -11.910702353999909
              ],
              [
                -76.05033898499988,
                -11.909600729999909
              ],
              [
                -76.05080848499983,
                -11.906670603999942
              ],
              [
                -76.04976835999992,
                -11.901086604999932
              ],
              [
                -76.05185311099996,
                -11.899567229999889
              ],
              [
                -76.05074998599997,
                -11.899433229999943
              ],
              [
                -76.04536410999992,
                -11.894586354999888
              ],
              [
                -76.04210111099997,
                -11.890416354999957
              ],
              [
                -76.04313661099991,
                -11.88512572999997
              ],
              [
                -76.04035485999998,
                -11.880135228999961
              ],
              [
                -76.04038273499998,
                -11.878206103999958
              ],
              [
                -76.0437237349999,
                -11.870881104999967
              ],
              [
                -76.04368186099992,
                -11.869958479999923
              ],
              [
                -76.04917723499995,
                -11.864129603999913
              ],
              [
                -76.05159135999986,
                -11.860636729999953
              ],
              [
                -76.05263948499999,
                -11.856780479999884
              ],
              [
                -76.05551111099999,
                -11.850245228999881
              ],
              [
                -76.05439773499995,
                -11.846587104999912
              ],
              [
                -76.05350623499993,
                -11.840638103999936
              ],
              [
                -76.05637448599992,
                -11.834379979999937
              ],
              [
                -76.0545678599999,
                -11.832070604999899
              ],
              [
                -76.05384786099995,
                -11.82847897999983
              ],
              [
                -76.0492089849999,
                -11.823615229999916
              ],
              [
                -76.04828498499995,
                -11.821252353999967
              ],
              [
                -76.04943186099996,
                -11.81694310399996
              ],
              [
                -76.04905811099997,
                -11.812899354999956
              ],
              [
                -76.05115898499997,
                -11.80943835499994
              ],
              [
                -76.0480344849999,
                -11.806201354999871
              ],
              [
                -76.04409335999998,
                -11.804182854999965
              ],
              [
                -76.04643961099993,
                -11.800871228999938
              ],
              [
                -76.05138935999992,
                -11.79524385499991
              ],
              [
                -76.04596223499993,
                -11.79084260499991
              ],
              [
                -76.04653760999997,
                -11.786446603999877
              ],
              [
                -76.04893123499994,
                -11.779587978999928
              ],
              [
                -76.04794973499997,
                -11.776585728999976
              ],
              [
                -76.04462735999988,
                -11.774823728999934
              ],
              [
                -76.04036723499996,
                -11.77427935399993
              ],
              [
                -76.03834985999998,
                -11.775383354999974
              ],
              [
                -76.03680685999996,
                -11.778145479999978
              ],
              [
                -76.03208260999997,
                -11.783193604999951
              ],
              [
                -76.0291083599999,
                -11.787208103999944
              ],
              [
                -76.0255996109999,
                -11.78925085499992
              ],
              [
                -76.02207885999997,
                -11.790264104999892
              ],
              [
                -76.01765836099992,
                -11.789747854999916
              ],
              [
                -76.01581923599991,
                -11.790748104999977
              ],
              [
                -76.01270835999998,
                -11.795094353999957
              ],
              [
                -76.00942723499986,
                -11.794400229999837
              ],
              [
                -76.00600111099999,
                -11.791742604999968
              ],
              [
                -76.00345523499993,
                -11.78819397899997
              ],
              [
                -75.99773235999999,
                -11.785421854999925
              ],
              [
                -75.99332848499995,
                -11.782680729999981
              ],
              [
                -75.98868973499998,
                -11.78372735399995
              ],
              [
                -75.98479573499992,
                -11.78146247899997
              ],
              [
                -75.98260960999988,
                -11.778706979999981
              ],
              [
                -75.9814707349999,
                -11.77213047999993
              ],
              [
                -75.97787023499995,
                -11.766582853999921
              ],
              [
                -75.97331285999991,
                -11.765685228999928
              ],
              [
                -75.97022935999996,
                -11.76649222899988
              ],
              [
                -75.96175335999999,
                -11.760798604999877
              ],
              [
                -75.95542298499993,
                -11.759456103999923
              ],
              [
                -75.95207398599996,
                -11.758016354999882
              ],
              [
                -75.93617948599996,
                -11.756422104999956
              ],
              [
                -75.93134823499992,
                -11.75533960499996
              ],
              [
                -75.92922310999995,
                -11.755914603999884
              ],
              [
                -75.92725060999999,
                -11.760320853999872
              ],
              [
                -75.92056548499994,
                -11.763916353999946
              ],
              [
                -75.9177894849999,
                -11.7667673549999
              ],
              [
                -75.91630548499995,
                -11.771080353999821
              ],
              [
                -75.90837998499995,
                -11.77391997999996
              ]
            ]
          ]
        ],
        "type": "MultiPolygon"
      },
      "type": "Feature",
      "properties": {
        "PROVINCIA": "YAULI",
        "DISTRITO": "SUITUCANCHA",
        "name": "SUITUCANCHA",
        "ID": "110608",
        "DEPARTAMEN": "JUNIN"
      }
    }
  ]
}
