{
  "type": "FeatureCollection",
  "features": [
    {
      "geometry": {
        "coordinates": [
          [
            [
              [
                -73.95041598299997,
                -14.186441356999978
              ],
              [
                -73.95039648399995,
                -14.190751980999949
              ],
              [
                -73.95280473399998,
                -14.19540823199992
              ],
              [
                -73.95551173299998,
                -14.19703323199991
              ],
              [
                -73.95700785799994,
                -14.199708981999947
              ],
              [
                -73.96202935899993,
                -14.203339856999833
              ],
              [
                -73.96179098399995,
                -14.20519535699998
              ],
              [
                -73.96499023399997,
                -14.20849223199997
              ],
              [
                -73.96766210799996,
                -14.208783230999927
              ],
              [
                -73.96899610899993,
                -14.214472731999933
              ],
              [
                -73.97319135899994,
                -14.214746106999883
              ],
              [
                -73.97428323399998,
                -14.216966856999875
              ],
              [
                -73.97389260799997,
                -14.219503856999893
              ],
              [
                -73.97548048399989,
                -14.22169723199994
              ],
              [
                -73.97332423399985,
                -14.224558606999892
              ],
              [
                -73.97318360799994,
                -14.227040981999949
              ],
              [
                -73.97016998299989,
                -14.230445356999894
              ],
              [
                -73.96525973399997,
                -14.231736231999946
              ],
              [
                -73.95979885799994,
                -14.234624981999957
              ],
              [
                -73.95445310799994,
                -14.235824356999899
              ],
              [
                -73.95191598399998,
                -14.238150231999953
              ],
              [
                -73.94249410899988,
                -14.241880856999899
              ],
              [
                -73.93679685899986,
                -14.239623106999943
              ],
              [
                -73.93130860799988,
                -14.238755856999887
              ],
              [
                -73.92443873399998,
                -14.242935981999892
              ],
              [
                -73.92100435799995,
                -14.248837856999899
              ],
              [
                -73.91877010799993,
                -14.249971606999907
              ],
              [
                -73.91100110799988,
                -14.251138731999959
              ],
              [
                -73.90676635799997,
                -14.253305981999915
              ],
              [
                -73.89799673399995,
                -14.260441606999962
              ],
              [
                -73.89658398299991,
                -14.262831981999966
              ],
              [
                -73.90679098399988,
                -14.26631448199987
              ],
              [
                -73.91393360899997,
                -14.26765823199986
              ],
              [
                -73.91980660899998,
                -14.267675731999873
              ],
              [
                -73.9232871079999,
                -14.26989848199986
              ],
              [
                -73.92537885899998,
                -14.273197231999859
              ],
              [
                -73.93167973299995,
                -14.27899410699996
              ],
              [
                -73.93655835899995,
                -14.278677856999934
              ],
              [
                -73.94781210799988,
                -14.28044923199991
              ],
              [
                -73.95466598299998,
                -14.277664105999975
              ],
              [
                -73.95656635799992,
                -14.278621106999935
              ],
              [
                -73.95889248299983,
                -14.277603481999904
              ],
              [
                -73.96183010799996,
                -14.27857810699993
              ],
              [
                -73.96650198399988,
                -14.282050731999902
              ],
              [
                -73.97327535799997,
                -14.28217185699998
              ],
              [
                -73.97679498299993,
                -14.286080106999975
              ],
              [
                -73.97654885799994,
                -14.289839856999947
              ],
              [
                -73.97994798299999,
                -14.291525981999825
              ],
              [
                -73.98331710899993,
                -14.291666356999883
              ],
              [
                -73.98565685799991,
                -14.290683606999949
              ],
              [
                -73.98921323299999,
                -14.287688856999864
              ],
              [
                -73.99426698299999,
                -14.28750160699991
              ],
              [
                -73.99992910799995,
                -14.286331856999936
              ],
              [
                -74.00306435799996,
                -14.286612606999881
              ],
              [
                -74.00872648399991,
                -14.28810998199998
              ],
              [
                -74.0159796079999,
                -14.29110485699988
              ],
              [
                -74.01696223299996,
                -14.293304106999926
              ],
              [
                -74.02229673299996,
                -14.296252231999972
              ],
              [
                -74.0253852329999,
                -14.296813731999976
              ],
              [
                -74.03057935799995,
                -14.299106606999885
              ],
              [
                -74.03193635899999,
                -14.297375231999979
              ],
              [
                -74.03095373399992,
                -14.294427231999975
              ],
              [
                -74.03380823399988,
                -14.291338731999872
              ],
              [
                -74.03703698299995,
                -14.289934981999977
              ],
              [
                -74.04129523299991,
                -14.28909260699993
              ],
              [
                -74.04691060799996,
                -14.28988810699991
              ],
              [
                -74.0521047339999,
                -14.288063231999843
              ],
              [
                -74.05612910799994,
                -14.288718356999937
              ],
              [
                -74.06048085799983,
                -14.290964481999879
              ],
              [
                -74.06768723399995,
                -14.292415106999954
              ],
              [
                -74.06871673299986,
                -14.294520856999895
              ],
              [
                -74.07161798299984,
                -14.295035481999946
              ],
              [
                -74.07578260799988,
                -14.294567606999976
              ],
              [
                -74.08298910899993,
                -14.292695856999899
              ],
              [
                -74.08893185899996,
                -14.28750160699991
              ],
              [
                -74.0950618579999,
                -14.28268185699983
              ],
              [
                -74.09651248399985,
                -14.282213856999931
              ],
              [
                -74.09960098399995,
                -14.28408573199988
              ],
              [
                -74.10877248299994,
                -14.288189481999893
              ],
              [
                -74.11719560799992,
                -14.290903606999905
              ],
              [
                -74.11944173399996,
                -14.290575981999893
              ],
              [
                -74.12398073399999,
                -14.287066481999943
              ],
              [
                -74.12880060899982,
                -14.28954660699992
              ],
              [
                -74.13488373299998,
                -14.296144606999974
              ],
              [
                -74.13787860799988,
                -14.296799731999897
              ],
              [
                -74.14438310899993,
                -14.296004231999973
              ],
              [
                -74.14709710799997,
                -14.2948343569999
              ],
              [
                -74.15687710899994,
                -14.288797856999963
              ],
              [
                -74.15940398399994,
                -14.288423356999886
              ],
              [
                -74.16534698399988,
                -14.289967731999923
              ],
              [
                -74.17086860799986,
                -14.287861981999981
              ],
              [
                -74.17695173299995,
                -14.287066481999943
              ],
              [
                -74.18167810799991,
                -14.290061356999956
              ],
              [
                -74.18574923299997,
                -14.295629856999938
              ],
              [
                -74.19047535899995,
                -14.296893231999888
              ],
              [
                -74.19917910899989,
                -14.296472106999886
              ],
              [
                -74.20278235899997,
                -14.295349106999936
              ],
              [
                -74.20573035899997,
                -14.293009356999903
              ],
              [
                -74.21165435899997,
                -14.291277231999914
              ],
              [
                -74.21540635899999,
                -14.291709481999817
              ],
              [
                -74.21980835899996,
                -14.294802981999965
              ],
              [
                -74.2214739829999,
                -14.29920485699995
              ],
              [
                -74.22682773399987,
                -14.302892981999946
              ],
              [
                -74.23269673399989,
                -14.301975481999932
              ],
              [
                -74.23627248399998,
                -14.300187606999884
              ],
              [
                -74.24062285899998,
                -14.29971085699998
              ],
              [
                -74.24378123399998,
                -14.297803856999849
              ],
              [
                -74.24914473399997,
                -14.293155481999975
              ],
              [
                -74.26434123399991,
                -14.286182981999957
              ],
              [
                -74.26803610799993,
                -14.282070981999823
              ],
              [
                -74.27113498299991,
                -14.280640731999938
              ],
              [
                -74.27339960799998,
                -14.278018606999979
              ],
              [
                -74.27602173399993,
                -14.27152285699998
              ],
              [
                -74.28478210899993,
                -14.267470481999965
              ],
              [
                -74.29270798399989,
                -14.268781481999895
              ],
              [
                -74.29801185899998,
                -14.269139106999887
              ],
              [
                -74.30343498399998,
                -14.27050973199988
              ],
              [
                -74.30754698399994,
                -14.272237981999979
              ],
              [
                -74.31630735899995,
                -14.272595481999872
              ],
              [
                -74.31791635899992,
                -14.272059231999947
              ],
              [
                -74.32199623399998,
                -14.269325481999942
              ],
              [
                -74.32612810899991,
                -14.26145373199995
              ],
              [
                -74.33043560899989,
                -14.254767606999962
              ],
              [
                -74.33403123399995,
                -14.25123435699993
              ],
              [
                -74.33886523399997,
                -14.249927731999946
              ],
              [
                -74.34287698399999,
                -14.248107481999966
              ],
              [
                -74.34793160899989,
                -14.242601606999926
              ],
              [
                -74.34824223399994,
                -14.238253856999904
              ],
              [
                -74.34635548399996,
                -14.232917981999947
              ],
              [
                -74.34689860799995,
                -14.23033198099995
              ],
              [
                -74.35031448399997,
                -14.228915981999933
              ],
              [
                -74.35302148399995,
                -14.229134731999977
              ],
              [
                -74.35715235799995,
                -14.22601948199997
              ],
              [
                -74.35758398399997,
                -14.224277356999892
              ],
              [
                -74.36070698399999,
                -14.22272260699998
              ],
              [
                -74.36445510899995,
                -14.219613231999972
              ],
              [
                -74.36649223399985,
                -14.215197231999923
              ],
              [
                -74.37039048399998,
                -14.21415435599988
              ],
              [
                -74.3709394839999,
                -14.215771481999923
              ],
              [
                -74.37848048299992,
                -14.217214856999874
              ],
              [
                -74.38071873399991,
                -14.216048731999933
              ],
              [
                -74.38172460899995,
                -14.213998106999895
              ],
              [
                -74.38396285899995,
                -14.213292981999928
              ],
              [
                -74.38584760899994,
                -14.209482481999942
              ],
              [
                -74.38879885899996,
                -14.207902356999966
              ],
              [
                -74.39226560899994,
                -14.203892605999897
              ],
              [
                -74.39647073399993,
                -14.200046856999961
              ],
              [
                -74.39934760899996,
                -14.196687481999902
              ],
              [
                -74.40317773299995,
                -14.195437481999932
              ],
              [
                -74.40295898399995,
                -14.192839856999967
              ],
              [
                -74.40579298299997,
                -14.188206981999883
              ],
              [
                -74.40783398399992,
                -14.187095731999932
              ],
              [
                -74.40897460799988,
                -14.183800731999895
              ],
              [
                -74.41232623399998,
                -14.18203123099994
              ],
              [
                -74.41236723399993,
                -14.180529356999955
              ],
              [
                -74.41496098399995,
                -14.178468731999885
              ],
              [
                -74.41608198399996,
                -14.175757856999951
              ],
              [
                -74.41537885899999,
                -14.173537106999959
              ],
              [
                -74.41742185899989,
                -14.171767481999836
              ],
              [
                -74.41596285899988,
                -14.168876981999858
              ],
              [
                -74.41845123399997,
                -14.163857481999855
              ],
              [
                -74.42116010899997,
                -14.163103481999883
              ],
              [
                -74.41950198399996,
                -14.156675731999826
              ],
              [
                -74.42222073399995,
                -14.156757856999945
              ],
              [
                -74.42323823399994,
                -14.15523248099987
              ],
              [
                -74.4227871089999,
                -14.152328106999903
              ],
              [
                -74.41494335899989,
                -14.156189481999832
              ],
              [
                -74.41262498399993,
                -14.15628123199997
              ],
              [
                -74.40957423399993,
                -14.157855480999899
              ],
              [
                -74.40278910899997,
                -14.160168106999947
              ],
              [
                -74.40103910899995,
                -14.162455106999971
              ],
              [
                -74.39727148399993,
                -14.16533398099989
              ],
              [
                -74.39232035899994,
                -14.167054731999883
              ],
              [
                -74.38598823399991,
                -14.164828105999959
              ],
              [
                -74.38289660899994,
                -14.161269480999863
              ],
              [
                -74.36765810899993,
                -14.158640231999925
              ],
              [
                -74.36021185899995,
                -14.154052105999881
              ],
              [
                -74.35479635899998,
                -14.151269106999962
              ],
              [
                -74.33614298399988,
                -14.148110105999933
              ],
              [
                -74.32944873399998,
                -14.128629356999966
              ],
              [
                -74.30531835799985,
                -14.126115231999961
              ],
              [
                -74.30326173399993,
                -14.129044981999982
              ],
              [
                -74.29927535899998,
                -14.127794981999955
              ],
              [
                -74.29245310899995,
                -14.130890606999913
              ],
              [
                -74.29140035899997,
                -14.132492231999947
              ],
              [
                -74.28742973399989,
                -14.13076173199994
              ],
              [
                -74.28413085799997,
                -14.13297460699988
              ],
              [
                -74.28159960899995,
                -14.132642730999976
              ],
              [
                -74.27783985899998,
                -14.133912106999901
              ],
              [
                -74.27051173399997,
                -14.131300731999943
              ],
              [
                -74.26622260799996,
                -14.133431606999864
              ],
              [
                -74.25969835899997,
                -14.134642731999975
              ],
              [
                -74.25411523399998,
                -14.132123106999927
              ],
              [
                -74.23947460799991,
                -14.132007856999905
              ],
              [
                -74.20797598399997,
                -14.1268993569999
              ],
              [
                -74.20383910899989,
                -14.122085606999974
              ],
              [
                -74.18909685899996,
                -14.103432230999886
              ],
              [
                -74.17442985899999,
                -14.104710856999816
              ],
              [
                -74.11604298399993,
                -14.028872981999939
              ],
              [
                -74.11086248299995,
                -14.029878231999874
              ],
              [
                -74.10572285899985,
                -14.030049606999967
              ],
              [
                -74.10001210799993,
                -14.028393481999956
              ],
              [
                -74.09492960799997,
                -14.021426356999939
              ],
              [
                -74.0907036079999,
                -14.019199106999963
              ],
              [
                -74.0815664839999,
                -14.019655981999904
              ],
              [
                -74.08025310799997,
                -14.020798231999834
              ],
              [
                -74.07317173299998,
                -14.024567230999935
              ],
              [
                -74.07037323299994,
                -14.026671480999937
              ],
              [
                -74.06653923399989,
                -14.02992298199996
              ],
              [
                -74.06317098399984,
                -14.039768481999943
              ],
              [
                -74.06554610799998,
                -14.042359480999892
              ],
              [
                -74.07185060799998,
                -14.046504981999874
              ],
              [
                -74.07215298399996,
                -14.053025481999839
              ],
              [
                -74.07141885799996,
                -14.057689231999973
              ],
              [
                -74.07314610899988,
                -14.062309731999903
              ],
              [
                -74.07249748299995,
                -14.069621105999943
              ],
              [
                -74.07392510799997,
                -14.075503106999975
              ],
              [
                -74.07683760799995,
                -14.077673230999949
              ],
              [
                -74.08271973399991,
                -14.08606810599997
              ],
              [
                -74.08546060799995,
                -14.088808981999932
              ],
              [
                -74.08757373399999,
                -14.095376356999907
              ],
              [
                -74.08608885899997,
                -14.09691823199995
              ],
              [
                -74.08283385799996,
                -14.097146731999942
              ],
              [
                -74.08174873299998,
                -14.098631481999973
              ],
              [
                -74.08174873399997,
                -14.101715231999947
              ],
              [
                -74.08346198299995,
                -14.106226730999936
              ],
              [
                -74.08329073399995,
                -14.109310481999898
              ],
              [
                -74.0812348579999,
                -14.112679856999875
              ],
              [
                -74.07730073399989,
                -14.11530473099998
              ],
              [
                -74.07057235799994,
                -14.116624981999962
              ],
              [
                -74.0678788589999,
                -14.114373106999892
              ],
              [
                -74.06304098399983,
                -14.112455106999846
              ],
              [
                -74.05970598399995,
                -14.112242106999872
              ],
              [
                -74.05866273399994,
                -14.108889106999925
              ],
              [
                -74.05340823399996,
                -14.104632856999956
              ],
              [
                -74.03916898399996,
                -14.098499856999979
              ],
              [
                -74.03694173299988,
                -14.099356356999976
              ],
              [
                -74.0338579829999,
                -14.10752273199995
              ],
              [
                -74.02963210899992,
                -14.112376856999958
              ],
              [
                -74.02694810799989,
                -14.119914980999965
              ],
              [
                -74.02643410799999,
                -14.125911231999964
              ],
              [
                -74.02551898399997,
                -14.127983731999961
              ],
              [
                -74.02160860899988,
                -14.128944481999952
              ],
              [
                -74.01420510799989,
                -14.134076231999927
              ],
              [
                -74.01312110899983,
                -14.139501981999956
              ],
              [
                -74.00995510899997,
                -14.143392606999896
              ],
              [
                -74.00555073299995,
                -14.146238231999973
              ],
              [
                -74.00406835799998,
                -14.147902230999875
              ],
              [
                -74.00360548399993,
                -14.151773481999953
              ],
              [
                -73.99915823399994,
                -14.159193356999936
              ],
              [
                -73.99582810799996,
                -14.15856460699996
              ],
              [
                -73.99113473299991,
                -14.160156231999963
              ],
              [
                -73.98724023299991,
                -14.163939481999876
              ],
              [
                -73.98475585799997,
                -14.165054731999874
              ],
              [
                -73.98303910899995,
                -14.169980481999858
              ],
              [
                -73.97803510899996,
                -14.1713144819999
              ],
              [
                -73.9723632329999,
                -14.17404298199989
              ],
              [
                -73.96638873299992,
                -14.176345731999902
              ],
              [
                -73.96369135799995,
                -14.178224606999947
              ],
              [
                -73.96191410799997,
                -14.183412105999821
              ],
              [
                -73.95841598299984,
                -14.18524410699996
              ],
              [
                -73.95440623399998,
                -14.186302731999888
              ],
              [
                -73.95041598299997,
                -14.186441356999978
              ]
            ]
          ]
        ],
        "type": "MultiPolygon"
      },
      "type": "Feature",
      "properties": {
        "PROVINCIA": "LUCANAS",
        "DISTRITO": "AUCARA",
        "name": "AUCARA",
        "ID": "050502",
        "DEPARTAMEN": "AYACUCHO"
      }
    }
  ]
}
