{
  "type": "FeatureCollection",
  "features": [
    {
      "geometry": {
        "coordinates": [
          [
            [
              [
                -74.41741985899984,
                -14.679132856999956
              ],
              [
                -74.42768273299998,
                -14.681409106999979
              ],
              [
                -74.43357948399989,
                -14.683520231999978
              ],
              [
                -74.43976735899997,
                -14.687487856999951
              ],
              [
                -74.44559148399992,
                -14.68967185799994
              ],
              [
                -74.45119698399998,
                -14.69403985699995
              ],
              [
                -74.45620223399999,
                -14.699911356999905
              ],
              [
                -74.45723010899985,
                -14.702481107999915
              ],
              [
                -74.45587885899994,
                -14.708470731999967
              ],
              [
                -74.45688673399997,
                -14.715839856999878
              ],
              [
                -74.45851948399996,
                -14.720216856999912
              ],
              [
                -74.46194535899997,
                -14.722505856999874
              ],
              [
                -74.46792573399989,
                -14.724138731999972
              ],
              [
                -74.47447848399997,
                -14.723160106999899
              ],
              [
                -74.48076535899992,
                -14.724988481999958
              ],
              [
                -74.48826060899995,
                -14.72663023299998
              ],
              [
                -74.49140160899998,
                -14.72941423199984
              ],
              [
                -74.49325748399997,
                -14.732769231999953
              ],
              [
                -74.49946798399998,
                -14.738123106999922
              ],
              [
                -74.50831948399997,
                -14.74233473199996
              ],
              [
                -74.5128916089999,
                -14.74570860699987
              ],
              [
                -74.5149664839999,
                -14.748575732999939
              ],
              [
                -74.52024810899991,
                -14.751442857999962
              ],
              [
                -74.53888910899997,
                -14.76622648199998
              ],
              [
                -74.54322748399994,
                -14.770942107999929
              ],
              [
                -74.54615123399998,
                -14.772498231999919
              ],
              [
                -74.55058385899991,
                -14.772969856999964
              ],
              [
                -74.55313035899997,
                -14.773960107999926
              ],
              [
                -74.55930785899994,
                -14.777732606999962
              ],
              [
                -74.56303323399999,
                -14.781788106999954
              ],
              [
                -74.56397635899992,
                -14.7860322329999
              ],
              [
                -74.56798473399994,
                -14.788437232999968
              ],
              [
                -74.57189860899996,
                -14.793105731999958
              ],
              [
                -74.57519960899998,
                -14.794944856999962
              ],
              [
                -74.5775574839999,
                -14.795227732999933
              ],
              [
                -74.58524398399999,
                -14.80102798199988
              ],
              [
                -74.58868635899995,
                -14.804989232999901
              ],
              [
                -74.59623148399993,
                -14.810836606999942
              ],
              [
                -74.60500260899994,
                -14.816542481999875
              ],
              [
                -74.61047273399998,
                -14.822955857999943
              ],
              [
                -74.61415098399988,
                -14.82526660699989
              ],
              [
                -74.61896098399995,
                -14.83333023199998
              ],
              [
                -74.62155460899999,
                -14.836395482999933
              ],
              [
                -74.62853373399992,
                -14.84167698199991
              ],
              [
                -74.63754060899998,
                -14.847147106999898
              ],
              [
                -74.6387196089999,
                -14.849882232999903
              ],
              [
                -74.64815085899994,
                -14.857710231999931
              ],
              [
                -74.64937698399996,
                -14.858370607999973
              ],
              [
                -74.65385685899997,
                -14.86501948299997
              ],
              [
                -74.65984573399999,
                -14.87034823199997
              ],
              [
                -74.66602323399997,
                -14.873743481999952
              ],
              [
                -74.67394548399994,
                -14.878694982999946
              ],
              [
                -74.67663348399998,
                -14.878081857999916
              ],
              [
                -74.67917985899999,
                -14.876054107999892
              ],
              [
                -74.6810662339999,
                -14.873083231999942
              ],
              [
                -74.67936848399995,
                -14.86817898199996
              ],
              [
                -74.67616185899993,
                -14.86506660699996
              ],
              [
                -74.67582173399995,
                -14.862072482999906
              ],
              [
                -74.67723360899998,
                -14.859644106999895
              ],
              [
                -74.68033973399986,
                -14.856876856999918
              ],
              [
                -74.68180798399999,
                -14.853375356999834
              ],
              [
                -74.6858847339999,
                -14.851828107999893
              ],
              [
                -74.68981610899993,
                -14.848184107999941
              ],
              [
                -74.69185773399994,
                -14.840697982999927
              ],
              [
                -74.69384035999991,
                -14.838155231999963
              ],
              [
                -74.71006848399998,
                -14.836738357999934
              ],
              [
                -74.72018835899996,
                -14.836628232999885
              ],
              [
                -74.72540035899988,
                -14.839628857999912
              ],
              [
                -74.72900973399999,
                -14.83999023299998
              ],
              [
                -74.73008785999997,
                -14.842843731999835
              ],
              [
                -74.7322128589999,
                -14.842365231999963
              ],
              [
                -74.7383378589999,
                -14.841468732999942
              ],
              [
                -74.74352535899993,
                -14.842003856999952
              ],
              [
                -74.74624410899992,
                -14.843554731999973
              ],
              [
                -74.75336323399995,
                -14.838464856999906
              ],
              [
                -74.7546759839999,
                -14.8343374829999
              ],
              [
                -74.75150423399992,
                -14.827554481999982
              ],
              [
                -74.74326710899999,
                -14.826433107999947
              ],
              [
                -74.73959323399993,
                -14.824190107999982
              ],
              [
                -74.73572610899998,
                -14.824808856999937
              ],
              [
                -74.73163535899994,
                -14.822837731999982
              ],
              [
                -74.7268617339999,
                -14.823441982999896
              ],
              [
                -74.7159832339999,
                -14.819413857999962
              ],
              [
                -74.71471398399996,
                -14.817192856999952
              ],
              [
                -74.71849510899989,
                -14.815474231999929
              ],
              [
                -74.7202931089999,
                -14.81245998299994
              ],
              [
                -74.72573985899999,
                -14.812010481999948
              ],
              [
                -74.73047260999988,
                -14.812248482999962
              ],
              [
                -74.7327464839999,
                -14.811085106999883
              ],
              [
                -74.73769085899994,
                -14.811534607999931
              ],
              [
                -74.74194785899988,
                -14.813173856999867
              ],
              [
                -74.74646435899996,
                -14.81362073199989
              ],
              [
                -74.74883985899993,
                -14.811709982999957
              ],
              [
                -74.75075060899985,
                -14.808146731999955
              ],
              [
                -74.75410735899993,
                -14.798747982999885
              ],
              [
                -74.75694110899991,
                -14.795054481999898
              ],
              [
                -74.7621118589999,
                -14.792912481999963
              ],
              [
                -74.76461773399996,
                -14.790203481999981
              ],
              [
                -74.75972685899995,
                -14.785115856999937
              ],
              [
                -74.75610073399992,
                -14.783597982999936
              ],
              [
                -74.75562298399996,
                -14.778875607999908
              ],
              [
                -74.7542842339999,
                -14.77560460699982
              ],
              [
                -74.75600710899994,
                -14.771130857999935
              ],
              [
                -74.75423435899995,
                -14.766439857999956
              ],
              [
                -74.75029398399988,
                -14.761528606999832
              ],
              [
                -74.74521135899994,
                -14.760158106999938
              ],
              [
                -74.74052848399998,
                -14.75673160699995
              ],
              [
                -74.73852660899996,
                -14.753734481999913
              ],
              [
                -74.7344799839999,
                -14.74084998199993
              ],
              [
                -74.73572210899994,
                -14.73499273199991
              ],
              [
                -74.73547823399997,
                -14.73198535799986
              ],
              [
                -74.73068273399997,
                -14.723857357999975
              ],
              [
                -74.72757998399999,
                -14.720313606999923
              ],
              [
                -74.71761998399995,
                -14.71354535699993
              ],
              [
                -74.71558185899983,
                -14.711353356999837
              ],
              [
                -74.71587310899992,
                -14.709521482999946
              ],
              [
                -74.72038873499997,
                -14.710353482999949
              ],
              [
                -74.72504198399997,
                -14.712545481999882
              ],
              [
                -74.73184860899988,
                -14.714391356999954
              ],
              [
                -74.73561735899995,
                -14.71727560699992
              ],
              [
                -74.73915523399995,
                -14.72204410799992
              ],
              [
                -74.74357773399993,
                -14.726005107999924
              ],
              [
                -74.7479616089999,
                -14.726851107999948
              ],
              [
                -74.75080735899991,
                -14.729389231999903
              ],
              [
                -74.75357623499997,
                -14.727773982999906
              ],
              [
                -74.76549748399992,
                -14.728543107999883
              ],
              [
                -74.77095823399992,
                -14.72758173199992
              ],
              [
                -74.77641898399992,
                -14.728927732999978
              ],
              [
                -74.7813027339999,
                -14.73276560699992
              ],
              [
                -74.78397073399992,
                -14.733933606999926
              ],
              [
                -74.79005073399992,
                -14.739206981999814
              ],
              [
                -74.79148435899998,
                -14.742359357999874
              ],
              [
                -74.79837310899984,
                -14.747042982999972
              ],
              [
                -74.79950785899996,
                -14.749505857999907
              ],
              [
                -74.80269723499993,
                -14.752152357999933
              ],
              [
                -74.80589923399992,
                -14.751038982999944
              ],
              [
                -74.80999473399999,
                -14.748243981999963
              ],
              [
                -74.81361623399994,
                -14.741779857999973
              ],
              [
                -74.81587473399992,
                -14.739638107999951
              ],
              [
                -74.81980773399994,
                -14.737885856999924
              ],
              [
                -74.82401335899982,
                -14.737145982999891
              ],
              [
                -74.82740110899988,
                -14.734030731999894
              ],
              [
                -74.82751798399988,
                -14.728773857999954
              ],
              [
                -74.83001010899994,
                -14.72005110699996
              ],
              [
                -74.831100484,
                -14.718298732999926
              ],
              [
                -74.83499460899998,
                -14.715650856999957
              ],
              [
                -74.83779823399988,
                -14.712185107999915
              ],
              [
                -74.8457421089999,
                -14.707979481999928
              ],
              [
                -74.84531385899999,
                -14.70501998199984
              ],
              [
                -74.84384210899998,
                -14.70311223199991
              ],
              [
                -74.83970635899993,
                -14.702021606999892
              ],
              [
                -74.83791510899994,
                -14.696336231999965
              ],
              [
                -74.83904435899996,
                -14.694233482999891
              ],
              [
                -74.8422374839999,
                -14.693259982999962
              ],
              [
                -74.84593198499988,
                -14.689380481999876
              ],
              [
                -74.84745310899996,
                -14.682437482999887
              ],
              [
                -74.84732810899993,
                -14.676073482999925
              ],
              [
                -74.84869723399999,
                -14.673490857999866
              ],
              [
                -74.84658135899997,
                -14.666147232999947
              ],
              [
                -74.84328298399998,
                -14.663440106999929
              ],
              [
                -74.8384598589999,
                -14.662693231999981
              ],
              [
                -74.83394785899998,
                -14.659923856999967
              ],
              [
                -74.83167635899997,
                -14.657527856999877
              ],
              [
                -74.82862698399998,
                -14.656220982999912
              ],
              [
                -74.8253597339999,
                -14.650557732999971
              ],
              [
                -74.82106560999989,
                -14.646325857999955
              ],
              [
                -74.8181406089999,
                -14.639822356999957
              ],
              [
                -74.81449985899997,
                -14.634812606999958
              ],
              [
                -74.8104547339999,
                -14.631607606999921
              ],
              [
                -74.79676323399997,
                -14.62429510699991
              ],
              [
                -74.79483410999995,
                -14.622739231999958
              ],
              [
                -74.79209585899997,
                -14.618725231999917
              ],
              [
                -74.78816623399996,
                -14.615563231999943
              ],
              [
                -74.77846310899997,
                -14.609858356999894
              ],
              [
                -74.77675123499989,
                -14.606678856999906
              ],
              [
                -74.77365323399988,
                -14.604722231999858
              ],
              [
                -74.76721273399988,
                -14.603988481999977
              ],
              [
                -74.76387023399991,
                -14.59991235699988
              ],
              [
                -74.76281023399997,
                -14.597547856999881
              ],
              [
                -74.75767423499991,
                -14.593553231999977
              ],
              [
                -74.7516413589999,
                -14.586949732999926
              ],
              [
                -74.74960323399995,
                -14.586215856999956
              ],
              [
                -74.74463023499999,
                -14.582302856999831
              ],
              [
                -74.74145073399995,
                -14.581079856999963
              ],
              [
                -74.73900498399996,
                -14.581568981999965
              ],
              [
                -74.73562773399993,
                -14.580246232999912
              ],
              [
                -74.72811385899996,
                -14.575429607999922
              ],
              [
                -74.72111373399986,
                -14.57266810699997
              ],
              [
                -74.71083835899992,
                -14.564768856999876
              ],
              [
                -74.70762723399997,
                -14.563355981999962
              ],
              [
                -74.70364548399994,
                -14.565411106999932
              ],
              [
                -74.69921423399995,
                -14.564768856999876
              ],
              [
                -74.69555360899994,
                -14.56592485699997
              ],
              [
                -74.69325573399988,
                -14.56572273199987
              ],
              [
                -74.6894573589999,
                -14.56234160699995
              ],
              [
                -74.68668360899994,
                -14.561607481999886
              ],
              [
                -74.68236135899997,
                -14.56167385699996
              ],
              [
                -74.67159210899996,
                -14.555454481999902
              ],
              [
                -74.66406510899992,
                -14.548739731999945
              ],
              [
                -74.66163098399988,
                -14.549097731999893
              ],
              [
                -74.65855248399998,
                -14.551173856999924
              ],
              [
                -74.64931698399994,
                -14.550959106999926
              ],
              [
                -74.64301673399996,
                -14.549527231999946
              ],
              [
                -74.6414417339999,
                -14.548596606999922
              ],
              [
                -74.6392938589999,
                -14.54501685699995
              ],
              [
                -74.63513860899991,
                -14.544380981999893
              ],
              [
                -74.63092773399995,
                -14.548091857999907
              ],
              [
                -74.62723635899988,
                -14.547904356999936
              ],
              [
                -74.62427535899991,
                -14.54470698299997
              ],
              [
                -74.62006448399995,
                -14.543986356999937
              ],
              [
                -74.61685160899998,
                -14.545455106999952
              ],
              [
                -74.61177735899997,
                -14.544126981999966
              ],
              [
                -74.60707810899999,
                -14.54214848199996
              ],
              [
                -74.60015823399993,
                -14.538212857999895
              ],
              [
                -74.59636223399991,
                -14.536896731999889
              ],
              [
                -74.59462110899995,
                -14.53506398199994
              ],
              [
                -74.59342985899997,
                -14.5294739819999
              ],
              [
                -74.59342985899997,
                -14.524296356999969
              ],
              [
                -74.59150535899994,
                -14.52360910799996
              ],
              [
                -74.58738160899998,
                -14.525670981999951
              ],
              [
                -74.5856404839999,
                -14.52365485699994
              ],
              [
                -74.58179160899994,
                -14.522463606999963
              ],
              [
                -74.57817185899995,
                -14.523059231999923
              ],
              [
                -74.57473548399992,
                -14.527411981999933
              ],
              [
                -74.57441460899992,
                -14.530298856999934
              ],
              [
                -74.57239860899995,
                -14.538500481999904
              ],
              [
                -74.57418560899998,
                -14.543449106999901
              ],
              [
                -74.57226110899984,
                -14.54784773199998
              ],
              [
                -74.56937448399998,
                -14.548855731999879
              ],
              [
                -74.56410523399995,
                -14.547618606999947
              ],
              [
                -74.56236423399997,
                -14.54418210699987
              ],
              [
                -74.55833198399995,
                -14.542899107999972
              ],
              [
                -74.55503298399998,
                -14.545694106999917
              ],
              [
                -74.55095498399999,
                -14.546747981999943
              ],
              [
                -74.54710610899997,
                -14.543769732999976
              ],
              [
                -74.54247835899992,
                -14.542211856999927
              ],
              [
                -74.53794223399996,
                -14.54491523199988
              ],
              [
                -74.53565123399994,
                -14.544686106999961
              ],
              [
                -74.53331435899986,
                -14.541341231999922
              ],
              [
                -74.52691110899991,
                -14.534722981999892
              ],
              [
                -74.5160518589999,
                -14.532565106999982
              ],
              [
                -74.51159673399997,
                -14.530059106999943
              ],
              [
                -74.50790735899989,
                -14.526926606999893
              ],
              [
                -74.50463573399992,
                -14.525464732999922
              ],
              [
                -74.49864923399991,
                -14.527970732999961
              ],
              [
                -74.49161848399996,
                -14.52755310699996
              ],
              [
                -74.47760360899997,
                -14.522981731999835
              ],
              [
                -74.473644859,
                -14.522435731999963
              ],
              [
                -74.46873060899998,
                -14.520388106999974
              ],
              [
                -74.45931185899997,
                -14.508512231999873
              ],
              [
                -74.45153085899989,
                -14.501959856999974
              ],
              [
                -74.44881448399997,
                -14.49919923199991
              ],
              [
                -74.44477223299998,
                -14.506906106999963
              ],
              [
                -74.44569135899991,
                -14.51066598199992
              ],
              [
                -74.44461723399996,
                -14.513261231999877
              ],
              [
                -74.44039648399996,
                -14.518708981999964
              ],
              [
                -74.43725448399994,
                -14.525041481999892
              ],
              [
                -74.43454185899998,
                -14.529304106999973
              ],
              [
                -74.42713873399998,
                -14.536460981999824
              ],
              [
                -74.4242341079999,
                -14.541626981999968
              ],
              [
                -74.42324023399993,
                -14.548847606999914
              ],
              [
                -74.41857648399997,
                -14.555034856999896
              ],
              [
                -74.41539898399998,
                -14.558444731999941
              ],
              [
                -74.4125313589999,
                -14.56418010699997
              ],
              [
                -74.41067123399995,
                -14.570922731999872
              ],
              [
                -74.40749373399984,
                -14.574797856999965
              ],
              [
                -74.40617623399999,
                -14.58030048199987
              ],
              [
                -74.4012161089999,
                -14.583633106999855
              ],
              [
                -74.39594598399998,
                -14.588825732999965
              ],
              [
                -74.38904823399997,
                -14.594250856999963
              ],
              [
                -74.38013535799996,
                -14.5963433579999
              ],
              [
                -74.37719060899997,
                -14.599985981999907
              ],
              [
                -74.37734548399999,
                -14.60339610699998
              ],
              [
                -74.37486535899995,
                -14.60936373199985
              ],
              [
                -74.37726798299997,
                -14.612153732999957
              ],
              [
                -74.38424310899995,
                -14.61362635799992
              ],
              [
                -74.38889323399997,
                -14.613548856999898
              ],
              [
                -74.39207085899994,
                -14.614633856999887
              ],
              [
                -74.39276835799996,
                -14.616106356999978
              ],
              [
                -74.39121835799995,
                -14.618896481999968
              ],
              [
                -74.39253585899996,
                -14.624321731999885
              ],
              [
                -74.39524835799989,
                -14.627809231999947
              ],
              [
                -74.39765098399988,
                -14.633079356999929
              ],
              [
                -74.39819348399993,
                -14.63625685799991
              ],
              [
                -74.40263673399994,
                -14.642318356999908
              ],
              [
                -74.40488085899995,
                -14.644072231999871
              ],
              [
                -74.40862498399991,
                -14.645193356999926
              ],
              [
                -74.41408985899989,
                -14.648089856999945
              ],
              [
                -74.41753510899997,
                -14.648412106999956
              ],
              [
                -74.42153710899998,
                -14.650458982999965
              ],
              [
                -74.42409373399994,
                -14.655617231999884
              ],
              [
                -74.4266913589999,
                -14.656820357999948
              ],
              [
                -74.43009373399997,
                -14.659642481999981
              ],
              [
                -74.43110748399994,
                -14.66383598199991
              ],
              [
                -74.43406635899998,
                -14.66835548299997
              ],
              [
                -74.43279510899993,
                -14.671338231999925
              ],
              [
                -74.42939348399995,
                -14.673655856999915
              ],
              [
                -74.42080310899996,
                -14.678169481999817
              ],
              [
                -74.41741985899984,
                -14.679132856999956
              ]
            ]
          ]
        ],
        "type": "MultiPolygon"
      },
      "type": "Feature",
      "properties": {
        "PROVINCIA": "LUCANAS",
        "DISTRITO": "LEONCIO PRADO",
        "name": "LEONCIO PRADO",
        "ID": "050512",
        "DEPARTAMEN": "AYACUCHO"
      }
    }
  ]
}
