{
  "type": "FeatureCollection",
  "features": [
    {
      "geometry": {
        "coordinates": [
          [
            [
              [
                -74.23509185899991,
                -14.96085748199988
              ],
              [
                -74.23532610899986,
                -14.965158232999897
              ],
              [
                -74.23689448299996,
                -14.96842973299988
              ],
              [
                -74.23961910799994,
                -14.969130856999982
              ],
              [
                -74.24065623399997,
                -14.971078107999972
              ],
              [
                -74.24336135799996,
                -14.9712402319999
              ],
              [
                -74.24614860899993,
                -14.972718732999851
              ],
              [
                -74.25041998399996,
                -14.977664107999942
              ],
              [
                -74.25191010899994,
                -14.982847607999929
              ],
              [
                -74.25834960899994,
                -14.99086910799997
              ],
              [
                -74.26050385899993,
                -14.992572107999933
              ],
              [
                -74.26543948399984,
                -14.993611357999953
              ],
              [
                -74.26717385799998,
                -14.995632857999965
              ],
              [
                -74.2699864839999,
                -15.001751981999973
              ],
              [
                -74.27390235899998,
                -15.005046856999854
              ],
              [
                -74.27701760799994,
                -15.010638731999961
              ],
              [
                -74.27987698399988,
                -15.01358785799988
              ],
              [
                -74.28358198399991,
                -15.015902232999906
              ],
              [
                -74.2919824839999,
                -15.017174857999862
              ],
              [
                -74.29601760799989,
                -15.019113232999928
              ],
              [
                -74.29966010899994,
                -15.023773482999957
              ],
              [
                -74.30202148399991,
                -15.02885548199987
              ],
              [
                -74.30442185899994,
                -15.032115232999956
              ],
              [
                -74.30671098399995,
                -15.033574232999968
              ],
              [
                -74.31076773299998,
                -15.034374982999964
              ],
              [
                -74.31440035899988,
                -15.038042982999968
              ],
              [
                -74.31575973299994,
                -15.043042982999964
              ],
              [
                -74.31802535899999,
                -15.046298857999943
              ],
              [
                -74.32223235899988,
                -15.05066798199988
              ],
              [
                -74.3234668579999,
                -15.053304732999834
              ],
              [
                -74.32944335899998,
                -15.057501982999838
              ],
              [
                -74.33545123399995,
                -15.064048857999978
              ],
              [
                -74.33906448399995,
                -15.066203106999978
              ],
              [
                -74.34451948299983,
                -15.067220732999886
              ],
              [
                -74.35110548399996,
                -15.065001982999888
              ],
              [
                -74.35885160899994,
                -15.063281232999884
              ],
              [
                -74.36153710899993,
                -15.063263731999882
              ],
              [
                -74.36826560899993,
                -15.061749981999867
              ],
              [
                -74.37580860899999,
                -15.062540982999963
              ],
              [
                -74.3814882339999,
                -15.063667982999846
              ],
              [
                -74.38709360799999,
                -15.06066398199988
              ],
              [
                -74.39320698299991,
                -15.060040981999862
              ],
              [
                -74.39507810799984,
                -15.06270898299988
              ],
              [
                -74.39686523299997,
                -15.063363232999961
              ],
              [
                -74.40272260899997,
                -15.06270898199989
              ],
              [
                -74.40772448399991,
                -15.065420107999955
              ],
              [
                -74.41187498399995,
                -15.066978482999843
              ],
              [
                -74.41488873399993,
                -15.06931248199993
              ],
              [
                -74.41845898399993,
                -15.073191357999974
              ],
              [
                -74.4219238579999,
                -15.073037232999923
              ],
              [
                -74.42670898399996,
                -15.073956981999913
              ],
              [
                -74.43012885899998,
                -15.075654357999952
              ],
              [
                -74.43205473399996,
                -15.078443357999959
              ],
              [
                -74.4350801089999,
                -15.080554732999929
              ],
              [
                -74.43874610899991,
                -15.08172660799994
              ],
              [
                -74.44195310799995,
                -15.086044981999919
              ],
              [
                -74.45089648399994,
                -15.0859922329999
              ],
              [
                -74.45510160899994,
                -15.089775356999837
              ],
              [
                -74.45927360899998,
                -15.092521482999928
              ],
              [
                -74.46021685899996,
                -15.094492232999926
              ],
              [
                -74.46660935899996,
                -15.100642732999972
              ],
              [
                -74.47153910899993,
                -15.102076232999934
              ],
              [
                -74.47640423399997,
                -15.105468732999952
              ],
              [
                -74.47702535899998,
                -15.10777535799997
              ],
              [
                -74.47607035899995,
                -15.110218731999964
              ],
              [
                -74.47810923399999,
                -15.113453856999968
              ],
              [
                -74.48274410899995,
                -15.103423857999871
              ],
              [
                -74.49064835899998,
                -15.096687481999936
              ],
              [
                -74.49315235899996,
                -15.093156232999888
              ],
              [
                -74.49217973399993,
                -15.088966856999889
              ],
              [
                -74.49262110899997,
                -15.084630857999969
              ],
              [
                -74.49427935899996,
                -15.08233398199991
              ],
              [
                -74.4936562339999,
                -15.078945357999942
              ],
              [
                -74.49638873399994,
                -15.075808607999932
              ],
              [
                -74.50762498399996,
                -15.074908107999931
              ],
              [
                -74.51355073399992,
                -15.075109357999963
              ],
              [
                -74.51822073399995,
                -15.073726607999959
              ],
              [
                -74.52252148399998,
                -15.068234357999927
              ],
              [
                -74.5243828589999,
                -15.062896482999975
              ],
              [
                -74.52594923399994,
                -15.061548856999934
              ],
              [
                -74.5265468589999,
                -15.057308607999914
              ],
              [
                -74.52811323399999,
                -15.054421857999955
              ],
              [
                -74.52916798399997,
                -15.048859357999902
              ],
              [
                -74.53261323399994,
                -15.044796857999927
              ],
              [
                -74.53275973399997,
                -15.042249982999977
              ],
              [
                -74.52839648399998,
                -15.037706981999975
              ],
              [
                -74.52637110899991,
                -15.032662107999897
              ],
              [
                -74.52261323399995,
                -15.028841856999918
              ],
              [
                -74.52077735899991,
                -15.023181607999902
              ],
              [
                -74.5185273589999,
                -15.019829982999966
              ],
              [
                -74.51082035899998,
                -15.013898481999945
              ],
              [
                -74.50792185899996,
                -15.010970731999976
              ],
              [
                -74.50257035899983,
                -15.004134731999955
              ],
              [
                -74.49951173399995,
                -15.003632857999833
              ],
              [
                -74.4967284839999,
                -14.998421857999972
              ],
              [
                -74.49160548399993,
                -14.994347606999838
              ],
              [
                -74.48479098399991,
                -14.992648481999936
              ],
              [
                -74.48173435899997,
                -14.990343731999928
              ],
              [
                -74.47933785899994,
                -14.986550732999888
              ],
              [
                -74.47663873399989,
                -14.98521485699996
              ],
              [
                -74.47620698399999,
                -14.98167185799997
              ],
              [
                -74.47462310899994,
                -14.980201231999956
              ],
              [
                -74.47010160899998,
                -14.978195356999947
              ],
              [
                -74.46687310899995,
                -14.973246106999966
              ],
              [
                -74.46466798399985,
                -14.971546856999964
              ],
              [
                -74.46064848399999,
                -14.966287106999971
              ],
              [
                -74.45323248399995,
                -14.959314481999911
              ],
              [
                -74.45150973299997,
                -14.956759732999956
              ],
              [
                -74.45158398399997,
                -14.950558606999948
              ],
              [
                -74.45250385899993,
                -14.946261731999982
              ],
              [
                -74.4499141089999,
                -14.941771481999979
              ],
              [
                -74.44860160899992,
                -14.93517773199983
              ],
              [
                -74.4468301089999,
                -14.932703106999895
              ],
              [
                -74.44507423399995,
                -14.924650356999905
              ],
              [
                -74.4423848589999,
                -14.919439482999962
              ],
              [
                -74.4389413589999,
                -14.914925731999972
              ],
              [
                -74.43790823399996,
                -14.910062481999944
              ],
              [
                -74.43523823399994,
                -14.908478481999964
              ],
              [
                -74.43057423399995,
                -14.89977535699984
              ],
              [
                -74.42749823399998,
                -14.89633010699987
              ],
              [
                -74.42664648399995,
                -14.892902357999958
              ],
              [
                -74.42443560899989,
                -14.888064481999947
              ],
              [
                -74.41859373399996,
                -14.881501981999918
              ],
              [
                -74.41454498399997,
                -14.875679607999928
              ],
              [
                -74.4104863579999,
                -14.866634732999842
              ],
              [
                -74.40693748399991,
                -14.861333981999906
              ],
              [
                -74.4015409839999,
                -14.854568231999963
              ],
              [
                -74.39698435899999,
                -14.850328107999928
              ],
              [
                -74.39526173299993,
                -14.846056607999913
              ],
              [
                -74.39099810899995,
                -14.838915981999946
              ],
              [
                -74.38841010899995,
                -14.837376982999956
              ],
              [
                -74.3845312339999,
                -14.832539107999878
              ],
              [
                -74.38146685899994,
                -14.826544981999973
              ],
              [
                -74.37596098299991,
                -14.821380856999895
              ],
              [
                -74.37306835899994,
                -14.81715423299994
              ],
              [
                -74.36970898399989,
                -14.809425731999966
              ],
              [
                -74.3618268589999,
                -14.797446982999872
              ],
              [
                -74.36129085799996,
                -14.794290356999909
              ],
              [
                -74.36309285899995,
                -14.79089548199994
              ],
              [
                -74.36758885899997,
                -14.791522856999904
              ],
              [
                -74.37137760899992,
                -14.783818732999976
              ],
              [
                -74.36755498399992,
                -14.774357606999956
              ],
              [
                -74.36374323399997,
                -14.770319606999976
              ],
              [
                -74.35963498299992,
                -14.77151235699995
              ],
              [
                -74.35645448399993,
                -14.770783606999885
              ],
              [
                -74.35433410899992,
                -14.778337356999884
              ],
              [
                -74.35599060899995,
                -14.780457731999888
              ],
              [
                -74.35426773399985,
                -14.781716732999882
              ],
              [
                -74.34810535899987,
                -14.779728857999885
              ],
              [
                -74.34412973399998,
                -14.780788981999876
              ],
              [
                -74.34002148399998,
                -14.783174482999982
              ],
              [
                -74.33888573299998,
                -14.78614710699992
              ],
              [
                -74.33884323399991,
                -14.789963857999965
              ],
              [
                -74.3375711089999,
                -14.793017106999912
              ],
              [
                -74.33434810899996,
                -14.794882981999933
              ],
              [
                -74.33099785899998,
                -14.793865231999916
              ],
              [
                -74.32701148399991,
                -14.78771610699988
              ],
              [
                -74.32429748299995,
                -14.786019732999932
              ],
              [
                -74.3200566079999,
                -14.785765357999935
              ],
              [
                -74.31488298399995,
                -14.787631231999967
              ],
              [
                -74.31225360899998,
                -14.789751607999904
              ],
              [
                -74.31072698399998,
                -14.795519106999961
              ],
              [
                -74.30941235799992,
                -14.796579357999974
              ],
              [
                -74.30424148399999,
                -14.797467607999977
              ],
              [
                -74.30155510899993,
                -14.79710460799987
              ],
              [
                -74.29468410899989,
                -14.79832823299995
              ],
              [
                -74.29176223399998,
                -14.800187731999927
              ],
              [
                -74.28910585799991,
                -14.802976732999923
              ],
              [
                -74.28817623299994,
                -14.806562731999975
              ],
              [
                -74.28897310899987,
                -14.81174248199983
              ],
              [
                -74.28724635899988,
                -14.821305232999862
              ],
              [
                -74.2857856089999,
                -14.826086481999937
              ],
              [
                -74.28618398399993,
                -14.827945856999975
              ],
              [
                -74.28923873399998,
                -14.832195982999906
              ],
              [
                -74.29030123399997,
                -14.839235107999968
              ],
              [
                -74.29138973399989,
                -14.842004607999968
              ],
              [
                -74.29580985799993,
                -14.84778460699988
              ],
              [
                -74.29676185899996,
                -14.851592731999972
              ],
              [
                -74.29526573399994,
                -14.85696485699998
              ],
              [
                -74.29151623399997,
                -14.862874107999971
              ],
              [
                -74.28833923299999,
                -14.864440856999863
              ],
              [
                -74.28355198399993,
                -14.865137106999896
              ],
              [
                -74.28220285899994,
                -14.866486481999914
              ],
              [
                -74.28102773399996,
                -14.872230982999952
              ],
              [
                -74.27906935899995,
                -14.877322982999942
              ],
              [
                -74.2767458589999,
                -14.87982185699991
              ],
              [
                -74.27422798399994,
                -14.888133231999973
              ],
              [
                -74.27160348299992,
                -14.89460160699997
              ],
              [
                -74.27315435899999,
                -14.900396482999895
              ],
              [
                -74.27100973399996,
                -14.902662107999959
              ],
              [
                -74.27041798399989,
                -14.907882731999962
              ],
              [
                -74.27114648399998,
                -14.910107481999944
              ],
              [
                -74.2709824829999,
                -14.914501982999923
              ],
              [
                -74.26889448399999,
                -14.921080107999899
              ],
              [
                -74.26691598299988,
                -14.925244107999902
              ],
              [
                -74.26562498399988,
                -14.933728482999982
              ],
              [
                -74.26112698299988,
                -14.935523481999837
              ],
              [
                -74.25926948399996,
                -14.938142607999907
              ],
              [
                -74.25376948399997,
                -14.940031357999942
              ],
              [
                -74.24864060899989,
                -14.942427731999885
              ],
              [
                -74.24541798399997,
                -14.947921856999926
              ],
              [
                -74.24171485799991,
                -14.955693357999905
              ],
              [
                -74.23867185899991,
                -14.959470732999876
              ],
              [
                -74.23509185899991,
                -14.96085748199988
              ]
            ]
          ]
        ],
        "type": "MultiPolygon"
      },
      "type": "Feature",
      "properties": {
        "PROVINCIA": "LUCANAS",
        "DISTRITO": "SAISA",
        "name": "SAISA",
        "ID": "050529",
        "DEPARTAMEN": "AYACUCHO"
      }
    }
  ]
}
