{
  "type": "FeatureCollection",
  "features": [
    {
      "geometry": {
        "coordinates": [
          [
            [
              [
                -77.67167486099999,
                -5.974104348999845
              ],
              [
                -77.67666386199994,
                -5.976444848999961
              ],
              [
                -77.68456061199998,
                -5.979166223999869
              ],
              [
                -77.68756448599999,
                -5.979095724999979
              ],
              [
                -77.68936511199996,
                -5.974568348999867
              ],
              [
                -77.69309761199997,
                -5.9699960989999
              ],
              [
                -77.69385161199989,
                -5.967378848999886
              ],
              [
                -77.69652736199998,
                -5.962558598999976
              ],
              [
                -77.69970898699995,
                -5.959859348999885
              ],
              [
                -77.70184173699994,
                -5.956931598999972
              ],
              [
                -77.70372661199991,
                -5.952900473999932
              ],
              [
                -77.70867573699996,
                -5.949984348999976
              ],
              [
                -77.70958786199986,
                -5.948236348999956
              ],
              [
                -77.71725786199994,
                -5.94419534899987
              ],
              [
                -77.72614448699994,
                -5.943544973999906
              ],
              [
                -77.72939848699997,
                -5.942644473999906
              ],
              [
                -77.73173436199994,
                -5.944384723999917
              ],
              [
                -77.73796873699996,
                -5.94571109899988
              ],
              [
                -77.74483398699988,
                -5.944943348999971
              ],
              [
                -77.74517973699989,
                -5.941888849999941
              ],
              [
                -77.74645311199993,
                -5.940462848999971
              ],
              [
                -77.74981836199998,
                -5.931275348999975
              ],
              [
                -77.75536523699986,
                -5.925175723999871
              ],
              [
                -77.75786723699991,
                -5.925333973999898
              ],
              [
                -77.76239061199993,
                -5.920623098999954
              ],
              [
                -77.7683729869999,
                -5.916706973999965
              ],
              [
                -77.77532036199995,
                -5.912677723999877
              ],
              [
                -77.77699398699991,
                -5.913736348999976
              ],
              [
                -77.78027148699994,
                -5.910494098999948
              ],
              [
                -77.78221286199982,
                -5.91062884899992
              ],
              [
                -77.78333398699993,
                -5.907371099999921
              ],
              [
                -77.78637311199998,
                -5.903541098999938
              ],
              [
                -77.79230486199992,
                -5.898859348999906
              ],
              [
                -77.79468536199994,
                -5.894888723999827
              ],
              [
                -77.79457423699995,
                -5.89069722399995
              ],
              [
                -77.79652911199997,
                -5.888048848999915
              ],
              [
                -77.79624798699996,
                -5.88613472399993
              ],
              [
                -77.80165423699998,
                -5.879123098999912
              ],
              [
                -77.80425786199987,
                -5.878314473999978
              ],
              [
                -77.80703111199989,
                -5.873322223999935
              ],
              [
                -77.81047636199997,
                -5.869773848999955
              ],
              [
                -77.81033011199992,
                -5.867242223999938
              ],
              [
                -77.80732223699994,
                -5.86317384899985
              ],
              [
                -77.80858398699996,
                -5.857374973999924
              ],
              [
                -77.80557423699997,
                -5.854617223999924
              ],
              [
                -77.79988861199985,
                -5.854410098999949
              ],
              [
                -77.79361723699998,
                -5.85236322399993
              ],
              [
                -77.7887578619999,
                -5.849740223999902
              ],
              [
                -77.78692386199998,
                -5.84365822399991
              ],
              [
                -77.78544336199997,
                -5.841831973999888
              ],
              [
                -77.77918286199991,
                -5.840041598999903
              ],
              [
                -77.77467136199994,
                -5.837985723999964
              ],
              [
                -77.77303848699995,
                -5.835035849999883
              ],
              [
                -77.77287786199997,
                -5.831984223999882
              ],
              [
                -77.76992261199996,
                -5.830153223999901
              ],
              [
                -77.76378711199999,
                -5.828579223999895
              ],
              [
                -77.76077098699994,
                -5.82491934899997
              ],
              [
                -77.75864036199994,
                -5.826197848999925
              ],
              [
                -77.75293711199993,
                -5.827778348999971
              ],
              [
                -77.75096586199999,
                -5.829017223999813
              ],
              [
                -77.74975348699996,
                -5.831678348999901
              ],
              [
                -77.74762436199995,
                -5.83277322399988
              ],
              [
                -77.7461383619999,
                -5.835110473999919
              ],
              [
                -77.74051423699996,
                -5.835088599999892
              ],
              [
                -77.73674286199991,
                -5.838727473999882
              ],
              [
                -77.73264061199995,
                -5.841697723999971
              ],
              [
                -77.72641598699994,
                -5.843981973999973
              ],
              [
                -77.71934073699998,
                -5.843448348999971
              ],
              [
                -77.71401886199993,
                -5.841007348999938
              ],
              [
                -77.71034348699993,
                -5.840656098999943
              ],
              [
                -77.70466411199999,
                -5.842166848999966
              ],
              [
                -77.69808386199998,
                -5.840442348999943
              ],
              [
                -77.69481336099989,
                -5.840232848999904
              ],
              [
                -77.69054473699993,
                -5.842287098999975
              ],
              [
                -77.68460986199995,
                -5.847682348999967
              ],
              [
                -77.68152673599997,
                -5.84948709899993
              ],
              [
                -77.6811334869999,
                -5.85486084899992
              ],
              [
                -77.677882862,
                -5.859646598999859
              ],
              [
                -77.68036586199997,
                -5.869121348999897
              ],
              [
                -77.68342961199994,
                -5.876063098999964
              ],
              [
                -77.68154411199998,
                -5.879161098999873
              ],
              [
                -77.67256573699996,
                -5.88561247399997
              ],
              [
                -77.66781536199994,
                -5.890877348999936
              ],
              [
                -77.66579136199988,
                -5.891906973999937
              ],
              [
                -77.66610598699998,
                -5.89385472399988
              ],
              [
                -77.66888673699992,
                -5.896810973999891
              ],
              [
                -77.66751761199998,
                -5.904279348999921
              ],
              [
                -77.66474473599999,
                -5.908587223999916
              ],
              [
                -77.66329386199999,
                -5.917670223999949
              ],
              [
                -77.66239698699997,
                -5.919919348999883
              ],
              [
                -77.65964298699998,
                -5.923350598999946
              ],
              [
                -77.65880861199997,
                -5.927898473999903
              ],
              [
                -77.65770536199983,
                -5.929728348999959
              ],
              [
                -77.65189061199993,
                -5.935331973999894
              ],
              [
                -77.65469386199999,
                -5.942201723999972
              ],
              [
                -77.65636023699989,
                -5.947994973999926
              ],
              [
                -77.65991386199994,
                -5.955134848999876
              ],
              [
                -77.66533423699997,
                -5.959520973999872
              ],
              [
                -77.6712459869999,
                -5.963261598999964
              ],
              [
                -77.673576987,
                -5.970299974999932
              ],
              [
                -77.67167486099999,
                -5.974104348999845
              ]
            ]
          ]
        ],
        "type": "MultiPolygon"
      },
      "type": "Feature",
      "properties": {
        "PROVINCIA": "BONGARA",
        "DISTRITO": "CHISQUILLA",
        "name": "CHISQUILLA",
        "ID": "010304",
        "DEPARTAMEN": "AMAZONAS"
      }
    }
  ]
}
