{
  "type": "FeatureCollection",
  "features": [
    {
      "geometry": {
        "coordinates": [
          [
            [
              [
                -77.85732036199994,
                -5.80472459899994
              ],
              [
                -77.85487111199996,
                -5.804175723999947
              ],
              [
                -77.85271286199998,
                -5.80713284899997
              ],
              [
                -77.84975386199994,
                -5.809199223999883
              ],
              [
                -77.84797848699998,
                -5.814962848999926
              ],
              [
                -77.84493948699998,
                -5.815150348999964
              ],
              [
                -77.84234761199997,
                -5.823566348999975
              ],
              [
                -77.84292161199988,
                -5.82618059899994
              ],
              [
                -77.84514298699992,
                -5.830292473999975
              ],
              [
                -77.84859336199992,
                -5.834593348999931
              ],
              [
                -77.85424098699997,
                -5.836814723999964
              ],
              [
                -77.86050236199986,
                -5.837121223999929
              ],
              [
                -77.86475698699991,
                -5.838705223999909
              ],
              [
                -77.86756873699994,
                -5.842061223999963
              ],
              [
                -77.86878348699997,
                -5.846108598999876
              ],
              [
                -77.86645848699999,
                -5.850733598999909
              ],
              [
                -77.86631673699998,
                -5.852435098999933
              ],
              [
                -77.86849073699995,
                -5.858082973999956
              ],
              [
                -77.86708923699996,
                -5.860164223999959
              ],
              [
                -77.86764011199989,
                -5.86401447399993
              ],
              [
                -77.87236636199998,
                -5.86403809899997
              ],
              [
                -77.87876948699994,
                -5.87097072399996
              ],
              [
                -77.89053036199988,
                -5.865249473999882
              ],
              [
                -77.89713198699997,
                -5.863069098999972
              ],
              [
                -77.90129223699995,
                -5.86313034899996
              ],
              [
                -77.90780198699997,
                -5.86137209899988
              ],
              [
                -77.91490273699992,
                -5.860635098999921
              ],
              [
                -77.91747861199991,
                -5.8616512239999
              ],
              [
                -77.91998348699997,
                -5.865243223999926
              ],
              [
                -77.91804573699994,
                -5.869095223999977
              ],
              [
                -77.91849473699995,
                -5.871080223999968
              ],
              [
                -77.92201586199997,
                -5.871505598999818
              ],
              [
                -77.92341011199994,
                -5.875239348999912
              ],
              [
                -77.92865623699998,
                -5.87738984899994
              ],
              [
                -77.9306873619999,
                -5.879891973999975
              ],
              [
                -77.93406861199998,
                -5.880887598999891
              ],
              [
                -77.93670736299998,
                -5.882796098999961
              ],
              [
                -77.9409122369999,
                -5.882319723999899
              ],
              [
                -77.94488673699988,
                -5.880056598999886
              ],
              [
                -77.94824673699998,
                -5.881078098999922
              ],
              [
                -77.95231123699995,
                -5.880698223999957
              ],
              [
                -77.95772461199994,
                -5.87840034899989
              ],
              [
                -77.96154011199997,
                -5.879746098999874
              ],
              [
                -77.96734073699992,
                -5.88013097399994
              ],
              [
                -77.96931248699991,
                -5.882302723999942
              ],
              [
                -77.97408898699996,
                -5.889319348999891
              ],
              [
                -77.97664448799992,
                -5.890394474999937
              ],
              [
                -77.98060748699993,
                -5.887639098999955
              ],
              [
                -77.98437361199996,
                -5.886103599999899
              ],
              [
                -77.98853311199997,
                -5.882901724999954
              ],
              [
                -77.99393023799996,
                -5.876692598999909
              ],
              [
                -77.99891336199994,
                -5.867971098999931
              ],
              [
                -78.00171536199997,
                -5.864401348999877
              ],
              [
                -78.0066083619999,
                -5.861866223999925
              ],
              [
                -78.01161636299992,
                -5.862251473999891
              ],
              [
                -78.01597261199993,
                -5.861629098999913
              ],
              [
                -78.01885798699993,
                -5.860384473999886
              ],
              [
                -78.02392161199998,
                -5.856791848999933
              ],
              [
                -78.02785148699996,
                -5.849394348999965
              ],
              [
                -78.03015823699997,
                -5.846089848999952
              ],
              [
                -78.03605711199998,
                -5.832916724999961
              ],
              [
                -78.03837673699996,
                -5.829465598999946
              ],
              [
                -78.04001373699998,
                -5.828737099999898
              ],
              [
                -78.04479811199997,
                -5.831191098999909
              ],
              [
                -78.04892773699999,
                -5.832003848999932
              ],
              [
                -78.05350586199995,
                -5.834382848999951
              ],
              [
                -78.05477586199987,
                -5.831834098999934
              ],
              [
                -78.0581814869999,
                -5.828981848999888
              ],
              [
                -78.06272911299988,
                -5.828532348999943
              ],
              [
                -78.06734586199997,
                -5.829604348999965
              ],
              [
                -78.07610423699987,
                -5.83420147399994
              ],
              [
                -78.08055173699995,
                -5.839718973999936
              ],
              [
                -78.08519986199997,
                -5.840086848999931
              ],
              [
                -78.09631248799991,
                -5.837537099999963
              ],
              [
                -78.09785348699995,
                -5.834609348999948
              ],
              [
                -78.09701173699995,
                -5.83308784899998
              ],
              [
                -78.09800373699994,
                -5.829902348999951
              ],
              [
                -78.1022948619999,
                -5.825109348999945
              ],
              [
                -78.10123623699997,
                -5.822392598999954
              ],
              [
                -78.09753711299999,
                -5.818652348999933
              ],
              [
                -78.0984628619999,
                -5.814148348999936
              ],
              [
                -78.09702736199989,
                -5.809062473999973
              ],
              [
                -78.093898487,
                -5.803517598999917
              ],
              [
                -78.09374411199985,
                -5.801945348999936
              ],
              [
                -78.09074998699998,
                -5.798171848999914
              ],
              [
                -78.08827923699994,
                -5.796134723999955
              ],
              [
                -78.08576948699994,
                -5.792253848999906
              ],
              [
                -78.08186523799992,
                -5.79087884899991
              ],
              [
                -78.07820698699993,
                -5.791945348999946
              ],
              [
                -78.07050198699994,
                -5.788507848999927
              ],
              [
                -78.06969536199995,
                -5.787691348999886
              ],
              [
                -78.06374736299995,
                -5.786605473999941
              ],
              [
                -78.05817598699991,
                -5.787207848999856
              ],
              [
                -78.05127973699996,
                -5.794405348999931
              ],
              [
                -78.04790686199993,
                -5.798591348999878
              ],
              [
                -78.04490473699997,
                -5.804636973999891
              ],
              [
                -78.04435936199997,
                -5.807787098999938
              ],
              [
                -78.04031286299994,
                -5.806703723999931
              ],
              [
                -78.03854186199993,
                -5.803014223999924
              ],
              [
                -78.03388823699993,
                -5.798636473999977
              ],
              [
                -78.03352686199997,
                -5.794613098999889
              ],
              [
                -78.02906023699995,
                -5.793279223999946
              ],
              [
                -78.02025373699996,
                -5.793828223999981
              ],
              [
                -78.01652523799993,
                -5.792409973999952
              ],
              [
                -78.01085248699997,
                -5.797510973999977
              ],
              [
                -78.00897686299993,
                -5.798242848999848
              ],
              [
                -78.00556861199993,
                -5.797442348999937
              ],
              [
                -77.99840036199998,
                -5.798264348999851
              ],
              [
                -77.98488498699999,
                -5.793553098999951
              ],
              [
                -77.97802886199992,
                -5.794523348999917
              ],
              [
                -77.97430861199996,
                -5.793071223999959
              ],
              [
                -77.97141623699997,
                -5.789879098999961
              ],
              [
                -77.97050186299998,
                -5.787529973999938
              ],
              [
                -77.9641972369999,
                -5.785986098999842
              ],
              [
                -77.95934648699989,
                -5.786346223999885
              ],
              [
                -77.95472736199997,
                -5.785278223999967
              ],
              [
                -77.95268161199994,
                -5.783579723999935
              ],
              [
                -77.94852561199997,
                -5.776078598999959
              ],
              [
                -77.94327611199992,
                -5.771304973999975
              ],
              [
                -77.94261973799996,
                -5.767921098999921
              ],
              [
                -77.9400963619999,
                -5.765413598999942
              ],
              [
                -77.93567598699991,
                -5.763146848999952
              ],
              [
                -77.93046223699992,
                -5.754797223999958
              ],
              [
                -77.92679748699993,
                -5.752152598999885
              ],
              [
                -77.9182212369999,
                -5.748450098999967
              ],
              [
                -77.9145942369999,
                -5.744747473999951
              ],
              [
                -77.91338523699989,
                -5.74229172399987
              ],
              [
                -77.91024798699993,
                -5.748165973999903
              ],
              [
                -77.90837698699994,
                -5.756380848999868
              ],
              [
                -77.90947261199989,
                -5.76223822399993
              ],
              [
                -77.90788686199994,
                -5.764658223999959
              ],
              [
                -77.90690823699998,
                -5.76892772399998
              ],
              [
                -77.89859961199988,
                -5.776107473999957
              ],
              [
                -77.89598048699997,
                -5.778894473999969
              ],
              [
                -77.89132036199999,
                -5.779812473999925
              ],
              [
                -77.88363086199996,
                -5.786140598999907
              ],
              [
                -77.88035161199997,
                -5.786943473999941
              ],
              [
                -77.87824023699994,
                -5.788751973999979
              ],
              [
                -77.87514261199988,
                -5.789699223999946
              ],
              [
                -77.87369136199999,
                -5.791802723999979
              ],
              [
                -77.87194723699992,
                -5.791105473999949
              ],
              [
                -77.86887111199997,
                -5.79311909899991
              ],
              [
                -77.86888673699991,
                -5.796054723999873
              ],
              [
                -77.8637382369999,
                -5.800328098999898
              ],
              [
                -77.86120898699988,
                -5.801415973999951
              ],
              [
                -77.85732036199994,
                -5.80472459899994
              ]
            ]
          ]
        ],
        "type": "MultiPolygon"
      },
      "type": "Feature",
      "properties": {
        "PROVINCIA": "BONGARA",
        "DISTRITO": "FLORIDA",
        "name": "FLORIDA",
        "ID": "010306",
        "DEPARTAMEN": "AMAZONAS"
      }
    }
  ]
}
