{
  "type": "FeatureCollection",
  "features": [
    {
      "geometry": {
        "coordinates": [
          [
            [
              [
                -77.81047636199997,
                -5.869773848999955
              ],
              [
                -77.80703111199989,
                -5.873322223999935
              ],
              [
                -77.80425786199987,
                -5.878314473999978
              ],
              [
                -77.80165423699998,
                -5.879123098999912
              ],
              [
                -77.79624798699996,
                -5.88613472399993
              ],
              [
                -77.79652911199997,
                -5.888048848999915
              ],
              [
                -77.79457423699995,
                -5.89069722399995
              ],
              [
                -77.79468536199994,
                -5.894888723999827
              ],
              [
                -77.79230486199992,
                -5.898859348999906
              ],
              [
                -77.79149498699991,
                -5.901482723999891
              ],
              [
                -77.79157923699995,
                -5.911834848999945
              ],
              [
                -77.78973236199988,
                -5.914972598999952
              ],
              [
                -77.79533261199998,
                -5.922502473999941
              ],
              [
                -77.7990424869999,
                -5.929188348999958
              ],
              [
                -77.80032061199995,
                -5.936829098999965
              ],
              [
                -77.80061248699997,
                -5.942703973999926
              ],
              [
                -77.79981961199991,
                -5.945788848999939
              ],
              [
                -77.79778573699991,
                -5.947985474999939
              ],
              [
                -77.79843536199996,
                -5.951800223999953
              ],
              [
                -77.79740711199997,
                -5.953223973999968
              ],
              [
                -77.79167248699991,
                -5.956427348999966
              ],
              [
                -77.79013011199993,
                -5.958207098999878
              ],
              [
                -77.78678948699996,
                -5.964333348999958
              ],
              [
                -77.78263736199995,
                -5.967725348999977
              ],
              [
                -77.77877973699998,
                -5.971614099999954
              ],
              [
                -77.77450323699998,
                -5.974316848999933
              ],
              [
                -77.77209598699994,
                -5.982331724999881
              ],
              [
                -77.77278836199986,
                -5.988546473999918
              ],
              [
                -77.77615386199994,
                -5.989529723999908
              ],
              [
                -77.78016386199994,
                -5.995501474999912
              ],
              [
                -77.7818878619999,
                -6.00059822399993
              ],
              [
                -77.78462311199996,
                -6.006072224999969
              ],
              [
                -77.78490961199992,
                -6.009066598999937
              ],
              [
                -77.78866686199996,
                -6.016936723999891
              ],
              [
                -77.79048611199994,
                -6.022552723999866
              ],
              [
                -77.78810348699994,
                -6.027344973999959
              ],
              [
                -77.79029673699995,
                -6.028214724999827
              ],
              [
                -77.79319723699996,
                -6.026023473999885
              ],
              [
                -77.79668948699998,
                -6.02544722499988
              ],
              [
                -77.79949023699999,
                -6.027064473999928
              ],
              [
                -77.80214648699996,
                -6.02980072399987
              ],
              [
                -77.80623436199988,
                -6.031873098999938
              ],
              [
                -77.80408198699996,
                -6.035113223999929
              ],
              [
                -77.80534773699998,
                -6.039562473999922
              ],
              [
                -77.80558398699998,
                -6.045230473999936
              ],
              [
                -77.80509373699994,
                -6.047300723999911
              ],
              [
                -77.8079413619999,
                -6.053062598999873
              ],
              [
                -77.80724798699998,
                -6.057089849999954
              ],
              [
                -77.80566011199988,
                -6.061820348999902
              ],
              [
                -77.80700786199992,
                -6.06643747499993
              ],
              [
                -77.80636723699996,
                -6.072955098999898
              ],
              [
                -77.80786911199988,
                -6.078445348999935
              ],
              [
                -77.80781048699998,
                -6.080931598999882
              ],
              [
                -77.80552148699996,
                -6.084412098999906
              ],
              [
                -77.80570698699995,
                -6.088828098999898
              ],
              [
                -77.80494711199998,
                -6.090933598999925
              ],
              [
                -77.8007011119999,
                -6.094781223999973
              ],
              [
                -77.79840623699994,
                -6.099562599999899
              ],
              [
                -77.79611723699998,
                -6.102392598999927
              ],
              [
                -77.79564848699994,
                -6.107724598999937
              ],
              [
                -77.79424798699995,
                -6.109761723999895
              ],
              [
                -77.79143361199988,
                -6.116017598999974
              ],
              [
                -77.78959961199996,
                -6.117347599999903
              ],
              [
                -77.78898436199984,
                -6.121953099999928
              ],
              [
                -77.79054486199988,
                -6.123910098999943
              ],
              [
                -77.79216848699997,
                -6.122203723999974
              ],
              [
                -77.80301261199997,
                -6.118677724999884
              ],
              [
                -77.80790623699994,
                -6.107351599999902
              ],
              [
                -77.80973036199998,
                -6.10469534899994
              ],
              [
                -77.81472836199998,
                -6.104039098999976
              ],
              [
                -77.81811523699997,
                -6.102982349999877
              ],
              [
                -77.82231598699991,
                -6.099840223999934
              ],
              [
                -77.8230404869999,
                -6.096028223999951
              ],
              [
                -77.82595111199993,
                -6.094021474999977
              ],
              [
                -77.82616636199998,
                -6.092674973999976
              ],
              [
                -77.82963336199998,
                -6.089492223999969
              ],
              [
                -77.82889648699995,
                -6.085854848999929
              ],
              [
                -77.83321386199992,
                -6.075056348999965
              ],
              [
                -77.8343674869999,
                -6.070209849999969
              ],
              [
                -77.83445823699992,
                -6.064009098999918
              ],
              [
                -77.83472461199995,
                -6.05708784899997
              ],
              [
                -77.83075286199994,
                -6.050862098999971
              ],
              [
                -77.83066598699997,
                -6.039615223999931
              ],
              [
                -77.83459573699997,
                -6.031941348999965
              ],
              [
                -77.83248061199998,
                -6.027582598999913
              ],
              [
                -77.83158636199994,
                -6.02379147399995
              ],
              [
                -77.82720536199997,
                -6.021440849999976
              ],
              [
                -77.82506011199996,
                -6.018876724999927
              ],
              [
                -77.82236323699993,
                -6.013104473999874
              ],
              [
                -77.81797123699994,
                -6.00715084899997
              ],
              [
                -77.81377348699993,
                -6.008052723999981
              ],
              [
                -77.81149111199989,
                -6.00504047499993
              ],
              [
                -77.80654686199989,
                -6.00049222399997
              ],
              [
                -77.80161161199993,
                -5.992248473999894
              ],
              [
                -77.80121186199989,
                -5.987337223999873
              ],
              [
                -77.80435273699999,
                -5.984710223999969
              ],
              [
                -77.80954948699991,
                -5.984310598999912
              ],
              [
                -77.81306473699988,
                -5.983371598999952
              ],
              [
                -77.81840148699996,
                -5.980380598999886
              ],
              [
                -77.82220261199996,
                -5.976906723999889
              ],
              [
                -77.82655473699998,
                -5.975265473999968
              ],
              [
                -77.83228261199997,
                -5.971439849999911
              ],
              [
                -77.83434523699992,
                -5.972103973999879
              ],
              [
                -77.8378789869999,
                -5.975001099999872
              ],
              [
                -77.84126436199989,
                -5.976284098999884
              ],
              [
                -77.84710761199995,
                -5.976098598999897
              ],
              [
                -77.84875586199996,
                -5.977123098999925
              ],
              [
                -77.84890136199994,
                -5.981184473999974
              ],
              [
                -77.84769511199994,
                -5.98433797399997
              ],
              [
                -77.84838448699998,
                -5.987341473999948
              ],
              [
                -77.85030748699984,
                -5.987862473999883
              ],
              [
                -77.85491748699997,
                -5.984401099999957
              ],
              [
                -77.85984536199993,
                -5.978772973999924
              ],
              [
                -77.86050973699992,
                -5.971507849999966
              ],
              [
                -77.86368361199999,
                -5.964218723999977
              ],
              [
                -77.86408611199988,
                -5.958089848999975
              ],
              [
                -77.86395748699994,
                -5.956692098999952
              ],
              [
                -77.85973686199992,
                -5.949973848999889
              ],
              [
                -77.8598901119999,
                -5.94871722399995
              ],
              [
                -77.86575386199996,
                -5.942187473999923
              ],
              [
                -77.86533686199994,
                -5.938191848999907
              ],
              [
                -77.87015748699997,
                -5.932258848999936
              ],
              [
                -77.8713833619999,
                -5.929285848999939
              ],
              [
                -77.87239486199991,
                -5.923799723999878
              ],
              [
                -77.87190448699994,
                -5.922175348999872
              ],
              [
                -77.86549073699996,
                -5.916866098999947
              ],
              [
                -77.86460998699982,
                -5.912214473999938
              ],
              [
                -77.86218873699994,
                -5.909517348999884
              ],
              [
                -77.86592786199998,
                -5.903234348999945
              ],
              [
                -77.86632436199983,
                -5.900221973999919
              ],
              [
                -77.86559036199992,
                -5.897368223999877
              ],
              [
                -77.86579336199992,
                -5.890927598999895
              ],
              [
                -77.86640186199992,
                -5.887225723999961
              ],
              [
                -77.8707563619999,
                -5.877815099999964
              ],
              [
                -77.87876948699994,
                -5.87097072399996
              ],
              [
                -77.87236636199998,
                -5.86403809899997
              ],
              [
                -77.86764011199989,
                -5.86401447399993
              ],
              [
                -77.86708923699996,
                -5.860164223999959
              ],
              [
                -77.86849073699995,
                -5.858082973999956
              ],
              [
                -77.86631673699998,
                -5.852435098999933
              ],
              [
                -77.86645848699999,
                -5.850733598999909
              ],
              [
                -77.86878348699997,
                -5.846108598999876
              ],
              [
                -77.86756873699994,
                -5.842061223999963
              ],
              [
                -77.86475698699991,
                -5.838705223999909
              ],
              [
                -77.86050236199986,
                -5.837121223999929
              ],
              [
                -77.85424098699997,
                -5.836814723999964
              ],
              [
                -77.84859336199992,
                -5.834593348999931
              ],
              [
                -77.84514298699992,
                -5.830292473999975
              ],
              [
                -77.84292161199988,
                -5.82618059899994
              ],
              [
                -77.84234761199997,
                -5.823566348999975
              ],
              [
                -77.84153911199996,
                -5.826054723999903
              ],
              [
                -77.84232811199996,
                -5.828607473999909
              ],
              [
                -77.83991986199993,
                -5.832488223999917
              ],
              [
                -77.84211723699985,
                -5.836767598999927
              ],
              [
                -77.84113073699996,
                -5.838263723999944
              ],
              [
                -77.84121673699997,
                -5.842671848999942
              ],
              [
                -77.84030473699988,
                -5.844167973999902
              ],
              [
                -77.835230487,
                -5.848757848999981
              ],
              [
                -77.83227923699997,
                -5.848789098999873
              ],
              [
                -77.83255073699996,
                -5.852456973999949
              ],
              [
                -77.82670511199996,
                -5.856380848999834
              ],
              [
                -77.82472848699996,
                -5.856218723999916
              ],
              [
                -77.82133398699995,
                -5.859371098999873
              ],
              [
                -77.81789061199993,
                -5.863482473999966
              ],
              [
                -77.8135566119999,
                -5.86678322399996
              ],
              [
                -77.81263861199989,
                -5.868964848999894
              ],
              [
                -77.81047636199997,
                -5.869773848999955
              ]
            ]
          ]
        ],
        "type": "MultiPolygon"
      },
      "type": "Feature",
      "properties": {
        "PROVINCIA": "BONGARA",
        "DISTRITO": "JUMBILLA",
        "name": "JUMBILLA",
        "ID": "010301",
        "DEPARTAMEN": "AMAZONAS"
      }
    }
  ]
}
