{
  "type": "FeatureCollection",
  "features": [
    {
      "geometry": {
        "coordinates": [
          [
            [
              [
                -77.95919336199995,
                -5.947314598999981
              ],
              [
                -77.95735736199998,
                -5.948373099999969
              ],
              [
                -77.95538673799985,
                -5.951248098999883
              ],
              [
                -77.95237698699992,
                -5.950214848999963
              ],
              [
                -77.94934573699999,
                -5.951757848999875
              ],
              [
                -77.9463652369999,
                -5.951583974999892
              ],
              [
                -77.94161911199996,
                -5.953154348999874
              ],
              [
                -77.93653711199994,
                -5.951275348999957
              ],
              [
                -77.93159186199995,
                -5.947706974999903
              ],
              [
                -77.9282011119999,
                -5.948013723999964
              ],
              [
                -77.9207128619999,
                -5.951558599999942
              ],
              [
                -77.91249023699999,
                -5.952984348999962
              ],
              [
                -77.90195698699995,
                -5.950581973999931
              ],
              [
                -77.89581636199989,
                -5.948175723999896
              ],
              [
                -77.89031448699996,
                -5.948783223999953
              ],
              [
                -77.88603711199988,
                -5.948525348999965
              ],
              [
                -77.87992973699994,
                -5.950662098999828
              ],
              [
                -77.87674223699992,
                -5.953677723999931
              ],
              [
                -77.87292773699994,
                -5.955912098999875
              ],
              [
                -77.8660547369999,
                -5.956706973999928
              ],
              [
                -77.86408611199988,
                -5.958089848999975
              ],
              [
                -77.86368361199999,
                -5.964218723999977
              ],
              [
                -77.86050973699992,
                -5.971507849999966
              ],
              [
                -77.85984536199993,
                -5.978772973999924
              ],
              [
                -77.85491748699997,
                -5.984401099999957
              ],
              [
                -77.85030748699984,
                -5.987862473999883
              ],
              [
                -77.84838448699998,
                -5.987341473999948
              ],
              [
                -77.84769511199994,
                -5.98433797399997
              ],
              [
                -77.84890136199994,
                -5.981184473999974
              ],
              [
                -77.84875586199996,
                -5.977123098999925
              ],
              [
                -77.84710761199995,
                -5.976098598999897
              ],
              [
                -77.84126436199989,
                -5.976284098999884
              ],
              [
                -77.8378789869999,
                -5.975001099999872
              ],
              [
                -77.83434523699992,
                -5.972103973999879
              ],
              [
                -77.83228261199997,
                -5.971439849999911
              ],
              [
                -77.82655473699998,
                -5.975265473999968
              ],
              [
                -77.82220261199996,
                -5.976906723999889
              ],
              [
                -77.81840148699996,
                -5.980380598999886
              ],
              [
                -77.81306473699988,
                -5.983371598999952
              ],
              [
                -77.80954948699991,
                -5.984310598999912
              ],
              [
                -77.80435273699999,
                -5.984710223999969
              ],
              [
                -77.80121186199989,
                -5.987337223999873
              ],
              [
                -77.80161161199993,
                -5.992248473999894
              ],
              [
                -77.80654686199989,
                -6.00049222399997
              ],
              [
                -77.81149111199989,
                -6.00504047499993
              ],
              [
                -77.81377348699993,
                -6.008052723999981
              ],
              [
                -77.81797123699994,
                -6.00715084899997
              ],
              [
                -77.82236323699993,
                -6.013104473999874
              ],
              [
                -77.82506011199996,
                -6.018876724999927
              ],
              [
                -77.82720536199997,
                -6.021440849999976
              ],
              [
                -77.83158636199994,
                -6.02379147399995
              ],
              [
                -77.83248061199998,
                -6.027582598999913
              ],
              [
                -77.83459573699997,
                -6.031941348999965
              ],
              [
                -77.83066598699997,
                -6.039615223999931
              ],
              [
                -77.83075286199994,
                -6.050862098999971
              ],
              [
                -77.83472461199995,
                -6.05708784899997
              ],
              [
                -77.83445823699992,
                -6.064009098999918
              ],
              [
                -77.83867573699996,
                -6.06546872399997
              ],
              [
                -77.84240823699997,
                -6.064816348999898
              ],
              [
                -77.84666411199998,
                -6.060449223999967
              ],
              [
                -77.8509902369999,
                -6.057175723999933
              ],
              [
                -77.85442386199998,
                -6.053761723999969
              ],
              [
                -77.85741411199996,
                -6.053804723999974
              ],
              [
                -77.86029098699987,
                -6.054939473999923
              ],
              [
                -77.86483861199997,
                -6.054362223999931
              ],
              [
                -77.86746548699983,
                -6.051221348999945
              ],
              [
                -77.87412561199994,
                -6.051900973999977
              ],
              [
                -77.87713873699994,
                -6.051219224999954
              ],
              [
                -77.88035848699997,
                -6.047119599999917
              ],
              [
                -77.88582173699996,
                -6.044756098999869
              ],
              [
                -77.89656411199996,
                -6.037469348999934
              ],
              [
                -77.89902236199998,
                -6.034977223999874
              ],
              [
                -77.89957311199998,
                -6.031426098999873
              ],
              [
                -77.8970488619999,
                -6.02683597399988
              ],
              [
                -77.89461648699995,
                -6.018930223999973
              ],
              [
                -77.89467573699994,
                -6.012749973999973
              ],
              [
                -77.89884111199996,
                -6.006060723999894
              ],
              [
                -77.90035573699998,
                -5.996936473999938
              ],
              [
                -77.9020689869999,
                -5.994709348999947
              ],
              [
                -77.9070616119999,
                -5.991375098999924
              ],
              [
                -77.91046373699999,
                -5.986029099999826
              ],
              [
                -77.91428998699996,
                -5.984487224999953
              ],
              [
                -77.9233698619999,
                -5.988884473999974
              ],
              [
                -77.92936611199991,
                -5.99099734899994
              ],
              [
                -77.93461998699996,
                -5.990369223999949
              ],
              [
                -77.94164411199989,
                -5.986942723999903
              ],
              [
                -77.94518548699989,
                -5.985749974999976
              ],
              [
                -77.95357223699989,
                -5.986283223999976
              ],
              [
                -77.95669536299994,
                -5.984929723999812
              ],
              [
                -77.96017773699992,
                -5.984621223999966
              ],
              [
                -77.96174611199996,
                -5.982789098999888
              ],
              [
                -77.96403711199997,
                -5.982441348999885
              ],
              [
                -77.96894336199995,
                -5.983699224999953
              ],
              [
                -77.97024961199992,
                -5.98330272499993
              ],
              [
                -77.97032811199995,
                -5.979318349999971
              ],
              [
                -77.97235161199995,
                -5.977925723999931
              ],
              [
                -77.9738164879999,
                -5.973689473999968
              ],
              [
                -77.97828123699992,
                -5.971650348999901
              ],
              [
                -77.97840036199995,
                -5.968533349999973
              ],
              [
                -77.97982423699995,
                -5.964802723999981
              ],
              [
                -77.97455836199998,
                -5.967263223999907
              ],
              [
                -77.97193273699992,
                -5.96781422499987
              ],
              [
                -77.97111811199994,
                -5.96975834999995
              ],
              [
                -77.96557973699998,
                -5.971208223999952
              ],
              [
                -77.95808011199995,
                -5.965435598999875
              ],
              [
                -77.95598573699993,
                -5.961328724999873
              ],
              [
                -77.95570023699992,
                -5.95858759999993
              ],
              [
                -77.95962711199996,
                -5.95325934899995
              ],
              [
                -77.95919336199995,
                -5.947314598999981
              ]
            ]
          ]
        ],
        "type": "MultiPolygon"
      },
      "type": "Feature",
      "properties": {
        "PROVINCIA": "BONGARA",
        "DISTRITO": "SAN CARLOS",
        "name": "SAN CARLOS",
        "ID": "010308",
        "DEPARTAMEN": "AMAZONAS"
      },
      "id": "010308"
    }
  ]
}
