{
  "type": "FeatureCollection",
  "features": [
    {
      "geometry": {
        "coordinates": [
          [
            [
              [
                -75.28822435999996,
                -9.870699602999935
              ],
              [
                -75.28120310999998,
                -9.876506477999953
              ],
              [
                -75.27707248399997,
                -9.879161727999929
              ],
              [
                -75.27426960899999,
                -9.879530602999978
              ],
              [
                -75.27193385999982,
                -9.881694102999916
              ],
              [
                -75.27013910999989,
                -9.886291852999932
              ],
              [
                -75.27102423399998,
                -9.889045477999957
              ],
              [
                -75.27055710899992,
                -9.891454977999956
              ],
              [
                -75.26721335899992,
                -9.892094227999962
              ],
              [
                -75.26131260899996,
                -9.897576977999961
              ],
              [
                -75.25578060999999,
                -9.895634602999905
              ],
              [
                -75.2526827349999,
                -9.896618227999909
              ],
              [
                -75.24995373399997,
                -9.899814352999954
              ],
              [
                -75.24919148499998,
                -9.903674352999872
              ],
              [
                -75.2504454839999,
                -9.90802622799987
              ],
              [
                -75.24796223399994,
                -9.914221977999944
              ],
              [
                -75.24762035999998,
                -9.917146102999936
              ],
              [
                -75.23748835999993,
                -9.920589852999967
              ],
              [
                -75.23183348499987,
                -9.920860227999924
              ],
              [
                -75.22785835999986,
                -9.922884602999943
              ],
              [
                -75.21992110999992,
                -9.92973947799993
              ],
              [
                -75.21451760999997,
                -9.936095727999941
              ],
              [
                -75.2084661099999,
                -9.940382602999932
              ],
              [
                -75.20314473499997,
                -9.945659102999969
              ],
              [
                -75.19516235899988,
                -9.955490352999902
              ],
              [
                -75.19137410999997,
                -9.964058977999912
              ],
              [
                -75.1892093599999,
                -9.965953227999876
              ],
              [
                -75.18519573499998,
                -9.968027602999939
              ],
              [
                -75.18104673399989,
                -9.97253735299995
              ],
              [
                -75.1780937339999,
                -9.97492572799996
              ],
              [
                -75.1746878589999,
                -9.981376602999887
              ],
              [
                -75.16977223399988,
                -9.983766727999978
              ],
              [
                -75.16706635999992,
                -9.988682477999873
              ],
              [
                -75.16706635999992,
                -9.99220010299996
              ],
              [
                -75.16463110999996,
                -10.002347102999977
              ],
              [
                -75.16581998399994,
                -10.0072856029999
              ],
              [
                -75.16561685999989,
                -10.012008977999926
              ],
              [
                -75.16429635899988,
                -10.015818102999958
              ],
              [
                -75.1656676099999,
                -10.01906860299988
              ],
              [
                -75.1656168589999,
                -10.02369035299995
              ],
              [
                -75.16307735999999,
                -10.03453385299997
              ],
              [
                -75.1616044839999,
                -10.038241477999975
              ],
              [
                -75.1594713589999,
                -10.04073010299993
              ],
              [
                -75.15926823399997,
                -10.043066352999972
              ],
              [
                -75.1546463599999,
                -10.048500727999908
              ],
              [
                -75.15627160899999,
                -10.053732102999959
              ],
              [
                -75.1536813599999,
                -10.0561191029999
              ],
              [
                -75.15130060899992,
                -10.06225547799994
              ],
              [
                -75.15190385999995,
                -10.064854852999929
              ],
              [
                -75.15017698499997,
                -10.067394227999955
              ],
              [
                -75.14705723399999,
                -10.074908602999813
              ],
              [
                -75.14728198499995,
                -10.078770977999909
              ],
              [
                -75.14509960999993,
                -10.08096872799996
              ],
              [
                -75.14559673499997,
                -10.083745477999912
              ],
              [
                -75.14365273399994,
                -10.087023227999964
              ],
              [
                -75.14426698499989,
                -10.090135727999893
              ],
              [
                -75.14212185999997,
                -10.094858602999977
              ],
              [
                -75.14152823399996,
                -10.099211477999972
              ],
              [
                -75.14373460899998,
                -10.104018977999942
              ],
              [
                -75.14289385999996,
                -10.10688410299997
              ],
              [
                -75.14486298399999,
                -10.112889477999886
              ],
              [
                -75.14197210999998,
                -10.11537347799998
              ],
              [
                -75.14203510999988,
                -10.121219602999929
              ],
              [
                -75.13792473499996,
                -10.123856352999951
              ],
              [
                -75.1355143589999,
                -10.128541727999902
              ],
              [
                -75.13060898399993,
                -10.131007478999834
              ],
              [
                -75.12827460999989,
                -10.134365602999935
              ],
              [
                -75.12811085899995,
                -10.139484852999942
              ],
              [
                -75.12512123499994,
                -10.143129728999895
              ],
              [
                -75.12192685999992,
                -10.143662102999883
              ],
              [
                -75.11877335999998,
                -10.141819227999918
              ],
              [
                -75.11676660899991,
                -10.141942102999963
              ],
              [
                -75.11250748499998,
                -10.148740352999937
              ],
              [
                -75.10871923499997,
                -10.152405727999906
              ],
              [
                -75.10298573499995,
                -10.168377602999897
              ],
              [
                -75.10175710999988,
                -10.1761998529999
              ],
              [
                -75.09839898499996,
                -10.181093727999837
              ],
              [
                -75.0985218589999,
                -10.18416522799987
              ],
              [
                -75.09585985899992,
                -10.188424477999945
              ],
              [
                -75.09577785999994,
                -10.192683602999978
              ],
              [
                -75.0934509839999,
                -10.196807227999955
              ],
              [
                -75.08923923399993,
                -10.198211102999949
              ],
              [
                -75.08821323499996,
                -10.200748977999865
              ],
              [
                -75.08470335899989,
                -10.202854977999948
              ],
              [
                -75.08383735899992,
                -10.20635585399998
              ],
              [
                -75.07900160999992,
                -10.208695102999968
              ],
              [
                -75.07578010899994,
                -10.211392727999907
              ],
              [
                -75.07514573399993,
                -10.213600477999876
              ],
              [
                -75.07151110899986,
                -10.213723727999934
              ],
              [
                -75.06782748399996,
                -10.216413977999878
              ],
              [
                -75.06669198399999,
                -10.218280852999953
              ],
              [
                -75.06195148399996,
                -10.22006185299989
              ],
              [
                -75.0582848599999,
                -10.223073727999974
              ],
              [
                -75.05834423499994,
                -10.22652747799998
              ],
              [
                -75.06183710999994,
                -10.230842227999972
              ],
              [
                -75.06012485899993,
                -10.237554102999923
              ],
              [
                -75.05738535999984,
                -10.239334853999935
              ],
              [
                -75.05649498499997,
                -10.242485227999964
              ],
              [
                -75.05711135999991,
                -10.245704227999965
              ],
              [
                -75.05005710899997,
                -10.251594227999874
              ],
              [
                -75.0498516099999,
                -10.25844310399998
              ],
              [
                -75.04848185899988,
                -10.26323722799998
              ],
              [
                -75.04389310899984,
                -10.26289485399991
              ],
              [
                -75.04293423399997,
                -10.264196102999904
              ],
              [
                -75.03635935999989,
                -10.26789447799996
              ],
              [
                -75.03724973399994,
                -10.273510603999853
              ],
              [
                -75.04016423399997,
                -10.27960372799987
              ],
              [
                -75.03714248499995,
                -10.28444385299997
              ],
              [
                -75.03669460899994,
                -10.289931227999944
              ],
              [
                -75.03243898499989,
                -10.292730977999952
              ],
              [
                -75.03120710899992,
                -10.295418727999959
              ],
              [
                -75.0284074839999,
                -10.298162353999942
              ],
              [
                -75.02711960899995,
                -10.303257852999934
              ],
              [
                -75.02807835899995,
                -10.305038977999914
              ],
              [
                -75.02683460899988,
                -10.307289728999933
              ],
              [
                -75.02336798499994,
                -10.309697102999962
              ],
              [
                -75.02325598499993,
                -10.313504728999874
              ],
              [
                -75.02415198499989,
                -10.316528352999967
              ],
              [
                -75.02639173399996,
                -10.3187681039999
              ],
              [
                -75.02947135999995,
                -10.323639602999947
              ],
              [
                -75.02762360999998,
                -10.326271352999981
              ],
              [
                -75.02587348499998,
                -10.334324477999814
              ],
              [
                -75.0293593589999,
                -10.341389602999982
              ],
              [
                -75.02672760999991,
                -10.346933103999959
              ],
              [
                -75.02644773499998,
                -10.351580603999935
              ],
              [
                -75.02706360999991,
                -10.35527610299988
              ],
              [
                -75.02599973499991,
                -10.362275353999905
              ],
              [
                -75.02437585899986,
                -10.364851103999968
              ],
              [
                -75.02431985899995,
                -10.369834602999845
              ],
              [
                -75.02185623399993,
                -10.374537977999978
              ],
              [
                -75.02146773499993,
                -10.376986477999878
              ],
              [
                -75.02208010899989,
                -10.38108935299988
              ],
              [
                -75.01865173399989,
                -10.394248227999924
              ],
              [
                -75.01475348399993,
                -10.397756977999904
              ],
              [
                -75.0113771099999,
                -10.402097603999948
              ],
              [
                -75.0131394849999,
                -10.40980147799985
              ],
              [
                -75.01218273399996,
                -10.412721978999912
              ],
              [
                -75.00985735999996,
                -10.41559210299988
              ],
              [
                -75.00543548399992,
                -10.41685085399996
              ],
              [
                -75.0053851099999,
                -10.42007347799995
              ],
              [
                -75.00649285899993,
                -10.423547727999903
              ],
              [
                -75.0060397339999,
                -10.430899228999863
              ],
              [
                -75.00684535899995,
                -10.436437978999948
              ],
              [
                -75.00812398499994,
                -10.437950353999895
              ],
              [
                -75.00665173499993,
                -10.443172852999908
              ],
              [
                -75.0027164839999,
                -10.447565978999876
              ],
              [
                -75.00221298499991,
                -10.451543728999923
              ],
              [
                -75.0037372349999,
                -10.45504885399987
              ],
              [
                -75.00488160899994,
                -10.449579977999974
              ],
              [
                -75.00719785899997,
                -10.446357477999982
              ],
              [
                -75.01277373399995,
                -10.444150228999888
              ],
              [
                -75.01871998399997,
                -10.444109977999915
              ],
              [
                -75.02198998499989,
                -10.441989977999924
              ],
              [
                -75.02712373399993,
                -10.441838478999898
              ],
              [
                -75.03928998399994,
                -10.440049977999934
              ],
              [
                -75.04150998499983,
                -10.440649978999886
              ],
              [
                -75.04712873399995,
                -10.440058977999968
              ],
              [
                -75.04796085999988,
                -10.446864852999965
              ],
              [
                -75.04816173499995,
                -10.452368728999886
              ],
              [
                -75.05173948399988,
                -10.457605852999961
              ],
              [
                -75.05412473399997,
                -10.464709602999847
              ],
              [
                -75.05759885899994,
                -10.465642853999952
              ],
              [
                -75.06117660899992,
                -10.46963547799993
              ],
              [
                -75.06174698499996,
                -10.471813228999963
              ],
              [
                -75.06013948399988,
                -10.473368852999897
              ],
              [
                -75.06024323399987,
                -10.477309602999924
              ],
              [
                -75.05837660899988,
                -10.482079977999831
              ],
              [
                -75.05692473399989,
                -10.484102227999927
              ],
              [
                -75.05827285899989,
                -10.491828103999921
              ],
              [
                -75.05801660999992,
                -10.496787853999933
              ],
              [
                -75.06110198399995,
                -10.499721602999955
              ],
              [
                -75.05620348399992,
                -10.503397353999958
              ],
              [
                -75.05531948499998,
                -10.506077852999965
              ],
              [
                -75.05578298499995,
                -10.511639977999948
              ],
              [
                -75.05472348499995,
                -10.51839397799995
              ],
              [
                -75.05538560999992,
                -10.520777727999814
              ],
              [
                -75.05776948399989,
                -10.523293853999974
              ],
              [
                -75.05863023399996,
                -10.526538477999964
              ],
              [
                -75.06310260899994,
                -10.530375352999954
              ],
              [
                -75.06330373499998,
                -10.527313478999929
              ],
              [
                -75.06518085999994,
                -10.523383477999914
              ],
              [
                -75.06987348499996,
                -10.5214476029999
              ],
              [
                -75.07371585899995,
                -10.518326227999921
              ],
              [
                -75.07919673499998,
                -10.51643997799988
              ],
              [
                -75.0841861099999,
                -10.517576103999943
              ],
              [
                -75.08662148399998,
                -10.519890602999965
              ],
              [
                -75.09167473399992,
                -10.521313102999954
              ],
              [
                -75.09312860899996,
                -10.521084727999892
              ],
              [
                -75.09651410899994,
                -10.51749160299994
              ],
              [
                -75.0974902349999,
                -10.514168478999977
              ],
              [
                -75.09718660999982,
                -10.511760102999915
              ],
              [
                -75.09300648499999,
                -10.510290102999875
              ],
              [
                -75.09236335999998,
                -10.507028727999966
              ],
              [
                -75.08969910899998,
                -10.503399852999905
              ],
              [
                -75.08700173499989,
                -10.501503727999875
              ],
              [
                -75.08790773499999,
                -10.499127977999933
              ],
              [
                -75.09089348399993,
                -10.495453103999921
              ],
              [
                -75.09581635999996,
                -10.486260102999836
              ],
              [
                -75.09845110899988,
                -10.480274228999974
              ],
              [
                -75.09796960999995,
                -10.477092977999916
              ],
              [
                -75.10328585899998,
                -10.476667352999868
              ],
              [
                -75.10776248499991,
                -10.480044102999955
              ],
              [
                -75.1108647339999,
                -10.48068835399988
              ],
              [
                -75.12271573399994,
                -10.485689602999969
              ],
              [
                -75.12613685999992,
                -10.488517852999962
              ],
              [
                -75.12987735899998,
                -10.489384477999977
              ],
              [
                -75.13133710999995,
                -10.491847727999925
              ],
              [
                -75.13830073499997,
                -10.49463397799991
              ],
              [
                -75.14100760899993,
                -10.49782347899992
              ],
              [
                -75.14731248399988,
                -10.502018852999981
              ],
              [
                -75.15111535999995,
                -10.505492477999951
              ],
              [
                -75.15809573399991,
                -10.510419853999963
              ],
              [
                -75.15985348499999,
                -10.511115477999965
              ],
              [
                -75.16590435999996,
                -10.509927853999955
              ],
              [
                -75.16800898399993,
                -10.50860135399995
              ],
              [
                -75.17117648399989,
                -10.511592977999953
              ],
              [
                -75.17510660999994,
                -10.510889102999897
              ],
              [
                -75.18232160999997,
                -10.511710353999888
              ],
              [
                -75.18548910899995,
                -10.513587353999867
              ],
              [
                -75.19065110999992,
                -10.51522985399987
              ],
              [
                -75.20051810899997,
                -10.516218977999927
              ],
              [
                -75.20197210899994,
                -10.517693477999956
              ],
              [
                -75.20549160999991,
                -10.51910122899983
              ],
              [
                -75.20889385899994,
                -10.522913977999906
              ],
              [
                -75.21094685999998,
                -10.526902852999967
              ],
              [
                -75.21067673499994,
                -10.529347602999962
              ],
              [
                -75.21505298399995,
                -10.529366478999975
              ],
              [
                -75.22129785999988,
                -10.526191352999831
              ],
              [
                -75.22373435999998,
                -10.528427977999968
              ],
              [
                -75.22479023399984,
                -10.532475353999928
              ],
              [
                -75.22631535999989,
                -10.53259272799994
              ],
              [
                -75.22784048499989,
                -10.529483727999946
              ],
              [
                -75.23065610999998,
                -10.533061978999967
              ],
              [
                -75.24026848499994,
                -10.536311728999976
              ],
              [
                -75.23658060899999,
                -10.53881047799996
              ],
              [
                -75.23710848499996,
                -10.544793603999949
              ],
              [
                -75.24209448399995,
                -10.547081228999957
              ],
              [
                -75.24555535999997,
                -10.550424853999857
              ],
              [
                -75.24672848399996,
                -10.556407977999982
              ],
              [
                -75.24801898499993,
                -10.558754353999973
              ],
              [
                -75.2511903599999,
                -10.560550728999942
              ],
              [
                -75.25998523499999,
                -10.559692852999945
              ],
              [
                -75.26544623499996,
                -10.557962852999935
              ],
              [
                -75.27136498499993,
                -10.560338102999935
              ],
              [
                -75.2754711099999,
                -10.560689978999903
              ],
              [
                -75.28163023499997,
                -10.557933103999972
              ],
              [
                -75.28315535999997,
                -10.560396728999876
              ],
              [
                -75.28644023499999,
                -10.562860353999895
              ],
              [
                -75.28743735999996,
                -10.567494352999972
              ],
              [
                -75.28931448499992,
                -10.571131228999889
              ],
              [
                -75.2964707349999,
                -10.571013852999954
              ],
              [
                -75.2987584839999,
                -10.57195247899989
              ],
              [
                -75.30461910999998,
                -10.57775197799998
              ],
              [
                -75.30848335999997,
                -10.57191685399988
              ],
              [
                -75.31408285899988,
                -10.571992978999958
              ],
              [
                -75.31926623499987,
                -10.571475352999926
              ],
              [
                -75.32411285999996,
                -10.57010835299991
              ],
              [
                -75.32701960899993,
                -10.567009852999945
              ],
              [
                -75.32847173499994,
                -10.562875352999981
              ],
              [
                -75.32930298499997,
                -10.557966853999915
              ],
              [
                -75.32909585999994,
                -10.552571728999851
              ],
              [
                -75.33120410999987,
                -10.550495477999903
              ],
              [
                -75.3361294849999,
                -10.547837602999834
              ],
              [
                -75.34107435999994,
                -10.546949852999944
              ],
              [
                -75.34528260999997,
                -10.54767985299992
              ],
              [
                -75.34759073499998,
                -10.545799727999963
              ],
              [
                -75.34931560999996,
                -10.539475227999901
              ],
              [
                -75.34904948499997,
                -10.533699978999891
              ],
              [
                -75.35156410899992,
                -10.529686227999889
              ],
              [
                -75.3538019849999,
                -10.528899477999971
              ],
              [
                -75.35546098499998,
                -10.524115227999914
              ],
              [
                -75.35731873499992,
                -10.522916102999886
              ],
              [
                -75.36480785899988,
                -10.522002603999908
              ],
              [
                -75.36944335999993,
                -10.51886722799992
              ],
              [
                -75.36982335999994,
                -10.514455978999877
              ],
              [
                -75.37113885999997,
                -10.509994603999871
              ],
              [
                -75.36977785999989,
                -10.503156228999899
              ],
              [
                -75.36816085999993,
                -10.501047102999962
              ],
              [
                -75.36893510999988,
                -10.498135978999926
              ],
              [
                -75.36693498499994,
                -10.4905193539999
              ],
              [
                -75.36541435899989,
                -10.48808097799997
              ],
              [
                -75.36820748499997,
                -10.482769352999924
              ],
              [
                -75.36969560999995,
                -10.481395727999882
              ],
              [
                -75.36987873399988,
                -10.476473353999893
              ],
              [
                -75.3721911099999,
                -10.470314727999892
              ],
              [
                -75.37232848499997,
                -10.467933727999878
              ],
              [
                -75.37397685899998,
                -10.46498035299993
              ],
              [
                -75.37743398499998,
                -10.461202727999932
              ],
              [
                -75.38129123499994,
                -10.462807852999958
              ],
              [
                -75.38606710999994,
                -10.462235977999967
              ],
              [
                -75.39107910999996,
                -10.458867477999888
              ],
              [
                -75.39498035999998,
                -10.458184478999954
              ],
              [
                -75.39931060899988,
                -10.454460602999973
              ],
              [
                -75.40116135999989,
                -10.44896435399994
              ],
              [
                -75.40397373499997,
                -10.44840797799992
              ],
              [
                -75.40685310999993,
                -10.44309235299994
              ],
              [
                -75.40705923399992,
                -10.438533728999971
              ],
              [
                -75.40795323499998,
                -10.43595935299993
              ],
              [
                -75.41187523499997,
                -10.434953852999968
              ],
              [
                -75.41326598499995,
                -10.432584478999956
              ],
              [
                -75.42106960899997,
                -10.431605852999951
              ],
              [
                -75.42301898499989,
                -10.429097102999947
              ],
              [
                -75.42915660999995,
                -10.423209852999946
              ],
              [
                -75.43670260999994,
                -10.419913227999928
              ],
              [
                -75.43855698499988,
                -10.420685852999895
              ],
              [
                -75.44605148499994,
                -10.417183228999818
              ],
              [
                -75.44583085999989,
                -10.414928977999978
              ],
              [
                -75.44799023499996,
                -10.411617227999898
              ],
              [
                -75.45168335999989,
                -10.409679352999945
              ],
              [
                -75.45677685999988,
                -10.405294727999888
              ],
              [
                -75.45830685999994,
                -10.402857227999846
              ],
              [
                -75.45818698399995,
                -10.395923852999942
              ],
              [
                -75.45906373499992,
                -10.38490597799995
              ],
              [
                -75.46358873499997,
                -10.377785352999979
              ],
              [
                -75.47103598499996,
                -10.372845727999959
              ],
              [
                -75.47820073499997,
                -10.36614885299997
              ],
              [
                -75.48158598499992,
                -10.362176352999825
              ],
              [
                -75.48787298499991,
                -10.357685727999979
              ],
              [
                -75.49446360999997,
                -10.349839477999922
              ],
              [
                -75.49623798499988,
                -10.343840353999951
              ],
              [
                -75.49184435999996,
                -10.335813477999977
              ],
              [
                -75.49159085999997,
                -10.334039102999895
              ],
              [
                -75.49331635899989,
                -10.324759727999947
              ],
              [
                -75.49307223499994,
                -10.320513727999924
              ],
              [
                -75.49109573499993,
                -10.315923853999948
              ],
              [
                -75.49247660999998,
                -10.309263727999905
              ],
              [
                -75.49418073399994,
                -10.307085352999877
              ],
              [
                -75.48840360999998,
                -10.305035227999895
              ],
              [
                -75.48550460999996,
                -10.304921477999812
              ],
              [
                -75.48306035999997,
                -10.294689727999923
              ],
              [
                -75.47930860999998,
                -10.292188727999928
              ],
              [
                -75.4766938599999,
                -10.288607602999946
              ],
              [
                -75.48141185999992,
                -10.286731727999893
              ],
              [
                -75.48470873499997,
                -10.28371897799991
              ],
              [
                -75.48539085999988,
                -10.28212747799995
              ],
              [
                -75.48925623499997,
                -10.27848947799987
              ],
              [
                -75.49073410999995,
                -10.274624102999951
              ],
              [
                -75.49101835999994,
                -10.26825772899997
              ],
              [
                -75.4897161099999,
                -10.266447977999974
              ],
              [
                -75.49056360999998,
                -10.262289102999944
              ],
              [
                -75.48760773499998,
                -10.258764853999935
              ],
              [
                -75.48800560999996,
                -10.25376272799997
              ],
              [
                -75.49289410999995,
                -10.24989735399987
              ],
              [
                -75.4936331099999,
                -10.242337227999826
              ],
              [
                -75.49471573499989,
                -10.239977352999972
              ],
              [
                -75.49897635999997,
                -10.237619227999971
              ],
              [
                -75.50130698499999,
                -10.237562352999873
              ],
              [
                -75.50443335999995,
                -10.236027602999911
              ],
              [
                -75.50753785999996,
                -10.235742977999905
              ],
              [
                -75.50682073499996,
                -10.232162227999936
              ],
              [
                -75.50750285999999,
                -10.227501102999895
              ],
              [
                -75.50704810999991,
                -10.225170602999981
              ],
              [
                -75.50824185999994,
                -10.223010477999878
              ],
              [
                -75.51074298499992,
                -10.222044227999959
              ],
              [
                -75.51301660999985,
                -10.218349352999951
              ],
              [
                -75.51335773499994,
                -10.215734602999873
              ],
              [
                -75.5111408599999,
                -10.209368227999903
              ],
              [
                -75.51161023499992,
                -10.207184352999946
              ],
              [
                -75.50728610999988,
                -10.204211727999848
              ],
              [
                -75.50426760999989,
                -10.199947477999899
              ],
              [
                -75.50283023499998,
                -10.19683310299996
              ],
              [
                -75.5034066099999,
                -10.190555977999907
              ],
              [
                -75.49900348499989,
                -10.182520352999916
              ],
              [
                -75.49775273499989,
                -10.178768102999982
              ],
              [
                -75.49679223499999,
                -10.17174985299988
              ],
              [
                -75.49319510999999,
                -10.170282727999904
              ],
              [
                -75.49234123499997,
                -10.168098227999963
              ],
              [
                -75.48828260999989,
                -10.164984102999881
              ],
              [
                -75.48866548499996,
                -10.160440477999941
              ],
              [
                -75.48595210999997,
                -10.157010352999976
              ],
              [
                -75.48389335999997,
                -10.155791352999927
              ],
              [
                -75.48096585999997,
                -10.151267102999952
              ],
              [
                -75.48203035999995,
                -10.137800852999874
              ],
              [
                -75.48612885999995,
                -10.133702477999975
              ],
              [
                -75.48415285999994,
                -10.13212447799998
              ],
              [
                -75.48163635999992,
                -10.124698727999828
              ],
              [
                -75.47936735999997,
                -10.121810977999814
              ],
              [
                -75.47796473499989,
                -10.11760297799998
              ],
              [
                -75.47581948499993,
                -10.114467727999909
              ],
              [
                -75.47091023399992,
                -10.10992972799994
              ],
              [
                -75.47004435999997,
                -10.106752852999932
              ],
              [
                -75.46649598399989,
                -10.101720102999877
              ],
              [
                -75.46443335999993,
                -10.09577947799994
              ],
              [
                -75.46463960899996,
                -10.093262977999927
              ],
              [
                -75.46216435999997,
                -10.091200227999877
              ],
              [
                -75.4612567339999,
                -10.086992352999971
              ],
              [
                -75.45816260999999,
                -10.080886727999882
              ],
              [
                -75.45795635999997,
                -10.07284210299997
              ],
              [
                -75.45568735899997,
                -10.064302477999945
              ],
              [
                -75.45552235999992,
                -10.061992227999951
              ],
              [
                -75.45911148499988,
                -10.05398897799995
              ],
              [
                -75.46418573499989,
                -10.052462477999882
              ],
              [
                -75.46496960999991,
                -10.049079727999924
              ],
              [
                -75.46822873499991,
                -10.043799102999913
              ],
              [
                -75.4688887349999,
                -10.038724852999906
              ],
              [
                -75.46492835999987,
                -10.034640727999943
              ],
              [
                -75.46323698499998,
                -10.031092852999848
              ],
              [
                -75.46307185899991,
                -10.027194227999928
              ],
              [
                -75.45890523499997,
                -10.02220247799994
              ],
              [
                -75.45651248499996,
                -10.020964852999953
              ],
              [
                -75.45576985999998,
                -10.018242102999977
              ],
              [
                -75.45869898499996,
                -10.012548977999927
              ],
              [
                -75.46030785999994,
                -10.008341102999964
              ],
              [
                -75.45922635999989,
                -9.996898102999921
              ],
              [
                -75.46270010999996,
                -9.991902352999944
              ],
              [
                -75.46709998499995,
                -9.988369101999979
              ],
              [
                -75.46809998499992,
                -9.981169227999885
              ],
              [
                -75.4659001099999,
                -9.977835977999973
              ],
              [
                -75.46623335899994,
                -9.973569352999903
              ],
              [
                -75.46470010999997,
                -9.96950285299988
              ],
              [
                -75.46436673499994,
                -9.965969477999977
              ],
              [
                -75.46190010999993,
                -9.960836352999934
              ],
              [
                -75.46230860999998,
                -9.957284477999963
              ],
              [
                -75.45907023499996,
                -9.9575848529999
              ],
              [
                -75.45369598499997,
                -9.955768227999897
              ],
              [
                -75.45244698399995,
                -9.953497352999932
              ],
              [
                -75.45225773499999,
                -9.949977602999923
              ],
              [
                -75.45080273499997,
                -9.943757852999909
              ],
              [
                -75.44955173499994,
                -9.941551602999823
              ],
              [
                -75.44466523499989,
                -9.937257227999964
              ],
              [
                -75.44174060999995,
                -9.93625772799993
              ],
              [
                -75.43579885999992,
                -9.937942102999955
              ],
              [
                -75.4322636099999,
                -9.940366977999929
              ],
              [
                -75.42630335999996,
                -9.942069852999964
              ],
              [
                -75.42291635999993,
                -9.943565977999981
              ],
              [
                -75.4202948599999,
                -9.94296685299986
              ],
              [
                -75.41443585999991,
                -9.937852977999967
              ],
              [
                -75.41212148499983,
                -9.932848977999981
              ],
              [
                -75.40975423499998,
                -9.93107372799983
              ],
              [
                -75.40478360999992,
                -9.93021210299986
              ],
              [
                -75.40426210899994,
                -9.926030727999944
              ],
              [
                -75.40232848499994,
                -9.922624476999886
              ],
              [
                -75.39974435999989,
                -9.920341727999926
              ],
              [
                -75.3956546099999,
                -9.913960476999875
              ],
              [
                -75.39662335899993,
                -9.908956477999936
              ],
              [
                -75.39856085999992,
                -9.906964352999921
              ],
              [
                -75.40394173499999,
                -9.904059977999964
              ],
              [
                -75.40896423499998,
                -9.902825602999883
              ],
              [
                -75.40996398499993,
                -9.900614102999953
              ],
              [
                -75.4093239849999,
                -9.89550410299995
              ],
              [
                -75.41114548499996,
                -9.893918976999885
              ],
              [
                -75.41118160999997,
                -9.888426102999972
              ],
              [
                -75.40723660899994,
                -9.886082602999977
              ],
              [
                -75.40365185999991,
                -9.881774101999895
              ],
              [
                -75.39959585999998,
                -9.878455602999964
              ],
              [
                -75.39575498499994,
                -9.876528227999927
              ],
              [
                -75.38957060899992,
                -9.874288602999968
              ],
              [
                -75.38326010999998,
                -9.872921352999981
              ],
              [
                -75.37354710999995,
                -9.87188847799996
              ],
              [
                -75.36935598499997,
                -9.870832601999894
              ],
              [
                -75.35976785899999,
                -9.871802227999922
              ],
              [
                -75.3501917349999,
                -9.87422410299996
              ],
              [
                -75.34739473399992,
                -9.874576102999924
              ],
              [
                -75.33868123499991,
                -9.874005226999941
              ],
              [
                -75.3303113589999,
                -9.875553851999939
              ],
              [
                -75.32520785899999,
                -9.876909477999902
              ],
              [
                -75.32122073499994,
                -9.876909477999902
              ],
              [
                -75.31715398399996,
                -9.876111977999926
              ],
              [
                -75.30609173499994,
                -9.871870101999946
              ],
              [
                -75.30264085999988,
                -9.873241352999969
              ],
              [
                -75.29642098399995,
                -9.870609852999962
              ],
              [
                -75.29427273499994,
                -9.871095852999929
              ],
              [
                -75.28822435999996,
                -9.870699602999935
              ]
            ]
          ]
        ],
        "type": "MultiPolygon"
      },
      "type": "Feature",
      "properties": {
        "PROVINCIA": "OXAPAMPA",
        "DISTRITO": "PALCAZU",
        "name": "PALCAZU",
        "ID": "180307",
        "DEPARTAMEN": "PASCO"
      }
    }
  ]
}
