{
  "type": "FeatureCollection",
  "features": [
    {
      "geometry": {
        "coordinates": [
          [
            [
              [
                -76.45702348600003,
                -11.33442772899997
              ],
              [
                -76.45097261099994,
                -11.343904354999893
              ],
              [
                -76.44834386099996,
                -11.34591560399997
              ],
              [
                -76.44335548500004,
                -11.347281103999876
              ],
              [
                -76.43675973500001,
                -11.347029353999915
              ],
              [
                -76.43174798599983,
                -11.345562479999955
              ],
              [
                -76.42934361000005,
                -11.346981728999879
              ],
              [
                -76.4278098599998,
                -11.351517728999966
              ],
              [
                -76.42268361099991,
                -11.35485547899998
              ],
              [
                -76.42222811099998,
                -11.360672853999915
              ],
              [
                -76.42054960999991,
                -11.364858603999949
              ],
              [
                -76.42040148599983,
                -11.373660603999838
              ],
              [
                -76.419293611,
                -11.376021853999873
              ],
              [
                -76.41411060999997,
                -11.379552854999929
              ],
              [
                -76.41295598499983,
                -11.382004978999873
              ],
              [
                -76.41344323599992,
                -11.38492835400001
              ],
              [
                -76.40798286099994,
                -11.390432603999955
              ],
              [
                -76.4035952349999,
                -11.397675103999973
              ],
              [
                -76.40368261100002,
                -11.399526603999846
              ],
              [
                -76.40141798599996,
                -11.402851728999963
              ],
              [
                -76.40429085999989,
                -11.409225478999929
              ],
              [
                -76.40761411099987,
                -11.410905353999965
              ],
              [
                -76.411831861,
                -11.414597353999966
              ],
              [
                -76.40902460999996,
                -11.418217229999982
              ],
              [
                -76.40581448499984,
                -11.42331635499994
              ],
              [
                -76.40510548599997,
                -11.425488228999939
              ],
              [
                -76.39968836099985,
                -11.436488228999963
              ],
              [
                -76.39434060999986,
                -11.445007478999912
              ],
              [
                -76.39277698599989,
                -11.445860353999876
              ],
              [
                -76.38799223499996,
                -11.44642972899993
              ],
              [
                -76.38361323599992,
                -11.445390603999897
              ],
              [
                -76.37945610999986,
                -11.443708104999871
              ],
              [
                -76.37740823499996,
                -11.444220728999937
              ],
              [
                -76.37724223499993,
                -11.449164104999909
              ],
              [
                -76.37484023599995,
                -11.464196103999882
              ],
              [
                -76.37299960999997,
                -11.466433603999917
              ],
              [
                -76.37150998599992,
                -11.475523228999975
              ],
              [
                -76.37203886099996,
                -11.478796853999938
              ],
              [
                -76.37365048499993,
                -11.480559478999965
              ],
              [
                -76.3779902359999,
                -11.481013729999972
              ],
              [
                -76.37995985999999,
                -11.482668978999868
              ],
              [
                -76.38101573499989,
                -11.486344603999953
              ],
              [
                -76.37821086099996,
                -11.492693228999883
              ],
              [
                -76.37640548499996,
                -11.498128478999945
              ],
              [
                -76.37683911099987,
                -11.50148860399986
              ],
              [
                -76.38420498599987,
                -11.50138072899989
              ],
              [
                -76.38978510999988,
                -11.499140603999933
              ],
              [
                -76.39319373499995,
                -11.499823603999914
              ],
              [
                -76.39424686099983,
                -11.501540228999943
              ],
              [
                -76.40058498599996,
                -11.507174353999915
              ],
              [
                -76.4029909859999,
                -11.504612479999935
              ],
              [
                -76.40683136099994,
                -11.501953854999897
              ],
              [
                -76.41216311100004,
                -11.499597353999945
              ],
              [
                -76.41409848499995,
                -11.492382479999947
              ],
              [
                -76.42242911099999,
                -11.490905479999924
              ],
              [
                -76.4239061109999,
                -11.491259978999949
              ],
              [
                -76.42922361099988,
                -11.489132978999919
              ],
              [
                -76.43448186099982,
                -11.488719354999887
              ],
              [
                -76.43690423499987,
                -11.487301479999928
              ],
              [
                -76.44279485999994,
                -11.480193353999937
              ],
              [
                -76.44423048599987,
                -11.475012354
              ],
              [
                -76.44665286100002,
                -11.472412729999917
              ],
              [
                -76.44978423600003,
                -11.467213478999952
              ],
              [
                -76.45350635999989,
                -11.463550354999938
              ],
              [
                -76.45674411099992,
                -11.462431603999903
              ],
              [
                -76.4633867359999,
                -11.462841853999919
              ],
              [
                -76.46932223600004,
                -11.460650353999938
              ],
              [
                -76.47394886099994,
                -11.466563605000033
              ],
              [
                -76.47532973599982,
                -11.467083853999895
              ],
              [
                -76.4828911109999,
                -11.462336978999872
              ],
              [
                -76.48427736099984,
                -11.458766228999934
              ],
              [
                -76.48810011099994,
                -11.457506103999947
              ],
              [
                -76.49498048599992,
                -11.458234354999888
              ],
              [
                -76.49885411099996,
                -11.460866604999978
              ],
              [
                -76.50269336099984,
                -11.466150353999922
              ],
              [
                -76.50271873599996,
                -11.468596103999971
              ],
              [
                -76.50372698599983,
                -11.476073478999922
              ],
              [
                -76.50502923499982,
                -11.47871997899989
              ],
              [
                -76.50671498499986,
                -11.479248104999954
              ],
              [
                -76.50855786099993,
                -11.48355085399993
              ],
              [
                -76.51086823599996,
                -11.486407228999894
              ],
              [
                -76.51292661100001,
                -11.489137853999978
              ],
              [
                -76.52149623599985,
                -11.491742353999825
              ],
              [
                -76.52468873600003,
                -11.49413672999998
              ],
              [
                -76.52746123499992,
                -11.500101853999979
              ],
              [
                -76.52735935999993,
                -11.507175729999858
              ],
              [
                -76.52825936099998,
                -11.509553478999862
              ],
              [
                -76.53010773599988,
                -11.512284103999946
              ],
              [
                -76.53451861099995,
                -11.51262010399995
              ],
              [
                -76.53661898599984,
                -11.51358622899994
              ],
              [
                -76.54107173599994,
                -11.516316728999982
              ],
              [
                -76.54460023499996,
                -11.519131353999967
              ],
              [
                -76.54510460999984,
                -11.52055960399997
              ],
              [
                -76.54409811099987,
                -11.523364853999965
              ],
              [
                -76.54218911099997,
                -11.527128728999912
              ],
              [
                -76.54261936099982,
                -11.530758229999947
              ],
              [
                -76.54503911099994,
                -11.533742354999902
              ],
              [
                -76.545495986,
                -11.535678104999931
              ],
              [
                -76.54341598600001,
                -11.53841685499998
              ],
              [
                -76.54190248600003,
                -11.542655854999964
              ],
              [
                -76.53982023599997,
                -11.54699935399998
              ],
              [
                -76.53745748599994,
                -11.552723103999938
              ],
              [
                -76.53619386099984,
                -11.554497603999948
              ],
              [
                -76.53657023599999,
                -11.555895604999932
              ],
              [
                -76.53667273599984,
                -11.557989228999816
              ],
              [
                -76.536623986,
                -11.558207729999936
              ],
              [
                -76.53643573599987,
                -11.561138103999951
              ],
              [
                -76.53734986099994,
                -11.562885604999906
              ],
              [
                -76.53917811000002,
                -11.564606103999893
              ],
              [
                -76.54197411099994,
                -11.568800353999848
              ],
              [
                -76.54452811099992,
                -11.569337978999897
              ],
              [
                -76.54597986099998,
                -11.569553104999954
              ],
              [
                -76.54747711100003,
                -11.57029797899986
              ],
              [
                -76.55056773599995,
                -11.575197854999885
              ],
              [
                -76.55120123599988,
                -11.577718728999855
              ],
              [
                -76.55297998599997,
                -11.579796104999957
              ],
              [
                -76.55463836099989,
                -11.582660603999898
              ],
              [
                -76.55569373499998,
                -11.58725885399997
              ],
              [
                -76.55847048599986,
                -11.59228935499982
              ],
              [
                -76.5592092359999,
                -11.595361854999908
              ],
              [
                -76.55934386099983,
                -11.597413354999958
              ],
              [
                -76.55934386099983,
                -11.59896947899989
              ],
              [
                -76.55887448599998,
                -11.602378229999943
              ],
              [
                -76.55796061099988,
                -11.60914635499995
              ],
              [
                -76.55813348599997,
                -11.61156710399996
              ],
              [
                -76.56035661099997,
                -11.613716103999877
              ],
              [
                -76.56542023599997,
                -11.61616147899997
              ],
              [
                -76.56841211099999,
                -11.617658479999932
              ],
              [
                -76.57337398599992,
                -11.620014853999919
              ],
              [
                -76.575275986,
                -11.621101728999975
              ],
              [
                -76.57530073499993,
                -11.622731979999969
              ],
              [
                -76.57574536100003,
                -11.624880979999944
              ],
              [
                -76.57572061099995,
                -11.625794854999981
              ],
              [
                -76.573052861,
                -11.629030729999954
              ],
              [
                -76.57367048499987,
                -11.631624353999939
              ],
              [
                -76.57498236099991,
                -11.632384728999966
              ],
              [
                -76.58084186100001,
                -11.633691353999893
              ],
              [
                -76.58592973599991,
                -11.63392572999993
              ],
              [
                -76.589691361,
                -11.635107478999942
              ],
              [
                -76.59236136099986,
                -11.637669979999941
              ],
              [
                -76.59416211099983,
                -11.638056603999871
              ],
              [
                -76.59887698499983,
                -11.637199103999876
              ],
              [
                -76.60372848599997,
                -11.63931447899995
              ],
              [
                -76.60786523499996,
                -11.643376979999971
              ],
              [
                -76.61057223599994,
                -11.648081979999972
              ],
              [
                -76.61079498599997,
                -11.651126978999969
              ],
              [
                -76.61254885999995,
                -11.652960979999932
              ],
              [
                -76.61775973599998,
                -11.652796853999916
              ],
              [
                -76.62115886099986,
                -11.653427479999948
              ],
              [
                -76.63041986099972,
                -11.653204978999952
              ],
              [
                -76.63420211099992,
                -11.654233978999912
              ],
              [
                -76.64198923599986,
                -11.659128728999974
              ],
              [
                -76.64535436099993,
                -11.660102104999964
              ],
              [
                -76.65116686099987,
                -11.659323353999923
              ],
              [
                -76.65745211099977,
                -11.657432228999937
              ],
              [
                -76.66150586099997,
                -11.657437478999952
              ],
              [
                -76.66548961099988,
                -11.65876722999991
              ],
              [
                -76.66810373599992,
                -11.662104479999925
              ],
              [
                -76.67411098600002,
                -11.666442978999953
              ],
              [
                -76.67939511099979,
                -11.671031854999967
              ],
              [
                -76.68278811099987,
                -11.671643728999925
              ],
              [
                -76.68829461099995,
                -11.671727104999832
              ],
              [
                -76.69074198599992,
                -11.67250585399995
              ],
              [
                -76.69327273599998,
                -11.675036604999946
              ],
              [
                -76.69585923599993,
                -11.680654479999873
              ],
              [
                -76.6996136109999,
                -11.683908353999982
              ],
              [
                -76.70403561099977,
                -11.688524979999954
              ],
              [
                -76.70737298599977,
                -11.69130610399992
              ],
              [
                -76.71479848599978,
                -11.694476478999889
              ],
              [
                -76.71826998599988,
                -11.69514997999994
              ],
              [
                -76.72353098599996,
                -11.694838104999974
              ],
              [
                -76.72728561099984,
                -11.693975978999958
              ],
              [
                -76.73020573599996,
                -11.694337479999945
              ],
              [
                -76.73262536099992,
                -11.695700228999897
              ],
              [
                -76.7389383609999,
                -11.697257604999947
              ],
              [
                -76.74005086099982,
                -11.698119729999974
              ],
              [
                -76.74739298599991,
                -11.709577854999964
              ],
              [
                -76.74969536099997,
                -11.712048853999818
              ],
              [
                -76.74989923599986,
                -11.714241853999908
              ],
              [
                -76.75014611099971,
                -11.716006104999849
              ],
              [
                -76.75039311099988,
                -11.725073229999907
              ],
              [
                -76.75113411099994,
                -11.729377603999978
              ],
              [
                -76.75284986099985,
                -11.731168353999976
              ],
              [
                -76.75582648599993,
                -11.732588229999863
              ],
              [
                -76.76295336099986,
                -11.735234353999886
              ],
              [
                -76.76517598599992,
                -11.736680853999928
              ],
              [
                -76.77036223599987,
                -11.73773935499986
              ],
              [
                -76.7766777359999,
                -11.739997353999968
              ],
              [
                -76.782463861,
                -11.744724979999887
              ],
              [
                -76.78630961099987,
                -11.746912479999878
              ],
              [
                -76.79213098599996,
                -11.748923478999927
              ],
              [
                -76.79364811099998,
                -11.750334728999974
              ],
              [
                -76.79587086099986,
                -11.752627979999943
              ],
              [
                -76.79819936099989,
                -11.75365110499996
              ],
              [
                -76.799927986,
                -11.754286228999888
              ],
              [
                -76.80486761099996,
                -11.75587385499989
              ],
              [
                -76.8070602940004,
                -11.75290839646749
              ],
              [
                -76.81005266161571,
                -11.75203225619481
              ],
              [
                -76.8138438251529,
                -11.74978871675711
              ],
              [
                -76.81540917747259,
                -11.749243031804838
              ],
              [
                -76.81643126165432,
                -11.74876202313419
              ],
              [
                -76.81825805456185,
                -11.747816687459647
              ],
              [
                -76.82403063173433,
                -11.746907386886562
              ],
              [
                -76.82511844786427,
                -11.746976968004276
              ],
              [
                -76.8261464508638,
                -11.74739897908313
              ],
              [
                -76.82729781293915,
                -11.747682437203139
              ],
              [
                -76.82818077405858,
                -11.747309426532524
              ],
              [
                -76.83049940706888,
                -11.745580235202226
              ],
              [
                -76.83184621876927,
                -11.744882803253859
              ],
              [
                -76.83289789965693,
                -11.744187260315414
              ],
              [
                -76.83897345017476,
                -11.746826836168736
              ],
              [
                -76.83980065549457,
                -11.747418459722553
              ],
              [
                -76.8404051185833,
                -11.747215579510168
              ],
              [
                -76.84145962782651,
                -11.74694856985252
              ],
              [
                -76.84601966595335,
                -11.74592420345192
              ],
              [
                -76.8507835245955,
                -11.747515841858785
              ],
              [
                -76.851923352315,
                -11.748396220668269
              ],
              [
                -76.85507939162,
                -11.748804307118576
              ],
              [
                -76.85822517381519,
                -11.747681790449747
              ],
              [
                -76.85989313713162,
                -11.74855869547821
              ],
              [
                -76.86428696220776,
                -11.74823921496943
              ],
              [
                -76.86820962783571,
                -11.74715743908331
              ],
              [
                -76.86908941687602,
                -11.746325143089393
              ],
              [
                -76.86983709546269,
                -11.744330435576103
              ],
              [
                -76.87543944962533,
                -11.743574305090704
              ],
              [
                -76.87755073871449,
                -11.740109514723997
              ],
              [
                -76.87818771950492,
                -11.738826633118776
              ],
              [
                -76.87920371488002,
                -11.73747300825903
              ],
              [
                -76.87956881077196,
                -11.736337949769506
              ],
              [
                -76.8794371947892,
                -11.735252076907216
              ],
              [
                -76.87994404457663,
                -11.734406903426589
              ],
              [
                -76.88011157681535,
                -11.733916003779768
              ],
              [
                -76.88060133522288,
                -11.732841349590501
              ],
              [
                -76.8828539567528,
                -11.732903050082882
              ],
              [
                -76.8860067579148,
                -11.735147570089794
              ],
              [
                -76.8874130754898,
                -11.734097469531093
              ],
              [
                -76.88862246922929,
                -11.733783357882032
              ],
              [
                -76.88970708478638,
                -11.733393536063488
              ],
              [
                -76.89363166686934,
                -11.730367571728038
              ],
              [
                -76.89673503516678,
                -11.729918429231418
              ],
              [
                -76.89788760510112,
                -11.730385267133613
              ],
              [
                -76.89920526560024,
                -11.730009171847882
              ],
              [
                -76.90063027927374,
                -11.729433379193324
              ],
              [
                -76.90267601495634,
                -11.728776920214784
              ],
              [
                -76.90683086238698,
                -11.729912493582901
              ],
              [
                -76.90804767214632,
                -11.730684978413876
              ],
              [
                -76.91447267647357,
                -11.732172611660417
              ],
              [
                -76.91516059124439,
                -11.737326086966277
              ],
              [
                -76.91464402566112,
                -11.741247855940742
              ],
              [
                -76.91545897881633,
                -11.742298497396064
              ],
              [
                -76.91694109691582,
                -11.745487478694486
              ],
              [
                -76.92041668884093,
                -11.749428333749051
              ],
              [
                -76.92230522836758,
                -11.75073192133749
              ],
              [
                -76.9231954596753,
                -11.751429990970166
              ],
              [
                -76.92909469817482,
                -11.753180949443845
              ],
              [
                -76.93024911084063,
                -11.753892512715709
              ],
              [
                -76.9316830073879,
                -11.754586872603682
              ],
              [
                -76.93243198397283,
                -11.755071584010523
              ],
              [
                -76.93357397751117,
                -11.756227081060956
              ],
              [
                -76.93398951004434,
                -11.75567325879291
              ],
              [
                -76.93798491895694,
                -11.751712586582755
              ],
              [
                -76.939750670232,
                -11.75099652955987
              ],
              [
                -76.94122247889186,
                -11.750450824518055
              ],
              [
                -76.94266579129123,
                -11.750272642124514
              ],
              [
                -76.9451699051491,
                -11.750745366915908
              ],
              [
                -76.9469010125315,
                -11.749524420305988
              ],
              [
                -76.94750009583083,
                -11.748571385959167
              ],
              [
                -76.94870470658304,
                -11.74758360694102
              ],
              [
                -76.94921661528065,
                -11.74748827856996
              ],
              [
                -76.95073788353517,
                -11.747355442831747
              ],
              [
                -76.9509848862233,
                -11.747139476849497
              ],
              [
                -76.95127492911138,
                -11.74641813258711
              ],
              [
                -76.95202553743894,
                -11.744928361357267
              ],
              [
                -76.95257950772708,
                -11.744189906553117
              ],
              [
                -76.95305678697963,
                -11.74358972566057
              ],
              [
                -76.95320671368455,
                -11.742823422170318
              ],
              [
                -76.95446531569348,
                -11.74068733966044
              ],
              [
                -76.95469289548271,
                -11.73992050476022
              ],
              [
                -76.95507524911449,
                -11.736872083591322
              ],
              [
                -76.95854766565708,
                -11.735914665249709
              ],
              [
                -76.95955092533916,
                -11.735020067027392
              ],
              [
                -76.96158642193478,
                -11.734042105592607
              ],
              [
                -76.96216897831357,
                -11.734053161750637
              ],
              [
                -76.96680156999594,
                -11.734633535546152
              ],
              [
                -76.9691854232604,
                -11.73568849927392
              ],
              [
                -76.97175782486181,
                -11.736079138922264
              ],
              [
                -76.97378416976676,
                -11.736407144590657
              ],
              [
                -76.97404004090907,
                -11.737340017992494
              ],
              [
                -76.97448004090961,
                -11.741930017996822
              ],
              [
                -76.9736725582897,
                -11.747975392743683
              ],
              [
                -76.9771753496974,
                -11.74736703696351
              ],
              [
                -76.97821991481197,
                -11.746824113448554
              ],
              [
                -76.98027430214512,
                -11.746312447599166
              ],
              [
                -76.98168855040524,
                -11.745881738473429
              ],
              [
                -76.98448600745843,
                -11.7461110190971
              ],
              [
                -76.98545481501901,
                -11.746459092162752
              ],
              [
                -76.98665087832882,
                -11.747473438057057
              ],
              [
                -76.98776203134179,
                -11.748097045381485
              ],
              [
                -76.98967179476386,
                -11.749078581654373
              ],
              [
                -76.99099652023523,
                -11.749700685366236
              ],
              [
                -76.99199010210197,
                -11.750172041105259
              ],
              [
                -76.99678208214402,
                -11.752357807548208
              ],
              [
                -76.99864051179833,
                -11.751598670486487
              ],
              [
                -76.99951278980797,
                -11.751401245684463
              ],
              [
                -77.00196027326626,
                -11.751556269900505
              ],
              [
                -77.0030425118793,
                -11.75085994502416
              ],
              [
                -77.00595164272158,
                -11.75041862209946
              ],
              [
                -77.00707589570987,
                -11.750779168502277
              ],
              [
                -77.00956841782232,
                -11.75117756388579
              ],
              [
                -77.01100439440307,
                -11.751071792130233
              ],
              [
                -77.01677947559295,
                -11.749542441815777
              ],
              [
                -77.01743605298657,
                -11.749113273034197
              ],
              [
                -77.02097406906216,
                -11.74706033503719
              ],
              [
                -77.02316967841568,
                -11.744634252204605
              ],
              [
                -77.02380321418548,
                -11.743654071614912
              ],
              [
                -77.0251739075888,
                -11.742592138977557
              ],
              [
                -77.02627950903866,
                -11.742450378386707
              ],
              [
                -77.02782490793533,
                -11.741387195844993
              ],
              [
                -77.03199503630958,
                -11.74084101753715
              ],
              [
                -77.03244982097704,
                -11.740761831848943
              ],
              [
                -77.03221566363152,
                -11.73915591033591
              ],
              [
                -77.03224271807596,
                -11.737548704655978
              ],
              [
                -77.03495052145712,
                -11.733511902937835
              ],
              [
                -77.03581168485141,
                -11.731812669421288
              ],
              [
                -77.03622700358233,
                -11.728882656477992
              ],
              [
                -77.03904062019762,
                -11.723410254172393
              ],
              [
                -77.03950145599123,
                -11.72271825077803
              ],
              [
                -77.03984076049255,
                -11.721338395993996
              ],
              [
                -77.0425571812334,
                -11.718506753714962
              ],
              [
                -77.04278295106144,
                -11.717529460066658
              ],
              [
                -77.04290255472296,
                -11.717043039789417
              ],
              [
                -77.04300914171836,
                -11.716609556481785
              ],
              [
                -77.04433461629594,
                -11.714706121541099
              ],
              [
                -77.04394322233361,
                -11.712958429413618
              ],
              [
                -77.04125496775299,
                -11.71168626604964
              ],
              [
                -77.03721209964789,
                -11.71125591715537
              ],
              [
                -77.0361487933551,
                -11.71079285625433
              ],
              [
                -77.03491070421558,
                -11.710319554397074
              ],
              [
                -77.03357751384561,
                -11.70958291235462
              ],
              [
                -77.03058035174217,
                -11.70587360555254
              ],
              [
                -77.02941871040719,
                -11.70469953164627
              ],
              [
                -77.02870257695554,
                -11.703924051833894
              ],
              [
                -77.02830199178862,
                -11.703295559002981
              ],
              [
                -77.02832285854868,
                -11.70296252849829
              ],
              [
                -77.02831850807502,
                -11.702365666041032
              ],
              [
                -77.02714909130697,
                -11.701719655209104
              ],
              [
                -77.02605363500112,
                -11.6984330070797
              ],
              [
                -77.02617589708336,
                -11.69762863137953
              ],
              [
                -77.02464928037955,
                -11.692703558730898
              ],
              [
                -77.02435617584445,
                -11.69083459197725
              ],
              [
                -77.02540975451052,
                -11.688370701400004
              ],
              [
                -77.02558993023445,
                -11.684317431802981
              ],
              [
                -77.02501450646832,
                -11.682060179426855
              ],
              [
                -77.02489354776827,
                -11.681441180238608
              ],
              [
                -77.0254328617994,
                -11.678728389277126
              ],
              [
                -77.02462667225655,
                -11.676604766922537
              ],
              [
                -77.02764897922594,
                -11.671819760591745
              ],
              [
                -77.03067964030583,
                -11.664193693581069
              ],
              [
                -77.03038341631515,
                -11.65948950663335
              ],
              [
                -77.03268688330343,
                -11.655972220542367
              ],
              [
                -77.03494252118611,
                -11.653890101279046
              ],
              [
                -77.03509921925809,
                -11.651421070652873
              ],
              [
                -77.03006027068659,
                -11.647066053042693
              ],
              [
                -77.02925201009265,
                -11.64400118766872
              ],
              [
                -77.02287071102023,
                -11.639167613530276
              ],
              [
                -77.02066344406364,
                -11.635854254445235
              ],
              [
                -77.0165131515181,
                -11.633558873145262
              ],
              [
                -77.01458595114264,
                -11.628693841662539
              ],
              [
                -77.01451475027386,
                -11.622840120549029
              ],
              [
                -77.01105032801752,
                -11.618731903652815
              ],
              [
                -77.01039760892263,
                -11.61701461964833
              ],
              [
                -77.00573503381094,
                -11.616300943415979
              ],
              [
                -77.00476011945636,
                -11.614269539233135
              ],
              [
                -77.00370698599983,
                -11.610009728999898
              ],
              [
                -77.00386648599988,
                -11.604126228999917
              ],
              [
                -77.0012688609998,
                -11.598965478999958
              ],
              [
                -76.99832486099984,
                -11.59747622899988
              ],
              [
                -76.99472286199989,
                -11.597857228999828
              ],
              [
                -76.99167486100004,
                -11.59900010499996
              ],
              [
                -76.98744923699985,
                -11.597649353999827
              ],
              [
                -76.983015986,
                -11.597822478999944
              ],
              [
                -76.980799236,
                -11.597233728999981
              ],
              [
                -76.97522298599995,
                -11.594047228999955
              ],
              [
                -76.97293948599986,
                -11.592154353999945
              ],
              [
                -76.96898861100004,
                -11.587120228999936
              ],
              [
                -76.96483223599995,
                -11.58497272999989
              ],
              [
                -76.95305623599995,
                -11.584141478999982
              ],
              [
                -76.94619848599973,
                -11.578565103999892
              ],
              [
                -76.9445358609999,
                -11.574755353999876
              ],
              [
                -76.94484761099994,
                -11.569733104999841
              ],
              [
                -76.94395511099998,
                -11.562757854999916
              ],
              [
                -76.94280411099999,
                -11.560416229999873
              ],
              [
                -76.939345737,
                -11.555945354999892
              ],
              [
                -76.9385093619997,
                -11.551445603999923
              ],
              [
                -76.93757411199988,
                -11.550233354999818
              ],
              [
                -76.93483798599988,
                -11.550267978999898
              ],
              [
                -76.93234411099985,
                -11.554354979999914
              ],
              [
                -76.92547461099991,
                -11.558605478999823
              ],
              [
                -76.92157261099999,
                -11.557541478999894
              ],
              [
                -76.91821286099992,
                -11.554562978999911
              ],
              [
                -76.91315611100003,
                -11.548986479999826
              ],
              [
                -76.90882673599992,
                -11.54777422899997
              ],
              [
                -76.90428948600004,
                -11.544587728999943
              ],
              [
                -76.90092973599997,
                -11.53932322899982
              ],
              [
                -76.89791648599987,
                -11.536448479999933
              ],
              [
                -76.89438373699988,
                -11.534543479999968
              ],
              [
                -76.89081623599992,
                -11.534543478999865
              ],
              [
                -76.87689273599995,
                -11.53835335499997
              ],
              [
                -76.87471073599988,
                -11.537799228999859
              ],
              [
                -76.86926423599994,
                -11.526217979999899
              ],
              [
                -76.86428548599997,
                -11.519853728999976
              ],
              [
                -76.86089111099989,
                -11.513762228999838
              ],
              [
                -76.85909011099972,
                -11.508337353999934
              ],
              [
                -76.85952311099993,
                -11.50405122899997
              ],
              [
                -76.86212073599984,
                -11.502059728999939
              ],
              [
                -76.87618948599993,
                -11.49919722899989
              ],
              [
                -76.87809636199978,
                -11.497946853999906
              ],
              [
                -76.88078061099992,
                -11.49327097899993
              ],
              [
                -76.88238248600004,
                -11.491842228999928
              ],
              [
                -76.886755236,
                -11.494569728999977
              ],
              [
                -76.888183986,
                -11.494742978999852
              ],
              [
                -76.89225361099983,
                -11.492188603999978
              ],
              [
                -76.8937688609999,
                -11.489114728999937
              ],
              [
                -76.89615011099983,
                -11.482100854999771
              ],
              [
                -76.89653973599991,
                -11.477728228999979
              ],
              [
                -76.89273323599991,
                -11.470027478999896
              ],
              [
                -76.89260398599987,
                -11.467314103999854
              ],
              [
                -76.89371998599984,
                -11.461499978999825
              ],
              [
                -76.88941998599995,
                -11.461349853999934
              ],
              [
                -76.88823998599992,
                -11.46206997999991
              ],
              [
                -76.88637998599995,
                -11.463619978999816
              ],
              [
                -76.8849699869998,
                -11.465369978999945
              ],
              [
                -76.88228998599993,
                -11.466229978999934
              ],
              [
                -76.8811299869999,
                -11.466359978999947
              ],
              [
                -76.87884998599998,
                -11.466029978999927
              ],
              [
                -76.87515998599991,
                -11.467009978999897
              ],
              [
                -76.87416998599974,
                -11.46702997899996
              ],
              [
                -76.87283998599992,
                -11.466439978999915
              ],
              [
                -76.87103998599991,
                -11.467369979999944
              ],
              [
                -76.86528998599988,
                -11.467519979999906
              ],
              [
                -76.86368998599983,
                -11.46796997999985
              ],
              [
                -76.86110998599997,
                -11.467059978999941
              ],
              [
                -76.85898998599998,
                -11.468059979999907
              ],
              [
                -76.85610998599998,
                -11.467819979999888
              ],
              [
                -76.85339998599983,
                -11.466669978999846
              ],
              [
                -76.84760998599995,
                -11.462319978999972
              ],
              [
                -76.84419998599981,
                -11.461649978999958
              ],
              [
                -76.84153998599987,
                -11.460529978999944
              ],
              [
                -76.83950998599971,
                -11.45943997899991
              ],
              [
                -76.83471998599987,
                -11.45362997899997
              ],
              [
                -76.83201998599992,
                -11.451980103999972
              ],
              [
                -76.82960998599992,
                -11.451099978999878
              ],
              [
                -76.82819998599996,
                -11.449729979999859
              ],
              [
                -76.82504011099991,
                -11.44890997899995
              ],
              [
                -76.8216499859999,
                -11.446509979999973
              ],
              [
                -76.81974998599992,
                -11.446289978999971
              ],
              [
                -76.81796998599987,
                -11.44681997899994
              ],
              [
                -76.81304998600001,
                -11.444339979999938
              ],
              [
                -76.81043998599989,
                -11.442179978999832
              ],
              [
                -76.80895998599982,
                -11.440059978999898
              ],
              [
                -76.80875998599987,
                -11.437449979999883
              ],
              [
                -76.80671998599985,
                -11.435159978999934
              ],
              [
                -76.80645998599982,
                -11.434740103999843
              ],
              [
                -76.80569998599992,
                -11.433359978999874
              ],
              [
                -76.80388998599983,
                -11.43366997899983
              ],
              [
                -76.79808998599998,
                -11.431719979999968
              ],
              [
                -76.79542998599993,
                -11.43067997999998
              ],
              [
                -76.79461998599993,
                -11.430699979999872
              ],
              [
                -76.79209036099996,
                -11.43013222899998
              ],
              [
                -76.78936773600003,
                -11.42895660399995
              ],
              [
                -76.78176673599995,
                -11.425333978999902
              ],
              [
                -76.77658073600003,
                -11.42195935399991
              ],
              [
                -76.77575073599985,
                -11.421504729999867
              ],
              [
                -76.77157823599993,
                -11.420320604999858
              ],
              [
                -76.76779948599994,
                -11.420678978999945
              ],
              [
                -76.76336273599998,
                -11.423166853999817
              ],
              [
                -76.7619072359999,
                -11.424751853999965
              ],
              [
                -76.75818773599974,
                -11.427533478999976
              ],
              [
                -76.75250786099997,
                -11.42780272899995
              ],
              [
                -76.74724611099981,
                -11.426396478999948
              ],
              [
                -76.74185361099995,
                -11.426239604999921
              ],
              [
                -76.73814448600001,
                -11.427111354999965
              ],
              [
                -76.73484686099994,
                -11.430664228999944
              ],
              [
                -76.73178123599985,
                -11.432716853999864
              ],
              [
                -76.72937111099992,
                -11.433644478999895
              ],
              [
                -76.72344961099998,
                -11.434843229999956
              ],
              [
                -76.71898598599995,
                -11.43468160499998
              ],
              [
                -76.71261398599995,
                -11.431253103999893
              ],
              [
                -76.70601561099988,
                -11.423738228999923
              ],
              [
                -76.70352936099982,
                -11.42433197899993
              ],
              [
                -76.69845511099987,
                -11.42772460399982
              ],
              [
                -76.6945706109999,
                -11.42932710499997
              ],
              [
                -76.69315561099978,
                -11.425150979999955
              ],
              [
                -76.68835548599975,
                -11.417820229999904
              ],
              [
                -76.68480348599991,
                -11.415728978999823
              ],
              [
                -76.68228411099983,
                -11.409758353999905
              ],
              [
                -76.68004086099995,
                -11.405168229999902
              ],
              [
                -76.67986823599995,
                -11.403235603999974
              ],
              [
                -76.67997186099984,
                -11.400094853999974
              ],
              [
                -76.67821161099994,
                -11.396436603999973
              ],
              [
                -76.67547661099985,
                -11.395165978999898
              ],
              [
                -76.67068811099995,
                -11.394434854999815
              ],
              [
                -76.66740923599991,
                -11.389292478999948
              ],
              [
                -76.66768536099994,
                -11.382528103999903
              ],
              [
                -76.6701357359999,
                -11.37600522899993
              ],
              [
                -76.66992873599992,
                -11.369068228999936
              ],
              [
                -76.66727123599986,
                -11.35664372899987
              ],
              [
                -76.66796136100004,
                -11.351673978999827
              ],
              [
                -76.66795311099997,
                -11.346013728999935
              ],
              [
                -76.66379336099988,
                -11.345649728999888
              ],
              [
                -76.65728461100002,
                -11.346794728999953
              ],
              [
                -76.65288511099988,
                -11.348060229999874
              ],
              [
                -76.64914861099999,
                -11.347457604999931
              ],
              [
                -76.64547236099992,
                -11.34558935399997
              ],
              [
                -76.64053036099995,
                -11.344082603999937
              ],
              [
                -76.6381799859999,
                -11.344625103999931
              ],
              [
                -76.6310458609999,
                -11.353660103999914
              ],
              [
                -76.62488473599984,
                -11.353216854999914
              ],
              [
                -76.61688423600003,
                -11.34929622899989
              ],
              [
                -76.6142259859999,
                -11.348474603999875
              ],
              [
                -76.60481786099996,
                -11.349007603999894
              ],
              [
                -76.60093511099996,
                -11.346831354999892
              ],
              [
                -76.59858010999989,
                -11.343132853999919
              ],
              [
                -76.60000548600004,
                -11.335147978999885
              ],
              [
                -76.59621973599997,
                -11.331458478999878
              ],
              [
                -76.59817673599991,
                -11.326581978999911
              ],
              [
                -76.59702186099992,
                -11.325074103999953
              ],
              [
                -76.59320398599993,
                -11.322732103999954
              ],
              [
                -76.58707623599992,
                -11.32019760399993
              ],
              [
                -76.5822959859999,
                -11.31557772899987
              ],
              [
                -76.5808843609999,
                -11.313203604999899
              ],
              [
                -76.57869136099998,
                -11.312683603999972
              ],
              [
                -76.57337711100001,
                -11.317245979999882
              ],
              [
                -76.57045761099994,
                -11.318432978999965
              ],
              [
                -76.564971486,
                -11.319235103999972
              ],
              [
                -76.555667611,
                -11.318850103999921
              ],
              [
                -76.54607486099991,
                -11.316090978999966
              ],
              [
                -76.54459911099985,
                -11.31647597999995
              ],
              [
                -76.5396584849999,
                -11.321192103999977
              ],
              [
                -76.53831098499995,
                -11.325330728999916
              ],
              [
                -76.53539148599998,
                -11.329373103999899
              ],
              [
                -76.53369111099988,
                -11.332998478999968
              ],
              [
                -76.531349111,
                -11.333832603999952
              ],
              [
                -76.52616986099991,
                -11.334489978999898
              ],
              [
                -76.5245429859998,
                -11.333642603999863
              ],
              [
                -76.52107036099989,
                -11.329908228999955
              ],
              [
                -76.515724986,
                -11.327223603999869
              ],
              [
                -76.51373586099999,
                -11.326966978999963
              ],
              [
                -76.50876311099995,
                -11.328153979999968
              ],
              [
                -76.50423948599996,
                -11.332164353999929
              ],
              [
                -76.49175935999995,
                -11.341853228999923
              ],
              [
                -76.48569336000003,
                -11.342917978999935
              ],
              [
                -76.48348211099994,
                -11.344419728999924
              ],
              [
                -76.4756861109999,
                -11.341147353999872
              ],
              [
                -76.46994323599989,
                -11.340249104
              ],
              [
                -76.46763336099991,
                -11.339350728999932
              ],
              [
                -76.46407223599988,
                -11.336591728999963
              ],
              [
                -76.4611622359999,
                -11.335135228999889
              ],
              [
                -76.45702348600003,
                -11.33442772899997
              ]
            ]
          ]
        ],
        "type": "MultiPolygon"
      },
      "type": "Feature",
      "properties": {
        "PROVINCIA": "CANTA",
        "name": "CANTA",
        "ID": "140300",
        "DEPARTAMEN": "LIMA"
      }
    }
  ]
}
