{
  "type": "FeatureCollection",
  "features": [
    {
      "geometry": {
        "coordinates": [
          [
            [
              [
                -80.01711911399991,
                -5.20724222299998
              ],
              [
                -80.0175956139999,
                -5.209540972999889
              ],
              [
                -80.02102536399991,
                -5.215179722999892
              ],
              [
                -80.02090998899996,
                -5.218492222999885
              ],
              [
                -80.01864261399993,
                -5.223201222999876
              ],
              [
                -80.01701561399994,
                -5.225001972999905
              ],
              [
                -80.01073823899998,
                -5.226337847999957
              ],
              [
                -80.00608786399988,
                -5.226746097999978
              ],
              [
                -80.0039961139999,
                -5.228896473999896
              ],
              [
                -80.00236911399992,
                -5.232152348999932
              ],
              [
                -79.99923048899996,
                -5.236451223999893
              ],
              [
                -79.99841598899997,
                -5.24005472399989
              ],
              [
                -79.9983593639999,
                -5.24470509899993
              ],
              [
                -80.00475198899994,
                -5.251621098999976
              ],
              [
                -80.00521673899993,
                -5.256910098999981
              ],
              [
                -80.0078906139999,
                -5.262082098999883
              ],
              [
                -80.01044723899997,
                -5.264232473999925
              ],
              [
                -80.01067973899995,
                -5.270103473999939
              ],
              [
                -80.01283011399994,
                -5.276322223999955
              ],
              [
                -80.0109121139999,
                -5.277251973999967
              ],
              [
                -80.00696098899982,
                -5.283527348999883
              ],
              [
                -80.00114848899995,
                -5.293990348999898
              ],
              [
                -79.9986503639999,
                -5.297593723999967
              ],
              [
                -79.99414061399989,
                -5.299218723999957
              ],
              [
                -79.99271498899998,
                -5.303392598999892
              ],
              [
                -79.98969923899995,
                -5.306310473999929
              ],
              [
                -79.98820511399987,
                -5.309162098999934
              ],
              [
                -79.98929298899998,
                -5.316076223999971
              ],
              [
                -79.9866191139999,
                -5.319677723999973
              ],
              [
                -79.98133023899999,
                -5.329558598999938
              ],
              [
                -79.97825586399989,
                -5.331990223999981
              ],
              [
                -79.97569136399989,
                -5.335544973999902
              ],
              [
                -79.97276361399997,
                -5.336794973999872
              ],
              [
                -79.97208786399983,
                -5.339498098999968
              ],
              [
                -79.97309173899993,
                -5.342216848999954
              ],
              [
                -79.97245111399997,
                -5.345376973999919
              ],
              [
                -79.96842773899994,
                -5.348156223999922
              ],
              [
                -79.9618007389999,
                -5.349087848999943
              ],
              [
                -79.96005848899989,
                -5.350074223999911
              ],
              [
                -79.95814061399994,
                -5.355421848999981
              ],
              [
                -79.95796486399996,
                -5.358675723999909
              ],
              [
                -79.95901173899995,
                -5.360187348999943
              ],
              [
                -79.9584882389999,
                -5.362978473999931
              ],
              [
                -79.95529298899993,
                -5.367626973999961
              ],
              [
                -79.95354886399997,
                -5.369021473999965
              ],
              [
                -79.94982811399996,
                -5.375648473999945
              ],
              [
                -79.94302923899988,
                -5.376810598999896
              ],
              [
                -79.94052923899989,
                -5.379017598999894
              ],
              [
                -79.9386659889999,
                -5.379173848999869
              ],
              [
                -79.93715823899998,
                -5.383144473999948
              ],
              [
                -79.93727536399996,
                -5.385003848999872
              ],
              [
                -79.93936723899992,
                -5.389771473999929
              ],
              [
                -79.94047261399999,
                -5.400347598999929
              ],
              [
                -79.94250586399994,
                -5.41133197399995
              ],
              [
                -79.94332036399999,
                -5.413017598999943
              ],
              [
                -79.9436874889999,
                -5.419382848999931
              ],
              [
                -79.94145886399997,
                -5.425804723999875
              ],
              [
                -79.94744336399998,
                -5.430396473999906
              ],
              [
                -79.94762111399996,
                -5.43690622399987
              ],
              [
                -79.94663286399998,
                -5.440218723999919
              ],
              [
                -79.94349411399998,
                -5.444578098999955
              ],
              [
                -79.94332036399999,
                -5.449052723999898
              ],
              [
                -79.94221486399994,
                -5.452656223999895
              ],
              [
                -79.94250586399994,
                -5.458581973999912
              ],
              [
                -79.94563286399995,
                -5.467109473999926
              ],
              [
                -79.94650986399995,
                -5.473890598999844
              ],
              [
                -79.9520957389999,
                -5.479331973999933
              ],
              [
                -79.95564061399995,
                -5.482064473999969
              ],
              [
                -79.95721098899992,
                -5.485376973999962
              ],
              [
                -79.95744336399997,
                -5.48787697399996
              ],
              [
                -79.95564061399995,
                -5.490433598999914
              ],
              [
                -79.95651361399996,
                -5.494966848999923
              ],
              [
                -79.95645511399994,
                -5.506357473999969
              ],
              [
                -79.9543047389999,
                -5.508392598999933
              ],
              [
                -79.94872673899994,
                -5.511414098999921
              ],
              [
                -79.9458729889999,
                -5.514996098999916
              ],
              [
                -79.94823236399998,
                -5.52119334899993
              ],
              [
                -79.9523437389999,
                -5.527107473999877
              ],
              [
                -79.95364648899994,
                -5.534701223999889
              ],
              [
                -79.9556992389999,
                -5.540998098999978
              ],
              [
                -79.95558198899988,
                -5.546634723999887
              ],
              [
                -79.95755473899993,
                -5.553113223999901
              ],
              [
                -79.95755473899993,
                -5.556919973999925
              ],
              [
                -79.95907036399996,
                -5.562384723999912
              ],
              [
                -79.95944536399998,
                -5.568351598999868
              ],
              [
                -79.96135936399997,
                -5.571539098999892
              ],
              [
                -79.96131248899991,
                -5.575507848999905
              ],
              [
                -79.96009173899989,
                -5.579546848999883
              ],
              [
                -79.96052348899991,
                -5.581623098999899
              ],
              [
                -79.96691598899992,
                -5.580169973999944
              ],
              [
                -79.96853911399984,
                -5.58116597399993
              ],
              [
                -79.97783598899997,
                -5.579824223999935
              ],
              [
                -79.98638673899995,
                -5.581017598999892
              ],
              [
                -79.9991913639999,
                -5.585359348999873
              ],
              [
                -80.00100386399987,
                -5.585341848999917
              ],
              [
                -80.00438286399992,
                -5.582956973999956
              ],
              [
                -80.00647073899995,
                -5.583951223999975
              ],
              [
                -80.00910548899998,
                -5.580769473999965
              ],
              [
                -80.01034961399989,
                -5.578035098999976
              ],
              [
                -80.01631448899997,
                -5.575050723999937
              ],
              [
                -80.02740036399996,
                -5.570726598999897
              ],
              [
                -80.03127936399994,
                -5.569484347999889
              ],
              [
                -80.03749411399997,
                -5.569880848999844
              ],
              [
                -80.04032811399998,
                -5.569384722999928
              ],
              [
                -80.05283694699989,
                -5.563572663999878
              ],
              [
                -80.0525151839999,
                -5.556247655999925
              ],
              [
                -80.05561515199997,
                -5.553790677999928
              ],
              [
                -80.05802998099995,
                -5.554926495999837
              ],
              [
                -80.06822224299992,
                -5.557303915999967
              ],
              [
                -80.07078595699988,
                -5.557205213999907
              ],
              [
                -80.07273699099994,
                -5.555461668999953
              ],
              [
                -80.07857501599989,
                -5.559888714999886
              ],
              [
                -80.08287286199993,
                -5.560409119999974
              ],
              [
                -80.08438901499989,
                -5.55452733199985
              ],
              [
                -80.08755480699983,
                -5.546167826999977
              ],
              [
                -80.08981600399994,
                -5.543550700999958
              ],
              [
                -80.09396874399994,
                -5.540798837999944
              ],
              [
                -80.09749445999995,
                -5.537112499999921
              ],
              [
                -80.10294749099995,
                -5.532346225999902
              ],
              [
                -80.10542908399992,
                -5.526031763999981
              ],
              [
                -80.10697761099988,
                -5.520721049999906
              ],
              [
                -80.10668348099989,
                -5.518923764999897
              ],
              [
                -80.12682612799995,
                -5.510812797999904
              ],
              [
                -80.13052097999991,
                -5.504433414999937
              ],
              [
                -80.13876171899983,
                -5.493769531999817
              ],
              [
                -80.14467773399991,
                -5.485367186999952
              ],
              [
                -80.16297265599997,
                -5.459912108999845
              ],
              [
                -80.17008203099994,
                -5.450466796999933
              ],
              [
                -80.18474804699997,
                -5.431476562999933
              ],
              [
                -80.23356249999989,
                -5.364744140999846
              ],
              [
                -80.23744531199992,
                -5.35968945299993
              ],
              [
                -80.25913375899995,
                -5.330330319999916
              ],
              [
                -80.25967620799997,
                -5.329977652999958
              ],
              [
                -80.25469536399999,
                -5.321705098999928
              ],
              [
                -80.22731836399993,
                -5.27285347399993
              ],
              [
                -80.22128911399994,
                -5.268115223999928
              ],
              [
                -80.21766598899995,
                -5.262974598999961
              ],
              [
                -80.19811523899995,
                -5.242755848999934
              ],
              [
                -80.19480473899995,
                -5.239154348999932
              ],
              [
                -80.19352736399992,
                -5.236337848999938
              ],
              [
                -80.1933788639999,
                -5.230081973999972
              ],
              [
                -80.18879086399988,
                -5.221665972999858
              ],
              [
                -80.18830273899994,
                -5.213148472999876
              ],
              [
                -80.18624223899997,
                -5.207599597999945
              ],
              [
                -80.18271673899994,
                -5.206341847999965
              ],
              [
                -80.18128511399988,
                -5.203355472999874
              ],
              [
                -80.17896673899992,
                -5.194894472999977
              ],
              [
                -80.16926561399998,
                -5.184845722999967
              ],
              [
                -80.16112111399997,
                -5.180595722999954
              ],
              [
                -80.15475586399998,
                -5.174226597999905
              ],
              [
                -80.15342773899994,
                -5.170822222999959
              ],
              [
                -80.14713286399996,
                -5.169580097999869
              ],
              [
                -80.14428323899989,
                -5.170501972999944
              ],
              [
                -80.13251361399995,
                -5.160193347999893
              ],
              [
                -80.13068748899985,
                -5.163611347999904
              ],
              [
                -80.12834961399994,
                -5.165513722999947
              ],
              [
                -80.12099223899997,
                -5.167314472999976
              ],
              [
                -80.11595698899998,
                -5.165539097999897
              ],
              [
                -80.10830073899996,
                -5.161460972999976
              ],
              [
                -80.10194136399991,
                -5.159300722999944
              ],
              [
                -80.09629886399989,
                -5.159292972999936
              ],
              [
                -80.09440423899997,
                -5.159847597999885
              ],
              [
                -80.09252348899997,
                -5.162236347999851
              ],
              [
                -80.09094136399989,
                -5.164003847999879
              ],
              [
                -80.08963473899996,
                -5.168962847999978
              ],
              [
                -80.08699023899999,
                -5.173042972999951
              ],
              [
                -80.08449411399988,
                -5.173449222999977
              ],
              [
                -80.07956048899996,
                -5.173031222999953
              ],
              [
                -80.07694536399998,
                -5.174232472999961
              ],
              [
                -80.07721673899994,
                -5.178853472999947
              ],
              [
                -80.07658598899997,
                -5.18123822299998
              ],
              [
                -80.07184173899992,
                -5.18122659799991
              ],
              [
                -80.06721098899993,
                -5.178417972999966
              ],
              [
                -80.06596286399997,
                -5.176902347999885
              ],
              [
                -80.06171486399995,
                -5.174400472999935
              ],
              [
                -80.0583632389999,
                -5.173800722999943
              ],
              [
                -80.05551173899994,
                -5.174910097999884
              ],
              [
                -80.0510917389999,
                -5.179863222999927
              ],
              [
                -80.04678511399999,
                -5.178738222999925
              ],
              [
                -80.04376561399994,
                -5.18054497299994
              ],
              [
                -80.03861136399996,
                -5.177882847999911
              ],
              [
                -80.03539461399998,
                -5.178273472999933
              ],
              [
                -80.03266411399994,
                -5.18019134799988
              ],
              [
                -80.03138473899998,
                -5.182921847999921
              ],
              [
                -80.02500386399993,
                -5.188738222999973
              ],
              [
                -80.02286911399995,
                -5.193519472999981
              ],
              [
                -80.01806836399993,
                -5.199281097999915
              ],
              [
                -80.01877161399995,
                -5.200906222999947
              ],
              [
                -80.02139448899999,
                -5.201728472999946
              ],
              [
                -80.02015423899996,
                -5.205199222999966
              ],
              [
                -80.01711911399991,
                -5.20724222299998
              ]
            ]
          ]
        ],
        "type": "MultiPolygon"
      },
      "type": "Feature",
      "properties": {
        "PROVINCIA": "MORROPON",
        "DISTRITO": "LA MATANZA",
        "name": "LA MATANZA",
        "ID": "190408",
        "DEPARTAMEN": "PIURA"
      }
    }
  ]
}
