{
  "type": "FeatureCollection",
  "features": [
    {
      "type": "Feature",
      "geometry": {
        "type": "Polygon",
        "coordinates": [
          [
            [
              -77.778,
              -6.9523
            ],
            [
              -77.9363,
              -6.9973
            ],
            [
              -77.952,
              -6.8508
            ],
            [
              -78.1731,
              -6.4628
            ],
            [
              -78.3373,
              -6.3767
            ],
            [
              -78.4543,
              -6.149
            ],
            [
              -78.5667,
              -6.0675
            ],
            [
              -78.563,
              -5.9979
            ],
            [
              -78.6772,
              -5.9012
            ],
            [
              -78.6772,
              -5.8132
            ],
            [
              -78.5279,
              -5.3554
            ],
            [
              -78.7299,
              -5.2321
            ],
            [
              -78.7299,
              -5.0559
            ],
            [
              -78.6305,
              -4.8166
            ],
            [
              -78.709,
              -4.5848
            ],
            [
              -78.6503,
              -4.4736
            ],
            [
              -78.6721,
              -4.3071
            ],
            [
              -78.5636,
              -4.0956
            ],
            [
              -78.5317,
              -3.9128
            ],
            [
              -78.421,
              -3.7859
            ],
            [
              -78.3461,
              -3.435
            ],
            [
              -78.1164,
              -3.276
            ],
            [
              -77.9254,
              -3.04
            ],
            [
              -77.8102,
              -2.9682
            ],
            [
              -77.767,
              -3.2613
            ],
            [
              -77.6764,
              -3.4492
            ],
            [
              -77.6339,
              -3.77
            ],
            [
              -77.5578,
              -3.9042
            ],
            [
              -77.5781,
              -4.4405
            ],
            [
              -77.7422,
              -4.7033
            ],
            [
              -77.7692,
              -4.9303
            ],
            [
              -77.8337,
              -5.0735
            ],
            [
              -77.7303,
              -5.1562
            ],
            [
              -77.64,
              -5.3847
            ],
            [
              -77.7172,
              -5.4908
            ],
            [
              -77.7263,
              -5.7011
            ],
            [
              -77.5939,
              -5.9678
            ],
            [
              -77.5261,
              -6.0256
            ],
            [
              -77.2805,
              -6.0933
            ],
            [
              -77.1592,
              -6.3254
            ],
            [
              -77.3129,
              -6.4921
            ],
            [
              -77.3504,
              -6.6309
            ],
            [
              -77.4559,
              -6.7188
            ],
            [
              -77.5262,
              -6.6661
            ],
            [
              -77.6843,
              -6.6661
            ],
            [
              -77.7375,
              -6.7111
            ],
            [
              -77.7853,
              -6.9308
            ],
            [
              -77.778,
              -6.9523
            ]
          ]
        ]
      },
      "properties": {
        "name": "Amazonas",
        "id": "PE-AMA",
        "CNTRY": "Peru",
        "TYPE": "Region"
      },
      "id": "010000"
    }
  ]
}
