{
  "type": "FeatureCollection",
  "features": [
    {
      "geometry": {
        "coordinates": [
          [
            [
              [
                -74.66696873399985,
                -12.961013230999924
              ],
              [
                -74.67062773399988,
                -12.967102104999867
              ],
              [
                -74.67001973399994,
                -12.973822354999982
              ],
              [
                -74.66819510899995,
                -12.97771460499996
              ],
              [
                -74.66597523399997,
                -12.978900479999936
              ],
              [
                -74.66463723399994,
                -12.983644105999872
              ],
              [
                -74.66567110899996,
                -12.987718979999954
              ],
              [
                -74.66430260899995,
                -12.990638104999903
              ],
              [
                -74.66396835899991,
                -12.994499979999944
              ],
              [
                -74.66503260899998,
                -12.998605104999967
              ],
              [
                -74.66382998399996,
                -13.002150480999944
              ],
              [
                -74.6589713589999,
                -13.005579730999841
              ],
              [
                -74.65665510899993,
                -13.007910230999926
              ],
              [
                -74.65555648399999,
                -13.01098998099991
              ],
              [
                -74.65653023399983,
                -13.015063355999814
              ],
              [
                -74.6594982339999,
                -13.017574855999953
              ],
              [
                -74.66162335899998,
                -13.020542854999974
              ],
              [
                -74.6619394839999,
                -13.024424105999913
              ],
              [
                -74.66075023399992,
                -13.028868730999875
              ],
              [
                -74.6616807339999,
                -13.032268354999871
              ],
              [
                -74.66077760899998,
                -13.036142730999813
              ],
              [
                -74.66159048399999,
                -13.042547855999885
              ],
              [
                -74.66110273399988,
                -13.048302729999875
              ],
              [
                -74.66172048399994,
                -13.052594479999982
              ],
              [
                -74.65438685899994,
                -13.053349604999937
              ],
              [
                -74.64973248399997,
                -13.056572230999961
              ],
              [
                -74.64543373399988,
                -13.057470729999977
              ],
              [
                -74.64469135899992,
                -13.060253855999918
              ],
              [
                -74.64219135899992,
                -13.060685479999847
              ],
              [
                -74.63924223399994,
                -13.059894480999958
              ],
              [
                -74.6348378589999,
                -13.062165979999975
              ],
              [
                -74.63335935899988,
                -13.063683605999927
              ],
              [
                -74.6306191089999,
                -13.071248104999938
              ],
              [
                -74.6334981089999,
                -13.076787105999927
              ],
              [
                -74.63298635899991,
                -13.079869105999933
              ],
              [
                -74.62936523399998,
                -13.08294710599995
              ],
              [
                -74.62382423399998,
                -13.08677348099991
              ],
              [
                -74.61789060899997,
                -13.088591855999937
              ],
              [
                -74.61461723399998,
                -13.094201230999886
              ],
              [
                -74.61313335899996,
                -13.097955730999956
              ],
              [
                -74.60671410899988,
                -13.106634355999915
              ],
              [
                -74.60380935899997,
                -13.108606729999963
              ],
              [
                -74.59823610899997,
                -13.113785980999921
              ],
              [
                -74.59165285899991,
                -13.122727230999885
              ],
              [
                -74.58759998399995,
                -13.124995480999871
              ],
              [
                -74.58383460899995,
                -13.128187105999928
              ],
              [
                -74.58046360899993,
                -13.134247730999903
              ],
              [
                -74.57737948399995,
                -13.135574605999977
              ],
              [
                -74.57641123399992,
                -13.137260104999939
              ],
              [
                -74.57164160899998,
                -13.139806230999909
              ],
              [
                -74.56830648399995,
                -13.138407480999831
              ],
              [
                -74.55923060899994,
                -13.142431354999871
              ],
              [
                -74.55783648399995,
                -13.14557623099995
              ],
              [
                -74.55595248399993,
                -13.147220230999892
              ],
              [
                -74.55447473399988,
                -13.150591980999877
              ],
              [
                -74.5522226089999,
                -13.153310480999949
              ],
              [
                -74.55369923399996,
                -13.15965035599993
              ],
              [
                -74.55688710899994,
                -13.162403980999954
              ],
              [
                -74.55868735899992,
                -13.166644605999977
              ],
              [
                -74.55148610899988,
                -13.172925729999918
              ],
              [
                -74.55124610899992,
                -13.177006604999974
              ],
              [
                -74.55340648399988,
                -13.18040723099989
              ],
              [
                -74.55317435899997,
                -13.188983331999907
              ],
              [
                -74.55554708299996,
                -13.186796355999888
              ],
              [
                -74.55952908299992,
                -13.185125230999915
              ],
              [
                -74.56344908299991,
                -13.186259855999936
              ],
              [
                -74.57098145799989,
                -13.184670480999955
              ],
              [
                -74.57280745799994,
                -13.185343229999944
              ],
              [
                -74.57441795799997,
                -13.189562480999882
              ],
              [
                -74.57919133299993,
                -13.192111355999941
              ],
              [
                -74.58033783299993,
                -13.194527354999877
              ],
              [
                -74.5794218339999,
                -13.201343730999895
              ],
              [
                -74.58480858299998,
                -13.203089855999963
              ],
              [
                -74.58543358299994,
                -13.209320355999978
              ],
              [
                -74.58698245799991,
                -13.211302605999947
              ],
              [
                -74.59311720799991,
                -13.211376980999944
              ],
              [
                -74.59563470799992,
                -13.212845730999959
              ],
              [
                -74.59938083299994,
                -13.217617230999963
              ],
              [
                -74.60164458299994,
                -13.2218243559999
              ],
              [
                -74.60068870899994,
                -13.227385480999942
              ],
              [
                -74.60199208299997,
                -13.228515105999975
              ],
              [
                -74.60821139699993,
                -13.230292086999953
              ],
              [
                -74.61080280599998,
                -13.232984280999915
              ],
              [
                -74.61220684699998,
                -13.236183235999931
              ],
              [
                -74.61824108299999,
                -13.241722730999982
              ],
              [
                -74.62219133299999,
                -13.243982480999819
              ],
              [
                -74.62593158299984,
                -13.24977535599993
              ],
              [
                -74.63220895899991,
                -13.260335980999969
              ],
              [
                -74.63756633299988,
                -13.263589855999953
              ],
              [
                -74.63893158299999,
                -13.26672073099985
              ],
              [
                -74.64195308399997,
                -13.270095605999927
              ],
              [
                -74.64465420799996,
                -13.274136730999885
              ],
              [
                -74.64952933299992,
                -13.273960980999902
              ],
              [
                -74.65238870799999,
                -13.271189480999851
              ],
              [
                -74.65550983299994,
                -13.27070510599998
              ],
              [
                -74.65943945799995,
                -13.271884730999886
              ],
              [
                -74.66349808299992,
                -13.271484355999974
              ],
              [
                -74.67192770799988,
                -13.274921855999935
              ],
              [
                -74.67768958299996,
                -13.28162885599994
              ],
              [
                -74.68289258299995,
                -13.284798855999952
              ],
              [
                -74.68940908699994,
                -13.28646396199997
              ],
              [
                -74.69470123399992,
                -13.289894355999934
              ],
              [
                -74.70086910899983,
                -13.291613980999841
              ],
              [
                -74.70579873399993,
                -13.290628105999872
              ],
              [
                -74.71361748399994,
                -13.292049855999949
              ],
              [
                -74.71753835899995,
                -13.290008980999914
              ],
              [
                -74.72212410899988,
                -13.289642105999917
              ],
              [
                -74.7238946089999,
                -13.284726855999963
              ],
              [
                -74.72408098399995,
                -13.278860605999967
              ],
              [
                -74.72682785899997,
                -13.272109730999944
              ],
              [
                -74.72582085999994,
                -13.26527873099991
              ],
              [
                -74.72411023399997,
                -13.262381105999964
              ],
              [
                -74.72100323399997,
                -13.259867605999943
              ],
              [
                -74.72355173399995,
                -13.244786230999978
              ],
              [
                -74.72596060899997,
                -13.241190480999933
              ],
              [
                -74.72679835899999,
                -13.238293105999901
              ],
              [
                -74.73077823399996,
                -13.231101355999954
              ],
              [
                -74.72547173399994,
                -13.226877230999946
              ],
              [
                -74.72515760899995,
                -13.225445855999965
              ],
              [
                -74.72665873499989,
                -13.221361355999875
              ],
              [
                -74.72264398399989,
                -13.218079730999875
              ],
              [
                -74.72149198399995,
                -13.214553855999895
              ],
              [
                -74.72173635899992,
                -13.210364480999942
              ],
              [
                -74.7208287339999,
                -13.199926355999935
              ],
              [
                -74.71569685899993,
                -13.196016355999973
              ],
              [
                -74.71646485899998,
                -13.19420110599998
              ],
              [
                -74.71901335899997,
                -13.192979105999939
              ],
              [
                -74.72173635899992,
                -13.188999355999897
              ],
              [
                -74.71981623399995,
                -13.185752605999937
              ],
              [
                -74.72164085899993,
                -13.179189605999966
              ],
              [
                -74.72480848399994,
                -13.177503980999916
              ],
              [
                -74.72980073399998,
                -13.17821198099989
              ],
              [
                -74.73433898399998,
                -13.175244730999964
              ],
              [
                -74.73963085899993,
                -13.174119105999921
              ],
              [
                -74.74165035899989,
                -13.175181605999967
              ],
              [
                -74.74768560899992,
                -13.176390605999927
              ],
              [
                -74.75005073399996,
                -13.172794980999981
              ],
              [
                -74.75479810899998,
                -13.169907605999981
              ],
              [
                -74.75634810899999,
                -13.165534605999824
              ],
              [
                -74.76051810999996,
                -13.160958605999895
              ],
              [
                -74.76514948399989,
                -13.16165973099993
              ],
              [
                -74.77119610899996,
                -13.159630605999894
              ],
              [
                -74.78272448399991,
                -13.157228355999905
              ],
              [
                -74.78681610899997,
                -13.159938354999952
              ],
              [
                -74.78817123499994,
                -13.164959980999981
              ],
              [
                -74.79250198399995,
                -13.16751073099988
              ],
              [
                -74.79529173499998,
                -13.167271605999929
              ],
              [
                -74.79783048399997,
                -13.168400480999878
              ],
              [
                -74.80255435899994,
                -13.16786973099994
              ],
              [
                -74.80612035899992,
                -13.164482105999866
              ],
              [
                -74.81039948399996,
                -13.16476223099994
              ],
              [
                -74.81455135899995,
                -13.162469855999973
              ],
              [
                -74.8206644839999,
                -13.161349105999875
              ],
              [
                -74.82608973399994,
                -13.158088730999964
              ],
              [
                -74.82909548399994,
                -13.150982229999954
              ],
              [
                -74.82906998399994,
                -13.147798355999953
              ],
              [
                -74.84142360899989,
                -13.143722980999883
              ],
              [
                -74.84511685899997,
                -13.145225605999883
              ],
              [
                -74.84868285899995,
                -13.148002105999922
              ],
              [
                -74.85145923399989,
                -13.152765230999933
              ],
              [
                -74.85359898399992,
                -13.154573855999843
              ],
              [
                -74.85940635899993,
                -13.156764230999954
              ],
              [
                -74.86146948399994,
                -13.156534980999936
              ],
              [
                -74.86905998399993,
                -13.160126480999907
              ],
              [
                -74.87710885999996,
                -13.162724480999941
              ],
              [
                -74.8839764839999,
                -13.161229105999894
              ],
              [
                -74.8874821099999,
                -13.159021605999953
              ],
              [
                -74.89512348399995,
                -13.159435605999931
              ],
              [
                -74.89703373399988,
                -13.162173730999939
              ],
              [
                -74.89687460999994,
                -13.165421355999968
              ],
              [
                -74.89916685999998,
                -13.166567480999902
              ],
              [
                -74.90866073399991,
                -13.167842855999936
              ],
              [
                -74.91325785999999,
                -13.167466855999976
              ],
              [
                -74.91279273399994,
                -13.157023730999867
              ],
              [
                -74.91449723399995,
                -13.154481480999948
              ],
              [
                -74.91524835899992,
                -13.148327854999877
              ],
              [
                -74.91163710899997,
                -13.145525480999822
              ],
              [
                -74.91022148399992,
                -13.142521105999947
              ],
              [
                -74.91085710899995,
                -13.137031730999865
              ],
              [
                -74.91056823499991,
                -13.13379610499993
              ],
              [
                -74.91319723399994,
                -13.131138230999909
              ],
              [
                -74.91490185899994,
                -13.126082355999927
              ],
              [
                -74.9166639849999,
                -13.125013355999954
              ],
              [
                -74.9189463589999,
                -13.120506605999935
              ],
              [
                -74.91675073399995,
                -13.117733105999946
              ],
              [
                -74.9162594849999,
                -13.114497480999944
              ],
              [
                -74.91877298399987,
                -13.11062610599987
              ],
              [
                -74.91692398499998,
                -13.105454855999938
              ],
              [
                -74.92001523399989,
                -13.101294605999954
              ],
              [
                -74.92007160899993,
                -13.098802729999932
              ],
              [
                -74.91705835899995,
                -13.096578605999923
              ],
              [
                -74.91268198399996,
                -13.097977730999958
              ],
              [
                -74.90927410999996,
                -13.095645980999961
              ],
              [
                -74.9084489839999,
                -13.088650855999902
              ],
              [
                -74.90895123399997,
                -13.086390980999965
              ],
              [
                -74.90812623399995,
                -13.083018855999967
              ],
              [
                -74.90872135899997,
                -13.077571354999975
              ],
              [
                -74.90508948399992,
                -13.074228354999946
              ],
              [
                -74.90749698399992,
                -13.068574354999953
              ],
              [
                -74.90688485899989,
                -13.063045855999917
              ],
              [
                -74.90944698399989,
                -13.05702723099995
              ],
              [
                -74.90795098399991,
                -13.054998105999914
              ],
              [
                -74.90832948399998,
                -13.050542230999895
              ],
              [
                -74.90931810899997,
                -13.048564604999967
              ],
              [
                -74.90899560899993,
                -13.038762980999877
              ],
              [
                -74.90766298399996,
                -13.034549855999899
              ],
              [
                -74.9061583589999,
                -13.032206979999955
              ],
              [
                -74.90334573399997,
                -13.02539897999992
              ],
              [
                -74.90046610899992,
                -13.02264735499989
              ],
              [
                -74.89646660899996,
                -13.022487355999885
              ],
              [
                -74.89400285899995,
                -13.019223730999954
              ],
              [
                -74.88949123399993,
                -13.01970360599995
              ],
              [
                -74.88821148399995,
                -13.016471979999835
              ],
              [
                -74.88520385899994,
                -13.014616230999934
              ],
              [
                -74.88210010899991,
                -13.013944355999968
              ],
              [
                -74.88299610899998,
                -13.011032605999901
              ],
              [
                -74.88280410899989,
                -13.008088980999958
              ],
              [
                -74.8814922339999,
                -13.00645710599997
              ],
              [
                -74.87672473399994,
                -13.00469723099991
              ],
              [
                -74.87704473399998,
                -12.999257980999914
              ],
              [
                -74.87515698399989,
                -12.999257980999914
              ],
              [
                -74.8716693589999,
                -12.997498104999977
              ],
              [
                -74.86894973399995,
                -12.995034355999962
              ],
              [
                -74.86482210899993,
                -12.99305060499995
              ],
              [
                -74.86162248399995,
                -12.989818979999882
              ],
              [
                -74.84897573399991,
                -12.983855605999963
              ],
              [
                -74.84525623399992,
                -12.981415980999884
              ],
              [
                -74.84217660899992,
                -12.977936479999869
              ],
              [
                -74.83829298499995,
                -12.97488085599997
              ],
              [
                -74.8337891089999,
                -12.97638285499994
              ],
              [
                -74.83155073399996,
                -12.978095729999893
              ],
              [
                -74.82757623399993,
                -12.977882854999962
              ],
              [
                -74.8225878589999,
                -12.980669980999892
              ],
              [
                -74.82086323399994,
                -12.9826367309999
              ],
              [
                -74.81646885899988,
                -12.984320355999955
              ],
              [
                -74.81271285899999,
                -12.984751979999942
              ],
              [
                -74.81168160899989,
                -12.986089855999978
              ],
              [
                -74.80647935899998,
                -12.981287104999979
              ],
              [
                -74.80367848399993,
                -12.969567854999866
              ],
              [
                -74.80041535899989,
                -12.963146730999881
              ],
              [
                -74.79802535899995,
                -12.960498104999942
              ],
              [
                -74.79538860899999,
                -12.954903229999957
              ],
              [
                -74.79620335899989,
                -12.948426730999927
              ],
              [
                -74.79387598399995,
                -12.94512260499988
              ],
              [
                -74.79222760899995,
                -12.946281854999881
              ],
              [
                -74.79006798399996,
                -12.951812354999902
              ],
              [
                -74.78651210899989,
                -12.952950355999917
              ],
              [
                -74.78328810899995,
                -12.951179980999882
              ],
              [
                -74.76972435899995,
                -12.947933229999933
              ],
              [
                -74.76426248399997,
                -12.948661480999874
              ],
              [
                -74.76131910899994,
                -12.95063385599991
              ],
              [
                -74.76019648399989,
                -12.956216979999908
              ],
              [
                -74.75774960899986,
                -12.961137230999952
              ],
              [
                -74.75102010899997,
                -12.96334360499992
              ],
              [
                -74.74896085899991,
                -12.96521910499996
              ],
              [
                -74.74679123399989,
                -12.964998354999977
              ],
              [
                -74.74190048399998,
                -12.962939105999851
              ],
              [
                -74.72816410899992,
                -12.958173855999917
              ],
              [
                -74.72417598399994,
                -12.957827730999952
              ],
              [
                -74.72079285899997,
                -12.95238535599998
              ],
              [
                -74.71877035899996,
                -12.95050985599994
              ],
              [
                -74.71852148499994,
                -12.945847605999916
              ],
              [
                -74.71333785899998,
                -12.943425729999944
              ],
              [
                -74.70936723399996,
                -12.938644479999937
              ],
              [
                -74.70659873399995,
                -12.936964854999928
              ],
              [
                -74.70473760899989,
                -12.942362230999947
              ],
              [
                -74.70158398399991,
                -12.946587855999894
              ],
              [
                -74.69551848399993,
                -12.949124854999923
              ],
              [
                -74.69186335899997,
                -12.952111354999943
              ],
              [
                -74.68657785899995,
                -12.952148229999978
              ],
              [
                -74.67996048399993,
                -12.956104105999827
              ],
              [
                -74.67563085899997,
                -12.95713673099982
              ],
              [
                -74.67051423399994,
                -12.957071105999887
              ],
              [
                -74.66696873399985,
                -12.961013230999924
              ]
            ]
          ]
        ],
        "type": "MultiPolygon"
      },
      "type": "Feature",
      "properties": {
        "PROVINCIA": "ANGARAES",
        "DISTRITO": "LIRCAY",
        "name": "LIRCAY",
        "ID": "080301",
        "DEPARTAMEN": "HUANCAVELICA"
      }
    }
  ]
}
