{
  "type": "FeatureCollection",
  "features": [
    {
      "geometry": {
        "coordinates": [
          [
            [
              [
                -74.40992098399994,
                -13.088416729999892
              ],
              [
                -74.41218948399995,
                -13.093462980999902
              ],
              [
                -74.41055985899993,
                -13.096722230999944
              ],
              [
                -74.41116673399989,
                -13.099441854999952
              ],
              [
                -74.4107900379999,
                -13.10357001899996
              ],
              [
                -74.41151003799996,
                -13.106000018999907
              ],
              [
                -74.40847003899995,
                -13.109760018999964
              ],
              [
                -74.4109200389999,
                -13.111460018999935
              ],
              [
                -74.41087003899997,
                -13.119700018999879
              ],
              [
                -74.40882003899998,
                -13.121560018999958
              ],
              [
                -74.40172010799995,
                -13.122600105999936
              ],
              [
                -74.40020003899997,
                -13.123990019999837
              ],
              [
                -74.39425003799988,
                -13.12623001999998
              ],
              [
                -74.39144003899997,
                -13.126320018999877
              ],
              [
                -74.389250039,
                -13.128310018999969
              ],
              [
                -74.38872003799992,
                -13.129660019999903
              ],
              [
                -74.38937003899997,
                -13.134320018999915
              ],
              [
                -74.38803003899994,
                -13.13718001899997
              ],
              [
                -74.39026998399999,
                -13.143709980999972
              ],
              [
                -74.38957002599989,
                -13.151750018999962
              ],
              [
                -74.38978995999997,
                -13.153079977999937
              ],
              [
                -74.39436001299993,
                -13.15574001899995
              ],
              [
                -74.39834001299988,
                -13.160360018999938
              ],
              [
                -74.39710001199995,
                -13.163300018999848
              ],
              [
                -74.39775245799996,
                -13.168719480999926
              ],
              [
                -74.40298233299995,
                -13.166335980999975
              ],
              [
                -74.4077382079999,
                -13.161499980999963
              ],
              [
                -74.41030858299996,
                -13.160275355999943
              ],
              [
                -74.42042570799993,
                -13.159539105999954
              ],
              [
                -74.42979495799995,
                -13.163484355999913
              ],
              [
                -74.43254882399998,
                -13.16742959499993
              ],
              [
                -74.43557865899993,
                -13.1687571679999
              ],
              [
                -74.4392988329999,
                -13.171445355999936
              ],
              [
                -74.44228320799994,
                -13.174615230999848
              ],
              [
                -74.44927920799995,
                -13.178634730999875
              ],
              [
                -74.45153908299989,
                -13.180992229999902
              ],
              [
                -74.45403120799995,
                -13.185021480999865
              ],
              [
                -74.45843883299995,
                -13.190038105999975
              ],
              [
                -74.46256520799994,
                -13.189883355999882
              ],
              [
                -74.46794920799988,
                -13.187718730999904
              ],
              [
                -74.47270108299995,
                -13.189445355999965
              ],
              [
                -74.47596683299997,
                -13.191677730999913
              ],
              [
                -74.48198633299995,
                -13.192521480999915
              ],
              [
                -74.48628908299997,
                -13.190785105999964
              ],
              [
                -74.49194333299994,
                -13.187226605999967
              ],
              [
                -74.49417183299994,
                -13.186595730999898
              ],
              [
                -74.4993413329999,
                -13.188284480999926
              ],
              [
                -74.50243595799998,
                -13.191482355999938
              ],
              [
                -74.50684595799999,
                -13.19390660599987
              ],
              [
                -74.51241658299995,
                -13.19377760599997
              ],
              [
                -74.51705870799998,
                -13.196691855999916
              ],
              [
                -74.51988283299988,
                -13.194638730999941
              ],
              [
                -74.52310933299998,
                -13.190214855999955
              ],
              [
                -74.52561133299997,
                -13.189593730999889
              ],
              [
                -74.52840433299986,
                -13.191544980999936
              ],
              [
                -74.53071670799994,
                -13.195517605999953
              ],
              [
                -74.53660545799994,
                -13.196017605999941
              ],
              [
                -74.53874220799997,
                -13.196798855999816
              ],
              [
                -74.5422128329999,
                -13.200501979999956
              ],
              [
                -74.5444725829999,
                -13.1993944809999
              ],
              [
                -74.54623445799996,
                -13.196466855999972
              ],
              [
                -74.55131758399989,
                -13.190324355999962
              ],
              [
                -74.55317435899997,
                -13.188983331999907
              ],
              [
                -74.55340648399988,
                -13.18040723099989
              ],
              [
                -74.55124610899992,
                -13.177006604999974
              ],
              [
                -74.55148610899988,
                -13.172925729999918
              ],
              [
                -74.55868735899992,
                -13.166644605999977
              ],
              [
                -74.55688710899994,
                -13.162403980999954
              ],
              [
                -74.55369923399996,
                -13.15965035599993
              ],
              [
                -74.5522226089999,
                -13.153310480999949
              ],
              [
                -74.54820910899997,
                -13.15219598099992
              ],
              [
                -74.54655848399995,
                -13.150597855999933
              ],
              [
                -74.53859398399999,
                -13.1476897309999
              ],
              [
                -74.53704823399988,
                -13.144965105999972
              ],
              [
                -74.53385185899992,
                -13.143550355999935
              ],
              [
                -74.52814048399995,
                -13.142476105999947
              ],
              [
                -74.52196235899993,
                -13.139984730999856
              ],
              [
                -74.51676348399991,
                -13.134663105999891
              ],
              [
                -74.51374998399996,
                -13.133031229999972
              ],
              [
                -74.51194923399993,
                -13.13336135599991
              ],
              [
                -74.50835935899988,
                -13.129257854999935
              ],
              [
                -74.50502348399993,
                -13.127734355999849
              ],
              [
                -74.50290623399991,
                -13.125287105999973
              ],
              [
                -74.50272673399996,
                -13.122548854999877
              ],
              [
                -74.49683010899997,
                -13.1140194809999
              ],
              [
                -74.49147260899997,
                -13.103925855999876
              ],
              [
                -74.49000585899995,
                -13.099773480999943
              ],
              [
                -74.48996873399989,
                -13.09518735599994
              ],
              [
                -74.48842185899997,
                -13.089695355999936
              ],
              [
                -74.48292773399987,
                -13.087089855999977
              ],
              [
                -74.47847460899999,
                -13.081980480999903
              ],
              [
                -74.47617973399991,
                -13.081181605999973
              ],
              [
                -74.46979723399994,
                -13.076538479999954
              ],
              [
                -74.46654760899992,
                -13.078637855999943
              ],
              [
                -74.46253535899996,
                -13.080164355999955
              ],
              [
                -74.45866073399998,
                -13.08530673099989
              ],
              [
                -74.45605673399984,
                -13.087508979999939
              ],
              [
                -74.4551043589999,
                -13.091452230999892
              ],
              [
                -74.45188098399984,
                -13.088630229999978
              ],
              [
                -74.44583373399996,
                -13.08901298099994
              ],
              [
                -74.44357560899994,
                -13.087673355999868
              ],
              [
                -74.44051360899988,
                -13.089663604999942
              ],
              [
                -74.43787285899998,
                -13.094371230999911
              ],
              [
                -74.4305321089999,
                -13.09549260599988
              ],
              [
                -74.42607748399996,
                -13.097382980999953
              ],
              [
                -74.42290610899988,
                -13.097098980999931
              ],
              [
                -74.42091785899999,
                -13.09378548099994
              ],
              [
                -74.41530060899998,
                -13.090256979999936
              ],
              [
                -74.40992098399994,
                -13.088416729999892
              ]
            ]
          ]
        ],
        "type": "MultiPolygon"
      },
      "type": "Feature",
      "properties": {
        "PROVINCIA": "ANGARAES",
        "DISTRITO": "SANTO TOMAS DE PATA",
        "name": "SANTO TOMAS DE PATA",
        "ID": "080310",
        "DEPARTAMEN": "HUANCAVELICA"
      }
    }
  ]
}
