{
  "type": "FeatureCollection",
  "features": [
    {
      "geometry": {
        "coordinates": [
          [
            [
              [
                -70.75293872999998,
                -15.046468481999966
              ],
              [
                -70.74913060499983,
                -15.046539107999934
              ],
              [
                -70.74253785499997,
                -15.052586732999941
              ],
              [
                -70.74077872999999,
                -15.055153356999938
              ],
              [
                -70.74112472999991,
                -15.057085481999934
              ],
              [
                -70.73279073099985,
                -15.064121857999908
              ],
              [
                -70.72961860499993,
                -15.06634235699994
              ],
              [
                -70.72924373099983,
                -15.069629732999829
              ],
              [
                -70.72745573099996,
                -15.073349857999972
              ],
              [
                -70.72212085599995,
                -15.075137732999906
              ],
              [
                -70.71744922999994,
                -15.07562798299989
              ],
              [
                -70.70904273099995,
                -15.085892482999895
              ],
              [
                -70.70954122999996,
                -15.088734232999911
              ],
              [
                -70.70849435499997,
                -15.09646160799997
              ],
              [
                -70.70710435499996,
                -15.099895482999898
              ],
              [
                -70.70749647999997,
                -15.102502606999963
              ],
              [
                -70.71028910499996,
                -15.10713035799995
              ],
              [
                -70.71143635599992,
                -15.112244607999969
              ],
              [
                -70.71031910599993,
                -15.116596232999882
              ],
              [
                -70.71035822999988,
                -15.12045773299991
              ],
              [
                -70.7078884799999,
                -15.126632232999896
              ],
              [
                -70.71088310499988,
                -15.131146606999948
              ],
              [
                -70.71149548099993,
                -15.134381357999928
              ],
              [
                -70.71071035499989,
                -15.136893731999862
              ],
              [
                -70.71107160499992,
                -15.1408822329999
              ],
              [
                -70.71402360599996,
                -15.144258232999903
              ],
              [
                -70.71471460599992,
                -15.1467078579999
              ],
              [
                -70.71804347999984,
                -15.148513606999927
              ],
              [
                -70.72160072999998,
                -15.153623481999944
              ],
              [
                -70.7205584809999,
                -15.157888982999907
              ],
              [
                -70.72026197999998,
                -15.165417232999914
              ],
              [
                -70.72081760599997,
                -15.168262107999965
              ],
              [
                -70.72365410499998,
                -15.173921107999945
              ],
              [
                -70.72340398099988,
                -15.176921482999944
              ],
              [
                -70.72120935599986,
                -15.182922356999939
              ],
              [
                -70.71934797999995,
                -15.185311482999907
              ],
              [
                -70.71559747999987,
                -15.186561606999874
              ],
              [
                -70.71301385599998,
                -15.188450731999978
              ],
              [
                -70.71326385499998,
                -15.19211785799996
              ],
              [
                -70.70817985499997,
                -15.196257357999912
              ],
              [
                -70.70815210499995,
                -15.199535482999977
              ],
              [
                -70.70690197999983,
                -15.20317485799984
              ],
              [
                -70.70379035499985,
                -15.205869732999872
              ],
              [
                -70.70306810499994,
                -15.208258856999919
              ],
              [
                -70.70497460599995,
                -15.210119107999844
              ],
              [
                -70.71218035499993,
                -15.21481523299991
              ],
              [
                -70.71404160499992,
                -15.215315357999884
              ],
              [
                -70.72301160599994,
                -15.215415982999957
              ],
              [
                -70.72717885499986,
                -15.217187107999962
              ],
              [
                -70.72870685499998,
                -15.223576857999944
              ],
              [
                -70.73002635599994,
                -15.226667482999915
              ],
              [
                -70.73033897999994,
                -15.231841731999964
              ],
              [
                -70.73238535499996,
                -15.238425857999914
              ],
              [
                -70.73918522999992,
                -15.241652607999981
              ],
              [
                -70.74185273099994,
                -15.241928482999981
              ],
              [
                -70.75060497999988,
                -15.245099982999932
              ],
              [
                -70.75368785599994,
                -15.246869857999911
              ],
              [
                -70.75750872999998,
                -15.251100231999942
              ],
              [
                -70.75890585599996,
                -15.254472482999972
              ],
              [
                -70.76184448099991,
                -15.257820607999975
              ],
              [
                -70.76227797999996,
                -15.260831607999876
              ],
              [
                -70.76858897999989,
                -15.270562857999892
              ],
              [
                -70.77114473099988,
                -15.278063107999913
              ],
              [
                -70.77279472999999,
                -15.284597232999943
              ],
              [
                -70.77378485499992,
                -15.29245135799988
              ],
              [
                -70.77048472999991,
                -15.298391482999932
              ],
              [
                -70.77028672999995,
                -15.30558573299993
              ],
              [
                -70.76735260499993,
                -15.310630107999884
              ],
              [
                -70.76515035499995,
                -15.312501982999947
              ],
              [
                -70.76206960499997,
                -15.316244732999905
              ],
              [
                -70.75906648099993,
                -15.318158982999933
              ],
              [
                -70.75845735599995,
                -15.322069732999978
              ],
              [
                -70.76136972999996,
                -15.325929357999826
              ],
              [
                -70.7642824799999,
                -15.331361232999939
              ],
              [
                -70.76494360499998,
                -15.336614607999934
              ],
              [
                -70.76796335499995,
                -15.339223357999856
              ],
              [
                -70.77029860599998,
                -15.346214482999926
              ],
              [
                -70.77661535599992,
                -15.346319232999974
              ],
              [
                -70.78110423099997,
                -15.34429935799983
              ],
              [
                -70.78524860599998,
                -15.344430232999912
              ],
              [
                -70.78782273099995,
                -15.345920857999943
              ],
              [
                -70.79104785599992,
                -15.349041982999836
              ],
              [
                -70.79858010599997,
                -15.350914607999982
              ],
              [
                -70.80103360499987,
                -15.355391482999948
              ],
              [
                -70.80493485599999,
                -15.35711460799996
              ],
              [
                -70.80753573099997,
                -15.361080982999965
              ],
              [
                -70.81107947999993,
                -15.359130232999917
              ],
              [
                -70.81386535499985,
                -15.35654485799995
              ],
              [
                -70.81895123099991,
                -15.344853482999952
              ],
              [
                -70.82062097999994,
                -15.345262607999928
              ],
              [
                -70.82363872999997,
                -15.348536982999974
              ],
              [
                -70.83211373099982,
                -15.34987310799994
              ],
              [
                -70.83708822999984,
                -15.35130898299991
              ],
              [
                -70.83893447999998,
                -15.352796357999978
              ],
              [
                -70.84285685499998,
                -15.36028298299982
              ],
              [
                -70.84452447999996,
                -15.36120673299996
              ],
              [
                -70.84826822999992,
                -15.35936073299996
              ],
              [
                -70.85190935599991,
                -15.358950357999959
              ],
              [
                -70.85437098099993,
                -15.359822232999875
              ],
              [
                -70.85990972999991,
                -15.360386357999914
              ],
              [
                -70.86665673099992,
                -15.3602402329999
              ],
              [
                -70.87199398099995,
                -15.357961982999882
              ],
              [
                -70.87993560499996,
                -15.355689482999878
              ],
              [
                -70.89100722999996,
                -15.350493607999965
              ],
              [
                -70.89702360499996,
                -15.348009482999942
              ],
              [
                -70.90071097999993,
                -15.347271982999928
              ],
              [
                -70.90901747999993,
                -15.348242357999936
              ],
              [
                -70.91185110499993,
                -15.349290357999962
              ],
              [
                -70.91868260599995,
                -15.35018310799984
              ],
              [
                -70.92244760599988,
                -15.349872607999885
              ],
              [
                -70.92632922999996,
                -15.347931857999981
              ],
              [
                -70.92924035599998,
                -15.344671357999971
              ],
              [
                -70.9312201059999,
                -15.340595732999873
              ],
              [
                -70.93358772999994,
                -15.332483232999948
              ],
              [
                -70.93626598099996,
                -15.32860173299997
              ],
              [
                -70.93871135599994,
                -15.328291232999959
              ],
              [
                -70.94344685599998,
                -15.330037856999922
              ],
              [
                -70.94678498099995,
                -15.330193232999932
              ],
              [
                -70.95788610499994,
                -15.325380107999933
              ],
              [
                -70.96079722999991,
                -15.319984732999842
              ],
              [
                -70.95792973099998,
                -15.318226982999875
              ],
              [
                -70.95541223099997,
                -15.314711107999926
              ],
              [
                -70.95100598099998,
                -15.306633232999957
              ],
              [
                -70.95003223099997,
                -15.298258857999883
              ],
              [
                -70.9512433559999,
                -15.292078982999897
              ],
              [
                -70.95229923099998,
                -15.2898431079999
              ],
              [
                -70.96075872999995,
                -15.281187607999982
              ],
              [
                -70.96658148099988,
                -15.278712982999934
              ],
              [
                -70.97342310599998,
                -15.275025232999894
              ],
              [
                -70.97603972999997,
                -15.271134356999937
              ],
              [
                -70.97725160499988,
                -15.266786857999932
              ],
              [
                -70.97676685599998,
                -15.260954982999976
              ],
              [
                -70.98299097999995,
                -15.256030482999904
              ],
              [
                -70.98528060499984,
                -15.249029607999944
              ],
              [
                -70.98425735599989,
                -15.24536910799992
              ],
              [
                -70.98170135499998,
                -15.243063607999943
              ],
              [
                -70.97709035499986,
                -15.24191085799987
              ],
              [
                -70.9756118549999,
                -15.236873981999963
              ],
              [
                -70.97328135499998,
                -15.234242732999917
              ],
              [
                -70.97032435599994,
                -15.233064982999906
              ],
              [
                -70.96853897999995,
                -15.22901073199995
              ],
              [
                -70.96639860499994,
                -15.22589248199995
              ],
              [
                -70.96628122999988,
                -15.222329232999982
              ],
              [
                -70.96507710599991,
                -15.218951982999954
              ],
              [
                -70.96250248099989,
                -15.215636857999925
              ],
              [
                -70.96678748099987,
                -15.21092860799996
              ],
              [
                -70.96672073099995,
                -15.203988232999905
              ],
              [
                -70.96778910599994,
                -15.201363232999938
              ],
              [
                -70.97186223099999,
                -15.198790982999924
              ],
              [
                -70.97291110499992,
                -15.196548606999954
              ],
              [
                -70.97251322999995,
                -15.191919232999965
              ],
              [
                -70.97323660599994,
                -15.186240981999902
              ],
              [
                -70.97160910499991,
                -15.181792482999981
              ],
              [
                -70.97189835599988,
                -15.179875607999918
              ],
              [
                -70.97623085599997,
                -15.175641732999907
              ],
              [
                -70.97581085599995,
                -15.163423357999875
              ],
              [
                -70.97604810499996,
                -15.159950982999817
              ],
              [
                -70.97997860599992,
                -15.15538735799987
              ],
              [
                -70.98171960499997,
                -15.150691732999917
              ],
              [
                -70.98214160499998,
                -15.147420732999933
              ],
              [
                -70.9805852309999,
                -15.145576857999856
              ],
              [
                -70.97754048099989,
                -15.144661107999923
              ],
              [
                -70.9766477309999,
                -15.142257357999824
              ],
              [
                -70.97743185599995,
                -15.135443357999918
              ],
              [
                -70.97705798099992,
                -15.126844357999971
              ],
              [
                -70.97855348099995,
                -15.125428982999836
              ],
              [
                -70.97911435599997,
                -15.12211760799994
              ],
              [
                -70.9784467309999,
                -15.119393607999882
              ],
              [
                -70.97864185599997,
                -15.111367857999937
              ],
              [
                -70.98032260499997,
                -15.106350106999969
              ],
              [
                -70.98482123099996,
                -15.103235606999931
              ],
              [
                -70.99033022999993,
                -15.097399357999961
              ],
              [
                -70.99338910499989,
                -15.096008856999902
              ],
              [
                -70.99436322999992,
                -15.09338073299989
              ],
              [
                -70.99294210599993,
                -15.087920482999948
              ],
              [
                -70.99360035599989,
                -15.084587357999908
              ],
              [
                -70.99181735599996,
                -15.0822866069999
              ],
              [
                -70.98693123099997,
                -15.078084982999883
              ],
              [
                -70.97646510599998,
                -15.072430356999917
              ],
              [
                -70.97423298099994,
                -15.07153748299993
              ],
              [
                -70.9714433559999,
                -15.066876982999872
              ],
              [
                -70.96564010599997,
                -15.065826107999953
              ],
              [
                -70.96110122999994,
                -15.061220982999885
              ],
              [
                -70.95698672999993,
                -15.060080107999966
              ],
              [
                -70.95062473099989,
                -15.060149232999947
              ],
              [
                -70.94834272999998,
                -15.058800731999895
              ],
              [
                -70.94495435499994,
                -15.060287482999911
              ],
              [
                -70.93994085499997,
                -15.05911198299998
              ],
              [
                -70.93792410599991,
                -15.053441857999871
              ],
              [
                -70.9362216049999,
                -15.051798231999953
              ],
              [
                -70.93145997999994,
                -15.05132998299996
              ],
              [
                -70.92987998099994,
                -15.049929981999924
              ],
              [
                -70.92320635599987,
                -15.048109856999872
              ],
              [
                -70.91640822999994,
                -15.044306607999886
              ],
              [
                -70.90889023099999,
                -15.041397732999883
              ],
              [
                -70.90431510499997,
                -15.038347732999966
              ],
              [
                -70.90020410599993,
                -15.037253607999958
              ],
              [
                -70.89743172999994,
                -15.037371107999888
              ],
              [
                -70.89237672999997,
                -15.039705357999935
              ],
              [
                -70.88757273099992,
                -15.04322123299994
              ],
              [
                -70.88087572999996,
                -15.045409357999972
              ],
              [
                -70.87872260599994,
                -15.042583981999883
              ],
              [
                -70.87607622999985,
                -15.041037106999966
              ],
              [
                -70.86946098099997,
                -15.040242232999958
              ],
              [
                -70.86596872999996,
                -15.038197232999948
              ],
              [
                -70.86346097999996,
                -15.033751982999945
              ],
              [
                -70.8636816049999,
                -15.030287107999868
              ],
              [
                -70.85834960499994,
                -15.025158231999967
              ],
              [
                -70.85503323099994,
                -15.023451232999946
              ],
              [
                -70.84937497999994,
                -15.021850232999896
              ],
              [
                -70.84446248099988,
                -15.017840107999916
              ],
              [
                -70.84242398099997,
                -15.013445607999927
              ],
              [
                -70.83987623099995,
                -15.010004981999941
              ],
              [
                -70.83816235499995,
                -15.0054469829999
              ],
              [
                -70.83569973099998,
                -15.00379185699984
              ],
              [
                -70.83440435599988,
                -15.001320356999884
              ],
              [
                -70.82770635499992,
                -15.00466910799986
              ],
              [
                -70.82336810499999,
                -15.00974998299995
              ],
              [
                -70.81973722999993,
                -15.011836607999953
              ],
              [
                -70.8179217309999,
                -15.0141824829999
              ],
              [
                -70.81261685599992,
                -15.016952856999978
              ],
              [
                -70.80784260499996,
                -15.017459732999896
              ],
              [
                -70.80419972999994,
                -15.019098482999937
              ],
              [
                -70.80045098099998,
                -15.022741107999877
              ],
              [
                -70.79744485499992,
                -15.024450482999953
              ],
              [
                -70.79529922999996,
                -15.024426856999924
              ],
              [
                -70.78756585599996,
                -15.026607857999977
              ],
              [
                -70.78235535599993,
                -15.030226982999864
              ],
              [
                -70.77885410599998,
                -15.030816357999868
              ],
              [
                -70.77377097999994,
                -15.033587607999834
              ],
              [
                -70.77074710499994,
                -15.03296198199996
              ],
              [
                -70.76785935499993,
                -15.029506232999893
              ],
              [
                -70.76587623099988,
                -15.028256731999932
              ],
              [
                -70.76351760499995,
                -15.028825857999948
              ],
              [
                -70.76082347999989,
                -15.030864481999856
              ],
              [
                -70.7589762309999,
                -15.035455482999907
              ],
              [
                -70.75943810599995,
                -15.039421607999884
              ],
              [
                -70.7577548559999,
                -15.04517398299987
              ],
              [
                -70.75293872999998,
                -15.046468481999966
              ]
            ]
          ]
        ],
        "type": "MultiPolygon"
      },
      "type": "Feature",
      "properties": {
        "PROVINCIA": "LAMPA",
        "DISTRITO": "OCUVIRI",
        "name": "OCUVIRI",
        "ID": "200605",
        "DEPARTAMEN": "PUNO"
      }
    }
  ]
}
