{
  "type": "FeatureCollection",
  "features": [
    {
      "geometry": {
        "coordinates": [
          [
            [
              [
                -69.17629610399996,
                -15.26135973299995
              ],
              [
                -69.17796985399991,
                -15.279176482999958
              ],
              [
                -69.19325947899995,
                -15.295160982999903
              ],
              [
                -69.19445122899998,
                -15.302390607999882
              ],
              [
                -69.19479272899997,
                -15.315039232999936
              ],
              [
                -69.20656397899995,
                -15.32425210799994
              ],
              [
                -69.21564160399998,
                -15.317158107999887
              ],
              [
                -69.23104597899993,
                -15.335500482999919
              ],
              [
                -69.24009472899996,
                -15.352656357999933
              ],
              [
                -69.24855835399995,
                -15.37080898299996
              ],
              [
                -69.26032947899989,
                -15.374036357999955
              ],
              [
                -69.26332447899983,
                -15.376017482999885
              ],
              [
                -69.26738197899982,
                -15.37985960799989
              ],
              [
                -69.26915810399987,
                -15.383841857999982
              ],
              [
                -69.27366560399997,
                -15.386538232999953
              ],
              [
                -69.28181647899999,
                -15.38987760799995
              ],
              [
                -69.28605347899997,
                -15.387220482999908
              ],
              [
                -69.29725647899994,
                -15.387794982999935
              ],
              [
                -69.30001760399995,
                -15.386867232999919
              ],
              [
                -69.30305660399995,
                -15.384304732999908
              ],
              [
                -69.30582410399995,
                -15.38372660799996
              ],
              [
                -69.31173785399989,
                -15.38850435799992
              ],
              [
                -69.31506235399996,
                -15.38980235799994
              ],
              [
                -69.31727535399995,
                -15.38908398299992
              ],
              [
                -69.31973810399995,
                -15.385808982999947
              ],
              [
                -69.32660822899987,
                -15.381596482999896
              ],
              [
                -69.32652135399996,
                -15.378424232999976
              ],
              [
                -69.32529472899989,
                -15.37183110799998
              ],
              [
                -69.3256659789999,
                -15.369906232999881
              ],
              [
                -69.33434510399991,
                -15.358307482999976
              ],
              [
                -69.34297122899989,
                -15.35241635799997
              ],
              [
                -69.34886222899996,
                -15.350663107999935
              ],
              [
                -69.35510385399994,
                -15.341896732999885
              ],
              [
                -69.36492222899989,
                -15.332849857999975
              ],
              [
                -69.3754121039999,
                -15.326982357999896
              ],
              [
                -69.38294135399991,
                -15.324857607999945
              ],
              [
                -69.39190035399992,
                -15.325753857999871
              ],
              [
                -69.40195510399997,
                -15.32769335799992
              ],
              [
                -69.40365047899991,
                -15.326964107999913
              ],
              [
                -69.40459560399995,
                -15.320828107999887
              ],
              [
                -69.40777860399999,
                -15.315151981999918
              ],
              [
                -69.40949897899986,
                -15.313458607999962
              ],
              [
                -69.41493797899994,
                -15.310161732999916
              ],
              [
                -69.4251172299999,
                -15.301601607999885
              ],
              [
                -69.42435647899993,
                -15.298375482999973
              ],
              [
                -69.41155197899991,
                -15.286129482999968
              ],
              [
                -69.40800847899999,
                -15.283853857999873
              ],
              [
                -69.39824610399995,
                -15.279210981999938
              ],
              [
                -69.39668947899986,
                -15.276986357999931
              ],
              [
                -69.39702535399994,
                -15.275191357999972
              ],
              [
                -69.40098435399995,
                -15.270964982999885
              ],
              [
                -69.40648872899999,
                -15.266753732999973
              ],
              [
                -69.4083262289999,
                -15.253583982999885
              ],
              [
                -69.40681435399995,
                -15.249656232999826
              ],
              [
                -69.40749410399997,
                -15.245558607999953
              ],
              [
                -69.40508985399998,
                -15.244443356999966
              ],
              [
                -69.40012310399999,
                -15.245539107999946
              ],
              [
                -69.39733197899989,
                -15.247699232999878
              ],
              [
                -69.39293747999994,
                -15.245152357999928
              ],
              [
                -69.39021285399991,
                -15.23988473299994
              ],
              [
                -69.38808110399992,
                -15.23724585799988
              ],
              [
                -69.38513610499996,
                -15.236647357999914
              ],
              [
                -69.3764961039999,
                -15.229402356999913
              ],
              [
                -69.37457222899997,
                -15.22507423299993
              ],
              [
                -69.37391597899995,
                -15.220908731999941
              ],
              [
                -69.37192972899999,
                -15.216947357999913
              ],
              [
                -69.37132222899999,
                -15.21611323299993
              ],
              [
                -69.36200385399991,
                -15.21406835799985
              ],
              [
                -69.3595176039999,
                -15.211039107999852
              ],
              [
                -69.35718947899994,
                -15.209539106999898
              ],
              [
                -69.35639447899996,
                -15.207361357999844
              ],
              [
                -69.35823247899998,
                -15.205456857999934
              ],
              [
                -69.3583926039999,
                -15.203285107999875
              ],
              [
                -69.35684372899993,
                -15.200363232999905
              ],
              [
                -69.35417972899995,
                -15.191671856999847
              ],
              [
                -69.35192897899998,
                -15.188293982999937
              ],
              [
                -69.34615122899993,
                -15.185370607999914
              ],
              [
                -69.34325697899999,
                -15.183235607999848
              ],
              [
                -69.33966397899991,
                -15.181846482999845
              ],
              [
                -69.33588935399996,
                -15.179448107999974
              ],
              [
                -69.33020122899995,
                -15.177113232999886
              ],
              [
                -69.32457810399995,
                -15.177669857999945
              ],
              [
                -69.31971685399998,
                -15.176556607999942
              ],
              [
                -69.31458197899991,
                -15.176539232999914
              ],
              [
                -69.3117597289999,
                -15.17522460799995
              ],
              [
                -69.3092426039999,
                -15.171702731999972
              ],
              [
                -69.30361647899991,
                -15.16989410799988
              ],
              [
                -69.30086372899996,
                -15.167192732999922
              ],
              [
                -69.29756835399996,
                -15.16608398299985
              ],
              [
                -69.2941013539999,
                -15.16269535799995
              ],
              [
                -69.29174560399997,
                -15.16226710799998
              ],
              [
                -69.28551160399991,
                -15.166431232999969
              ],
              [
                -69.28386972899995,
                -15.17016685799996
              ],
              [
                -69.2776483539999,
                -15.179339732999892
              ],
              [
                -69.27288522899988,
                -15.181758607999939
              ],
              [
                -69.2633199789999,
                -15.18356423299997
              ],
              [
                -69.2538062289999,
                -15.18674635799988
              ],
              [
                -69.2510162289999,
                -15.186886607999952
              ],
              [
                -69.24573047899997,
                -15.185195357999817
              ],
              [
                -69.24063472899991,
                -15.186843732999932
              ],
              [
                -69.23445510399984,
                -15.192419982999922
              ],
              [
                -69.23150085399993,
                -15.196057107999934
              ],
              [
                -69.2327782289999,
                -15.205789731999914
              ],
              [
                -69.23166285399998,
                -15.209210232999965
              ],
              [
                -69.22690397899999,
                -15.215344732999938
              ],
              [
                -69.21949997899992,
                -15.218065982999917
              ],
              [
                -69.21652572899995,
                -15.221064106999961
              ],
              [
                -69.20991010399996,
                -15.223586732999934
              ],
              [
                -69.19908410399995,
                -15.22556123299995
              ],
              [
                -69.19116360399988,
                -15.229737607999937
              ],
              [
                -69.1894236039999,
                -15.231176731999824
              ],
              [
                -69.18742485399991,
                -15.23567398299997
              ],
              [
                -69.18671097899988,
                -15.239719107999974
              ],
              [
                -69.18494535399992,
                -15.243990482999891
              ],
              [
                -69.17825822899988,
                -15.24856585799995
              ],
              [
                -69.17320860399997,
                -15.255771982999931
              ],
              [
                -69.17629610399996,
                -15.26135973299995
              ]
            ]
          ]
        ],
        "type": "MultiPolygon"
      },
      "type": "Feature",
      "properties": {
        "PROVINCIA": "MOHO",
        "DISTRITO": "HUAYRAPATA",
        "name": "HUAYRAPATA",
        "ID": "201304",
        "DEPARTAMEN": "PUNO"
      }
    }
  ]
}
