{
  "type": "FeatureCollection",
  "features": [
    {
      "geometry": {
        "coordinates": [
          [
            [
              [
                -76.78931636099998,
                -9.44558210199989
              ],
              [
                -76.79049986099994,
                -9.44799222699993
              ],
              [
                -76.78982611099997,
                -9.453736351999908
              ],
              [
                -76.78884173599994,
                -9.45651560199991
              ],
              [
                -76.78814661099989,
                -9.461939476999817
              ],
              [
                -76.78429298599991,
                -9.46754872699995
              ],
              [
                -76.78127348599992,
                -9.469644476999974
              ],
              [
                -76.78137111099994,
                -9.471468727999934
              ],
              [
                -76.78374223599991,
                -9.470595726999875
              ],
              [
                -76.79536336099989,
                -9.471917977999965
              ],
              [
                -76.80204311099988,
                -9.47065622699995
              ],
              [
                -76.808662111,
                -9.470863102999886
              ],
              [
                -76.81190823599997,
                -9.470034977999944
              ],
              [
                -76.82365236099992,
                -9.469050727999957
              ],
              [
                -76.82788673599998,
                -9.467384726999967
              ],
              [
                -76.83325386099995,
                -9.467839852999873
              ],
              [
                -76.83555073599996,
                -9.466558602999896
              ],
              [
                -76.84371673599998,
                -9.465058602999875
              ],
              [
                -76.84794536099997,
                -9.462066352999898
              ],
              [
                -76.85518161099998,
                -9.45970697699994
              ],
              [
                -76.85995698599999,
                -9.455554726999935
              ],
              [
                -76.86251561099994,
                -9.448951226999952
              ],
              [
                -76.86294536099996,
                -9.444414102999872
              ],
              [
                -76.864447236,
                -9.436867226999937
              ],
              [
                -76.86655486099983,
                -9.434328101999881
              ],
              [
                -76.87040436099994,
                -9.434392601999889
              ],
              [
                -76.87329886099997,
                -9.43210747799992
              ],
              [
                -76.87577736099996,
                -9.42588672799991
              ],
              [
                -76.87602536199995,
                -9.421624976999908
              ],
              [
                -76.87717386099996,
                -9.417437477999897
              ],
              [
                -76.88023636099996,
                -9.413540976999911
              ],
              [
                -76.88091598599993,
                -9.40921097699993
              ],
              [
                -76.88339448599993,
                -9.404835976999891
              ],
              [
                -76.88478911099998,
                -9.39580472699987
              ],
              [
                -76.88643548599993,
                -9.390400352999904
              ],
              [
                -76.880640611,
                -9.389744101999952
              ],
              [
                -76.87581448599991,
                -9.390357477999885
              ],
              [
                -76.87216786099998,
                -9.394544976999896
              ],
              [
                -76.87152148599989,
                -9.400365227999885
              ],
              [
                -76.87021673599992,
                -9.402873101999944
              ],
              [
                -76.86560548599988,
                -9.40319335199996
              ],
              [
                -76.86200586099994,
                -9.408443352999939
              ],
              [
                -76.85968761099997,
                -9.410736351999958
              ],
              [
                -76.85712886099998,
                -9.415162101999954
              ],
              [
                -76.85699023599989,
                -9.420423851999828
              ],
              [
                -76.85605861099998,
                -9.422599477999881
              ],
              [
                -76.85144536099995,
                -9.42549410199996
              ],
              [
                -76.84887111099994,
                -9.42831822699992
              ],
              [
                -76.84394336099996,
                -9.426941351999972
              ],
              [
                -76.84158398599999,
                -9.429017601999874
              ],
              [
                -76.83884961099994,
                -9.42673822699993
              ],
              [
                -76.82839648699996,
                -9.433722601999875
              ],
              [
                -76.82787698599998,
                -9.428140601999871
              ],
              [
                -76.82670511099991,
                -9.425587852999968
              ],
              [
                -76.82400786099993,
                -9.425107476999926
              ],
              [
                -76.81986136099994,
                -9.428710977999913
              ],
              [
                -76.81221286099986,
                -9.434117227999934
              ],
              [
                -76.80951948599994,
                -9.43766210299998
              ],
              [
                -76.79734161099998,
                -9.44191210299988
              ],
              [
                -76.79179686099997,
                -9.442361351999864
              ],
              [
                -76.78931636099998,
                -9.44558210199989
              ]
            ]
          ]
        ],
        "type": "MultiPolygon"
      },
      "type": "Feature",
      "properties": {
        "PROVINCIA": "HUAMALIES",
        "DISTRITO": "PUNCHAO",
        "name": "PUNCHAO",
        "ID": "090408",
        "DEPARTAMEN": "HUANUCO"
      }
    }
  ]
}
