{
  "type": "FeatureCollection",
  "features": [
    {
      "geometry": {
        "coordinates": [
          [
            [
              [
                -76.66239260999998,
                -9.273066351999944
              ],
              [
                -76.66126761099997,
                -9.280005851999931
              ],
              [
                -76.6589277359999,
                -9.285017601999925
              ],
              [
                -76.65811323599985,
                -9.289316351999958
              ],
              [
                -76.65685548599998,
                -9.291023476999897
              ],
              [
                -76.65137698599989,
                -9.292277351999928
              ],
              [
                -76.65118548599997,
                -9.295685477999939
              ],
              [
                -76.64991011099994,
                -9.299699226999905
              ],
              [
                -76.65175786099996,
                -9.302853476999871
              ],
              [
                -76.65133598599988,
                -9.30508397799997
              ],
              [
                -76.64940623599989,
                -9.307787101999963
              ],
              [
                -76.64668548599997,
                -9.309917976999884
              ],
              [
                -76.64240035999995,
                -9.30941997799988
              ],
              [
                -76.6399413609999,
                -9.305595726999911
              ],
              [
                -76.63732810999994,
                -9.303634726999917
              ],
              [
                -76.63286911099993,
                -9.304210851999926
              ],
              [
                -76.62873836099993,
                -9.300714852999931
              ],
              [
                -76.62634573599996,
                -9.302029351999977
              ],
              [
                -76.62369336099988,
                -9.305160101999945
              ],
              [
                -76.61958398599995,
                -9.304228476999867
              ],
              [
                -76.6190253609999,
                -9.306056601999956
              ],
              [
                -76.62090236099988,
                -9.308474601999933
              ],
              [
                -76.62052148599997,
                -9.312378851999938
              ],
              [
                -76.61686723599996,
                -9.319656226999939
              ],
              [
                -76.60761911099985,
                -9.324244102999955
              ],
              [
                -76.60556636099989,
                -9.329929726999922
              ],
              [
                -76.60553911099998,
                -9.333013727999912
              ],
              [
                -76.60430861099985,
                -9.344945351999911
              ],
              [
                -76.59990036099998,
                -9.34823635299989
              ],
              [
                -76.60032036099989,
                -9.35344135299988
              ],
              [
                -76.59788861099997,
                -9.357820352999909
              ],
              [
                -76.59516836099993,
                -9.360839602999818
              ],
              [
                -76.59310161099984,
                -9.369236351999916
              ],
              [
                -76.58901173599992,
                -9.373083977999954
              ],
              [
                -76.58893361099996,
                -9.374480477999953
              ],
              [
                -76.59383786099983,
                -9.377650352999922
              ],
              [
                -76.59627148599992,
                -9.381439477999947
              ],
              [
                -76.60098236099998,
                -9.382187477999935
              ],
              [
                -76.60443748599994,
                -9.387220727999875
              ],
              [
                -76.60363861099984,
                -9.392636727999957
              ],
              [
                -76.60019336099998,
                -9.397224601999937
              ],
              [
                -76.59600586099998,
                -9.398763727999892
              ],
              [
                -76.59465423599994,
                -9.400027352999928
              ],
              [
                -76.59403323599992,
                -9.403915976999883
              ],
              [
                -76.59174023599991,
                -9.40618960199987
              ],
              [
                -76.59005660999998,
                -9.40940622699992
              ],
              [
                -76.59059761099996,
                -9.412609351999947
              ],
              [
                -76.59012123599996,
                -9.419664102999945
              ],
              [
                -76.59540236099997,
                -9.426046727999903
              ],
              [
                -76.59774611099988,
                -9.429589852999982
              ],
              [
                -76.60462498599998,
                -9.43712497699994
              ],
              [
                -76.61002923599995,
                -9.440111352999963
              ],
              [
                -76.61425198599994,
                -9.443365226999958
              ],
              [
                -76.61742573599997,
                -9.448738226999978
              ],
              [
                -76.61753323599999,
                -9.452652351999916
              ],
              [
                -76.61650198599995,
                -9.45605472799997
              ],
              [
                -76.61249998499994,
                -9.461824226999966
              ],
              [
                -76.61036523599995,
                -9.466193351999948
              ],
              [
                -76.61006448599994,
                -9.469699227999968
              ],
              [
                -76.6183146109999,
                -9.472867226999881
              ],
              [
                -76.6277031109999,
                -9.472611351999944
              ],
              [
                -76.63009173599994,
                -9.47179297799994
              ],
              [
                -76.63584373599997,
                -9.47442185199992
              ],
              [
                -76.63958198599994,
                -9.475376976999883
              ],
              [
                -76.64210736099994,
                -9.473175727999944
              ],
              [
                -76.64784561099992,
                -9.473039101999916
              ],
              [
                -76.65462111099998,
                -9.474455101999922
              ],
              [
                -76.66192773599988,
                -9.473771476999957
              ],
              [
                -76.66390823599988,
                -9.47187710199995
              ],
              [
                -76.6665019859999,
                -9.472287102999928
              ],
              [
                -76.67141798599988,
                -9.470398477999936
              ],
              [
                -76.67440836099996,
                -9.471093726999982
              ],
              [
                -76.6770839859999,
                -9.473517601999959
              ],
              [
                -76.67922661099982,
                -9.47264260199995
              ],
              [
                -76.68154498599995,
                -9.46679097699996
              ],
              [
                -76.68490236099996,
                -9.464498102999926
              ],
              [
                -76.68930473599994,
                -9.467328101999897
              ],
              [
                -76.69122461099988,
                -9.467443352999908
              ],
              [
                -76.69282423599992,
                -9.461298851999913
              ],
              [
                -76.69533411099991,
                -9.458742227999949
              ],
              [
                -76.69765836099987,
                -9.453974601999903
              ],
              [
                -76.70264261099999,
                -9.453572351999924
              ],
              [
                -76.70404673599995,
                -9.45163085299987
              ],
              [
                -76.70422461099997,
                -9.448203101999866
              ],
              [
                -76.7060663609999,
                -9.445081976999973
              ],
              [
                -76.70488286099999,
                -9.439461101999882
              ],
              [
                -76.7052578609999,
                -9.436494102999973
              ],
              [
                -76.70832036099989,
                -9.433130851999977
              ],
              [
                -76.71311323599997,
                -9.43382622699994
              ],
              [
                -76.71565036099992,
                -9.432716851999885
              ],
              [
                -76.71964061099987,
                -9.436064477999935
              ],
              [
                -76.72178711099991,
                -9.436160101999974
              ],
              [
                -76.72497661099993,
                -9.434406226999954
              ],
              [
                -76.72666011099989,
                -9.430572226999914
              ],
              [
                -76.72593348599997,
                -9.42829110199989
              ],
              [
                -76.72717773599999,
                -9.423831977999896
              ],
              [
                -76.72755273599995,
                -9.416146476999927
              ],
              [
                -76.73084173599995,
                -9.411515602999941
              ],
              [
                -76.73504486099989,
                -9.40855072699992
              ],
              [
                -76.7351093609999,
                -9.40529097699988
              ],
              [
                -76.7387011109999,
                -9.402691352999966
              ],
              [
                -76.74299223599996,
                -9.396197227999949
              ],
              [
                -76.74073436099991,
                -9.385361351999961
              ],
              [
                -76.74124223599989,
                -9.380915976999972
              ],
              [
                -76.74372461099995,
                -9.370216851999942
              ],
              [
                -76.74301761099997,
                -9.366705101999912
              ],
              [
                -76.74330661099992,
                -9.36097260299988
              ],
              [
                -76.74443548599999,
                -9.357447226999966
              ],
              [
                -76.74634373599997,
                -9.354452977999927
              ],
              [
                -76.7493124859999,
                -9.344421851999869
              ],
              [
                -76.74755861099993,
                -9.339066351999975
              ],
              [
                -76.74579686099992,
                -9.335826226999927
              ],
              [
                -76.74220886099994,
                -9.333363227999882
              ],
              [
                -76.74033398599988,
                -9.330802726999934
              ],
              [
                -76.74058398599988,
                -9.325046851999957
              ],
              [
                -76.73899998599995,
                -9.31708597699992
              ],
              [
                -76.74167573599988,
                -9.311290976999885
              ],
              [
                -76.74173823599995,
                -9.309080101999939
              ],
              [
                -76.7437636109999,
                -9.30593160199993
              ],
              [
                -76.74254098599988,
                -9.3002304769999
              ],
              [
                -76.74464448599997,
                -9.297130851999952
              ],
              [
                -76.74174998599983,
                -9.292171851999967
              ],
              [
                -76.74167573599988,
                -9.28988660199991
              ],
              [
                -76.73951173599988,
                -9.28449410199994
              ],
              [
                -76.73238473599997,
                -9.284384727999964
              ],
              [
                -76.73116798599995,
                -9.285462851999966
              ],
              [
                -76.72317773599997,
                -9.284208976999878
              ],
              [
                -76.71985348599998,
                -9.284249976999888
              ],
              [
                -76.71289848599997,
                -9.288556601999971
              ],
              [
                -76.70834761099985,
                -9.290318351999929
              ],
              [
                -76.70576761099989,
                -9.29393160199993
              ],
              [
                -76.70038286099998,
                -9.29838085199998
              ],
              [
                -76.69637886099997,
                -9.296101601999965
              ],
              [
                -76.69200386099999,
                -9.290324226999871
              ],
              [
                -76.68706448599994,
                -9.284986351999976
              ],
              [
                -76.68240023599992,
                -9.278560602999903
              ],
              [
                -76.67798823599992,
                -9.276103476999822
              ],
              [
                -76.67732811099995,
                -9.272267601999943
              ],
              [
                -76.67433198599991,
                -9.269587851999916
              ],
              [
                -76.67161523599992,
                -9.270267601999933
              ],
              [
                -76.66633786099999,
                -9.270308601999943
              ],
              [
                -76.66239260999998,
                -9.273066351999944
              ]
            ]
          ]
        ],
        "type": "MultiPolygon"
      },
      "type": "Feature",
      "properties": {
        "PROVINCIA": "HUAMALIES",
        "DISTRITO": "TANTAMAYO",
        "name": "TANTAMAYO",
        "ID": "090411",
        "DEPARTAMEN": "HUANUCO"
      }
    }
  ]
}
