{
  "type": "FeatureCollection",
  "features": [
    {
      "geometry": {
        "coordinates": [
          [
            [
              [
                -77.6987517369999,
                -10.322104102999958
              ],
              [
                -77.6951354869999,
                -10.321856727999943
              ],
              [
                -77.69239061199988,
                -10.320902477999937
              ],
              [
                -77.68690611199997,
                -10.324337852999975
              ],
              [
                -77.68208398699994,
                -10.32649222799995
              ],
              [
                -77.67978711199999,
                -10.32669135299983
              ],
              [
                -77.67717261199994,
                -10.328216477999888
              ],
              [
                -77.67204961199997,
                -10.33361897899988
              ],
              [
                -77.6654534889999,
                -10.339448057999903
              ],
              [
                -77.662446736,
                -10.339688102999958
              ],
              [
                -77.66011548599982,
                -10.341496727999925
              ],
              [
                -77.65455661199996,
                -10.34263872799994
              ],
              [
                -77.65254298699989,
                -10.344236352999872
              ],
              [
                -77.64920436199998,
                -10.343467477999923
              ],
              [
                -77.647059862,
                -10.338761352999938
              ],
              [
                -77.64021286199994,
                -10.332980477999968
              ],
              [
                -77.639387112,
                -10.330445352999845
              ],
              [
                -77.63729011199996,
                -10.328896477999933
              ],
              [
                -77.63533786199991,
                -10.32486022799992
              ],
              [
                -77.63165573599997,
                -10.322205228999906
              ],
              [
                -77.62903948699989,
                -10.323116102999961
              ],
              [
                -77.62843998699992,
                -10.325739978999877
              ],
              [
                -77.62126823699992,
                -10.326759352999943
              ],
              [
                -77.61942723699991,
                -10.327825352999866
              ],
              [
                -77.61727611200001,
                -10.333658602999947
              ],
              [
                -77.61704098699983,
                -10.336277353999947
              ],
              [
                -77.6146792369999,
                -10.339995727999906
              ],
              [
                -77.61115823699998,
                -10.343382852999866
              ],
              [
                -77.60792961200002,
                -10.348190103999968
              ],
              [
                -77.60420611200004,
                -10.355160478999949
              ],
              [
                -77.60036323699995,
                -10.360013727999956
              ],
              [
                -77.597742112,
                -10.366420352999967
              ],
              [
                -77.59809961199988,
                -10.371484352999914
              ],
              [
                -77.598903861,
                -10.37467160299991
              ],
              [
                -77.59759311199991,
                -10.38036410399991
              ],
              [
                -77.59937298699992,
                -10.383333977999882
              ],
              [
                -77.60237548700002,
                -10.384947852999915
              ],
              [
                -77.60351098699994,
                -10.388922228999888
              ],
              [
                -77.60758911199991,
                -10.392364977999819
              ],
              [
                -77.61403348600004,
                -10.39630310299998
              ],
              [
                -77.61539611099988,
                -10.399141852999833
              ],
              [
                -77.61925686200004,
                -10.401677852999967
              ],
              [
                -77.62323123699997,
                -10.405462977999946
              ],
              [
                -77.63073436199994,
                -10.408588227999928
              ],
              [
                -77.63455586199996,
                -10.41226560399997
              ],
              [
                -77.63643061199991,
                -10.412698227999897
              ],
              [
                -77.640756737,
                -10.411111853000023
              ],
              [
                -77.64324223700004,
                -10.408499978999885
              ],
              [
                -77.64529936199989,
                -10.408660352999846
              ],
              [
                -77.6483769859999,
                -10.412199228999896
              ],
              [
                -77.65474486199992,
                -10.417240728999957
              ],
              [
                -77.65734061199993,
                -10.41659172899989
              ],
              [
                -77.663025361,
                -10.41833010299996
              ],
              [
                -77.66577673699999,
                -10.427118852999968
              ],
              [
                -77.67046348600002,
                -10.427479352999967
              ],
              [
                -77.673395987,
                -10.430545478999875
              ],
              [
                -77.67666373700001,
                -10.43192060299998
              ],
              [
                -77.68391998599998,
                -10.43138597799998
              ],
              [
                -77.68673611199983,
                -10.43402072899994
              ],
              [
                -77.6888309869999,
                -10.438609227999962
              ],
              [
                -77.68915573700002,
                -10.444455853999955
              ],
              [
                -77.68764648699994,
                -10.448986353999885
              ],
              [
                -77.68739361199988,
                -10.451966977999973
              ],
              [
                -77.69086911199986,
                -10.45679285299991
              ],
              [
                -77.69412086199998,
                -10.463583727999946
              ],
              [
                -77.6976319869998,
                -10.464075977999926
              ],
              [
                -77.698157112,
                -10.466504352999948
              ],
              [
                -77.70119611199988,
                -10.468581478999909
              ],
              [
                -77.70368738799988,
                -10.474817236999911
              ],
              [
                -77.70442186199989,
                -10.479470478999929
              ],
              [
                -77.70593948699991,
                -10.482242227999905
              ],
              [
                -77.70839648699996,
                -10.484914103999927
              ],
              [
                -77.70734096799993,
                -10.48905830699988
              ],
              [
                -77.7095016209999,
                -10.490875765999931
              ],
              [
                -77.71240683699995,
                -10.491654169999833
              ],
              [
                -77.70941067599995,
                -10.500400138999964
              ],
              [
                -77.7105942369999,
                -10.503848603999927
              ],
              [
                -77.71189248699983,
                -10.505065602999878
              ],
              [
                -77.71630423699992,
                -10.50306097799995
              ],
              [
                -77.72023486199998,
                -10.502741727999933
              ],
              [
                -77.72119373699991,
                -10.504078228999902
              ],
              [
                -77.72188286199992,
                -10.51188835299996
              ],
              [
                -77.724144487,
                -10.513048979000018
              ],
              [
                -77.72857611199993,
                -10.513697227999899
              ],
              [
                -77.73794236199996,
                -10.520786477999934
              ],
              [
                -77.74167073699994,
                -10.526097602999869
              ],
              [
                -77.74462411199983,
                -10.532266977999882
              ],
              [
                -77.74491948599984,
                -10.535646977999875
              ],
              [
                -77.74298336199996,
                -10.542439978
              ],
              [
                -77.74296393399987,
                -10.54623524699997
              ],
              [
                -77.74646220699987,
                -10.551537504999885
              ],
              [
                -77.74579737800002,
                -10.55828417299989
              ],
              [
                -77.74479473799983,
                -10.56078124399994
              ],
              [
                -77.74092225699997,
                -10.564278610999907
              ],
              [
                -77.73731650499997,
                -10.566317841999876
              ],
              [
                -77.73689946599995,
                -10.56832939799989
              ],
              [
                -77.73421546399987,
                -10.568065821999937
              ],
              [
                -77.7318073969999,
                -10.566222160999871
              ],
              [
                -77.72989461999987,
                -10.563011654999968
              ],
              [
                -77.72796353799987,
                -10.557721618999892
              ],
              [
                -77.72859678400005,
                -10.555564770999979
              ],
              [
                -77.7275569169999,
                -10.552705247999882
              ],
              [
                -77.72502113699989,
                -10.552798842999891
              ],
              [
                -77.72090553799995,
                -10.554555426999912
              ],
              [
                -77.71861550699992,
                -10.557873947999951
              ],
              [
                -77.71573242899979,
                -10.559691586999975
              ],
              [
                -77.71008343699992,
                -10.56017040699993
              ],
              [
                -77.70827048699982,
                -10.552465103999907
              ],
              [
                -77.70888011199992,
                -10.549154602999977
              ],
              [
                -77.70830498600003,
                -10.547444727999903
              ],
              [
                -77.70132473699988,
                -10.544281353999907
              ],
              [
                -77.698402112,
                -10.543937477999975
              ],
              [
                -77.69400061199997,
                -10.53950172899988
              ],
              [
                -77.68777686199996,
                -10.537300977999962
              ],
              [
                -77.68382248699999,
                -10.538745227999925
              ],
              [
                -77.68122673699997,
                -10.538784477999968
              ],
              [
                -77.67615448699996,
                -10.53764485299996
              ],
              [
                -77.67151248699997,
                -10.540842728999905
              ],
              [
                -77.66924298599992,
                -10.540567603999875
              ],
              [
                -77.66652136199997,
                -10.537923103999901
              ],
              [
                -77.6635006119999,
                -10.533312353999975
              ],
              [
                -77.65858348699999,
                -10.530870978999928
              ],
              [
                -77.65349473699996,
                -10.530858977999912
              ],
              [
                -77.65139073700004,
                -10.530133477999925
              ],
              [
                -77.64709861199992,
                -10.52337485299995
              ],
              [
                -77.64491173199997,
                -10.521852366000019
              ],
              [
                -77.642564301,
                -10.518525139999952
              ],
              [
                -77.6410751229999,
                -10.513852007999901
              ],
              [
                -77.63529820799982,
                -10.516290671999968
              ],
              [
                -77.63326510899992,
                -10.51582944699993
              ],
              [
                -77.62994840299984,
                -10.512127637999981
              ],
              [
                -77.63009711799998,
                -10.5068670739999
              ],
              [
                -77.62474190299992,
                -10.502034568999932
              ],
              [
                -77.62023150399983,
                -10.505705581999905
              ],
              [
                -77.61441344099984,
                -10.503267315999949
              ],
              [
                -77.61268234199997,
                -10.504237824999962
              ],
              [
                -77.61096569199987,
                -10.506929469999932
              ],
              [
                -77.6064221339999,
                -10.506679951999956
              ],
              [
                -77.60132286299995,
                -10.509303709999926
              ],
              [
                -77.60028644099992,
                -10.51246787699995
              ],
              [
                -77.59965171499988,
                -10.517445650999889
              ],
              [
                -77.60091904699993,
                -10.518774020999956
              ],
              [
                -77.60371954899983,
                -10.518559773999868
              ],
              [
                -77.60778498999986,
                -10.519386979999922
              ],
              [
                -77.61224337699997,
                -10.520975893999946
              ],
              [
                -77.61633303899987,
                -10.524671531999843
              ],
              [
                -77.61444245199993,
                -10.529659653999829
              ],
              [
                -77.61465828799987,
                -10.532335376999981
              ],
              [
                -77.61287154299998,
                -10.538183274999938
              ],
              [
                -77.6142606759999,
                -10.542474930999958
              ],
              [
                -77.61458367599994,
                -10.546392890999925
              ],
              [
                -77.61922928799987,
                -10.547215058999939
              ],
              [
                -77.62107339199997,
                -10.548156019999965
              ],
              [
                -77.6252837369999,
                -10.55462353299987
              ],
              [
                -77.63081137199993,
                -10.556872520999889
              ],
              [
                -77.63122557600002,
                -10.560120281999957
              ],
              [
                -77.63540044199993,
                -10.562380428999973
              ],
              [
                -77.63820857999997,
                -10.563026334999961
              ],
              [
                -77.63900044399992,
                -10.565219051999918
              ],
              [
                -77.63859895799999,
                -10.574784736999959
              ],
              [
                -77.63949323999992,
                -10.577645948999873
              ],
              [
                -77.64533670999987,
                -10.58285621899995
              ],
              [
                -77.64470532599995,
                -10.588120770999979
              ],
              [
                -77.64222293899991,
                -10.59167965599994
              ],
              [
                -77.64234254099995,
                -10.594356092999874
              ],
              [
                -77.63816305599988,
                -10.60290161499995
              ],
              [
                -77.63605481499991,
                -10.605023003999975
              ],
              [
                -77.62847181799998,
                -10.611206403999972
              ],
              [
                -77.62327384199995,
                -10.613736062999862
              ],
              [
                -77.61950846299999,
                -10.614245597999911
              ],
              [
                -77.61965860699996,
                -10.609176249999962
              ],
              [
                -77.61875050099997,
                -10.604689463999875
              ],
              [
                -77.61931005999998,
                -10.602294189999952
              ],
              [
                -77.61793827199983,
                -10.60010624499995
              ],
              [
                -77.60705523699988,
                -10.59440597899993
              ],
              [
                -77.60494036200004,
                -10.590129353999828
              ],
              [
                -77.59845261199996,
                -10.58757197899996
              ],
              [
                -77.59599223699996,
                -10.585414103999938
              ],
              [
                -77.59296998699983,
                -10.584760852999977
              ],
              [
                -77.58939411199992,
                -10.585148727999922
              ],
              [
                -77.5846213619999,
                -10.58383322799989
              ],
              [
                -77.58232911199985,
                -10.584157853999898
              ],
              [
                -77.57665036100002,
                -10.583748102999948
              ],
              [
                -77.57425136099994,
                -10.588413352999964
              ],
              [
                -77.57325836199993,
                -10.592915353999956
              ],
              [
                -77.57418523699988,
                -10.598741478999898
              ],
              [
                -77.57372173599992,
                -10.60503110399992
              ],
              [
                -77.57411523599995,
                -10.614662103999933
              ],
              [
                -77.577464862,
                -10.619815603999882
              ],
              [
                -77.58266436199989,
                -10.621851603999971
              ],
              [
                -77.58220811199988,
                -10.631047103000014
              ],
              [
                -77.58416811199987,
                -10.634822478999979
              ],
              [
                -77.58297424700004,
                -10.638929541999914
              ],
              [
                -77.58494228899997,
                -10.641785525999978
              ],
              [
                -77.58805006499989,
                -10.64348115699994
              ],
              [
                -77.5892278039999,
                -10.64557521099988
              ],
              [
                -77.58691752199991,
                -10.646741814
              ],
              [
                -77.58304057200002,
                -10.652972140999964
              ],
              [
                -77.57621523699999,
                -10.65736010299986
              ],
              [
                -77.57419648499985,
                -10.662541438999938
              ],
              [
                -77.574035112,
                -10.675970728999971
              ],
              [
                -77.57275936199994,
                -10.68625722899992
              ],
              [
                -77.57453714699989,
                -10.694307930999912
              ],
              [
                -77.57370762199997,
                -10.696768126999814
              ],
              [
                -77.57084099199994,
                -10.700808121999955
              ],
              [
                -77.56670852699989,
                -10.703806628999871
              ],
              [
                -77.56314382999989,
                -10.70942811599997
              ],
              [
                -77.5641656009999,
                -10.711860303999856
              ],
              [
                -77.56737161199993,
                -10.713650819999941
              ],
              [
                -77.57569633199995,
                -10.716887399999962
              ],
              [
                -77.57856398699994,
                -10.723710853999933
              ],
              [
                -77.57717448699987,
                -10.728570227999967
              ],
              [
                -77.57928298699989,
                -10.73054697899994
              ],
              [
                -77.58086448699999,
                -10.736147854000023
              ],
              [
                -77.58310473699999,
                -10.738124728999878
              ],
              [
                -77.58468623700003,
                -10.741452228999947
              ],
              [
                -77.58731186199992,
                -10.749830478999968
              ],
              [
                -77.58646701899983,
                -10.75324743799996
              ],
              [
                -77.58879886199986,
                -10.757681727999966
              ],
              [
                -77.58730051699996,
                -10.760247081999921
              ],
              [
                -77.58556803999988,
                -10.761217790999979
              ],
              [
                -77.58520650899999,
                -10.764185215999817
              ],
              [
                -77.58855566699998,
                -10.77132921499998
              ],
              [
                -77.58779673099991,
                -10.773056821999944
              ],
              [
                -77.59207059399984,
                -10.775220481999895
              ],
              [
                -77.59328021199991,
                -10.780947886999968
              ],
              [
                -77.59119183299987,
                -10.786449562999962
              ],
              [
                -77.58890807900002,
                -10.784417621999978
              ],
              [
                -77.57775041499991,
                -10.77696605999995
              ],
              [
                -77.57371030900003,
                -10.774704619999966
              ],
              [
                -77.57040014399996,
                -10.770151047999946
              ],
              [
                -77.56539434499996,
                -10.766063235999923
              ],
              [
                -77.55559885299976,
                -10.756376529999955
              ],
              [
                -77.55109570899992,
                -10.752248105999968
              ],
              [
                -77.54293299599982,
                -10.750842254999895
              ],
              [
                -77.53952380999982,
                -10.746379354999931
              ],
              [
                -77.53551621599996,
                -10.742463431999965
              ],
              [
                -77.5307092839999,
                -10.740008119999914
              ],
              [
                -77.52657273699992,
                -10.736294977999933
              ],
              [
                -77.52173161199994,
                -10.734571727999878
              ],
              [
                -77.51656223699996,
                -10.73547447899989
              ],
              [
                -77.51227536099992,
                -10.733951228999956
              ],
              [
                -77.50679686099988,
                -10.734619228999975
              ],
              [
                -77.50429486199988,
                -10.736011728999927
              ],
              [
                -77.50174023699998,
                -10.740720728999975
              ],
              [
                -77.49779911199994,
                -10.744682978999833
              ],
              [
                -77.49495986100004,
                -10.746102603999987
              ],
              [
                -77.49147548699995,
                -10.746037978999937
              ],
              [
                -77.48388673699992,
                -10.744597603999978
              ],
              [
                -77.48006448699994,
                -10.743164103999902
              ],
              [
                -77.47110836199982,
                -10.741870728999913
              ],
              [
                -77.46929023599978,
                -10.74083522899997
              ],
              [
                -77.46496111199986,
                -10.736289728999907
              ],
              [
                -77.45987511199996,
                -10.737090353999918
              ],
              [
                -77.45792773599993,
                -10.733517603999871
              ],
              [
                -77.45265423699988,
                -10.728931603999968
              ],
              [
                -77.4483359859999,
                -10.72720510399995
              ],
              [
                -77.44155986099986,
                -10.726349977999973
              ],
              [
                -77.43613923599997,
                -10.723640102999923
              ],
              [
                -77.43365823699986,
                -10.724392603999945
              ],
              [
                -77.42987498599996,
                -10.726734353999973
              ],
              [
                -77.42889448699998,
                -10.728720727999928
              ],
              [
                -77.425064486,
                -10.729699227999959
              ],
              [
                -77.42243161199991,
                -10.728410102999874
              ],
              [
                -77.41831448599999,
                -10.730185602999882
              ],
              [
                -77.41542998699987,
                -10.72997997899995
              ],
              [
                -77.40847848699997,
                -10.726439477999975
              ],
              [
                -77.40541748700002,
                -10.723490353999978
              ],
              [
                -77.39438511099996,
                -10.716777603999844
              ],
              [
                -77.3927043619999,
                -10.71166610399996
              ],
              [
                -77.39132636199986,
                -10.710199227999908
              ],
              [
                -77.38565755699994,
                -10.707792955999935
              ],
              [
                -77.38451064999998,
                -10.707981057999973
              ],
              [
                -77.37572030399991,
                -10.712352025999962
              ],
              [
                -77.37314285699983,
                -10.715121344999943
              ],
              [
                -77.3681319559999,
                -10.715876797999897
              ],
              [
                -77.36550211299982,
                -10.714407427999845
              ],
              [
                -77.36588286199998,
                -10.719103477999909
              ],
              [
                -77.36727923699988,
                -10.721665978999908
              ],
              [
                -77.37061323599994,
                -10.72377535399994
              ],
              [
                -77.3735507369999,
                -10.73022460399983
              ],
              [
                -77.38148436099988,
                -10.734646353999949
              ],
              [
                -77.3836367369999,
                -10.737277353999843
              ],
              [
                -77.38499411100003,
                -10.74022072899993
              ],
              [
                -77.38669536099991,
                -10.747374978999972
              ],
              [
                -77.38619923599998,
                -10.75108397899993
              ],
              [
                -77.38674223699991,
                -10.752742228999978
              ],
              [
                -77.38908986099989,
                -10.75462110299992
              ],
              [
                -77.39450061199977,
                -10.755717103999928
              ],
              [
                -77.39846098699996,
                -10.76321872799997
              ],
              [
                -77.40249273599989,
                -10.76797572899983
              ],
              [
                -77.40585786099996,
                -10.76731472899985
              ],
              [
                -77.41009448699992,
                -10.768155602999968
              ],
              [
                -77.41630473699985,
                -10.765308602999937
              ],
              [
                -77.41980661199989,
                -10.767117227999847
              ],
              [
                -77.42376761199989,
                -10.767048853999938
              ],
              [
                -77.42568161199989,
                -10.76869722899994
              ],
              [
                -77.42974873699995,
                -10.78289835399994
              ],
              [
                -77.43151086199993,
                -10.789753603999884
              ],
              [
                -77.43547073699995,
                -10.795007852999959
              ],
              [
                -77.43694211199988,
                -10.799795352999922
              ],
              [
                -77.43877661199997,
                -10.802981728999953
              ],
              [
                -77.44237323699991,
                -10.803343727999902
              ],
              [
                -77.44457511199994,
                -10.801672728999847
              ],
              [
                -77.44679061199997,
                -10.801678227999957
              ],
              [
                -77.45002736199996,
                -10.80439847799994
              ],
              [
                -77.45367011199983,
                -10.80479210299984
              ],
              [
                -77.45610811199992,
                -10.806264478999879
              ],
              [
                -77.45815423700003,
                -10.809955103999926
              ],
              [
                -77.46222073699988,
                -10.870066352999913
              ],
              [
                -77.44429298599988,
                -10.916097603999958
              ],
              [
                -77.44809761099998,
                -10.91651947899993
              ],
              [
                -77.47825536099992,
                -10.918614353999828
              ],
              [
                -77.4964489869999,
                -10.923900353999954
              ],
              [
                -77.52571098699985,
                -10.931980477999957
              ],
              [
                -77.54671873699988,
                -10.892861352999944
              ],
              [
                -77.54866798699987,
                -10.890478478999967
              ],
              [
                -77.55580273700002,
                -10.884499978999884
              ],
              [
                -77.5613863619999,
                -10.878397853999957
              ],
              [
                -77.56693523699983,
                -10.878310228999965
              ],
              [
                -77.57017723699983,
                -10.876050853999914
              ],
              [
                -77.57560886199991,
                -10.875798603999897
              ],
              [
                -77.579943362,
                -10.875091852999958
              ],
              [
                -77.58591886199997,
                -10.87312835399996
              ],
              [
                -77.58910711199997,
                -10.871002978999968
              ],
              [
                -77.59176386199988,
                -10.868346103999954
              ],
              [
                -77.59329161099993,
                -10.864825853999832
              ],
              [
                -77.59312548699984,
                -10.861770478999972
              ],
              [
                -77.59590573699984,
                -10.860057603999905
              ],
              [
                -77.59952711199986,
                -10.860028352999961
              ],
              [
                -77.61001136199985,
                -10.86581085399996
              ],
              [
                -77.61483023599988,
                -10.868117978999976
              ],
              [
                -77.61672836199989,
                -10.867971853999961
              ],
              [
                -77.62032048700001,
                -10.865314352999917
              ],
              [
                -77.62216036199993,
                -10.865635728999962
              ],
              [
                -77.62379873699985,
                -10.868368353999927
              ],
              [
                -77.62832236099996,
                -10.870687853999925
              ],
              [
                -77.63448236199991,
                -10.872333978999961
              ],
              [
                -77.63869098699996,
                -10.872860978999938
              ],
              [
                -77.6418944859999,
                -10.872287102999962
              ],
              [
                -77.64377136199994,
                -10.870337478999943
              ],
              [
                -77.64680861199997,
                -10.865431103999981
              ],
              [
                -77.64784273700002,
                -10.864707603999818
              ],
              [
                -77.65127686200003,
                -10.865343478999932
              ],
              [
                -77.65554073699985,
                -10.864993228999822
              ],
              [
                -77.65948323700002,
                -10.86581085299997
              ],
              [
                -77.66042398699994,
                -10.866765228999952
              ],
              [
                -77.68505273699992,
                -10.87809372899983
              ],
              [
                -77.70151561200004,
                -10.886117353999964
              ],
              [
                -77.70074023699982,
                -10.882220728999869
              ],
              [
                -77.702191362,
                -10.879849603999958
              ],
              [
                -77.70078711199989,
                -10.877205103999927
              ],
              [
                -77.70200386199997,
                -10.875294977999886
              ],
              [
                -77.70705861199991,
                -10.87330072799989
              ],
              [
                -77.70842773699997,
                -10.871031228999982
              ],
              [
                -77.70605861199988,
                -10.869787103999897
              ],
              [
                -77.70825973699982,
                -10.867761727999891
              ],
              [
                -77.70792773699998,
                -10.864267603999906
              ],
              [
                -77.70352148699999,
                -10.861136727999963
              ],
              [
                -77.7036641119999,
                -10.857728477999956
              ],
              [
                -77.70595698699998,
                -10.8535801029999
              ],
              [
                -77.71070511199991,
                -10.847999978999951
              ],
              [
                -77.72278511199988,
                -10.836654353999847
              ],
              [
                -77.72468748699998,
                -10.835662228999979
              ],
              [
                -77.73008398699994,
                -10.83116797799994
              ],
              [
                -77.74019348699989,
                -10.824257852999892
              ],
              [
                -77.74281261199997,
                -10.821921853999982
              ],
              [
                -77.75018361199983,
                -10.817740228999924
              ],
              [
                -77.75015236199982,
                -10.813996102999965
              ],
              [
                -77.7483262369999,
                -10.812152352999874
              ],
              [
                -77.74981836199998,
                -10.810548853999933
              ],
              [
                -77.75143548700004,
                -10.805519353999955
              ],
              [
                -77.75374023700004,
                -10.80565235399996
              ],
              [
                -77.75458398700005,
                -10.80392972899989
              ],
              [
                -77.74873048700005,
                -10.800611353999955
              ],
              [
                -77.7468534869999,
                -10.801087852999956
              ],
              [
                -77.74481248599989,
                -10.799714853999944
              ],
              [
                -77.74403511199995,
                -10.794537103999971
              ],
              [
                -77.74564061199993,
                -10.790230478999888
              ],
              [
                -77.74905473699988,
                -10.784843728999874
              ],
              [
                -77.75284573700003,
                -10.781638728999837
              ],
              [
                -77.75282423700003,
                -10.779298853999933
              ],
              [
                -77.7558496119999,
                -10.775431603999891
              ],
              [
                -77.75993361199983,
                -10.772351603999937
              ],
              [
                -77.76495311199983,
                -10.771810602999949
              ],
              [
                -77.7641542369999,
                -10.768402353999932
              ],
              [
                -77.76199611199985,
                -10.767228477999879
              ],
              [
                -77.76141411199984,
                -10.764732478999974
              ],
              [
                -77.76281061199984,
                -10.762277478999977
              ],
              [
                -77.76746286199983,
                -10.75836322899994
              ],
              [
                -77.7686797369999,
                -10.755677602999924
              ],
              [
                -77.7720097369999,
                -10.751175728999954
              ],
              [
                -77.78127348699996,
                -10.744074227999931
              ],
              [
                -77.78981636200001,
                -10.738269478999939
              ],
              [
                -77.79296286200002,
                -10.736587853999879
              ],
              [
                -77.79828123699997,
                -10.731896477999953
              ],
              [
                -77.80106836200002,
                -10.728031227999963
              ],
              [
                -77.80402736199989,
                -10.725945353999975
              ],
              [
                -77.80526173699991,
                -10.721001978999936
              ],
              [
                -77.80517973699983,
                -10.718048978999946
              ],
              [
                -77.8060391119999,
                -10.714318353999943
              ],
              [
                -77.80661911200002,
                -10.707808603999979
              ],
              [
                -77.80806048699998,
                -10.703648478999867
              ],
              [
                -77.81065623699999,
                -10.699894478999852
              ],
              [
                -77.8172148619999,
                -10.692978478999976
              ],
              [
                -77.829667987,
                -10.681492227999911
              ],
              [
                -77.83824023699987,
                -10.673980478999965
              ],
              [
                -77.84933986199997,
                -10.6624961039999
              ],
              [
                -77.85330661199998,
                -10.657103477999954
              ],
              [
                -77.85919548699991,
                -10.649994102999926
              ],
              [
                -77.86015811199997,
                -10.64726560399987
              ],
              [
                -77.86452923699989,
                -10.640191352999864
              ],
              [
                -77.8671327369999,
                -10.637347602999853
              ],
              [
                -77.87556248699991,
                -10.62682622799997
              ],
              [
                -77.87905261199984,
                -10.623144478999905
              ],
              [
                -77.88176761199986,
                -10.61940822899993
              ],
              [
                -77.88227923699992,
                -10.61761522799992
              ],
              [
                -77.88659211099997,
                -10.612055273999943
              ],
              [
                -77.88275263499992,
                -10.608666828000025
              ],
              [
                -77.88026173599997,
                -10.607894714999873
              ],
              [
                -77.86861376199988,
                -10.596501453999906
              ],
              [
                -77.86474496099987,
                -10.590899712999885
              ],
              [
                -77.86302117799988,
                -10.587175462999937
              ],
              [
                -77.857135567,
                -10.578701106999972
              ],
              [
                -77.85431867799997,
                -10.576027410999927
              ],
              [
                -77.85071990199992,
                -10.57408875599998
              ],
              [
                -77.84713438799992,
                -10.574383132999913
              ],
              [
                -77.84420750499999,
                -10.57085023499991
              ],
              [
                -77.83968843599996,
                -10.567918824999936
              ],
              [
                -77.83216904699998,
                -10.567354046999924
              ],
              [
                -77.82875705100003,
                -10.568649405999963
              ],
              [
                -77.82575520299997,
                -10.57186528699998
              ],
              [
                -77.82390623699985,
                -10.57648047899994
              ],
              [
                -77.81834885299992,
                -10.58044276499993
              ],
              [
                -77.81310348699998,
                -10.58229497799988
              ],
              [
                -77.8093261109999,
                -10.58253673199988
              ],
              [
                -77.80823337099991,
                -10.58386544599989
              ],
              [
                -77.799683362,
                -10.585323228
              ],
              [
                -77.7910978619999,
                -10.58380197799994
              ],
              [
                -77.7887147369999,
                -10.580694352999956
              ],
              [
                -77.79002118099999,
                -10.577260660999968
              ],
              [
                -77.78698257699983,
                -10.573482345999935
              ],
              [
                -77.78499611199987,
                -10.572039102999952
              ],
              [
                -77.77989861200001,
                -10.574449852999862
              ],
              [
                -77.77587148699985,
                -10.575348477999967
              ],
              [
                -77.771376487,
                -10.571614602999944
              ],
              [
                -77.77081248699989,
                -10.568919978999816
              ],
              [
                -77.77310311199994,
                -10.566800852999961
              ],
              [
                -77.77373098699985,
                -10.562928978999878
              ],
              [
                -77.77350848699984,
                -10.55807497799998
              ],
              [
                -77.77427398700002,
                -10.554014602999928
              ],
              [
                -77.77297598699982,
                -10.551418352999974
              ],
              [
                -77.773708112,
                -10.548156727999924
              ],
              [
                -77.772443362,
                -10.546259727999939
              ],
              [
                -77.77314236199999,
                -10.542166103999875
              ],
              [
                -77.77174273700001,
                -10.537761477999936
              ],
              [
                -77.77336486199994,
                -10.532372103999876
              ],
              [
                -77.771428862,
                -10.528029228999912
              ],
              [
                -77.77211061199989,
                -10.519167977999928
              ],
              [
                -77.77066986199998,
                -10.515671852999958
              ],
              [
                -77.772443362,
                -10.512478228999953
              ],
              [
                -77.77517261199978,
                -10.51108035399983
              ],
              [
                -77.77786836199988,
                -10.510880728999894
              ],
              [
                -77.78105623700003,
                -10.507256853999934
              ],
              [
                -77.7822801179999,
                -10.503293327999813
              ],
              [
                -77.78260623699992,
                -10.499272977999965
              ],
              [
                -77.78568623699988,
                -10.493927602999975
              ],
              [
                -77.786441362,
                -10.488920102999941
              ],
              [
                -77.79150848699987,
                -10.485204228999976
              ],
              [
                -77.79617773699982,
                -10.48329285299991
              ],
              [
                -77.79832298699989,
                -10.476124353999978
              ],
              [
                -77.79439873699994,
                -10.47518272799988
              ],
              [
                -77.79180648699992,
                -10.472208602999899
              ],
              [
                -77.79009761199995,
                -10.46763835299987
              ],
              [
                -77.7907481119999,
                -10.462753852999924
              ],
              [
                -77.78961911200003,
                -10.459621102999904
              ],
              [
                -77.78479098699995,
                -10.454964852999922
              ],
              [
                -77.78159373699992,
                -10.454414103999909
              ],
              [
                -77.77883198699993,
                -10.449976602999925
              ],
              [
                -77.77451586200004,
                -10.44473047799994
              ],
              [
                -77.770504862,
                -10.443355977999886
              ],
              [
                -77.76565636199985,
                -10.440732977999915
              ],
              [
                -77.76388773699989,
                -10.437712603999955
              ],
              [
                -77.7644697369999,
                -10.435783227999934
              ],
              [
                -77.76797536199996,
                -10.431597352999972
              ],
              [
                -77.76786198699983,
                -10.428790477999883
              ],
              [
                -77.765236362,
                -10.428384727999912
              ],
              [
                -77.76021161199992,
                -10.43022122799988
              ],
              [
                -77.75905669100001,
                -10.42612897499987
              ],
              [
                -77.75816248699994,
                -10.416825728999981
              ],
              [
                -77.75684361199995,
                -10.413062477999915
              ],
              [
                -77.75405748699984,
                -10.4095168529999
              ],
              [
                -77.74987161199988,
                -10.406796102999976
              ],
              [
                -77.7522784869999,
                -10.403081103999966
              ],
              [
                -77.75170286199995,
                -10.394918602999894
              ],
              [
                -77.75336523700003,
                -10.391843727999856
              ],
              [
                -77.75304486199997,
                -10.38862122799992
              ],
              [
                -77.75562298700004,
                -10.383999978999952
              ],
              [
                -77.75304573699987,
                -10.379617228999962
              ],
              [
                -77.75413861199996,
                -10.376040477999936
              ],
              [
                -77.75212661199993,
                -10.372861102999877
              ],
              [
                -77.75212886199995,
                -10.369257852999908
              ],
              [
                -77.7534431119999,
                -10.36498722899995
              ],
              [
                -77.75182861199988,
                -10.361385602999917
              ],
              [
                -77.75458573700001,
                -10.356964227999867
              ],
              [
                -77.75532611199998,
                -10.354324227999939
              ],
              [
                -77.75473823699986,
                -10.35239447899994
              ],
              [
                -77.75538473700004,
                -10.349128852999911
              ],
              [
                -77.75680473700004,
                -10.346841853
              ],
              [
                -77.75704098699998,
                -10.34421685299992
              ],
              [
                -77.75522661199983,
                -10.34089060399998
              ],
              [
                -77.75392961199998,
                -10.33333985299987
              ],
              [
                -77.75430273700005,
                -10.330933603999938
              ],
              [
                -77.7563554869999,
                -10.328123103999815
              ],
              [
                -77.75404298699988,
                -10.325496102999978
              ],
              [
                -77.75250745400001,
                -10.321895452999854
              ],
              [
                -77.74948048700003,
                -10.322400228999982
              ],
              [
                -77.74623986200004,
                -10.324375852999935
              ],
              [
                -77.74320948699994,
                -10.32360585299989
              ],
              [
                -77.74037998700004,
                -10.32069997799988
              ],
              [
                -77.73536048700004,
                -10.3235064779999
              ],
              [
                -77.72522073699986,
                -10.323826227999916
              ],
              [
                -77.72291598699996,
                -10.322572228999888
              ],
              [
                -77.71738473699997,
                -10.32249222899992
              ],
              [
                -77.71243361099994,
                -10.324656228999913
              ],
              [
                -77.70843836200004,
                -10.325297852999881
              ],
              [
                -77.70433998699986,
                -10.32526710299993
              ],
              [
                -77.6987517369999,
                -10.322104102999958
              ]
            ]
          ]
        ],
        "type": "MultiPolygon"
      },
      "type": "Feature",
      "properties": {
        "PROVINCIA": "BARRANCA",
        "name": "BARRANCA",
        "ID": "140900",
        "DEPARTAMEN": "LIMA"
      }
    }
  ]
}
