{
  "type": "FeatureCollection",
  "features": [
    {
      "geometry": {
        "coordinates": [
          [
            [
              [
                -77.6987517369999,
                -10.322104102999958
              ],
              [
                -77.69239061199988,
                -10.320902477999937
              ],
              [
                -77.68690611199997,
                -10.324337852999975
              ],
              [
                -77.67717261199994,
                -10.328216477999888
              ],
              [
                -77.67204961199997,
                -10.33361897899988
              ],
              [
                -77.6654534889999,
                -10.339448057999903
              ],
              [
                -77.66244673599994,
                -10.339688102999958
              ],
              [
                -77.66011548599994,
                -10.341496727999925
              ],
              [
                -77.65455661199996,
                -10.34263872799994
              ],
              [
                -77.65254298699989,
                -10.344236352999872
              ],
              [
                -77.64920436199998,
                -10.343467477999923
              ],
              [
                -77.64705986199994,
                -10.338761352999938
              ],
              [
                -77.64021286199994,
                -10.332980477999968
              ],
              [
                -77.63938711199995,
                -10.330445352999845
              ],
              [
                -77.63729011199996,
                -10.328896477999933
              ],
              [
                -77.63533786199991,
                -10.32486022799992
              ],
              [
                -77.63165573599997,
                -10.322205228999906
              ],
              [
                -77.62903948699989,
                -10.323116102999961
              ],
              [
                -77.62843998699992,
                -10.325739978999877
              ],
              [
                -77.62126823699992,
                -10.326759352999943
              ],
              [
                -77.61942723699991,
                -10.327825352999866
              ],
              [
                -77.61727611199996,
                -10.333658602999947
              ],
              [
                -77.61704098699994,
                -10.336277353999947
              ],
              [
                -77.6146792369999,
                -10.339995727999906
              ],
              [
                -77.61115823699998,
                -10.343382852999866
              ],
              [
                -77.60792961199985,
                -10.348190103999968
              ],
              [
                -77.60420611199999,
                -10.355160478999949
              ],
              [
                -77.60036323699995,
                -10.360013727999956
              ],
              [
                -77.59774211199988,
                -10.366420352999967
              ],
              [
                -77.59890386099994,
                -10.37467160299991
              ],
              [
                -77.59759311199991,
                -10.38036410399991
              ],
              [
                -77.59937298699992,
                -10.383333977999882
              ],
              [
                -77.6023754869999,
                -10.384947852999915
              ],
              [
                -77.60351098699994,
                -10.388922228999888
              ],
              [
                -77.60758911199991,
                -10.392364977999819
              ],
              [
                -77.61403348599987,
                -10.39630310299998
              ],
              [
                -77.61539611099988,
                -10.399141852999833
              ],
              [
                -77.61925686199993,
                -10.401677852999967
              ],
              [
                -77.62323123699997,
                -10.405462977999946
              ],
              [
                -77.63073436199994,
                -10.408588227999928
              ],
              [
                -77.63455586199996,
                -10.41226560399997
              ],
              [
                -77.63643061199991,
                -10.412698227999897
              ],
              [
                -77.64075673699995,
                -10.411111852999909
              ],
              [
                -77.64324223699998,
                -10.408499978999885
              ],
              [
                -77.64529936199989,
                -10.408660352999846
              ],
              [
                -77.6483769859999,
                -10.412199228999896
              ],
              [
                -77.65474486199992,
                -10.417240728999957
              ],
              [
                -77.65734061199993,
                -10.41659172899989
              ],
              [
                -77.66302536099994,
                -10.41833010299996
              ],
              [
                -77.66577673699999,
                -10.427118852999968
              ],
              [
                -77.6704634859999,
                -10.427479352999967
              ],
              [
                -77.67339598699994,
                -10.430545478999875
              ],
              [
                -77.67666373699984,
                -10.43192060299998
              ],
              [
                -77.68391998599998,
                -10.43138597799998
              ],
              [
                -77.68673611199995,
                -10.43402072899994
              ],
              [
                -77.6888309869999,
                -10.438609227999962
              ],
              [
                -77.68915573699996,
                -10.444455853999955
              ],
              [
                -77.68764648699994,
                -10.448986353999885
              ],
              [
                -77.68739361199988,
                -10.451966977999973
              ],
              [
                -77.69086911199997,
                -10.45679285299991
              ],
              [
                -77.69412086199998,
                -10.463583727999946
              ],
              [
                -77.69763198699997,
                -10.464075977999926
              ],
              [
                -77.698157112,
                -10.466504352999948
              ],
              [
                -77.70119611199988,
                -10.468581478999909
              ],
              [
                -77.70368738799988,
                -10.474817236999911
              ],
              [
                -77.70442186199989,
                -10.479470478999929
              ],
              [
                -77.70839648699996,
                -10.484914103999927
              ],
              [
                -77.70734096799993,
                -10.48905830699988
              ],
              [
                -77.7095016209999,
                -10.490875765999931
              ],
              [
                -77.71240683699995,
                -10.491654169999833
              ],
              [
                -77.70941067599995,
                -10.500400138999964
              ],
              [
                -77.71189248699994,
                -10.505065602999878
              ],
              [
                -77.71630423699992,
                -10.50306097799995
              ],
              [
                -77.72023486199998,
                -10.502741727999933
              ],
              [
                -77.72119373699991,
                -10.504078228999902
              ],
              [
                -77.72188286199992,
                -10.51188835299996
              ],
              [
                -77.724144487,
                -10.513048978999905
              ],
              [
                -77.72857611199993,
                -10.513697227999899
              ],
              [
                -77.73794236199996,
                -10.520786477999934
              ],
              [
                -77.74167073699994,
                -10.526097602999869
              ],
              [
                -77.74462411199994,
                -10.532266977999882
              ],
              [
                -77.74491948599996,
                -10.535646977999875
              ],
              [
                -77.74298336199996,
                -10.54243997799989
              ],
              [
                -77.74296393399999,
                -10.54623524699997
              ],
              [
                -77.74646220699998,
                -10.551537504999885
              ],
              [
                -77.74579737799985,
                -10.55828417299989
              ],
              [
                -77.74479473799994,
                -10.56078124399994
              ],
              [
                -77.74092225699997,
                -10.564278610999907
              ],
              [
                -77.73731650499997,
                -10.566317841999876
              ],
              [
                -77.73689946599995,
                -10.56832939799989
              ],
              [
                -77.73799798699997,
                -10.572725977999937
              ],
              [
                -77.74043061199995,
                -10.576440728999899
              ],
              [
                -77.74363436199991,
                -10.580062477999888
              ],
              [
                -77.74361511199993,
                -10.584136727999862
              ],
              [
                -77.74134798699993,
                -10.588341853999964
              ],
              [
                -77.7379232369999,
                -10.596882602999926
              ],
              [
                -77.73258648699994,
                -10.604576227999928
              ],
              [
                -77.73109761199993,
                -10.608862228999897
              ],
              [
                -77.73054036199994,
                -10.61321535299993
              ],
              [
                -77.72629186199993,
                -10.619030978999888
              ],
              [
                -77.72608198699999,
                -10.62330072899988
              ],
              [
                -77.73362198699994,
                -10.629044477999855
              ],
              [
                -77.74162698699985,
                -10.632367228999954
              ],
              [
                -77.74561323699999,
                -10.631992227999945
              ],
              [
                -77.74868398699994,
                -10.632891102999963
              ],
              [
                -77.75202711199995,
                -10.636826227999961
              ],
              [
                -77.75742486199994,
                -10.63794060299989
              ],
              [
                -77.75927061199997,
                -10.639333602999955
              ],
              [
                -77.76261373699998,
                -10.645149353999841
              ],
              [
                -77.76637473699998,
                -10.64525397899996
              ],
              [
                -77.76910998699998,
                -10.64228997899994
              ],
              [
                -77.77258386199998,
                -10.641685602999928
              ],
              [
                -77.77612561199993,
                -10.642328602999953
              ],
              [
                -77.7780061119999,
                -10.644487727999888
              ],
              [
                -77.7809374869999,
                -10.644529352999882
              ],
              [
                -77.78246361199996,
                -10.643233977999898
              ],
              [
                -77.7849362369999,
                -10.644975228999897
              ],
              [
                -77.78217386199998,
                -10.648509727999965
              ],
              [
                -77.78270748699998,
                -10.65855672899994
              ],
              [
                -77.78454336199991,
                -10.661791102999928
              ],
              [
                -77.78290836199989,
                -10.663782228999935
              ],
              [
                -77.7833958619999,
                -10.665502728999968
              ],
              [
                -77.79764998699989,
                -10.675279977999935
              ],
              [
                -77.80240061199993,
                -10.681920727999966
              ],
              [
                -77.8038106119999,
                -10.68596285399991
              ],
              [
                -77.80336361199994,
                -10.687660728999958
              ],
              [
                -77.80629036199997,
                -10.6889996029999
              ],
              [
                -77.8094121119999,
                -10.692015602999959
              ],
              [
                -77.81647848699998,
                -10.693716852999955
              ],
              [
                -77.82966798699988,
                -10.681492227999911
              ],
              [
                -77.83824023699998,
                -10.673980478999965
              ],
              [
                -77.84933986199997,
                -10.6624961039999
              ],
              [
                -77.85330661199998,
                -10.657103477999954
              ],
              [
                -77.85919548699991,
                -10.649994102999926
              ],
              [
                -77.86015811199997,
                -10.64726560399987
              ],
              [
                -77.86452923699989,
                -10.640191352999864
              ],
              [
                -77.8671327369999,
                -10.637347602999853
              ],
              [
                -77.87556248699991,
                -10.62682622799997
              ],
              [
                -77.87905261199995,
                -10.623144478999905
              ],
              [
                -77.88227923699992,
                -10.61761522799992
              ],
              [
                -77.88659211099997,
                -10.612055273999943
              ],
              [
                -77.88275263499992,
                -10.608666827999912
              ],
              [
                -77.88026173599997,
                -10.607894714999873
              ],
              [
                -77.86861376199988,
                -10.596501453999906
              ],
              [
                -77.86474496099999,
                -10.590899712999885
              ],
              [
                -77.86302117799988,
                -10.587175462999937
              ],
              [
                -77.85713556699989,
                -10.578701106999972
              ],
              [
                -77.85431867799997,
                -10.576027410999927
              ],
              [
                -77.85071990199992,
                -10.57408875599998
              ],
              [
                -77.84713438799992,
                -10.574383132999913
              ],
              [
                -77.84420750499999,
                -10.57085023499991
              ],
              [
                -77.83968843599996,
                -10.567918824999936
              ],
              [
                -77.83216904699998,
                -10.567354046999924
              ],
              [
                -77.82875705099985,
                -10.568649405999963
              ],
              [
                -77.82575520299997,
                -10.57186528699998
              ],
              [
                -77.82390623699996,
                -10.57648047899994
              ],
              [
                -77.81834885299992,
                -10.58044276499993
              ],
              [
                -77.81310348699998,
                -10.58229497799988
              ],
              [
                -77.8093261109999,
                -10.58253673199988
              ],
              [
                -77.80823337099991,
                -10.58386544599989
              ],
              [
                -77.79968336199994,
                -10.58532322799988
              ],
              [
                -77.7910978619999,
                -10.58380197799994
              ],
              [
                -77.7887147369999,
                -10.580694352999956
              ],
              [
                -77.79002118099999,
                -10.577260660999968
              ],
              [
                -77.78698257699995,
                -10.573482345999935
              ],
              [
                -77.78499611199999,
                -10.572039102999952
              ],
              [
                -77.7798986119999,
                -10.574449852999862
              ],
              [
                -77.77587148699996,
                -10.575348477999967
              ],
              [
                -77.77137648699994,
                -10.571614602999944
              ],
              [
                -77.77081248699989,
                -10.568919978999816
              ],
              [
                -77.77310311199994,
                -10.566800852999961
              ],
              [
                -77.77373098699996,
                -10.562928978999878
              ],
              [
                -77.77350848699984,
                -10.55807497799998
              ],
              [
                -77.77427398699996,
                -10.554014602999928
              ],
              [
                -77.77297598699994,
                -10.551418352999974
              ],
              [
                -77.77370811199995,
                -10.548156727999924
              ],
              [
                -77.772443362,
                -10.546259727999939
              ],
              [
                -77.77314236199999,
                -10.542166103999875
              ],
              [
                -77.77174273699995,
                -10.537761477999936
              ],
              [
                -77.77336486199994,
                -10.532372103999876
              ],
              [
                -77.77142886199988,
                -10.528029228999912
              ],
              [
                -77.77211061199989,
                -10.519167977999928
              ],
              [
                -77.77066986199998,
                -10.515671852999958
              ],
              [
                -77.772443362,
                -10.512478228999953
              ],
              [
                -77.77517261199995,
                -10.51108035399983
              ],
              [
                -77.77786836199988,
                -10.510880728999894
              ],
              [
                -77.78105623699997,
                -10.507256853999934
              ],
              [
                -77.78228011799996,
                -10.503293327999813
              ],
              [
                -77.78260623699992,
                -10.499272977999965
              ],
              [
                -77.78568623699988,
                -10.493927602999975
              ],
              [
                -77.78644136199995,
                -10.488920102999941
              ],
              [
                -77.79150848699987,
                -10.485204228999976
              ],
              [
                -77.79617773699994,
                -10.48329285299991
              ],
              [
                -77.79832298699989,
                -10.476124353999978
              ],
              [
                -77.79439873699994,
                -10.47518272799988
              ],
              [
                -77.79180648699992,
                -10.472208602999899
              ],
              [
                -77.79009761199995,
                -10.46763835299987
              ],
              [
                -77.7907481119999,
                -10.462753852999924
              ],
              [
                -77.78961911199997,
                -10.459621102999904
              ],
              [
                -77.78479098699995,
                -10.454964852999922
              ],
              [
                -77.78159373699992,
                -10.454414103999909
              ],
              [
                -77.77883198699993,
                -10.449976602999925
              ],
              [
                -77.77451586199999,
                -10.44473047799994
              ],
              [
                -77.77050486199994,
                -10.443355977999886
              ],
              [
                -77.76565636199996,
                -10.440732977999915
              ],
              [
                -77.76388773699989,
                -10.437712603999955
              ],
              [
                -77.7644697369999,
                -10.435783227999934
              ],
              [
                -77.76797536199996,
                -10.431597352999972
              ],
              [
                -77.76786198699983,
                -10.428790477999883
              ],
              [
                -77.76523636199994,
                -10.428384727999912
              ],
              [
                -77.76021161199992,
                -10.43022122799988
              ],
              [
                -77.75905669099996,
                -10.42612897499987
              ],
              [
                -77.75816248699994,
                -10.416825728999981
              ],
              [
                -77.75684361199995,
                -10.413062477999915
              ],
              [
                -77.75405748699984,
                -10.4095168529999
              ],
              [
                -77.74987161199988,
                -10.406796102999976
              ],
              [
                -77.7522784869999,
                -10.403081103999966
              ],
              [
                -77.75170286199995,
                -10.394918602999894
              ],
              [
                -77.75336523699991,
                -10.391843727999856
              ],
              [
                -77.75304486199997,
                -10.38862122799992
              ],
              [
                -77.75562298699998,
                -10.383999978999952
              ],
              [
                -77.75304573699998,
                -10.379617228999962
              ],
              [
                -77.75413861199996,
                -10.376040477999936
              ],
              [
                -77.75212661199993,
                -10.372861102999877
              ],
              [
                -77.75212886199995,
                -10.369257852999908
              ],
              [
                -77.7534431119999,
                -10.36498722899995
              ],
              [
                -77.75182861199988,
                -10.361385602999917
              ],
              [
                -77.75458573699996,
                -10.356964227999867
              ],
              [
                -77.75538473699999,
                -10.349128852999911
              ],
              [
                -77.75680473699992,
                -10.346841852999887
              ],
              [
                -77.75704098699998,
                -10.34421685299992
              ],
              [
                -77.75522661199994,
                -10.34089060399998
              ],
              [
                -77.75392961199998,
                -10.33333985299987
              ],
              [
                -77.75430273699999,
                -10.330933603999938
              ],
              [
                -77.7563554869999,
                -10.328123103999815
              ],
              [
                -77.75404298699988,
                -10.325496102999978
              ],
              [
                -77.75250745399995,
                -10.321895452999854
              ],
              [
                -77.74948048699986,
                -10.322400228999982
              ],
              [
                -77.74623986199987,
                -10.324375852999935
              ],
              [
                -77.74320948699994,
                -10.32360585299989
              ],
              [
                -77.74037998699998,
                -10.32069997799988
              ],
              [
                -77.73536048699998,
                -10.3235064779999
              ],
              [
                -77.72522073699997,
                -10.323826227999916
              ],
              [
                -77.72291598699996,
                -10.322572228999888
              ],
              [
                -77.71738473699997,
                -10.32249222899992
              ],
              [
                -77.71243361099994,
                -10.324656228999913
              ],
              [
                -77.70433998699997,
                -10.32526710299993
              ],
              [
                -77.6987517369999,
                -10.322104102999958
              ]
            ]
          ]
        ],
        "type": "MultiPolygon"
      },
      "type": "Feature",
      "properties": {
        "PROVINCIA": "BARRANCA",
        "DISTRITO": "PARAMONGA",
        "name": "PARAMONGA",
        "ID": "140902",
        "DEPARTAMEN": "LIMA"
      }
    }
  ]
}
