{
  "type": "FeatureCollection",
  "features": [
    {
      "geometry": {
        "coordinates": [
          [
            [
              [
                -78.46514261199997,
                -5.64461472399995
              ],
              [
                -78.46811686299992,
                -5.642644598999937
              ],
              [
                -78.4729653629999,
                -5.643364598999881
              ],
              [
                -78.47907673799983,
                -5.641292348999912
              ],
              [
                -78.48272261299996,
                -5.640669473999935
              ],
              [
                -78.48345611299999,
                -5.639486473999909
              ],
              [
                -78.49142211299989,
                -5.638420223999958
              ],
              [
                -78.49206061199993,
                -5.634165848999942
              ],
              [
                -78.49359648799992,
                -5.631380598999954
              ],
              [
                -78.49408886299989,
                -5.626646347999952
              ],
              [
                -78.49089998799985,
                -5.617749973999878
              ],
              [
                -78.49128698699997,
                -5.608883848999938
              ],
              [
                -78.49406598699989,
                -5.604539598999963
              ],
              [
                -78.49331861299993,
                -5.603093722999972
              ],
              [
                -78.4901448629999,
                -5.60201872399989
              ],
              [
                -78.48885998799989,
                -5.598531223999942
              ],
              [
                -78.48537398699995,
                -5.59559534899995
              ],
              [
                -78.48246798699995,
                -5.595406723999929
              ],
              [
                -78.47907048699994,
                -5.596729723999886
              ],
              [
                -78.47775348699986,
                -5.598829847999923
              ],
              [
                -78.47676011199991,
                -5.602739973999974
              ],
              [
                -78.46217873799992,
                -5.604508347999911
              ],
              [
                -78.45823511199995,
                -5.608650848999957
              ],
              [
                -78.45826673699992,
                -5.611732723999921
              ],
              [
                -78.45989286199989,
                -5.613010598999892
              ],
              [
                -78.45993198699995,
                -5.627131223999925
              ],
              [
                -78.45495586299995,
                -5.628383723999889
              ],
              [
                -78.44873436299997,
                -5.631321598999875
              ],
              [
                -78.44436911199995,
                -5.635882847999881
              ],
              [
                -78.44663061299991,
                -5.636152598999956
              ],
              [
                -78.44811873799995,
                -5.638746223999931
              ],
              [
                -78.45693998699994,
                -5.640787723999949
              ],
              [
                -78.4568453629999,
                -5.643374348999885
              ],
              [
                -78.45866961199994,
                -5.645301723999921
              ],
              [
                -78.46258961199999,
                -5.644233973999974
              ],
              [
                -78.46514261199997,
                -5.64461472399995
              ]
            ]
          ]
        ],
        "type": "MultiPolygon"
      },
      "type": "Feature",
      "properties": {
        "PROVINCIA": "BAGUA",
        "DISTRITO": "EL PARCO",
        "name": "EL PARCO",
        "ID": "010204",
        "DEPARTAMEN": "AMAZONAS"
      }
    }
  ]
}
