{
  "type": "FeatureCollection",
  "features": [
    {
      "geometry": {
        "coordinates": [
          [
            [
              [
                -78.36297661299994,
                -5.576753848999886
              ],
              [
                -78.36721748699989,
                -5.584877223999968
              ],
              [
                -78.37491261199995,
                -5.593249223999976
              ],
              [
                -78.37564461199997,
                -5.594985098999871
              ],
              [
                -78.37275861199998,
                -5.599084098999924
              ],
              [
                -78.3724453619999,
                -5.601511723999977
              ],
              [
                -78.37444573699997,
                -5.606264223999915
              ],
              [
                -78.37859336199995,
                -5.61041897399997
              ],
              [
                -78.38205311199994,
                -5.609127723999961
              ],
              [
                -78.38840998699993,
                -5.608719973999882
              ],
              [
                -78.39070998799997,
                -5.609809973999916
              ],
              [
                -78.39215998699996,
                -5.61370997399996
              ],
              [
                -78.39428998799991,
                -5.615629973999887
              ],
              [
                -78.4006899879999,
                -5.62650997399993
              ],
              [
                -78.40114998799999,
                -5.628469973999927
              ],
              [
                -78.40406448799996,
                -5.62742759899993
              ],
              [
                -78.40752536299988,
                -5.629882848999955
              ],
              [
                -78.41065623699996,
                -5.629861348999952
              ],
              [
                -78.4126953629999,
                -5.631857473999901
              ],
              [
                -78.41507223799994,
                -5.636792973999889
              ],
              [
                -78.41559173799999,
                -5.643781223999895
              ],
              [
                -78.41676748799995,
                -5.647284973999888
              ],
              [
                -78.41969923799996,
                -5.649095723999949
              ],
              [
                -78.42116211299992,
                -5.648812473999897
              ],
              [
                -78.42398823799994,
                -5.652540973999919
              ],
              [
                -78.42685936299989,
                -5.653808598999944
              ],
              [
                -78.42858198699997,
                -5.656193348999977
              ],
              [
                -78.42761523699988,
                -5.662615223999921
              ],
              [
                -78.42943561199996,
                -5.666960973999949
              ],
              [
                -78.43120311299992,
                -5.669408223999937
              ],
              [
                -78.43656248799988,
                -5.671150348999845
              ],
              [
                -78.43800198799988,
                -5.674400348999882
              ],
              [
                -78.44391011299996,
                -5.676712848999898
              ],
              [
                -78.44530873699995,
                -5.678617223999936
              ],
              [
                -78.44875786299997,
                -5.677927723999971
              ],
              [
                -78.45079686199995,
                -5.675740223999981
              ],
              [
                -78.4531582379999,
                -5.676302722999935
              ],
              [
                -78.45749411299994,
                -5.671025348999876
              ],
              [
                -78.45769923799992,
                -5.669480473999954
              ],
              [
                -78.46058011299993,
                -5.666591848999872
              ],
              [
                -78.46249611299999,
                -5.665886723999961
              ],
              [
                -78.4656562379999,
                -5.667689473999928
              ],
              [
                -78.46959073799991,
                -5.667439848999948
              ],
              [
                -78.47725136199995,
                -5.664975223999875
              ],
              [
                -78.48039136199998,
                -5.66012184899995
              ],
              [
                -78.4780299869999,
                -5.659409973999914
              ],
              [
                -78.47504011199999,
                -5.655869973999927
              ],
              [
                -78.46993998799996,
                -5.655159972999911
              ],
              [
                -78.46554448699999,
                -5.653834848999963
              ],
              [
                -78.46435361199997,
                -5.65062297399993
              ],
              [
                -78.46514261199997,
                -5.64461472399995
              ],
              [
                -78.46258961199999,
                -5.644233973999974
              ],
              [
                -78.45866961199994,
                -5.645301723999921
              ],
              [
                -78.4568453629999,
                -5.643374348999885
              ],
              [
                -78.45693998699994,
                -5.640787723999949
              ],
              [
                -78.44811873799995,
                -5.638746223999931
              ],
              [
                -78.44663061299991,
                -5.636152598999956
              ],
              [
                -78.44436911199995,
                -5.635882847999881
              ],
              [
                -78.44873436299997,
                -5.631321598999875
              ],
              [
                -78.45495586299995,
                -5.628383723999889
              ],
              [
                -78.45993198699995,
                -5.627131223999925
              ],
              [
                -78.45989286199989,
                -5.613010598999892
              ],
              [
                -78.45826673699992,
                -5.611732723999921
              ],
              [
                -78.45823511199995,
                -5.608650848999957
              ],
              [
                -78.46217873799992,
                -5.604508347999911
              ],
              [
                -78.47676011199991,
                -5.602739973999974
              ],
              [
                -78.47775348699986,
                -5.598829847999923
              ],
              [
                -78.47907048699994,
                -5.596729723999886
              ],
              [
                -78.48246798699995,
                -5.595406723999929
              ],
              [
                -78.48537398699995,
                -5.59559534899995
              ],
              [
                -78.48885998799989,
                -5.598531223999942
              ],
              [
                -78.4901448629999,
                -5.60201872399989
              ],
              [
                -78.49386548799998,
                -5.598691223999936
              ],
              [
                -78.49420998699998,
                -5.591089973999942
              ],
              [
                -78.49648986199998,
                -5.592019973999925
              ],
              [
                -78.49936998699997,
                -5.59552997399993
              ],
              [
                -78.50394998699994,
                -5.597319972999969
              ],
              [
                -78.505209988,
                -5.598639973999866
              ],
              [
                -78.5107199869999,
                -5.599999973999957
              ],
              [
                -78.51217998699991,
                -5.59919997399993
              ],
              [
                -78.51101998799999,
                -5.593749973999934
              ],
              [
                -78.50937998799998,
                -5.591049973999873
              ],
              [
                -78.50662998699988,
                -5.588659973999938
              ],
              [
                -78.50585311299994,
                -5.584293972999944
              ],
              [
                -78.50604561299997,
                -5.581469847999927
              ],
              [
                -78.50398473799999,
                -5.57591997399993
              ],
              [
                -78.50669998799992,
                -5.571989973999905
              ],
              [
                -78.51081998799992,
                -5.567859973999873
              ],
              [
                -78.51549998799999,
                -5.563989973999924
              ],
              [
                -78.51965673799992,
                -5.562223848999906
              ],
              [
                -78.52208186299998,
                -5.560408348999886
              ],
              [
                -78.52282873799993,
                -5.556570222999937
              ],
              [
                -78.52510186299997,
                -5.556371598999931
              ],
              [
                -78.5273241129999,
                -5.552208223999969
              ],
              [
                -78.52746786199998,
                -5.547115973999894
              ],
              [
                -78.52852998799995,
                -5.54564897299997
              ],
              [
                -78.53007986299991,
                -5.536019973999942
              ],
              [
                -78.5279199869999,
                -5.536069972999883
              ],
              [
                -78.52227998799992,
                -5.540119973999879
              ],
              [
                -78.51528998699996,
                -5.542199973999971
              ],
              [
                -78.51246998799996,
                -5.541279973999963
              ],
              [
                -78.50803998799995,
                -5.538399973999958
              ],
              [
                -78.50553998799995,
                -5.538929973999927
              ],
              [
                -78.50157998799995,
                -5.541119973999855
              ],
              [
                -78.50033998799995,
                -5.538449973999889
              ],
              [
                -78.49691998799995,
                -5.537889973999938
              ],
              [
                -78.49205998799988,
                -5.53558997399989
              ],
              [
                -78.48817786299998,
                -5.530475473999843
              ],
              [
                -78.48673861299989,
                -5.526301598999908
              ],
              [
                -78.48472373699997,
                -5.524862348999932
              ],
              [
                -78.48213311199993,
                -5.520976472999905
              ],
              [
                -78.47779298799992,
                -5.517408222999904
              ],
              [
                -78.4769617369999,
                -5.519415098999957
              ],
              [
                -78.47656536299996,
                -5.528349097999921
              ],
              [
                -78.47561911299994,
                -5.530629098999952
              ],
              [
                -78.4715164879999,
                -5.532965973999922
              ],
              [
                -78.46830223799998,
                -5.537140848999968
              ],
              [
                -78.4659859869999,
                -5.541234723999935
              ],
              [
                -78.45510948699996,
                -5.54517059799997
              ],
              [
                -78.44881448799998,
                -5.548908222999955
              ],
              [
                -78.4404882369999,
                -5.551503848999971
              ],
              [
                -78.4360804879999,
                -5.550729347999948
              ],
              [
                -78.4349994879999,
                -5.555511223999872
              ],
              [
                -78.43047011199997,
                -5.55722172399993
              ],
              [
                -78.42709173799994,
                -5.555664098999955
              ],
              [
                -78.42496648699995,
                -5.560939973999837
              ],
              [
                -78.4121842379999,
                -5.560859598999912
              ],
              [
                -78.40775786299992,
                -5.55866997399994
              ],
              [
                -78.40175736299994,
                -5.556626098999971
              ],
              [
                -78.39558973699997,
                -5.556568973999845
              ],
              [
                -78.38577698699993,
                -5.561615598999936
              ],
              [
                -78.38059273699997,
                -5.567813348999948
              ],
              [
                -78.37819723799993,
                -5.569771473999936
              ],
              [
                -78.37148848699997,
                -5.573196598999914
              ],
              [
                -78.36566361199993,
                -5.57525247399991
              ],
              [
                -78.36297661299994,
                -5.576753848999886
              ]
            ]
          ]
        ],
        "type": "MultiPolygon"
      },
      "type": "Feature",
      "properties": {
        "PROVINCIA": "BAGUA",
        "DISTRITO": "LA PECA",
        "name": "LA PECA",
        "ID": "010201",
        "DEPARTAMEN": "AMAZONAS"
      }
    }
  ]
}
