{
  "type": "FeatureCollection",
  "features": [
    {
      "geometry": {
        "coordinates": [
          [
            [
              [
                -78.0729647369999,
                -7.245507724999925
              ],
              [
                -78.07662186199997,
                -7.247395350999966
              ],
              [
                -78.08421386199984,
                -7.250086725999893
              ],
              [
                -78.08858398699994,
                -7.255464849999896
              ],
              [
                -78.09082036199999,
                -7.257259725999916
              ],
              [
                -78.09801561199998,
                -7.256502100999853
              ],
              [
                -78.10295311199991,
                -7.257050474999915
              ],
              [
                -78.10829998699995,
                -7.255089225999939
              ],
              [
                -78.11020573699994,
                -7.255803849999893
              ],
              [
                -78.11202498699993,
                -7.25908572499992
              ],
              [
                -78.11129086199986,
                -7.263850225999875
              ],
              [
                -78.11342573699994,
                -7.265847599999915
              ],
              [
                -78.12711898699996,
                -7.268005724999966
              ],
              [
                -78.13417448699994,
                -7.267273100999944
              ],
              [
                -78.14040598699995,
                -7.269567349999875
              ],
              [
                -78.14173336199997,
                -7.271149099999832
              ],
              [
                -78.14388873699988,
                -7.277857600999937
              ],
              [
                -78.14775786199993,
                -7.286341849999928
              ],
              [
                -78.15365386199989,
                -7.291539474999922
              ],
              [
                -78.1589472369999,
                -7.291980475999935
              ],
              [
                -78.16192436199992,
                -7.294040099999961
              ],
              [
                -78.17074598699992,
                -7.298320349999926
              ],
              [
                -78.21620898699996,
                -7.2965352249999
              ],
              [
                -78.22782823799997,
                -7.269492225999954
              ],
              [
                -78.23033198699989,
                -7.263992224999981
              ],
              [
                -78.2369498619999,
                -7.248107600999845
              ],
              [
                -78.23938986199994,
                -7.241039599999965
              ],
              [
                -78.24116398699988,
                -7.238107474999936
              ],
              [
                -78.24393748799997,
                -7.237093724999909
              ],
              [
                -78.24667573799996,
                -7.237580099999832
              ],
              [
                -78.2500117379999,
                -7.235206974999926
              ],
              [
                -78.25146873799997,
                -7.235124975999895
              ],
              [
                -78.25082611199997,
                -7.2306582249999
              ],
              [
                -78.24592973699993,
                -7.221970725999881
              ],
              [
                -78.24477536299992,
                -7.218540974999883
              ],
              [
                -78.23956248699989,
                -7.206537099999935
              ],
              [
                -78.23293086199999,
                -7.204460474999962
              ],
              [
                -78.22809461199995,
                -7.199459849999926
              ],
              [
                -78.22391961199986,
                -7.196237974999974
              ],
              [
                -78.21879261299995,
                -7.190049849999923
              ],
              [
                -78.21637936199994,
                -7.188459099999932
              ],
              [
                -78.20747948699994,
                -7.180606224999963
              ],
              [
                -78.20051236199998,
                -7.17615184999994
              ],
              [
                -78.1989013619999,
                -7.172699349999903
              ],
              [
                -78.19902036299999,
                -7.167868974999976
              ],
              [
                -78.19445598699997,
                -7.166998224999872
              ],
              [
                -78.18950511199989,
                -7.162419100999898
              ],
              [
                -78.19071548699992,
                -7.157319224999924
              ],
              [
                -78.1874389869999,
                -7.152500599999939
              ],
              [
                -78.18369448799996,
                -7.14914747499995
              ],
              [
                -78.18075636299994,
                -7.149341474999915
              ],
              [
                -78.17599211199996,
                -7.146694724999975
              ],
              [
                -78.17363173699994,
                -7.146290849999957
              ],
              [
                -78.16275786299997,
                -7.152517599999896
              ],
              [
                -78.16136111299994,
                -7.152848849999884
              ],
              [
                -78.14943111199989,
                -7.151880974999926
              ],
              [
                -78.13576023799993,
                -7.14695947599995
              ],
              [
                -78.12989311199988,
                -7.148106349999978
              ],
              [
                -78.12411423699996,
                -7.146871225999917
              ],
              [
                -78.11842348699997,
                -7.144268474999933
              ],
              [
                -78.11445323699996,
                -7.146253599999966
              ],
              [
                -78.11360198699992,
                -7.148077099999966
              ],
              [
                -78.11299973799993,
                -7.154220599999974
              ],
              [
                -78.11167473699999,
                -7.155931099999975
              ],
              [
                -78.10365573799999,
                -7.159768099999951
              ],
              [
                -78.10256786199994,
                -7.161713224999971
              ],
              [
                -78.1035313619999,
                -7.164025974999902
              ],
              [
                -78.10073723699998,
                -7.16599384999995
              ],
              [
                -78.09805073699994,
                -7.165921100999924
              ],
              [
                -78.09696648699992,
                -7.170338099999924
              ],
              [
                -78.09356948799996,
                -7.173590600999944
              ],
              [
                -78.09144936299998,
                -7.176867100999971
              ],
              [
                -78.09079886299997,
                -7.179613474999883
              ],
              [
                -78.0931342369999,
                -7.181686474999935
              ],
              [
                -78.09384648799988,
                -7.18620059999995
              ],
              [
                -78.09216986299998,
                -7.189777349999929
              ],
              [
                -78.09173136299995,
                -7.193478849999963
              ],
              [
                -78.08962848699991,
                -7.20122009999983
              ],
              [
                -78.08649361199997,
                -7.205634975999885
              ],
              [
                -78.08507973699989,
                -7.209661725999979
              ],
              [
                -78.08279936199995,
                -7.213376099999948
              ],
              [
                -78.08119511199999,
                -7.218279974999973
              ],
              [
                -78.07723398699989,
                -7.220700475999934
              ],
              [
                -78.07464411199993,
                -7.226015974999939
              ],
              [
                -78.07200336199992,
                -7.228792099999964
              ],
              [
                -78.06948111299994,
                -7.233802725999908
              ],
              [
                -78.07056448699996,
                -7.237018974999955
              ],
              [
                -78.06975973699991,
                -7.242325599999901
              ],
              [
                -78.07025798799992,
                -7.24397072499994
              ],
              [
                -78.0729647369999,
                -7.245507724999925
              ]
            ]
          ]
        ],
        "type": "MultiPolygon"
      },
      "type": "Feature",
      "properties": {
        "PROVINCIA": "SAN MARCOS",
        "DISTRITO": "GREGORIO PITA",
        "name": "GREGORIO PITA",
        "ID": "061203",
        "DEPARTAMEN": "CAJAMARCA"
      }
    }
  ]
}
