{
  "type": "FeatureCollection",
  "features": [
    {
      "geometry": {
        "coordinates": [
          [
            [
              [
                -76.89450798599995,
                -10.304328103999921
              ],
              [
                -76.89230023599998,
                -10.309478978999948
              ],
              [
                -76.89224648599998,
                -10.313805602999935
              ],
              [
                -76.89550323599997,
                -10.316452352999875
              ],
              [
                -76.8955156109999,
                -10.320412103999956
              ],
              [
                -76.89634761099984,
                -10.32449222799994
              ],
              [
                -76.89539173599997,
                -10.328436103999934
              ],
              [
                -76.89589348699991,
                -10.330275602999905
              ],
              [
                -76.90051336099998,
                -10.336237478999976
              ],
              [
                -76.90248823599995,
                -10.341126977999977
              ],
              [
                -76.90578123599994,
                -10.345373102999872
              ],
              [
                -76.90895111099991,
                -10.345761728999946
              ],
              [
                -76.91532223599995,
                -10.349908227999947
              ],
              [
                -76.92532036099993,
                -10.353076227999964
              ],
              [
                -76.93119536199993,
                -10.353845727999953
              ],
              [
                -76.9349648619999,
                -10.35362497799997
              ],
              [
                -76.93776561099992,
                -10.354863228999932
              ],
              [
                -76.9488457359999,
                -10.35588085399985
              ],
              [
                -76.95019336099995,
                -10.355376853999871
              ],
              [
                -76.9555194859999,
                -10.355958977999933
              ],
              [
                -76.95895898599991,
                -10.358523477999938
              ],
              [
                -76.96401173599992,
                -10.359169977999954
              ],
              [
                -76.96978711099996,
                -10.357037102999925
              ],
              [
                -76.97383011199997,
                -10.356769477999933
              ],
              [
                -76.97895311099995,
                -10.358400353999855
              ],
              [
                -76.98311723599994,
                -10.357318352999926
              ],
              [
                -76.98757036099988,
                -10.358437477999928
              ],
              [
                -76.9926308609999,
                -10.358732478999968
              ],
              [
                -76.99773823599998,
                -10.357995977999963
              ],
              [
                -76.99982223599994,
                -10.359681602999899
              ],
              [
                -77.00297848599996,
                -10.360589852999908
              ],
              [
                -77.00610923699992,
                -10.363591853999878
              ],
              [
                -77.01210736099989,
                -10.367921853999917
              ],
              [
                -77.01615623599997,
                -10.369956978999937
              ],
              [
                -77.01833398599996,
                -10.373630852999952
              ],
              [
                -77.02044536099993,
                -10.375415977999978
              ],
              [
                -77.02203323599997,
                -10.379537102999961
              ],
              [
                -77.02296098599999,
                -10.386093727999878
              ],
              [
                -77.02558398699995,
                -10.389529477999929
              ],
              [
                -77.02935161099992,
                -10.390283228999976
              ],
              [
                -77.03275373699995,
                -10.389765602999944
              ],
              [
                -77.04046873599998,
                -10.394154352999976
              ],
              [
                -77.04098048699996,
                -10.39535347899988
              ],
              [
                -77.05159173599998,
                -10.402914102999944
              ],
              [
                -77.06041798599989,
                -10.407999977999907
              ],
              [
                -77.06183786099996,
                -10.409988227999918
              ],
              [
                -77.06725973599993,
                -10.413921853999966
              ],
              [
                -77.06904886099994,
                -10.416523477999931
              ],
              [
                -77.07180861099994,
                -10.418429727999921
              ],
              [
                -77.07438286099995,
                -10.422290977999921
              ],
              [
                -77.07469536099995,
                -10.42402535399998
              ],
              [
                -77.07985348599993,
                -10.432216853999876
              ],
              [
                -77.08265236099999,
                -10.438298853999981
              ],
              [
                -77.08241986199994,
                -10.440623102999893
              ],
              [
                -77.08488286199997,
                -10.444177727999943
              ],
              [
                -77.08647261099998,
                -10.448533228999963
              ],
              [
                -77.08680473599998,
                -10.45167572899993
              ],
              [
                -77.08871098599997,
                -10.454158227999812
              ],
              [
                -77.09379686099999,
                -10.45826547899992
              ],
              [
                -77.09815036099985,
                -10.457802727999933
              ],
              [
                -77.10262498599997,
                -10.461722602999885
              ],
              [
                -77.10286723699994,
                -10.46386322799998
              ],
              [
                -77.10419136099989,
                -10.468083977999981
              ],
              [
                -77.10641798599994,
                -10.470456977999959
              ],
              [
                -77.11008986099989,
                -10.470658227999877
              ],
              [
                -77.11425198699999,
                -10.471714853999913
              ],
              [
                -77.11689648599997,
                -10.469763727999975
              ],
              [
                -77.12247661099991,
                -10.46838872799998
              ],
              [
                -77.12545698599996,
                -10.470302728999968
              ],
              [
                -77.13024211099992,
                -10.470289102999914
              ],
              [
                -77.14177348699997,
                -10.467238228999975
              ],
              [
                -77.14593548599998,
                -10.472206977999974
              ],
              [
                -77.14907611099994,
                -10.472023478999972
              ],
              [
                -77.15223236099996,
                -10.470412102999944
              ],
              [
                -77.15628911099998,
                -10.47208397799983
              ],
              [
                -77.16323236099998,
                -10.473826227999893
              ],
              [
                -77.16756448599995,
                -10.474220727999977
              ],
              [
                -77.17091011099996,
                -10.47616985299993
              ],
              [
                -77.17603998699991,
                -10.483099977999927
              ],
              [
                -77.17658661099995,
                -10.475594102999821
              ],
              [
                -77.17494023699999,
                -10.470524853999962
              ],
              [
                -77.17546098599996,
                -10.467398477999836
              ],
              [
                -77.17462486099998,
                -10.464601727999877
              ],
              [
                -77.1720571109999,
                -10.463013978999982
              ],
              [
                -77.16522261099993,
                -10.457383353999944
              ],
              [
                -77.15699573699999,
                -10.453491352999947
              ],
              [
                -77.15384136199998,
                -10.453281102999881
              ],
              [
                -77.15001773699998,
                -10.451093727999933
              ],
              [
                -77.14977573599992,
                -10.446131353999931
              ],
              [
                -77.14476386099994,
                -10.44385322799991
              ],
              [
                -77.14094361099995,
                -10.435301478999861
              ],
              [
                -77.13976361099992,
                -10.429976602999886
              ],
              [
                -77.13824498599996,
                -10.426469353999948
              ],
              [
                -77.13281248599998,
                -10.422894477999932
              ],
              [
                -77.12829136199997,
                -10.421212227999945
              ],
              [
                -77.12731011199998,
                -10.417777478999938
              ],
              [
                -77.12112998699996,
                -10.413117102999934
              ],
              [
                -77.1183512369999,
                -10.409908727999948
              ],
              [
                -77.11655023599991,
                -10.40635172899988
              ],
              [
                -77.11371136199995,
                -10.405931227999815
              ],
              [
                -77.1109863609999,
                -10.403341852999972
              ],
              [
                -77.11016798699995,
                -10.396458977999885
              ],
              [
                -77.11088473599995,
                -10.392089852999959
              ],
              [
                -77.10512498599996,
                -10.38736322799997
              ],
              [
                -77.09764398699997,
                -10.38019822799987
              ],
              [
                -77.09386023699989,
                -10.37591797899995
              ],
              [
                -77.09020011099983,
                -10.372630227999935
              ],
              [
                -77.08894336099996,
                -10.37050372799996
              ],
              [
                -77.08891998599995,
                -10.365515602999892
              ],
              [
                -77.0897363609999,
                -10.362093727999934
              ],
              [
                -77.08899611199996,
                -10.360136728999976
              ],
              [
                -77.08585786099991,
                -10.359851477999939
              ],
              [
                -77.08077111099993,
                -10.357680352999978
              ],
              [
                -77.07390623599991,
                -10.3477148529999
              ],
              [
                -77.07290486099993,
                -10.344867852999812
              ],
              [
                -77.07239398699994,
                -10.339430352999955
              ],
              [
                -77.07161161099998,
                -10.338103977999879
              ],
              [
                -77.06793848599989,
                -10.337015603999816
              ],
              [
                -77.06688423599996,
                -10.334736852999981
              ],
              [
                -77.0623269859999,
                -10.33463485399983
              ],
              [
                -77.05685123699999,
                -10.338477977999844
              ],
              [
                -77.05328011199992,
                -10.339838477999876
              ],
              [
                -77.04739636099993,
                -10.338784102999966
              ],
              [
                -77.04617198599988,
                -10.334634852999898
              ],
              [
                -77.04032223599984,
                -10.333444477999933
              ],
              [
                -77.03842973699994,
                -10.334066353999958
              ],
              [
                -77.03398823699996,
                -10.33254097899993
              ],
              [
                -77.0297538609999,
                -10.329394477999926
              ],
              [
                -77.02886086099983,
                -10.327730853999867
              ],
              [
                -77.02471161199998,
                -10.327526727999953
              ],
              [
                -77.02304511099993,
                -10.322051103999854
              ],
              [
                -77.01906586099994,
                -10.321166852999966
              ],
              [
                -77.01600498599998,
                -10.315317102999927
              ],
              [
                -77.01362423599988,
                -10.315589227999965
              ],
              [
                -77.0125699859999,
                -10.313820602999897
              ],
              [
                -77.01107348599999,
                -10.308106977999955
              ],
              [
                -77.00910086099992,
                -10.307766852999976
              ],
              [
                -77.0076384869999,
                -10.298209977999875
              ],
              [
                -77.00814861099991,
                -10.293516602999944
              ],
              [
                -77.00685623599992,
                -10.29052360299994
              ],
              [
                -77.00767248699998,
                -10.28654447799994
              ],
              [
                -77.00672023599992,
                -10.284231727999895
              ],
              [
                -77.00229886199998,
                -10.28191910299995
              ],
              [
                -76.99985011199993,
                -10.28334747799994
              ],
              [
                -76.99920398699993,
                -10.286170353999978
              ],
              [
                -76.99948061099991,
                -10.289892602999942
              ],
              [
                -76.99815423699994,
                -10.291392602999963
              ],
              [
                -76.9950608609999,
                -10.291835102999926
              ],
              [
                -76.99102873599998,
                -10.29400872799988
              ],
              [
                -76.98985161099989,
                -10.295853478999959
              ],
              [
                -76.98529473699989,
                -10.295927852999966
              ],
              [
                -76.98291586099998,
                -10.297094977999905
              ],
              [
                -76.97991011099998,
                -10.297062352999944
              ],
              [
                -76.97712398599992,
                -10.299917102999814
              ],
              [
                -76.97484923699994,
                -10.303828352999972
              ],
              [
                -76.97077648599992,
                -10.303492477999953
              ],
              [
                -76.96545148599995,
                -10.305378602999951
              ],
              [
                -76.96148211099995,
                -10.300509227999953
              ],
              [
                -76.96226761099996,
                -10.297206977999906
              ],
              [
                -76.95720911099994,
                -10.295267352999929
              ],
              [
                -76.95330148599999,
                -10.293106977999969
              ],
              [
                -76.95115711099993,
                -10.2889293529999
              ],
              [
                -76.94292886199992,
                -10.287515602999974
              ],
              [
                -76.93782811099993,
                -10.283206978999942
              ],
              [
                -76.93811586099986,
                -10.279700477999882
              ],
              [
                -76.93074536099994,
                -10.2767777279999
              ],
              [
                -76.92218773699994,
                -10.276025852999965
              ],
              [
                -76.92085948599998,
                -10.275425728999949
              ],
              [
                -76.91683986099991,
                -10.278080102999922
              ],
              [
                -76.91182961099997,
                -10.277502603999835
              ],
              [
                -76.90624611099992,
                -10.274185602999921
              ],
              [
                -76.9007948609999,
                -10.285320352999975
              ],
              [
                -76.89557611099997,
                -10.287320353999917
              ],
              [
                -76.89261723599998,
                -10.290886727999862
              ],
              [
                -76.89102348599994,
                -10.294744102999971
              ],
              [
                -76.8925313609999,
                -10.29715035299995
              ],
              [
                -76.89450798599995,
                -10.304328103999921
              ]
            ]
          ]
        ],
        "type": "MultiPolygon"
      },
      "type": "Feature",
      "properties": {
        "PROVINCIA": "CAJATAMBO",
        "DISTRITO": "COPA",
        "name": "COPA",
        "ID": "140205",
        "DEPARTAMEN": "LIMA"
      }
    }
  ]
}
