{
  "type": "FeatureCollection",
  "features": [
    {
      "geometry": {
        "coordinates": [
          [
            [
              [
                -77.38259473699992,
                -9.370572351999954
              ],
              [
                -77.3844879859999,
                -9.37174435199995
              ],
              [
                -77.38699373699995,
                -9.376604727999961
              ],
              [
                -77.38999536099993,
                -9.379225477999967
              ],
              [
                -77.39178286199996,
                -9.384286476999932
              ],
              [
                -77.40049323599999,
                -9.387864476999937
              ],
              [
                -77.40589798699989,
                -9.39268097699994
              ],
              [
                -77.40785898599995,
                -9.397081351999873
              ],
              [
                -77.41059873699999,
                -9.399923852999962
              ],
              [
                -77.4125032359999,
                -9.403732851999905
              ],
              [
                -77.41871973599996,
                -9.40891722699996
              ],
              [
                -77.42256611199997,
                -9.40945310199993
              ],
              [
                -77.4308032369999,
                -9.409762476999902
              ],
              [
                -77.43489686199996,
                -9.408725226999877
              ],
              [
                -77.44783186199993,
                -9.41094685299987
              ],
              [
                -77.45037261199985,
                -9.410970976999977
              ],
              [
                -77.45378548699995,
                -9.414482851999935
              ],
              [
                -77.45588198599995,
                -9.418620602999908
              ],
              [
                -77.4564062369999,
                -9.422158476999925
              ],
              [
                -77.45556636199996,
                -9.424854976999882
              ],
              [
                -77.45700523699992,
                -9.426407601999927
              ],
              [
                -77.46031848599995,
                -9.43258485299998
              ],
              [
                -77.46702986199989,
                -9.436960351999915
              ],
              [
                -77.46983261199989,
                -9.43661422699995
              ],
              [
                -77.47365498599999,
                -9.43775872699996
              ],
              [
                -77.47663373699993,
                -9.434956101999887
              ],
              [
                -77.48242111199988,
                -9.431580477999944
              ],
              [
                -77.48894586099993,
                -9.427184476999912
              ],
              [
                -77.49449211199999,
                -9.424535101999822
              ],
              [
                -77.49635736199997,
                -9.420681601999945
              ],
              [
                -77.49999811099991,
                -9.415685602999929
              ],
              [
                -77.50223436099992,
                -9.414033226999948
              ],
              [
                -77.50594336199998,
                -9.413447227999882
              ],
              [
                -77.51198236199986,
                -9.41417185299997
              ],
              [
                -77.51497073699994,
                -9.41600197699995
              ],
              [
                -77.51794336199993,
                -9.420617227999912
              ],
              [
                -77.52714061099994,
                -9.426226601999872
              ],
              [
                -77.5304141119999,
                -9.42602147699995
              ],
              [
                -77.5347714859999,
                -9.429406226999959
              ],
              [
                -77.53856836099999,
                -9.431078102999948
              ],
              [
                -77.54130073699997,
                -9.433652352999957
              ],
              [
                -77.54143361199993,
                -9.436986351999906
              ],
              [
                -77.54032223699983,
                -9.439396477999935
              ],
              [
                -77.54220111199993,
                -9.443558601999882
              ],
              [
                -77.54395311199994,
                -9.444195352999884
              ],
              [
                -77.54833011199997,
                -9.442900351999981
              ],
              [
                -77.55040236199994,
                -9.441384726999956
              ],
              [
                -77.54824611199996,
                -9.436374976999957
              ],
              [
                -77.54915423699998,
                -9.430080101999977
              ],
              [
                -77.5526132359999,
                -9.42644922799991
              ],
              [
                -77.55399411199994,
                -9.422335977999921
              ],
              [
                -77.55609961199997,
                -9.42026947699992
              ],
              [
                -77.56486523699988,
                -9.41694535199997
              ],
              [
                -77.56661723699989,
                -9.415115352999976
              ],
              [
                -77.5702254869999,
                -9.414164851999942
              ],
              [
                -77.5716371119999,
                -9.412358726999969
              ],
              [
                -77.57041223699991,
                -9.41025160199996
              ],
              [
                -77.56981636199998,
                -9.404718727999978
              ],
              [
                -77.57184761199994,
                -9.401341851999973
              ],
              [
                -77.57430661099988,
                -9.399128852999922
              ],
              [
                -77.57805011099992,
                -9.392459227999893
              ],
              [
                -77.58087473599988,
                -9.392252351999844
              ],
              [
                -77.58166411199983,
                -9.391479101999892
              ],
              [
                -77.58493748699993,
                -9.37529497699984
              ],
              [
                -77.57639761199988,
                -9.374120976999961
              ],
              [
                -77.57358811199998,
                -9.374169476999953
              ],
              [
                -77.57046961199995,
                -9.375525351999954
              ],
              [
                -77.56783186199993,
                -9.379221602999905
              ],
              [
                -77.566718112,
                -9.379198601999974
              ],
              [
                -77.56097073699988,
                -9.378917352999963
              ],
              [
                -77.55370136199997,
                -9.381777477999833
              ],
              [
                -77.54969948599995,
                -9.385145852999926
              ],
              [
                -77.54228911199993,
                -9.386591851999981
              ],
              [
                -77.54016798699996,
                -9.384790977999955
              ],
              [
                -77.53837498699983,
                -9.37950785199996
              ],
              [
                -77.53366573699998,
                -9.37491522699986
              ],
              [
                -77.53000511199997,
                -9.372714726999959
              ],
              [
                -77.52599411199992,
                -9.373333976999959
              ],
              [
                -77.51340511199999,
                -9.37324935199996
              ],
              [
                -77.51036311199988,
                -9.369017602999918
              ],
              [
                -77.50521848699992,
                -9.36839535199988
              ],
              [
                -77.49767148699988,
                -9.368744352999954
              ],
              [
                -77.49250223699994,
                -9.368451602999926
              ],
              [
                -77.48763786199999,
                -9.369922226999904
              ],
              [
                -77.48301361199998,
                -9.370140351999908
              ],
              [
                -77.4814647369999,
                -9.369205602999955
              ],
              [
                -77.47817211099988,
                -9.364506476999964
              ],
              [
                -77.47603236199996,
                -9.36369085299998
              ],
              [
                -77.47136498699996,
                -9.365272101999835
              ],
              [
                -77.46847011199998,
                -9.367335602999958
              ],
              [
                -77.46500811199996,
                -9.36698872799991
              ],
              [
                -77.46202873699997,
                -9.36431635199989
              ],
              [
                -77.45476586199999,
                -9.360659226999815
              ],
              [
                -77.45346873699998,
                -9.358156226999938
              ],
              [
                -77.44999623699988,
                -9.357925727999941
              ],
              [
                -77.44565323699999,
                -9.35584072699993
              ],
              [
                -77.44338561199993,
                -9.350879476999921
              ],
              [
                -77.43932798599997,
                -9.35370960199998
              ],
              [
                -77.43423048699998,
                -9.355175852999878
              ],
              [
                -77.42930711199995,
                -9.353677601999891
              ],
              [
                -77.41547461199991,
                -9.355769477999957
              ],
              [
                -77.40829948599992,
                -9.350973101999955
              ],
              [
                -77.40209173699992,
                -9.347337852999829
              ],
              [
                -77.39763673699997,
                -9.346607476999964
              ],
              [
                -77.39683698599998,
                -9.34822347699992
              ],
              [
                -77.39830811199994,
                -9.350234477999948
              ],
              [
                -77.39852398699998,
                -9.356078476999869
              ],
              [
                -77.39740386199998,
                -9.357819352999854
              ],
              [
                -77.38259473699992,
                -9.370572351999954
              ]
            ]
          ]
        ],
        "type": "MultiPolygon"
      },
      "type": "Feature",
      "properties": {
        "PROVINCIA": "HUARAZ",
        "DISTRITO": "TARICA",
        "name": "TARICA",
        "ID": "020112",
        "DEPARTAMEN": "ANCASH"
      }
    }
  ]
}
