{
  "type": "FeatureCollection",
  "features": [
    {
      "geometry": {
        "coordinates": [
          [
            [
              [
                -71.70536798099988,
                -16.54148860899994
              ],
              [
                -71.70394898099988,
                -16.546529733999932
              ],
              [
                -71.69900498099992,
                -16.55146985899995
              ],
              [
                -71.69985198099994,
                -16.558868358999973
              ],
              [
                -71.69760135599995,
                -16.56090548399993
              ],
              [
                -71.68737035699996,
                -16.56673048399989
              ],
              [
                -71.68678285599992,
                -16.568798108999886
              ],
              [
                -71.69356535599997,
                -16.578117358999975
              ],
              [
                -71.69377135599996,
                -16.58008573399991
              ],
              [
                -71.69670110599998,
                -16.58491710899989
              ],
              [
                -71.6998443569999,
                -16.586233108999977
              ],
              [
                -71.69925685599998,
                -16.58850098399995
              ],
              [
                -71.69545748199994,
                -16.59055135899996
              ],
              [
                -71.69281773099993,
                -16.593185608999875
              ],
              [
                -71.69055173099991,
                -16.592599858999904
              ],
              [
                -71.6847687309999,
                -16.595014608999975
              ],
              [
                -71.68003848199993,
                -16.599052483999913
              ],
              [
                -71.67760473099992,
                -16.599052483999913
              ],
              [
                -71.66735073099989,
                -16.59448810899994
              ],
              [
                -71.66357423099998,
                -16.58916285899994
              ],
              [
                -71.66194148099999,
                -16.588985483999977
              ],
              [
                -71.6590499809999,
                -16.586288483999965
              ],
              [
                -71.65290073099999,
                -16.584440233999885
              ],
              [
                -71.64820860599997,
                -16.584291483999948
              ],
              [
                -71.64201360699997,
                -16.584840733999897
              ],
              [
                -71.63884735699997,
                -16.58790973399988
              ],
              [
                -71.63603973099993,
                -16.58765035999994
              ],
              [
                -71.63130948099996,
                -16.588533233999954
              ],
              [
                -71.62792973099994,
                -16.586038608999957
              ],
              [
                -71.6253357309999,
                -16.586818733999962
              ],
              [
                -71.62423698099991,
                -16.59018323399988
              ],
              [
                -71.62494660599992,
                -16.59567648399991
              ],
              [
                -71.63058473099994,
                -16.59740060899992
              ],
              [
                -71.63244623099996,
                -16.599218358999963
              ],
              [
                -71.63311773099991,
                -16.608373608999955
              ],
              [
                -71.63591760699995,
                -16.61039548399998
              ],
              [
                -71.63777160699988,
                -16.61546710899995
              ],
              [
                -71.63799285599998,
                -16.619508733999965
              ],
              [
                -71.63721460599999,
                -16.62164873499995
              ],
              [
                -71.63914485599992,
                -16.62419323399996
              ],
              [
                -71.6429901059999,
                -16.626308483999935
              ],
              [
                -71.64514923099995,
                -16.626422858999945
              ],
              [
                -71.64753723099994,
                -16.624740733999943
              ],
              [
                -71.64949035699988,
                -16.624910358999955
              ],
              [
                -71.65572360599992,
                -16.630979483999965
              ],
              [
                -71.66091160699995,
                -16.63438410899994
              ],
              [
                -71.66440585599997,
                -16.634342233999917
              ],
              [
                -71.66963948099993,
                -16.63578798399982
              ],
              [
                -71.66635898099997,
                -16.641874358999814
              ],
              [
                -71.66688535599985,
                -16.645505858999968
              ],
              [
                -71.66915135599993,
                -16.647838608999905
              ],
              [
                -71.67004398199998,
                -16.652339984999855
              ],
              [
                -71.66876235599989,
                -16.65470123499989
              ],
              [
                -71.66870123099989,
                -16.657323858999916
              ],
              [
                -71.67499548099994,
                -16.65866273399996
              ],
              [
                -71.67339323099998,
                -16.67002873399997
              ],
              [
                -71.67470548099993,
                -16.671775858999922
              ],
              [
                -71.67113498199984,
                -16.681482483999957
              ],
              [
                -71.66946410599996,
                -16.68862910899992
              ],
              [
                -71.66956323099998,
                -16.694919608999953
              ],
              [
                -71.6705627309999,
                -16.696729608999874
              ],
              [
                -71.66918948099988,
                -16.699890108999966
              ],
              [
                -71.66697698099995,
                -16.7016334839999
              ],
              [
                -71.67094423099996,
                -16.705694233999964
              ],
              [
                -71.67287448099995,
                -16.705694233999964
              ],
              [
                -71.67455285699992,
                -16.703676233999886
              ],
              [
                -71.68024448099993,
                -16.70236585899994
              ],
              [
                -71.68616485699988,
                -16.702743483999882
              ],
              [
                -71.69158935699988,
                -16.700601608999875
              ],
              [
                -71.69902035699994,
                -16.69896310899992
              ],
              [
                -71.70300298099994,
                -16.69858735899993
              ],
              [
                -71.71035760599989,
                -16.699279733999845
              ],
              [
                -71.72447210599995,
                -16.699655483999948
              ],
              [
                -71.73442835699996,
                -16.700538608999977
              ],
              [
                -71.73908998099995,
                -16.700035109999817
              ],
              [
                -71.74439998199989,
                -16.698142983999844
              ],
              [
                -71.74800873099997,
                -16.698228858999926
              ],
              [
                -71.75480648099995,
                -16.7010249839999
              ],
              [
                -71.76523585699994,
                -16.708244358999934
              ],
              [
                -71.86950698099992,
                -16.785982109999964
              ],
              [
                -71.86978910599993,
                -16.77419085899993
              ],
              [
                -71.86932373099995,
                -16.766155233999882
              ],
              [
                -71.86946110599996,
                -16.75704585899996
              ],
              [
                -71.87007898099995,
                -16.743287983999835
              ],
              [
                -71.86994935599995,
                -16.734741234999944
              ],
              [
                -71.87072748099996,
                -16.71343423399992
              ],
              [
                -71.88351448099996,
                -16.700956358999917
              ],
              [
                -71.89698023199998,
                -16.688247609999905
              ],
              [
                -71.90514373199994,
                -16.679706609999926
              ],
              [
                -71.90996548199996,
                -16.675044983999953
              ],
              [
                -71.90017698099996,
                -16.662378358999888
              ],
              [
                -71.89053348099992,
                -16.648643483999876
              ],
              [
                -71.88652035599995,
                -16.64224810899998
              ],
              [
                -71.87610623199998,
                -16.628593483999964
              ],
              [
                -71.87317660699989,
                -16.625579858999856
              ],
              [
                -71.91726685599991,
                -16.603282983999918
              ],
              [
                -71.91700748199997,
                -16.59758760899996
              ],
              [
                -71.91548923199991,
                -16.59133335899992
              ],
              [
                -71.91289523099988,
                -16.587989858999947
              ],
              [
                -71.91027835599988,
                -16.583320483999955
              ],
              [
                -71.90860748099993,
                -16.58161160899988
              ],
              [
                -71.90227510699992,
                -16.57768823399988
              ],
              [
                -71.90058135599986,
                -16.57530398399996
              ],
              [
                -71.89610285699996,
                -16.566709483999944
              ],
              [
                -71.89529423199991,
                -16.5508994839999
              ],
              [
                -71.89315798099989,
                -16.52600860899986
              ],
              [
                -71.8917999819999,
                -16.512910858999874
              ],
              [
                -71.89135748099989,
                -16.505554233999874
              ],
              [
                -71.89199073099996,
                -16.498416858999974
              ],
              [
                -71.89086910599997,
                -16.49131773399995
              ],
              [
                -71.88925935599991,
                -16.48485185899989
              ],
              [
                -71.88688660699995,
                -16.482395233999853
              ],
              [
                -71.88377385699982,
                -16.481002858999943
              ],
              [
                -71.88034060599995,
                -16.482477233999873
              ],
              [
                -71.87779998199989,
                -16.482559233999893
              ],
              [
                -71.87722785699998,
                -16.480266608999955
              ],
              [
                -71.87944035699991,
                -16.4766636089999
              ],
              [
                -71.87837223199989,
                -16.473634733999916
              ],
              [
                -71.87260435699989,
                -16.468547858999955
              ],
              [
                -71.86937710599994,
                -16.46416285899994
              ],
              [
                -71.86424260699994,
                -16.453403358999935
              ],
              [
                -71.85911560599999,
                -16.445209483999918
              ],
              [
                -71.85861973199991,
                -16.43775935899987
              ],
              [
                -71.85944348199996,
                -16.433704358999933
              ],
              [
                -71.86119848199996,
                -16.430694608999943
              ],
              [
                -71.85890960699999,
                -16.424398483999937
              ],
              [
                -71.85865023199995,
                -16.419921858999885
              ],
              [
                -71.86013035699995,
                -16.41582685899982
              ],
              [
                -71.85985560599994,
                -16.409198733999858
              ],
              [
                -71.85766598199996,
                -16.406217608999953
              ],
              [
                -71.85557560699993,
                -16.405521358999977
              ],
              [
                -71.8476714819999,
                -16.405288733999896
              ],
              [
                -71.8403549809999,
                -16.40231510899997
              ],
              [
                -71.83713535599998,
                -16.403148483999928
              ],
              [
                -71.83052823199989,
                -16.398488983999925
              ],
              [
                -71.82408148099984,
                -16.397909108999954
              ],
              [
                -71.8208771059999,
                -16.398569108999936
              ],
              [
                -71.81450648199996,
                -16.397668858999964
              ],
              [
                -71.80773160699982,
                -16.395763358999943
              ],
              [
                -71.80550385599997,
                -16.39380460899997
              ],
              [
                -71.79936223099992,
                -16.39375110899988
              ],
              [
                -71.79740910699996,
                -16.393062608999855
              ],
              [
                -71.78713223099993,
                -16.39714048399992
              ],
              [
                -71.78326410599988,
                -16.396556858999872
              ],
              [
                -71.78141785599996,
                -16.397298858999875
              ],
              [
                -71.77961735599996,
                -16.40021135799998
              ],
              [
                -71.77394873099996,
                -16.400423108999917
              ],
              [
                -71.76960760699995,
                -16.40227698399991
              ],
              [
                -71.76892085599991,
                -16.40370560899993
              ],
              [
                -71.77204135699998,
                -16.41074760899994
              ],
              [
                -71.7719878559999,
                -16.414295233999837
              ],
              [
                -71.76898960599982,
                -16.41572173399993
              ],
              [
                -71.77135473099992,
                -16.422290858999872
              ],
              [
                -71.76886748099992,
                -16.428911233999827
              ],
              [
                -71.7653732309999,
                -16.430870108999898
              ],
              [
                -71.76161198199992,
                -16.426898983999934
              ],
              [
                -71.75785060699991,
                -16.426845608999884
              ],
              [
                -71.75228885699983,
                -16.42981148399997
              ],
              [
                -71.74333948099991,
                -16.430023233999975
              ],
              [
                -71.73947910599998,
                -16.431610108999905
              ],
              [
                -71.73937223099995,
                -16.435529733999942
              ],
              [
                -71.73664860699989,
                -16.438054983999905
              ],
              [
                -71.73702998099992,
                -16.44049260899982
              ],
              [
                -71.73983760699997,
                -16.440265608999937
              ],
              [
                -71.74225610599996,
                -16.44200898399987
              ],
              [
                -71.74506373099985,
                -16.447843608999904
              ],
              [
                -71.74695585599989,
                -16.449056608999967
              ],
              [
                -71.74983973099995,
                -16.453754483999944
              ],
              [
                -71.75036623099999,
                -16.45807460899988
              ],
              [
                -71.75408173099993,
                -16.45966535899987
              ],
              [
                -71.75908660699997,
                -16.459363983999822
              ],
              [
                -71.7630233559999,
                -16.461864483999932
              ],
              [
                -71.7643127309999,
                -16.465501733999872
              ],
              [
                -71.76556398199989,
                -16.474786733999963
              ],
              [
                -71.76549535699996,
                -16.4777049839999
              ],
              [
                -71.76717373099996,
                -16.480583233999937
              ],
              [
                -71.77612310599994,
                -16.48493385899991
              ],
              [
                -71.77633673099996,
                -16.485837983999943
              ],
              [
                -71.77146910599998,
                -16.492299983999942
              ],
              [
                -71.76549535699996,
                -16.49751285899987
              ],
              [
                -71.76187898099988,
                -16.498695358999896
              ],
              [
                -71.75506585599999,
                -16.506687108999927
              ],
              [
                -71.74958023199997,
                -16.509954483999877
              ],
              [
                -71.74122623199992,
                -16.509996358999956
              ],
              [
                -71.73612210599987,
                -16.515796483999907
              ],
              [
                -71.72770685599983,
                -16.522060358999852
              ],
              [
                -71.72356410699996,
                -16.523601483999983
              ],
              [
                -71.72074123099992,
                -16.52341273399992
              ],
              [
                -71.71843723099988,
                -16.524967233999917
              ],
              [
                -71.71525573199989,
                -16.53218273399989
              ],
              [
                -71.70722198099998,
                -16.538463608999905
              ],
              [
                -71.70536798099988,
                -16.54148860899994
              ]
            ]
          ]
        ],
        "type": "MultiPolygon"
      },
      "type": "Feature",
      "properties": {
        "PROVINCIA": "AREQUIPA",
        "DISTRITO": "LA JOYA",
        "name": "LA JOYA",
        "ID": "040106",
        "DEPARTAMEN": "AREQUIPA"
      }
    }
  ]
}
