{
  "type": "FeatureCollection",
  "features": [
    {
      "geometry": {
        "coordinates": [
          [
            [
              [
                -71.56109623099991,
                -16.4940891089999
              ],
              [
                -71.55638123099988,
                -16.496478983999964
              ],
              [
                -71.55284123199988,
                -16.497261108999908
              ],
              [
                -71.54820248099998,
                -16.494228233999877
              ],
              [
                -71.54581448099998,
                -16.49404523399994
              ],
              [
                -71.54209135699995,
                -16.502727483999934
              ],
              [
                -71.53938298099996,
                -16.50534635899993
              ],
              [
                -71.52883910599991,
                -16.50492673399998
              ],
              [
                -71.52440648099997,
                -16.508041358999947
              ],
              [
                -71.52053835699985,
                -16.506771108999942
              ],
              [
                -71.52052310599998,
                -16.503335983999932
              ],
              [
                -71.51705173099992,
                -16.501783358999887
              ],
              [
                -71.51663210599992,
                -16.50599485899994
              ],
              [
                -71.51343535599995,
                -16.50653260899992
              ],
              [
                -71.51014710599992,
                -16.51281548399993
              ],
              [
                -71.50468448099991,
                -16.51478198399991
              ],
              [
                -71.50269323099991,
                -16.516298233999862
              ],
              [
                -71.49654385599996,
                -16.517713608999884
              ],
              [
                -71.49288923099994,
                -16.519670483999903
              ],
              [
                -71.49370573099998,
                -16.52352910899998
              ],
              [
                -71.49018110599985,
                -16.524831733999918
              ],
              [
                -71.48989873099993,
                -16.535940108999853
              ],
              [
                -71.48781585599988,
                -16.537776983999947
              ],
              [
                -71.48054510599997,
                -16.539762483999937
              ],
              [
                -71.4759673559999,
                -16.542655983999964
              ],
              [
                -71.47413635599986,
                -16.546483983999963
              ],
              [
                -71.46933748099997,
                -16.54989048399983
              ],
              [
                -71.46833785599995,
                -16.553861608999966
              ],
              [
                -71.4652176059999,
                -16.554574983999828
              ],
              [
                -71.46249385599998,
                -16.55802148399988
              ],
              [
                -71.46080785599997,
                -16.558525108999902
              ],
              [
                -71.45742798099985,
                -16.561569233999876
              ],
              [
                -71.45530698099986,
                -16.561616858999912
              ],
              [
                -71.45349123099999,
                -16.563604358999953
              ],
              [
                -71.44918823099994,
                -16.565175858999964
              ],
              [
                -71.43869035599988,
                -16.56456760899988
              ],
              [
                -71.43528748099999,
                -16.56523898399996
              ],
              [
                -71.43179323099997,
                -16.563861733999943
              ],
              [
                -71.42771135599992,
                -16.565303858999982
              ],
              [
                -71.42452998099986,
                -16.567442108999956
              ],
              [
                -71.42201235599998,
                -16.566596983999943
              ],
              [
                -71.41812123099993,
                -16.568191483999897
              ],
              [
                -71.41571810699998,
                -16.57019423399987
              ],
              [
                -71.40977473099997,
                -16.571712483999818
              ],
              [
                -71.40543360599997,
                -16.56862073399998
              ],
              [
                -71.40167235599989,
                -16.568813358999932
              ],
              [
                -71.40406798099997,
                -16.574994983999886
              ],
              [
                -71.40459448099989,
                -16.581687858999885
              ],
              [
                -71.40534973099994,
                -16.585176483999874
              ],
              [
                -71.40438085599999,
                -16.590103108999926
              ],
              [
                -71.40467835599992,
                -16.595420858999887
              ],
              [
                -71.4065093559999,
                -16.599660858999982
              ],
              [
                -71.40867610599986,
                -16.601720858999897
              ],
              [
                -71.41242223099994,
                -16.60326960899988
              ],
              [
                -71.41774748099994,
                -16.603330608999954
              ],
              [
                -71.42339323099986,
                -16.606220233999863
              ],
              [
                -71.42454523099997,
                -16.607952108999882
              ],
              [
                -71.42395023099994,
                -16.612663233999967
              ],
              [
                -71.42524723099996,
                -16.61745260899994
              ],
              [
                -71.4289093559999,
                -16.62068935899987
              ],
              [
                -71.43082423099997,
                -16.623807858999953
              ],
              [
                -71.43721773099998,
                -16.628526733999877
              ],
              [
                -71.43917848099994,
                -16.629127483999923
              ],
              [
                -71.44220735599993,
                -16.631740608999962
              ],
              [
                -71.44629673099996,
                -16.632940109999822
              ],
              [
                -71.44703673099991,
                -16.635128108999936
              ],
              [
                -71.44403835599991,
                -16.642768858999943
              ],
              [
                -71.44818873099996,
                -16.648263983999925
              ],
              [
                -71.45326235599998,
                -16.648498358999973
              ],
              [
                -71.45483398099998,
                -16.65155223399995
              ],
              [
                -71.4571228559999,
                -16.65341373399997
              ],
              [
                -71.46013635599996,
                -16.653825733999952
              ],
              [
                -71.46366885599991,
                -16.657606108999914
              ],
              [
                -71.46340948099987,
                -16.660083733999954
              ],
              [
                -71.46732335599995,
                -16.662078859999895
              ],
              [
                -71.47076423099992,
                -16.665111483999908
              ],
              [
                -71.47093198099992,
                -16.66878510899994
              ],
              [
                -71.47521210699995,
                -16.678417233999937
              ],
              [
                -71.4821319809999,
                -16.684284234999893
              ],
              [
                -71.48154448199995,
                -16.690072983999926
              ],
              [
                -71.47805023099994,
                -16.696773483999948
              ],
              [
                -71.47695923099991,
                -16.701518983999847
              ],
              [
                -71.47470860599998,
                -16.704923608999877
              ],
              [
                -71.47476960599994,
                -16.708423484999912
              ],
              [
                -71.47698973099995,
                -16.713966358999812
              ],
              [
                -71.47957610599991,
                -16.718248358999972
              ],
              [
                -71.48307798099995,
                -16.72702985899997
              ],
              [
                -71.48281098099994,
                -16.731288858999903
              ],
              [
                -71.47940060599996,
                -16.736505483999963
              ],
              [
                -71.47760010599984,
                -16.74041748399992
              ],
              [
                -71.47753148099991,
                -16.748220483999944
              ],
              [
                -71.4791564809999,
                -16.760547733999886
              ],
              [
                -71.48122410599984,
                -16.763805358999946
              ],
              [
                -71.49079135599999,
                -16.76673123399985
              ],
              [
                -71.49268335699992,
                -16.767856609999967
              ],
              [
                -71.50061798099989,
                -16.766618733999962
              ],
              [
                -71.5031814809999,
                -16.764871608999897
              ],
              [
                -71.50469210599994,
                -16.762302358999932
              ],
              [
                -71.50777435599997,
                -16.75921635899988
              ],
              [
                -71.51029210699994,
                -16.758659358999978
              ],
              [
                -71.51268773099997,
                -16.75391385899991
              ],
              [
                -71.5149002309999,
                -16.751367608999885
              ],
              [
                -71.51285548099992,
                -16.74504285899991
              ],
              [
                -71.51581573099998,
                -16.740169483999978
              ],
              [
                -71.52317810599993,
                -16.73525810899997
              ],
              [
                -71.52844235599997,
                -16.734682108999834
              ],
              [
                -71.52983860599994,
                -16.733045608999873
              ],
              [
                -71.53134160599996,
                -16.7285996089999
              ],
              [
                -71.5309601059999,
                -16.72228810999991
              ],
              [
                -71.52985373099995,
                -16.717809733999957
              ],
              [
                -71.5306014819999,
                -16.713235983999937
              ],
              [
                -71.53383635699993,
                -16.71105760899991
              ],
              [
                -71.53472135599998,
                -16.709077858999876
              ],
              [
                -71.53547673099996,
                -16.70075610899994
              ],
              [
                -71.53725423099996,
                -16.698114359999977
              ],
              [
                -71.54070285599983,
                -16.695396483999957
              ],
              [
                -71.54512023099994,
                -16.6893081099999
              ],
              [
                -71.55464935599991,
                -16.684278483999947
              ],
              [
                -71.55973048199996,
                -16.68928723399995
              ],
              [
                -71.56524660599996,
                -16.695646233999923
              ],
              [
                -71.56915285599996,
                -16.69726748399995
              ],
              [
                -71.57155610599983,
                -16.699491484999953
              ],
              [
                -71.57372285599996,
                -16.699302733999957
              ],
              [
                -71.57484435599986,
                -16.69595723499998
              ],
              [
                -71.58151248099995,
                -16.692958858999873
              ],
              [
                -71.58384723099994,
                -16.691095358999974
              ],
              [
                -71.59368898099996,
                -16.686580609999908
              ],
              [
                -71.5987701059999,
                -16.68780523399988
              ],
              [
                -71.60353848099999,
                -16.68593785899992
              ],
              [
                -71.60655973099995,
                -16.68316835899992
              ],
              [
                -71.6093673559999,
                -16.683978983999964
              ],
              [
                -71.61228185599992,
                -16.683135983999932
              ],
              [
                -71.61572273099995,
                -16.683298108999907
              ],
              [
                -71.6203689809999,
                -16.681907608999893
              ],
              [
                -71.62873073099996,
                -16.68368335899993
              ],
              [
                -71.63172910699996,
                -16.689500858999963
              ],
              [
                -71.63256073099996,
                -16.692893983999966
              ],
              [
                -71.63782498199993,
                -16.69891735899995
              ],
              [
                -71.63882448099997,
                -16.704437233999897
              ],
              [
                -71.64132685599998,
                -16.70476160999982
              ],
              [
                -71.64119723099998,
                -16.701345483999944
              ],
              [
                -71.64678198099995,
                -16.695699733999902
              ],
              [
                -71.64932248099984,
                -16.694950108999876
              ],
              [
                -71.65212248099988,
                -16.69618223499998
              ],
              [
                -71.65324398099995,
                -16.698385233999886
              ],
              [
                -71.65964510599997,
                -16.70120235899992
              ],
              [
                -71.66697698099995,
                -16.7016334839999
              ],
              [
                -71.66918948099988,
                -16.699890108999966
              ],
              [
                -71.6705627309999,
                -16.696729608999874
              ],
              [
                -71.66956323099998,
                -16.694919608999953
              ],
              [
                -71.66946410599996,
                -16.68862910899992
              ],
              [
                -71.67113498199984,
                -16.681482483999957
              ],
              [
                -71.67470548099993,
                -16.671775858999922
              ],
              [
                -71.67339323099998,
                -16.67002873399997
              ],
              [
                -71.67499548099994,
                -16.65866273399996
              ],
              [
                -71.66870123099989,
                -16.657323858999916
              ],
              [
                -71.66876235599989,
                -16.65470123499989
              ],
              [
                -71.67004398199998,
                -16.652339984999855
              ],
              [
                -71.66915135599993,
                -16.647838608999905
              ],
              [
                -71.66688535599985,
                -16.645505858999968
              ],
              [
                -71.66635898099997,
                -16.641874358999814
              ],
              [
                -71.66963948099993,
                -16.63578798399982
              ],
              [
                -71.66440585599997,
                -16.634342233999917
              ],
              [
                -71.66091160699995,
                -16.63438410899994
              ],
              [
                -71.65572360599992,
                -16.630979483999965
              ],
              [
                -71.64949035699988,
                -16.624910358999955
              ],
              [
                -71.64753723099994,
                -16.624740733999943
              ],
              [
                -71.64514923099995,
                -16.626422858999945
              ],
              [
                -71.6429901059999,
                -16.626308483999935
              ],
              [
                -71.63914485599992,
                -16.62419323399996
              ],
              [
                -71.63721460599999,
                -16.62164873499995
              ],
              [
                -71.63799285599998,
                -16.619508733999965
              ],
              [
                -71.63777160699988,
                -16.61546710899995
              ],
              [
                -71.63591760699995,
                -16.61039548399998
              ],
              [
                -71.63311773099991,
                -16.608373608999955
              ],
              [
                -71.63244623099996,
                -16.599218358999963
              ],
              [
                -71.63058473099994,
                -16.59740060899992
              ],
              [
                -71.62494660599992,
                -16.59567648399991
              ],
              [
                -71.62423698099991,
                -16.59018323399988
              ],
              [
                -71.6253357309999,
                -16.586818733999962
              ],
              [
                -71.62792973099994,
                -16.586038608999957
              ],
              [
                -71.63130948099996,
                -16.588533233999954
              ],
              [
                -71.63603973099993,
                -16.58765035999994
              ],
              [
                -71.63884735699997,
                -16.58790973399988
              ],
              [
                -71.64201360699997,
                -16.584840733999897
              ],
              [
                -71.64820860599997,
                -16.584291483999948
              ],
              [
                -71.65290073099999,
                -16.584440233999885
              ],
              [
                -71.6590499809999,
                -16.586288483999965
              ],
              [
                -71.66194148099999,
                -16.588985483999977
              ],
              [
                -71.66357423099998,
                -16.58916285899994
              ],
              [
                -71.66735073099989,
                -16.59448810899994
              ],
              [
                -71.67760473099992,
                -16.599052483999913
              ],
              [
                -71.68003848199993,
                -16.599052483999913
              ],
              [
                -71.6847687309999,
                -16.595014608999975
              ],
              [
                -71.69055173099991,
                -16.592599858999904
              ],
              [
                -71.69281773099993,
                -16.593185608999875
              ],
              [
                -71.69545748199994,
                -16.59055135899996
              ],
              [
                -71.69925685599998,
                -16.58850098399995
              ],
              [
                -71.6998443569999,
                -16.586233108999977
              ],
              [
                -71.69670110599998,
                -16.58491710899989
              ],
              [
                -71.69377135599996,
                -16.58008573399991
              ],
              [
                -71.69356535599997,
                -16.578117358999975
              ],
              [
                -71.68678285599992,
                -16.568798108999886
              ],
              [
                -71.68737035699996,
                -16.56673048399989
              ],
              [
                -71.69760135599995,
                -16.56090548399993
              ],
              [
                -71.69985198099994,
                -16.558868358999973
              ],
              [
                -71.69900498099992,
                -16.55146985899995
              ],
              [
                -71.70394898099988,
                -16.546529733999932
              ],
              [
                -71.70536798099988,
                -16.54148860899994
              ],
              [
                -71.69905848199988,
                -16.540954608999982
              ],
              [
                -71.66445923099991,
                -16.555732733999946
              ],
              [
                -71.6592407309999,
                -16.556857983999976
              ],
              [
                -71.64899448099999,
                -16.558139858999823
              ],
              [
                -71.63944248099995,
                -16.552486358999943
              ],
              [
                -71.63545223099999,
                -16.5487213589999
              ],
              [
                -71.63146973099998,
                -16.546604108999873
              ],
              [
                -71.62813560599983,
                -16.543321608999975
              ],
              [
                -71.62375635599994,
                -16.54154023399991
              ],
              [
                -71.62208560699992,
                -16.53909873399988
              ],
              [
                -71.62172698099982,
                -16.53561010899989
              ],
              [
                -71.62311548099996,
                -16.53253935899994
              ],
              [
                -71.62171935599997,
                -16.52841373399997
              ],
              [
                -71.62114710599997,
                -16.524030608999965
              ],
              [
                -71.61906423199997,
                -16.522624983999947
              ],
              [
                -71.61342623199994,
                -16.524600983999903
              ],
              [
                -71.60801698099993,
                -16.522596358999976
              ],
              [
                -71.60301973099996,
                -16.522901483999874
              ],
              [
                -71.59722135699991,
                -16.52197835899989
              ],
              [
                -71.59574123099992,
                -16.519674358999964
              ],
              [
                -71.59249110599995,
                -16.51863098399997
              ],
              [
                -71.59208685599998,
                -16.516860983999948
              ],
              [
                -71.58696748099999,
                -16.510187108999958
              ],
              [
                -71.58248135599996,
                -16.507924983999942
              ],
              [
                -71.58174898099998,
                -16.504617733999908
              ],
              [
                -71.58415223199995,
                -16.49925610899993
              ],
              [
                -71.58251185599994,
                -16.49633210899998
              ],
              [
                -71.57485960599996,
                -16.4919452339999
              ],
              [
                -71.57412723099992,
                -16.49107748399996
              ],
              [
                -71.56658173199992,
                -16.496511483999882
              ],
              [
                -71.56345373099992,
                -16.496019233999903
              ],
              [
                -71.56109623099991,
                -16.4940891089999
              ]
            ]
          ]
        ],
        "type": "MultiPolygon"
      },
      "type": "Feature",
      "properties": {
        "PROVINCIA": "AREQUIPA",
        "DISTRITO": "YARABAMBA",
        "name": "YARABAMBA",
        "ID": "040124",
        "DEPARTAMEN": "AREQUIPA"
      }
    }
  ]
}
