{
  "type": "FeatureCollection",
  "features": [
    {
      "geometry": {
        "coordinates": [
          [
            [
              [
                -74.63282997099998,
                -13.34478010599986
              ],
              [
                -74.63097001299997,
                -13.3435300189999
              ],
              [
                -74.62899001299996,
                -13.339920019999965
              ],
              [
                -74.62564981299988,
                -13.337079887999892
              ],
              [
                -74.62194001299997,
                -13.337700019999886
              ],
              [
                -74.62038001199994,
                -13.336630019999973
              ],
              [
                -74.61187382199995,
                -13.334561606999898
              ],
              [
                -74.60923633299996,
                -13.33325585599988
              ],
              [
                -74.60728001299998,
                -13.333890018999966
              ],
              [
                -74.6022832079999,
                -13.333037105999892
              ],
              [
                -74.6008300119999,
                -13.33216001999989
              ],
              [
                -74.59417570799991,
                -13.332870980999928
              ],
              [
                -74.59044333299994,
                -13.334429730999943
              ],
              [
                -74.58636133299996,
                -13.334902230999944
              ],
              [
                -74.58208001299994,
                -13.337870018999922
              ],
              [
                -74.57530270799998,
                -13.338138730999958
              ],
              [
                -74.56612866699993,
                -13.341436376999866
              ],
              [
                -74.57112626999998,
                -13.3454118329999
              ],
              [
                -74.57388085899998,
                -13.348435605999953
              ],
              [
                -74.57912498399992,
                -13.34915823099982
              ],
              [
                -74.58428710899994,
                -13.353996105999954
              ],
              [
                -74.58557423399992,
                -13.358138730999883
              ],
              [
                -74.58981248399994,
                -13.36336335599998
              ],
              [
                -74.59378673399988,
                -13.366567355999962
              ],
              [
                -74.59683010899982,
                -13.370111355999938
              ],
              [
                -74.60444923399996,
                -13.37547660599995
              ],
              [
                -74.61007823399996,
                -13.37799810599995
              ],
              [
                -74.61291798399998,
                -13.381240230999879
              ],
              [
                -74.61481448399996,
                -13.384679730999892
              ],
              [
                -74.62158398399998,
                -13.39077535599995
              ],
              [
                -74.62453698399997,
                -13.392570355999965
              ],
              [
                -74.62641798399994,
                -13.395429730999922
              ],
              [
                -74.62711910899986,
                -13.401216856999952
              ],
              [
                -74.62860148399994,
                -13.40675048099996
              ],
              [
                -74.62703523399995,
                -13.414327855999943
              ],
              [
                -74.62555348399991,
                -13.418137980999973
              ],
              [
                -74.62182823399996,
                -13.41961960599997
              ],
              [
                -74.61598635899998,
                -13.420042855999839
              ],
              [
                -74.61052535899984,
                -13.419746605999933
              ],
              [
                -74.60764673399996,
                -13.421355230999893
              ],
              [
                -74.6068904839999,
                -13.424773605999917
              ],
              [
                -74.60505160899999,
                -13.429001980999942
              ],
              [
                -74.60145335899989,
                -13.432635605999849
              ],
              [
                -74.59892810899993,
                -13.433575231999953
              ],
              [
                -74.59587448399998,
                -13.433105356999874
              ],
              [
                -74.59044635899994,
                -13.441984230999935
              ],
              [
                -74.58612260899991,
                -13.447427855999933
              ],
              [
                -74.58431848399994,
                -13.45094285599987
              ],
              [
                -74.58195435899984,
                -13.45209385599992
              ],
              [
                -74.58139448399999,
                -13.456448855999895
              ],
              [
                -74.5793726089999,
                -13.458066230999975
              ],
              [
                -74.57548423399999,
                -13.465998355999943
              ],
              [
                -74.57153373399996,
                -13.466464980999888
              ],
              [
                -74.56441035899996,
                -13.46889123099993
              ],
              [
                -74.55853135899997,
                -13.469917731999942
              ],
              [
                -74.55342985899995,
                -13.473961605999932
              ],
              [
                -74.55025698399999,
                -13.474397105999913
              ],
              [
                -74.54353810899994,
                -13.474085980999917
              ],
              [
                -74.54133335899996,
                -13.477869355999871
              ],
              [
                -74.54300535899995,
                -13.481679855999971
              ],
              [
                -74.54666023399983,
                -13.48300185599993
              ],
              [
                -74.55050973399995,
                -13.486462480999819
              ],
              [
                -74.55047085899997,
                -13.489300855999943
              ],
              [
                -74.54708810899996,
                -13.492528105999952
              ],
              [
                -74.54331648399994,
                -13.498127231999945
              ],
              [
                -74.54300535899995,
                -13.500382356999921
              ],
              [
                -74.53884485899994,
                -13.504115230999957
              ],
              [
                -74.53770510899989,
                -13.507035105999876
              ],
              [
                -74.53896160899995,
                -13.508042480999961
              ],
              [
                -74.54296648399992,
                -13.515896855999927
              ],
              [
                -74.54739910899997,
                -13.515857855999968
              ],
              [
                -74.54922673399989,
                -13.517257730999916
              ],
              [
                -74.54929098399998,
                -13.522104730999956
              ],
              [
                -74.55196985899994,
                -13.525098355999944
              ],
              [
                -74.55041823399989,
                -13.529590230999872
              ],
              [
                -74.55041823399989,
                -13.532384230999867
              ],
              [
                -74.55321210899996,
                -13.535650980999947
              ],
              [
                -74.55278235899993,
                -13.539218605999906
              ],
              [
                -74.55617810899997,
                -13.542872355999975
              ],
              [
                -74.55600610899995,
                -13.544419730999948
              ],
              [
                -74.55891998399989,
                -13.548127856999884
              ],
              [
                -74.55842623399991,
                -13.549886855999944
              ],
              [
                -74.56175998399988,
                -13.558178980999912
              ],
              [
                -74.56147060899991,
                -13.562566730999947
              ],
              [
                -74.5562149839999,
                -13.564591730999837
              ],
              [
                -74.55298460899996,
                -13.56705085599998
              ],
              [
                -74.55178523399996,
                -13.569407355999942
              ],
              [
                -74.55166473399998,
                -13.575063230999831
              ],
              [
                -74.55371435899997,
                -13.589410855999972
              ],
              [
                -74.55188473399994,
                -13.597275356999944
              ],
              [
                -74.55679110899996,
                -13.596136730999945
              ],
              [
                -74.55670698399996,
                -13.593277355999817
              ],
              [
                -74.56196873399989,
                -13.589966856999979
              ],
              [
                -74.56456635899997,
                -13.58942198099993
              ],
              [
                -74.5687637339999,
                -13.587089855999977
              ],
              [
                -74.57092185899995,
                -13.585072230999913
              ],
              [
                -74.57709185899995,
                -13.58502535699995
              ],
              [
                -74.58205660899995,
                -13.582146480999882
              ],
              [
                -74.58533210899998,
                -13.582324230999916
              ],
              [
                -74.59038473399988,
                -13.580339855999966
              ],
              [
                -74.59192735899995,
                -13.579018730999906
              ],
              [
                -74.59927348399992,
                -13.57790035599993
              ],
              [
                -74.60603910899988,
                -13.5746757309999
              ],
              [
                -74.61094535899997,
                -13.571478480999872
              ],
              [
                -74.61576760899999,
                -13.564902355999948
              ],
              [
                -74.6191913589999,
                -13.564415980999968
              ],
              [
                -74.62359760899989,
                -13.55977348099998
              ],
              [
                -74.62717385899992,
                -13.556746105999935
              ],
              [
                -74.63045123399996,
                -13.555828105999922
              ],
              [
                -74.63240035899992,
                -13.556955105999918
              ],
              [
                -74.63622660899989,
                -13.557039105999934
              ],
              [
                -74.63936735899995,
                -13.555435605999946
              ],
              [
                -74.64821685899994,
                -13.559636730999841
              ],
              [
                -74.64978123399999,
                -13.559609355999953
              ],
              [
                -74.65515623399983,
                -13.556642605999969
              ],
              [
                -74.65707423399988,
                -13.558406230999879
              ],
              [
                -74.65759760899994,
                -13.5635762309999
              ],
              [
                -74.65966410899995,
                -13.563550730999964
              ],
              [
                -74.66298635899994,
                -13.560382855999933
              ],
              [
                -74.66530660899997,
                -13.56058398099998
              ],
              [
                -74.66701373399991,
                -13.563501980999888
              ],
              [
                -74.67025585899995,
                -13.566886730999897
              ],
              [
                -74.67246485899994,
                -13.570152355999937
              ],
              [
                -74.6753262339999,
                -13.572322230999873
              ],
              [
                -74.67682223399999,
                -13.574644355999965
              ],
              [
                -74.6822617339999,
                -13.572994105999953
              ],
              [
                -74.68456248399991,
                -13.574267605999978
              ],
              [
                -74.68426385899988,
                -13.577097606999928
              ],
              [
                -74.68789060899996,
                -13.580249980999895
              ],
              [
                -74.69175785899995,
                -13.580515605999949
              ],
              [
                -74.69461910899997,
                -13.582453105999946
              ],
              [
                -74.69813085899995,
                -13.582716855999934
              ],
              [
                -74.70164648399992,
                -13.58162498099989
              ],
              [
                -74.70476373399993,
                -13.583562480999888
              ],
              [
                -74.70772460899997,
                -13.583335980999891
              ],
              [
                -74.70949410899988,
                -13.585156230999928
              ],
              [
                -74.7157871089999,
                -13.581785105999927
              ],
              [
                -74.72015610899996,
                -13.581009730999881
              ],
              [
                -74.72534960899992,
                -13.582316355999978
              ],
              [
                -74.7288906089999,
                -13.583878855999956
              ],
              [
                -74.73287885899992,
                -13.582613230999868
              ],
              [
                -74.73467773399994,
                -13.583884730999898
              ],
              [
                -74.7372461089999,
                -13.5830507309999
              ],
              [
                -74.73774998399995,
                -13.581203105999975
              ],
              [
                -74.74052535899989,
                -13.580685605999975
              ],
              [
                -74.74139448399995,
                -13.58216598099989
              ],
              [
                -74.74554098399994,
                -13.584908230999929
              ],
              [
                -74.74719535899993,
                -13.583089855999958
              ],
              [
                -74.74941010899994,
                -13.583150355999976
              ],
              [
                -74.75120510899995,
                -13.58869535599996
              ],
              [
                -74.75362498399988,
                -13.58939260699998
              ],
              [
                -74.7553984839999,
                -13.58766010599993
              ],
              [
                -74.7576699839999,
                -13.588124980999908
              ],
              [
                -74.75914848399998,
                -13.585585980999895
              ],
              [
                -74.76139260899998,
                -13.58518360599993
              ],
              [
                -74.76612798399987,
                -13.582749605999936
              ],
              [
                -74.76665235899998,
                -13.580191355999943
              ],
              [
                -74.77412310899996,
                -13.579246105999971
              ],
              [
                -74.77902348399994,
                -13.577863230999867
              ],
              [
                -74.78241998399994,
                -13.578509980999911
              ],
              [
                -74.7861999839999,
                -13.573819855999886
              ],
              [
                -74.78607998399991,
                -13.572439981999935
              ],
              [
                -74.79131998499997,
                -13.564390105999848
              ],
              [
                -74.79119998399989,
                -13.559939980999957
              ],
              [
                -74.79468998399983,
                -13.553239980999933
              ],
              [
                -74.7995699839999,
                -13.547469980999892
              ],
              [
                -74.80425998399994,
                -13.545509980999896
              ],
              [
                -74.80856998399992,
                -13.542059980999909
              ],
              [
                -74.81131998399991,
                -13.538439980999897
              ],
              [
                -74.81582998399995,
                -13.535369980999974
              ],
              [
                -74.82155998399998,
                -13.537009981999972
              ],
              [
                -74.82522998399992,
                -13.53513010699993
              ],
              [
                -74.8295599839999,
                -13.534299980999833
              ],
              [
                -74.83185998499988,
                -13.53218998099993
              ],
              [
                -74.83270998399996,
                -13.52717998099996
              ],
              [
                -74.83712998399983,
                -13.524799980999944
              ],
              [
                -74.84040998399996,
                -13.519839980999961
              ],
              [
                -74.83886998399998,
                -13.516539980999937
              ],
              [
                -74.83897998399993,
                -13.513289980999957
              ],
              [
                -74.84007998399994,
                -13.51161998099991
              ],
              [
                -74.84521998399987,
                -13.508339855999964
              ],
              [
                -74.84737998499998,
                -13.503499980999948
              ],
              [
                -74.84757998499998,
                -13.499309980999953
              ],
              [
                -74.85261998499993,
                -13.49699998099993
              ],
              [
                -74.85505998399992,
                -13.494499980999933
              ],
              [
                -74.85549998399989,
                -13.490019980999932
              ],
              [
                -74.85686998399996,
                -13.487369980999858
              ],
              [
                -74.8621799849999,
                -13.481789980999906
              ],
              [
                -74.8681699839999,
                -13.479239980999978
              ],
              [
                -74.87184998399994,
                -13.475629980999884
              ],
              [
                -74.87578998399988,
                -13.474459980999882
              ],
              [
                -74.88327998399984,
                -13.475099980999971
              ],
              [
                -74.89042998399998,
                -13.469789980999849
              ],
              [
                -74.8940399839999,
                -13.469869980999874
              ],
              [
                -74.89795998399995,
                -13.469009980999886
              ],
              [
                -74.90209998399996,
                -13.46643998099995
              ],
              [
                -74.90309998399982,
                -13.462549980999881
              ],
              [
                -74.9024399839999,
                -13.456819980999967
              ],
              [
                -74.90091998399993,
                -13.45556998099994
              ],
              [
                -74.89976998399999,
                -13.452289980999979
              ],
              [
                -74.90182998499989,
                -13.443119980999938
              ],
              [
                -74.90165998399993,
                -13.439929980999977
              ],
              [
                -74.90452998399991,
                -13.436779980999916
              ],
              [
                -74.90357998499991,
                -13.42945998099998
              ],
              [
                -74.89801998399997,
                -13.42456998199998
              ],
              [
                -74.89564998399999,
                -13.420879980999928
              ],
              [
                -74.8953699839999,
                -13.417479980999872
              ],
              [
                -74.89265998499997,
                -13.414459981999926
              ],
              [
                -74.8934999839999,
                -13.408179980999932
              ],
              [
                -74.89474998399993,
                -13.405539980999947
              ],
              [
                -74.89461998399992,
                -13.40249010599996
              ],
              [
                -74.89772010899992,
                -13.395309980999969
              ],
              [
                -74.89221998399995,
                -13.38754998099995
              ],
              [
                -74.89010998499998,
                -13.385629980999909
              ],
              [
                -74.88769998499998,
                -13.380019980999975
              ],
              [
                -74.8841599839999,
                -13.37784998099994
              ],
              [
                -74.88178998399991,
                -13.377349980999952
              ],
              [
                -74.87849998399992,
                -13.37425998099991
              ],
              [
                -74.87588998399997,
                -13.36856998099995
              ],
              [
                -74.87244998399996,
                -13.365059980999945
              ],
              [
                -74.8705799839999,
                -13.36141998099987
              ],
              [
                -74.86874998499997,
                -13.359899980999955
              ],
              [
                -74.86195998499983,
                -13.35921998099991
              ],
              [
                -74.85855998399995,
                -13.355599980999898
              ],
              [
                -74.85399998399998,
                -13.355389980999917
              ],
              [
                -74.85205998499993,
                -13.353829980999933
              ],
              [
                -74.84670998399997,
                -13.353279980999957
              ],
              [
                -74.84148998399996,
                -13.354959980999979
              ],
              [
                -74.83733998399998,
                -13.354919980999966
              ],
              [
                -74.83328998399998,
                -13.356439980999937
              ],
              [
                -74.82192998399984,
                -13.356539980999969
              ],
              [
                -74.81808998399998,
                -13.355339980999872
              ],
              [
                -74.8121099839999,
                -13.357539980999945
              ],
              [
                -74.80887998399999,
                -13.357419980999964
              ],
              [
                -74.8042499849999,
                -13.355659980999974
              ],
              [
                -74.79871998399994,
                -13.352319980999937
              ],
              [
                -74.79363998399998,
                -13.351669980999873
              ],
              [
                -74.78665998399998,
                -13.348159855999882
              ],
              [
                -74.77880585899999,
                -13.34833598099982
              ],
              [
                -74.77008785899994,
                -13.34632810599993
              ],
              [
                -74.76386323399998,
                -13.341392605999886
              ],
              [
                -74.76494535899997,
                -13.334660105999887
              ],
              [
                -74.76419923399999,
                -13.330138605999878
              ],
              [
                -74.7623222339999,
                -13.326943355999902
              ],
              [
                -74.75962223399989,
                -13.325071105999825
              ],
              [
                -74.75752648399998,
                -13.325071105999825
              ],
              [
                -74.75225748399998,
                -13.328244605999942
              ],
              [
                -74.749024234,
                -13.334052480999958
              ],
              [
                -74.74519223399994,
                -13.338124105999896
              ],
              [
                -74.73932623399998,
                -13.339236355999901
              ],
              [
                -74.73674973399994,
                -13.344830105999904
              ],
              [
                -74.73854598399998,
                -13.352853480999954
              ],
              [
                -74.73435460899992,
                -13.357403980999948
              ],
              [
                -74.72830723399994,
                -13.36219410599989
              ],
              [
                -74.71991998399994,
                -13.362649980999947
              ],
              [
                -74.71827998399993,
                -13.363789980999968
              ],
              [
                -74.71355998399997,
                -13.362959980999847
              ],
              [
                -74.70845998399994,
                -13.364059980999912
              ],
              [
                -74.70451998399983,
                -13.364159980999943
              ],
              [
                -74.69945998499992,
                -13.36350998099988
              ],
              [
                -74.69607998399994,
                -13.361549980999882
              ],
              [
                -74.69440998399989,
                -13.359239980999973
              ],
              [
                -74.69186985899995,
                -13.357959980999965
              ],
              [
                -74.68781998399999,
                -13.352799980999976
              ],
              [
                -74.68454998399994,
                -13.35277998099997
              ],
              [
                -74.67816998399991,
                -13.350659981999968
              ],
              [
                -74.67238885899997,
                -13.351294605999897
              ],
              [
                -74.66687985899995,
                -13.352999980999982
              ],
              [
                -74.66242998399991,
                -13.355079855999918
              ],
              [
                -74.65914985899997,
                -13.353509980999888
              ],
              [
                -74.65812998399986,
                -13.35148998099993
              ],
              [
                -74.65192998399988,
                -13.350719980999884
              ],
              [
                -74.64679998399998,
                -13.351329980999935
              ],
              [
                -74.64271998399988,
                -13.34937998099997
              ],
              [
                -74.63876998399991,
                -13.346579980999934
              ],
              [
                -74.63282997099998,
                -13.34478010599986
              ]
            ]
          ]
        ],
        "type": "MultiPolygon"
      },
      "type": "Feature",
      "properties": {
        "PROVINCIA": "CANGALLO",
        "DISTRITO": "PARAS",
        "name": "PARAS",
        "ID": "050207",
        "DEPARTAMEN": "AYACUCHO"
      }
    }
  ]
}
