{
  "type": "FeatureCollection",
  "features": [
    {
      "geometry": {
        "coordinates": [
          [
            [
              [
                -74.4350663589999,
                -13.587818480999942
              ],
              [
                -74.43838285899989,
                -13.58820310599998
              ],
              [
                -74.44375385899991,
                -13.585533230999886
              ],
              [
                -74.45197860899992,
                -13.587384731999975
              ],
              [
                -74.45639848399998,
                -13.586632856999927
              ],
              [
                -74.45981248399988,
                -13.588226605999978
              ],
              [
                -74.46342973399999,
                -13.588763730999915
              ],
              [
                -74.47028710899997,
                -13.593255855999814
              ],
              [
                -74.47305660899997,
                -13.592078106999963
              ],
              [
                -74.47552535799997,
                -13.593191230999878
              ],
              [
                -74.47908010899994,
                -13.592396481999913
              ],
              [
                -74.48401448399989,
                -13.594470730999944
              ],
              [
                -74.48718923399997,
                -13.596859480999967
              ],
              [
                -74.49124298399988,
                -13.598017731999903
              ],
              [
                -74.49429360899995,
                -13.597531730999947
              ],
              [
                -74.50057060799992,
                -13.597728230999905
              ],
              [
                -74.50371435899996,
                -13.600272105999977
              ],
              [
                -74.50698048399994,
                -13.598931605999951
              ],
              [
                -74.51045898399997,
                -13.601449230999947
              ],
              [
                -74.5165391089999,
                -13.602298855999834
              ],
              [
                -74.51948260899991,
                -13.606578105999972
              ],
              [
                -74.51730273399994,
                -13.609761730999935
              ],
              [
                -74.51398248399994,
                -13.610496105999971
              ],
              [
                -74.51465623399997,
                -13.61396285699982
              ],
              [
                -74.52017385799991,
                -13.61547460599985
              ],
              [
                -74.52250785899992,
                -13.614929730999961
              ],
              [
                -74.52431448399994,
                -13.61195898099993
              ],
              [
                -74.52809573399998,
                -13.611013855999886
              ],
              [
                -74.52998823399997,
                -13.609111355999971
              ],
              [
                -74.53456635899988,
                -13.607878855999957
              ],
              [
                -74.53519335899989,
                -13.604355480999914
              ],
              [
                -74.54535935899992,
                -13.599292981999895
              ],
              [
                -74.55188473399994,
                -13.597275356999944
              ],
              [
                -74.55371435899997,
                -13.589410855999972
              ],
              [
                -74.55166473399998,
                -13.575063230999831
              ],
              [
                -74.55178523399996,
                -13.569407355999942
              ],
              [
                -74.55298460899996,
                -13.56705085599998
              ],
              [
                -74.5562149839999,
                -13.564591730999837
              ],
              [
                -74.56147060899991,
                -13.562566730999947
              ],
              [
                -74.56175998399988,
                -13.558178980999912
              ],
              [
                -74.55842623399991,
                -13.549886855999944
              ],
              [
                -74.55891998399989,
                -13.548127856999884
              ],
              [
                -74.55600610899995,
                -13.544419730999948
              ],
              [
                -74.55617810899997,
                -13.542872355999975
              ],
              [
                -74.55278235899993,
                -13.539218605999906
              ],
              [
                -74.55321210899996,
                -13.535650980999947
              ],
              [
                -74.55041823399989,
                -13.532384230999867
              ],
              [
                -74.55041823399989,
                -13.529590230999872
              ],
              [
                -74.55196985899994,
                -13.525098355999944
              ],
              [
                -74.54929098399998,
                -13.522104730999956
              ],
              [
                -74.54922673399989,
                -13.517257730999916
              ],
              [
                -74.54739910899997,
                -13.515857855999968
              ],
              [
                -74.54296648399992,
                -13.515896855999927
              ],
              [
                -74.53896160899995,
                -13.508042480999961
              ],
              [
                -74.53770510899989,
                -13.507035105999876
              ],
              [
                -74.53056460799996,
                -13.504338980999933
              ],
              [
                -74.52823048299996,
                -13.50478785599995
              ],
              [
                -74.52463973399995,
                -13.504069605999916
              ],
              [
                -74.52100398399995,
                -13.504832730999908
              ],
              [
                -74.51781723399995,
                -13.503845230999957
              ],
              [
                -74.51579735899998,
                -13.50438385599989
              ],
              [
                -74.51099435899988,
                -13.503637105999928
              ],
              [
                -74.50635460899997,
                -13.50561473099998
              ],
              [
                -74.50255160799998,
                -13.508251480999888
              ],
              [
                -74.49973748399998,
                -13.50627385599995
              ],
              [
                -74.49436248399996,
                -13.505056980999939
              ],
              [
                -74.49012848299998,
                -13.505690730999959
              ],
              [
                -74.48493110899989,
                -13.508048605999932
              ],
              [
                -74.48234498399995,
                -13.51357573099989
              ],
              [
                -74.4820661089999,
                -13.519457605999946
              ],
              [
                -74.47845023399992,
                -13.523168730999942
              ],
              [
                -74.47689723299999,
                -13.523612480999816
              ],
              [
                -74.47287235899995,
                -13.526844980999954
              ],
              [
                -74.46935460799995,
                -13.526401355999894
              ],
              [
                -74.46672423399997,
                -13.529348605999871
              ],
              [
                -74.46441073399996,
                -13.530331105999892
              ],
              [
                -74.46155848399997,
                -13.529380230999891
              ],
              [
                -74.45716610899996,
                -13.530333980999956
              ],
              [
                -74.45295710899995,
                -13.528997105999906
              ],
              [
                -74.4495898589999,
                -13.524986105999972
              ],
              [
                -74.44381185899994,
                -13.523174105999942
              ],
              [
                -74.44277148399993,
                -13.523548855999877
              ],
              [
                -74.44219923399999,
                -13.52845510599991
              ],
              [
                -74.44132223299988,
                -13.52976948099996
              ],
              [
                -74.44111523399994,
                -13.53590823099995
              ],
              [
                -74.43879298399997,
                -13.540742230999967
              ],
              [
                -74.43572460899992,
                -13.543009730999813
              ],
              [
                -74.4328301079999,
                -13.548310605999916
              ],
              [
                -74.43263673399997,
                -13.551630855999917
              ],
              [
                -74.43629685899992,
                -13.55690623099997
              ],
              [
                -74.43780473399994,
                -13.565517605999958
              ],
              [
                -74.43696685899994,
                -13.568656230999977
              ],
              [
                -74.43791798299998,
                -13.577046855999981
              ],
              [
                -74.43587698399995,
                -13.580490230999885
              ],
              [
                -74.43572848399998,
                -13.586042980999935
              ],
              [
                -74.4350663589999,
                -13.587818480999942
              ]
            ]
          ]
        ],
        "type": "MultiPolygon"
      },
      "type": "Feature",
      "properties": {
        "PROVINCIA": "CANGALLO",
        "DISTRITO": "TOTOS",
        "name": "TOTOS",
        "ID": "050208",
        "DEPARTAMEN": "AYACUCHO"
      }
    }
  ]
}
