{
  "type": "FeatureCollection",
  "features": [
    {
      "geometry": {
        "coordinates": [
          [
            [
              [
                -77.94556848699989,
                -6.460089849999974
              ],
              [
                -77.94222511299995,
                -6.463986974999898
              ],
              [
                -77.94108611199994,
                -6.468494474999943
              ],
              [
                -77.93902448699998,
                -6.471178349999946
              ],
              [
                -77.94035223699996,
                -6.476331848999905
              ],
              [
                -77.94928848699993,
                -6.483071849999931
              ],
              [
                -77.95159323699994,
                -6.486412599999937
              ],
              [
                -77.95118536199993,
                -6.487496724999914
              ],
              [
                -77.94360611199988,
                -6.490395224999929
              ],
              [
                -77.93768986199996,
                -6.487630724999974
              ],
              [
                -77.93341898699998,
                -6.487206848999904
              ],
              [
                -77.92811523699999,
                -6.488857973999927
              ],
              [
                -77.92215398699994,
                -6.488887099999943
              ],
              [
                -77.91924611199994,
                -6.492498974999933
              ],
              [
                -77.91840423699995,
                -6.497970973999941
              ],
              [
                -77.91633011199991,
                -6.504384724999966
              ],
              [
                -77.91739961199994,
                -6.507617098999958
              ],
              [
                -77.92013173799995,
                -6.511670723999885
              ],
              [
                -77.92096748699993,
                -6.51402934999993
              ],
              [
                -77.92147311199994,
                -6.519859098999916
              ],
              [
                -77.91983723699991,
                -6.525242599999899
              ],
              [
                -77.91942086199992,
                -6.528811723999979
              ],
              [
                -77.91721986199991,
                -6.534343974999956
              ],
              [
                -77.92266173699994,
                -6.539070348999871
              ],
              [
                -77.92366111299987,
                -6.544186223999873
              ],
              [
                -77.92654448699994,
                -6.546324849999962
              ],
              [
                -77.92853536199993,
                -6.549591349999957
              ],
              [
                -77.93454136199995,
                -6.553408724999883
              ],
              [
                -77.93639448699997,
                -6.55789647499995
              ],
              [
                -77.93972411199996,
                -6.562209598999971
              ],
              [
                -77.93999873699994,
                -6.565640974999951
              ],
              [
                -77.94157423799999,
                -6.569808599999874
              ],
              [
                -77.94471673699996,
                -6.573091223999882
              ],
              [
                -77.94502261199995,
                -6.574881974999926
              ],
              [
                -77.95342911199998,
                -6.568669599999964
              ],
              [
                -77.95356186199984,
                -6.562383973999943
              ],
              [
                -77.95268161199994,
                -6.555734348999977
              ],
              [
                -77.95573086199988,
                -6.551450349999868
              ],
              [
                -77.95900973699992,
                -6.545539599999927
              ],
              [
                -77.96382623699992,
                -6.544320973999902
              ],
              [
                -77.96629561199995,
                -6.543026224999892
              ],
              [
                -77.96876511199991,
                -6.540074849999939
              ],
              [
                -77.97394486199994,
                -6.535467349999919
              ],
              [
                -77.9808713619999,
                -6.531431849999876
              ],
              [
                -77.98267823699996,
                -6.528239723999945
              ],
              [
                -77.98660223699989,
                -6.524639599999944
              ],
              [
                -77.99526636199994,
                -6.521313223999869
              ],
              [
                -77.99845898699994,
                -6.519060598999943
              ],
              [
                -77.99906398699989,
                -6.51525984999995
              ],
              [
                -77.99692248699989,
                -6.50631597499995
              ],
              [
                -77.99511573799998,
                -6.503394723999918
              ],
              [
                -77.99461323699995,
                -6.495187474999966
              ],
              [
                -77.99335536199999,
                -6.492729599999905
              ],
              [
                -77.99095511199988,
                -6.491317723999941
              ],
              [
                -77.99526536199994,
                -6.487394224999946
              ],
              [
                -77.99476748699993,
                -6.483622223999873
              ],
              [
                -77.99643348699993,
                -6.478878098999928
              ],
              [
                -77.99827786199995,
                -6.465931598999873
              ],
              [
                -78.0020558619999,
                -6.461173099999883
              ],
              [
                -78.00330073699996,
                -6.457230723999942
              ],
              [
                -78.00081086199992,
                -6.450729224999975
              ],
              [
                -78.00094923699999,
                -6.447547724999879
              ],
              [
                -78.00274748799995,
                -6.444366099999968
              ],
              [
                -77.99980098699996,
                -6.441830724999875
              ],
              [
                -77.99507173699999,
                -6.442098349999924
              ],
              [
                -77.98798636299995,
                -6.441333973999917
              ],
              [
                -77.98539061199989,
                -6.440335974999925
              ],
              [
                -77.98024798699993,
                -6.435742224999899
              ],
              [
                -77.97616011199995,
                -6.434494099999938
              ],
              [
                -77.97333011199999,
                -6.431851599999959
              ],
              [
                -77.96650386199997,
                -6.427494224999919
              ],
              [
                -77.96370111199997,
                -6.424644473999876
              ],
              [
                -77.9575292369999,
                -6.421664098999941
              ],
              [
                -77.95633798699993,
                -6.420328099999949
              ],
              [
                -77.95516011199999,
                -6.424296849999962
              ],
              [
                -77.95445698799983,
                -6.430068348999953
              ],
              [
                -77.95512036199983,
                -6.435646474999885
              ],
              [
                -77.95702698699995,
                -6.439419973999918
              ],
              [
                -77.95644473699997,
                -6.444001223999976
              ],
              [
                -77.95330523699994,
                -6.44705009899991
              ],
              [
                -77.94969898699998,
                -6.454078098999901
              ],
              [
                -77.94890611199992,
                -6.457284349999895
              ],
              [
                -77.94556848699989,
                -6.460089849999974
              ]
            ]
          ]
        ],
        "type": "MultiPolygon"
      },
      "type": "Feature",
      "properties": {
        "PROVINCIA": "LUYA",
        "DISTRITO": "MARIA",
        "name": "MARIA",
        "ID": "010411",
        "DEPARTAMEN": "AMAZONAS"
      }
    }
  ]
}
