{
  "type": "FeatureCollection",
  "features": [
    {
      "geometry": {
        "coordinates": [
          [
            [
              [
                -78.04144336199994,
                -6.092955099999926
              ],
              [
                -78.04098436199996,
                -6.10124022399998
              ],
              [
                -78.0384663619999,
                -6.109488848999888
              ],
              [
                -78.03552923799998,
                -6.112525473999881
              ],
              [
                -78.03614161199994,
                -6.114518348999923
              ],
              [
                -78.04159798699993,
                -6.116985474999979
              ],
              [
                -78.04216736199999,
                -6.125525723999942
              ],
              [
                -78.04159798699993,
                -6.129558723999935
              ],
              [
                -78.03998636199998,
                -6.135096473999909
              ],
              [
                -78.04131711199989,
                -6.137714099999869
              ],
              [
                -78.04829486299991,
                -6.143580098999962
              ],
              [
                -78.05080261199993,
                -6.147113848999936
              ],
              [
                -78.05205136199993,
                -6.152376849999939
              ],
              [
                -78.05595723699992,
                -6.151005098999917
              ],
              [
                -78.06047623699999,
                -6.147693473999936
              ],
              [
                -78.06100623699996,
                -6.146127473999968
              ],
              [
                -78.05944036199998,
                -6.140586348999932
              ],
              [
                -78.06103036199994,
                -6.137839848999818
              ],
              [
                -78.06086936199989,
                -6.133580098999971
              ],
              [
                -78.05972248799998,
                -6.130412723999825
              ],
              [
                -78.06324686199997,
                -6.129166723999958
              ],
              [
                -78.06963873699993,
                -6.128230224999811
              ],
              [
                -78.07528486299992,
                -6.123722849999979
              ],
              [
                -78.07737711199991,
                -6.120560349999892
              ],
              [
                -78.07929461199996,
                -6.113815598999963
              ],
              [
                -78.08076173699993,
                -6.110567599999968
              ],
              [
                -78.09220548699989,
                -6.103171348999979
              ],
              [
                -78.10073411199983,
                -6.103436349999981
              ],
              [
                -78.10261323699996,
                -6.104448224999942
              ],
              [
                -78.10878086299994,
                -6.104110848999881
              ],
              [
                -78.11435161299988,
                -6.099456849999854
              ],
              [
                -78.11962273699993,
                -6.099286723999967
              ],
              [
                -78.12173561199995,
                -6.097916224999835
              ],
              [
                -78.12322036199998,
                -6.093804473999967
              ],
              [
                -78.12681811199991,
                -6.095460599999967
              ],
              [
                -78.1305301129999,
                -6.095232099999976
              ],
              [
                -78.13298573699996,
                -6.093861598999979
              ],
              [
                -78.13844398699996,
                -6.087664348999965
              ],
              [
                -78.14322998799992,
                -6.08668997399991
              ],
              [
                -78.14695998699989,
                -6.087429973999861
              ],
              [
                -78.15072998699998,
                -6.084079974999952
              ],
              [
                -78.15500961199996,
                -6.07603222399996
              ],
              [
                -78.15434373699992,
                -6.06132697399994
              ],
              [
                -78.15906048699992,
                -6.053780098999937
              ],
              [
                -78.16272298699994,
                -6.045067973999892
              ],
              [
                -78.16416573699985,
                -6.043236723999939
              ],
              [
                -78.1672732369999,
                -6.041516473999877
              ],
              [
                -78.17248948699995,
                -6.041571973999851
              ],
              [
                -78.17354386199997,
                -6.040906098999926
              ],
              [
                -78.16988136299989,
                -6.034080599999868
              ],
              [
                -78.16771723699998,
                -6.029086348999897
              ],
              [
                -78.16716223799989,
                -6.026145348999933
              ],
              [
                -78.16361086199993,
                -6.020263224999951
              ],
              [
                -78.16433223799993,
                -6.01726672399991
              ],
              [
                -78.16682936199999,
                -6.013049348999857
              ],
              [
                -78.16962298699991,
                -6.006211223999912
              ],
              [
                -78.17031786199993,
                -6.002621473999909
              ],
              [
                -78.17170998699993,
                -5.999999973999877
              ],
              [
                -78.17062998699993,
                -5.996219973999871
              ],
              [
                -78.17240998799997,
                -5.994149973999924
              ],
              [
                -78.16920336299995,
                -5.995682348999878
              ],
              [
                -78.16603773699984,
                -6.000050848999933
              ],
              [
                -78.16290386199995,
                -6.002583348999963
              ],
              [
                -78.15872936199997,
                -6.003111848999879
              ],
              [
                -78.15744311199995,
                -6.004630599999871
              ],
              [
                -78.15281986199989,
                -6.002287223999872
              ],
              [
                -78.14237498699998,
                -5.999675973999899
              ],
              [
                -78.13495361199989,
                -5.999263723999888
              ],
              [
                -78.13041836199994,
                -6.000912848999917
              ],
              [
                -78.12382161199997,
                -6.000363223999955
              ],
              [
                -78.11433873699997,
                -6.002287223999872
              ],
              [
                -78.11227723699994,
                -6.002149849999967
              ],
              [
                -78.10939123699995,
                -5.998301724999976
              ],
              [
                -78.10430623699989,
                -5.996102723999854
              ],
              [
                -78.10169498699992,
                -5.996789973999967
              ],
              [
                -78.09592286299988,
                -6.001600098999972
              ],
              [
                -78.09138761199989,
                -6.00654759899993
              ],
              [
                -78.08822661199986,
                -6.007784473999891
              ],
              [
                -78.08543498699999,
                -6.005532599999981
              ],
              [
                -78.07537111299996,
                -6.006468724999934
              ],
              [
                -78.07218023699988,
                -6.005886848999978
              ],
              [
                -78.06981073699995,
                -6.008471723999889
              ],
              [
                -78.06664973699998,
                -6.009158848999903
              ],
              [
                -78.06128986199997,
                -6.002149848999977
              ],
              [
                -78.05716686199997,
                -6.001600098999972
              ],
              [
                -78.05456123699997,
                -6.004117973999939
              ],
              [
                -78.05152161199999,
                -6.005354723999915
              ],
              [
                -78.048875362,
                -6.007498473999931
              ],
              [
                -78.04326048699994,
                -6.014560599999925
              ],
              [
                -78.03980411299995,
                -6.021203223999919
              ],
              [
                -78.03698823699989,
                -6.024849598999936
              ],
              [
                -78.0335929869999,
                -6.036857724999948
              ],
              [
                -78.03044236199992,
                -6.040923973999952
              ],
              [
                -78.02459873699996,
                -6.042431973999953
              ],
              [
                -78.02221986199993,
                -6.047249223999927
              ],
              [
                -78.02209436199996,
                -6.049541224999928
              ],
              [
                -78.02438336199998,
                -6.054873223999948
              ],
              [
                -78.02688773799997,
                -6.057889223999894
              ],
              [
                -78.02821286199992,
                -6.062037098999895
              ],
              [
                -78.03392011199998,
                -6.065026098999965
              ],
              [
                -78.03679748699994,
                -6.069845723999947
              ],
              [
                -78.03642048699999,
                -6.073507973999938
              ],
              [
                -78.0391403619999,
                -6.081855973999893
              ],
              [
                -78.03897873799986,
                -6.087403348999942
              ],
              [
                -78.04089073699987,
                -6.090311598999961
              ],
              [
                -78.04144336199994,
                -6.092955099999926
              ]
            ]
          ]
        ],
        "type": "MultiPolygon"
      },
      "type": "Feature",
      "properties": {
        "PROVINCIA": "LUYA",
        "DISTRITO": "SANTA CATALINA",
        "name": "SANTA CATALINA",
        "ID": "010419",
        "DEPARTAMEN": "AMAZONAS"
      }
    }
  ]
}
