{
  "type": "FeatureCollection",
  "features": [
    {
      "geometry": {
        "coordinates": [
          [
            [
              [
                -77.80857198699994,
                -6.297188474999928
              ],
              [
                -77.80749198699993,
                -6.29869059899994
              ],
              [
                -77.80668511199997,
                -6.303837974999965
              ],
              [
                -77.80525586199991,
                -6.306299723999871
              ],
              [
                -77.80123161199992,
                -6.308039348999955
              ],
              [
                -77.79814323699992,
                -6.308540223999898
              ],
              [
                -77.79349673699988,
                -6.312908474999915
              ],
              [
                -77.79288461199997,
                -6.314967474999946
              ],
              [
                -77.79452623699996,
                -6.316525598999874
              ],
              [
                -77.7940532369999,
                -6.318528848999904
              ],
              [
                -77.79168811199997,
                -6.320810349999931
              ],
              [
                -77.78957361199991,
                -6.321533848999934
              ],
              [
                -77.78796486199997,
                -6.326947223999923
              ],
              [
                -77.78378323699997,
                -6.330155848999937
              ],
              [
                -77.78144911199996,
                -6.331049473999883
              ],
              [
                -77.77655211199988,
                -6.330270348999932
              ],
              [
                -77.77221161199992,
                -6.335334348999879
              ],
              [
                -77.76984661199998,
                -6.33686459899991
              ],
              [
                -77.76631811199996,
                -6.340590848999966
              ],
              [
                -77.76104561199992,
                -6.34838659899998
              ],
              [
                -77.76079811199997,
                -6.352985848999936
              ],
              [
                -77.76280261199997,
                -6.354533224999955
              ],
              [
                -77.77259961199996,
                -6.354306599999973
              ],
              [
                -77.77848236199998,
                -6.35121872499991
              ],
              [
                -77.78068361199996,
                -6.350607599999876
              ],
              [
                -77.78259573699995,
                -6.347628848999875
              ],
              [
                -77.78712498699991,
                -6.347656223999934
              ],
              [
                -77.79654486199996,
                -6.344511724999904
              ],
              [
                -77.79870698699995,
                -6.344521473999919
              ],
              [
                -77.80186723699995,
                -6.341507848999981
              ],
              [
                -77.80327923699997,
                -6.342456973999901
              ],
              [
                -77.80696673699998,
                -6.338884723999911
              ],
              [
                -77.80874036199992,
                -6.332228473999919
              ],
              [
                -77.81060161199991,
                -6.329947223999909
              ],
              [
                -77.8121738619999,
                -6.325843723999924
              ],
              [
                -77.81822261199989,
                -6.320951223999884
              ],
              [
                -77.82100786199993,
                -6.319933598999967
              ],
              [
                -77.82515423699994,
                -6.317142598999965
              ],
              [
                -77.82930473699997,
                -6.31665234899998
              ],
              [
                -77.83260161199996,
                -6.311003973999902
              ],
              [
                -77.83497261199994,
                -6.309912099999906
              ],
              [
                -77.84327536199993,
                -6.308625099999972
              ],
              [
                -77.84745311199998,
                -6.310142599999949
              ],
              [
                -77.85549611199997,
                -6.310134723999852
              ],
              [
                -77.86106248699991,
                -6.30812697399989
              ],
              [
                -77.86432036199994,
                -6.309414099999913
              ],
              [
                -77.86835161199997,
                -6.308443348999958
              ],
              [
                -77.87052536199997,
                -6.306650348999938
              ],
              [
                -77.87555861199996,
                -6.306330098999979
              ],
              [
                -77.88020898699995,
                -6.308134723999899
              ],
              [
                -77.88083198699991,
                -6.310328098999946
              ],
              [
                -77.88587298699991,
                -6.313462724999965
              ],
              [
                -77.88916598699996,
                -6.320880848999934
              ],
              [
                -77.8917266119999,
                -6.324277348999942
              ],
              [
                -77.89244148699999,
                -6.334767598999974
              ],
              [
                -77.89429486199998,
                -6.341621099999941
              ],
              [
                -77.89542773699998,
                -6.344056599999931
              ],
              [
                -77.89567561199988,
                -6.348484349999978
              ],
              [
                -77.89774611199988,
                -6.3522793489999
              ],
              [
                -77.89765623699998,
                -6.354212849999954
              ],
              [
                -77.90603323699997,
                -6.356742223999959
              ],
              [
                -77.91057036199993,
                -6.35490434899998
              ],
              [
                -77.91665823699998,
                -6.356390599999941
              ],
              [
                -77.92099798699996,
                -6.355988224999919
              ],
              [
                -77.92424211199989,
                -6.357248099999879
              ],
              [
                -77.92585736199993,
                -6.35688472399994
              ],
              [
                -77.92608986199991,
                -6.351882849999981
              ],
              [
                -77.92710936199995,
                -6.347048849999965
              ],
              [
                -77.92917186199992,
                -6.345326223999962
              ],
              [
                -77.93042773699983,
                -6.34147459999997
              ],
              [
                -77.93016011199995,
                -6.338798849999932
              ],
              [
                -77.93199411199993,
                -6.336138723999909
              ],
              [
                -77.93095511199994,
                -6.333484348999946
              ],
              [
                -77.92804886199991,
                -6.331753848999938
              ],
              [
                -77.92718548699997,
                -6.329392598999959
              ],
              [
                -77.93096873699983,
                -6.325124974999881
              ],
              [
                -77.93137111199997,
                -6.320599599999923
              ],
              [
                -77.93457811199994,
                -6.319199223999874
              ],
              [
                -77.93631636199996,
                -6.31636522499997
              ],
              [
                -77.93609373699996,
                -6.311351598999977
              ],
              [
                -77.93747461199996,
                -6.307109349999905
              ],
              [
                -77.93553711199996,
                -6.306552723999971
              ],
              [
                -77.93456248699988,
                -6.304074224999965
              ],
              [
                -77.93401761199993,
                -6.295408223999971
              ],
              [
                -77.93526761199996,
                -6.292441348999944
              ],
              [
                -77.93476948699998,
                -6.290773348999892
              ],
              [
                -77.93634961199996,
                -6.288113224999961
              ],
              [
                -77.93610936199997,
                -6.285505848999946
              ],
              [
                -77.93137873699999,
                -6.286933599999884
              ],
              [
                -77.92465036199991,
                -6.286779348999914
              ],
              [
                -77.92030073699993,
                -6.285126974999969
              ],
              [
                -77.91599411199991,
                -6.282714849999877
              ],
              [
                -77.90941411199992,
                -6.28340822499996
              ],
              [
                -77.90341011299995,
                -6.286626974999933
              ],
              [
                -77.90201948699996,
                -6.286583973999939
              ],
              [
                -77.89821673699993,
                -6.289414098999941
              ],
              [
                -77.89683786199998,
                -6.291363223999952
              ],
              [
                -77.89293248699994,
                -6.291558473999942
              ],
              [
                -77.88996673699995,
                -6.295300223999902
              ],
              [
                -77.88583186199997,
                -6.296399723999912
              ],
              [
                -77.8803586119999,
                -6.294654974999958
              ],
              [
                -77.8765638619999,
                -6.291919599999972
              ],
              [
                -77.87242361199998,
                -6.291978098999891
              ],
              [
                -77.86924023699993,
                -6.286626973999944
              ],
              [
                -77.86415386199991,
                -6.286026723999896
              ],
              [
                -77.85416698699999,
                -6.28756372499987
              ],
              [
                -77.84834711199989,
                -6.287047223999878
              ],
              [
                -77.84624648699992,
                -6.283569098999976
              ],
              [
                -77.84843723699998,
                -6.277407599999947
              ],
              [
                -77.84805261199995,
                -6.276123098999904
              ],
              [
                -77.84325048699998,
                -6.275751849999835
              ],
              [
                -77.83992848699995,
                -6.276204973999938
              ],
              [
                -77.83674198699998,
                -6.278334723999933
              ],
              [
                -77.83226523699994,
                -6.278472474999944
              ],
              [
                -77.82708986199992,
                -6.277642598999932
              ],
              [
                -77.82503336199994,
                -6.279849849999948
              ],
              [
                -77.81642973699996,
                -6.283576223999944
              ],
              [
                -77.81362886199992,
                -6.287273474999949
              ],
              [
                -77.81154698699999,
                -6.294306598999924
              ],
              [
                -77.80857198699994,
                -6.297188474999928
              ]
            ]
          ]
        ],
        "type": "MultiPolygon"
      },
      "type": "Feature",
      "properties": {
        "PROVINCIA": "CHACHAPOYAS",
        "DISTRITO": "LEVANTO",
        "name": "LEVANTO",
        "ID": "010111",
        "DEPARTAMEN": "AMAZONAS"
      }
    }
  ]
}
