{
  "type": "FeatureCollection",
  "features": [
    {
      "geometry": {
        "coordinates": [
          [
            [
              [
                -77.79054486199988,
                -6.123910098999943
              ],
              [
                -77.78862498699993,
                -6.126109349999922
              ],
              [
                -77.7803632369999,
                -6.131199223999886
              ],
              [
                -77.77718161199994,
                -6.136902348999968
              ],
              [
                -77.77467773699993,
                -6.13976947499998
              ],
              [
                -77.77057611199996,
                -6.141275348999955
              ],
              [
                -77.77050586199994,
                -6.144017598999881
              ],
              [
                -77.76650198699991,
                -6.14908397399995
              ],
              [
                -77.76172261199997,
                -6.151914223999938
              ],
              [
                -77.76075386199994,
                -6.155615223999973
              ],
              [
                -77.75584486199995,
                -6.158455473999879
              ],
              [
                -77.75204986199998,
                -6.163363723999851
              ],
              [
                -77.7485194869999,
                -6.164404348999881
              ],
              [
                -77.73990611199991,
                -6.16827184899995
              ],
              [
                -77.73772123699996,
                -6.171479098999953
              ],
              [
                -77.73126336199988,
                -6.172847348999824
              ],
              [
                -77.72721873599988,
                -6.172474599999873
              ],
              [
                -77.72690236199992,
                -6.178074224999932
              ],
              [
                -77.72865036199994,
                -6.182847598999899
              ],
              [
                -77.72833011199992,
                -6.187888723999947
              ],
              [
                -77.73027736199992,
                -6.190214849999904
              ],
              [
                -77.73038086199995,
                -6.192556598999943
              ],
              [
                -77.72846873599997,
                -6.194798849999927
              ],
              [
                -77.73040423699996,
                -6.200027349999914
              ],
              [
                -77.73066598699995,
                -6.20429884899994
              ],
              [
                -77.72829486199993,
                -6.207396473999893
              ],
              [
                -77.72766798699996,
                -6.209771473999979
              ],
              [
                -77.72974998699982,
                -6.211789099999919
              ],
              [
                -77.73015823699996,
                -6.214156099999911
              ],
              [
                -77.73285736199995,
                -6.215746098999944
              ],
              [
                -77.73670698699988,
                -6.216542974999868
              ],
              [
                -77.74118161199993,
                -6.216423849999956
              ],
              [
                -77.74290423699983,
                -6.217771473999903
              ],
              [
                -77.74507036199998,
                -6.217382848999932
              ],
              [
                -77.7494297369999,
                -6.219164098999954
              ],
              [
                -77.75138286199996,
                -6.219179599999904
              ],
              [
                -77.75477348699991,
                -6.220919973999912
              ],
              [
                -77.75576173699989,
                -6.223109348999969
              ],
              [
                -77.75821673699988,
                -6.223156223999922
              ],
              [
                -77.7588847369999,
                -6.22499222499988
              ],
              [
                -77.763820362,
                -6.225798848999943
              ],
              [
                -77.76491411199999,
                -6.223355473999902
              ],
              [
                -77.769831862,
                -6.223132848999967
              ],
              [
                -77.77496486199982,
                -6.226003848999937
              ],
              [
                -77.77591986199997,
                -6.225117224999906
              ],
              [
                -77.78052536199982,
                -6.22545509899993
              ],
              [
                -77.78226173699994,
                -6.227552723999906
              ],
              [
                -77.78854886199997,
                -6.228777348999927
              ],
              [
                -77.79123623699991,
                -6.227076223999916
              ],
              [
                -77.79248823699993,
                -6.224304723999921
              ],
              [
                -77.79614261199998,
                -6.224421848999953
              ],
              [
                -77.79973448699997,
                -6.221066348999955
              ],
              [
                -77.80555861199991,
                -6.222521473999905
              ],
              [
                -77.81079098699996,
                -6.226562473999877
              ],
              [
                -77.81394536199991,
                -6.225392598999974
              ],
              [
                -77.81731048699999,
                -6.221539099999973
              ],
              [
                -77.8202753619999,
                -6.220312473999911
              ],
              [
                -77.82319336199993,
                -6.217347598999936
              ],
              [
                -77.8283476119999,
                -6.215738223999892
              ],
              [
                -77.83096486199992,
                -6.214328099999932
              ],
              [
                -77.83264261199992,
                -6.212011723999979
              ],
              [
                -77.83558786199995,
                -6.210671848999937
              ],
              [
                -77.83580661199994,
                -6.207505849999905
              ],
              [
                -77.83419723699996,
                -6.201624974999959
              ],
              [
                -77.83504098699996,
                -6.198320349999904
              ],
              [
                -77.83641411199994,
                -6.196927723999977
              ],
              [
                -77.83911136199993,
                -6.19090822499993
              ],
              [
                -77.84112111199994,
                -6.18902734999989
              ],
              [
                -77.84276948699988,
                -6.185494098999925
              ],
              [
                -77.84699223699988,
                -6.179415973999937
              ],
              [
                -77.8487089869999,
                -6.175456974999918
              ],
              [
                -77.85005273699988,
                -6.17035159999989
              ],
              [
                -77.85274223699992,
                -6.167486349999876
              ],
              [
                -77.85288673699989,
                -6.165009848999887
              ],
              [
                -77.8557422369999,
                -6.160267599999827
              ],
              [
                -77.85796673699991,
                -6.154289098999868
              ],
              [
                -77.8587714869999,
                -6.149349473999905
              ],
              [
                -77.86428911199994,
                -6.143773473999943
              ],
              [
                -77.86529098699992,
                -6.138910098999929
              ],
              [
                -77.86776173699991,
                -6.13318172399994
              ],
              [
                -77.86489261199995,
                -6.128208973999904
              ],
              [
                -77.8638359869999,
                -6.122988223999869
              ],
              [
                -77.86138686199996,
                -6.11921684899994
              ],
              [
                -77.85841211199994,
                -6.121621098999981
              ],
              [
                -77.85500011199997,
                -6.122726598999975
              ],
              [
                -77.84144923699989,
                -6.128646474999869
              ],
              [
                -77.83394536199995,
                -6.1287734739999
              ],
              [
                -77.83064061199991,
                -6.129259723999894
              ],
              [
                -77.82941011199995,
                -6.128251973999909
              ],
              [
                -77.82398636199991,
                -6.129261723999889
              ],
              [
                -77.82187498699994,
                -6.13049997499985
              ],
              [
                -77.81779298699996,
                -6.128476723999938
              ],
              [
                -77.81283786199992,
                -6.128160098999956
              ],
              [
                -77.81181248699994,
                -6.12678909899995
              ],
              [
                -77.80804298699996,
                -6.128263599999968
              ],
              [
                -77.8040468619999,
                -6.127863349999927
              ],
              [
                -77.79869136199989,
                -6.125986348999959
              ],
              [
                -77.79224411199988,
                -6.125433599999951
              ],
              [
                -77.79054486199988,
                -6.123910098999943
              ]
            ]
          ]
        ],
        "type": "MultiPolygon"
      },
      "type": "Feature",
      "properties": {
        "PROVINCIA": "CHACHAPOYAS",
        "DISTRITO": "SONCHE",
        "name": "SONCHE",
        "ID": "010121",
        "DEPARTAMEN": "AMAZONAS"
      }
    }
  ]
}
