{
  "type": "FeatureCollection",
  "features": [
    {
      "geometry": {
        "coordinates": [
          [
            [
              [
                -73.83479906399998,
                -13.47017582899997
              ],
              [
                -73.83473773299988,
                -13.470362855999895
              ],
              [
                -73.83348801399995,
                -13.47178583899995
              ],
              [
                -73.83305073299994,
                -13.472109105999891
              ],
              [
                -73.83100160799995,
                -13.476188355999966
              ],
              [
                -73.82828598299994,
                -13.478860480999913
              ],
              [
                -73.82585698299988,
                -13.481164230999923
              ],
              [
                -73.82311610899995,
                -13.484335230999932
              ],
              [
                -73.82192885799992,
                -13.48856548099991
              ],
              [
                -73.82272460899998,
                -13.492444105999937
              ],
              [
                -73.82121960899997,
                -13.49944860599993
              ],
              [
                -73.81999435799992,
                -13.502920230999962
              ],
              [
                -73.81717248299992,
                -13.505316230999881
              ],
              [
                -73.8142437329999,
                -13.50921248099985
              ],
              [
                -73.8148649829999,
                -13.51464823099991
              ],
              [
                -73.81387735799996,
                -13.51809173099997
              ],
              [
                -73.81101310799994,
                -13.52126660599987
              ],
              [
                -73.81050198299994,
                -13.52558873099997
              ],
              [
                -73.81138673299995,
                -13.52749223099994
              ],
              [
                -73.80908723399995,
                -13.534116105999885
              ],
              [
                -73.80976485899998,
                -13.53846823099991
              ],
              [
                -73.80893798299996,
                -13.54129585599992
              ],
              [
                -73.80572598299995,
                -13.547386105999976
              ],
              [
                -73.80523998299992,
                -13.551209980999829
              ],
              [
                -73.80384498299998,
                -13.554915980999965
              ],
              [
                -73.80366573299989,
                -13.557882480999979
              ],
              [
                -73.80709560799983,
                -13.56243173099989
              ],
              [
                -73.80684885799991,
                -13.570262981999917
              ],
              [
                -73.80551960799988,
                -13.5747036059999
              ],
              [
                -73.81099960799997,
                -13.577518480999856
              ],
              [
                -73.8124294829999,
                -13.579907980999963
              ],
              [
                -73.8132903579999,
                -13.584931855999969
              ],
              [
                -73.81782260799991,
                -13.593950230999951
              ],
              [
                -73.82105960799987,
                -13.595547730999897
              ],
              [
                -73.82858485799989,
                -13.604208105999874
              ],
              [
                -73.83337748299994,
                -13.605679480999925
              ],
              [
                -73.83810935799988,
                -13.605212105999897
              ],
              [
                -73.84049060799998,
                -13.605868980999901
              ],
              [
                -73.84448985799997,
                -13.616040606999945
              ],
              [
                -73.85035023299997,
                -13.61693235599995
              ],
              [
                -73.85511723299999,
                -13.62034173099994
              ],
              [
                -73.86020698299984,
                -13.620201230999953
              ],
              [
                -73.86360160899994,
                -13.620714855999893
              ],
              [
                -73.87076560899993,
                -13.619021480999947
              ],
              [
                -73.87303210799996,
                -13.624443480999958
              ],
              [
                -73.88311773399994,
                -13.623806480999917
              ],
              [
                -73.88502873299996,
                -13.6232226059999
              ],
              [
                -73.88608598299993,
                -13.619804730999931
              ],
              [
                -73.88338323299996,
                -13.614676355999961
              ],
              [
                -73.8820029829999,
                -13.608784230999959
              ],
              [
                -73.88232148399993,
                -13.607722605999982
              ],
              [
                -73.88656810799995,
                -13.60581173099996
              ],
              [
                -73.88948760799991,
                -13.600078855999982
              ],
              [
                -73.89240710799999,
                -13.60145898099995
              ],
              [
                -73.89182323299991,
                -13.60496235599993
              ],
              [
                -73.89378723299995,
                -13.610164355999927
              ],
              [
                -73.89553898399998,
                -13.610854480999933
              ],
              [
                -73.89819310799999,
                -13.609686605999855
              ],
              [
                -73.90063485799999,
                -13.606554855999889
              ],
              [
                -73.90249998299993,
                -13.605566480999926
              ],
              [
                -73.91103898299991,
                -13.607669605999945
              ],
              [
                -73.91236598299992,
                -13.605970980999928
              ],
              [
                -73.91332148299995,
                -13.600874980999947
              ],
              [
                -73.9162409839999,
                -13.594452105999949
              ],
              [
                -73.91974448299999,
                -13.592912730999842
              ],
              [
                -73.92795385799997,
                -13.594902730999934
              ],
              [
                -73.93169260799993,
                -13.591428980999979
              ],
              [
                -73.93463635899997,
                -13.581419856999958
              ],
              [
                -73.93905223399986,
                -13.578328855999928
              ],
              [
                -73.93905548299995,
                -13.57384385599994
              ],
              [
                -73.94155335799996,
                -13.572724105999896
              ],
              [
                -73.94370673399993,
                -13.569924730999844
              ],
              [
                -73.94413735799998,
                -13.562517231999948
              ],
              [
                -73.94594623299997,
                -13.560105355999951
              ],
              [
                -73.94383598399997,
                -13.555238730999918
              ],
              [
                -73.94629073399994,
                -13.552051730999949
              ],
              [
                -73.94844410799988,
                -13.546926730999814
              ],
              [
                -73.95305235899997,
                -13.542275355999891
              ],
              [
                -73.95318160799991,
                -13.534867855999835
              ],
              [
                -73.95690310799989,
                -13.53416923099985
              ],
              [
                -73.96310435899989,
                -13.530817230999958
              ],
              [
                -73.96749510799998,
                -13.531561480999926
              ],
              [
                -73.96934860799996,
                -13.530977980999864
              ],
              [
                -73.97305548399999,
                -13.526481481999951
              ],
              [
                -73.98197973299995,
                -13.522808856999916
              ],
              [
                -73.98438248399998,
                -13.520371855999826
              ],
              [
                -73.98908485799996,
                -13.518106480999961
              ],
              [
                -73.98850135899988,
                -13.516561855999953
              ],
              [
                -73.98246035799991,
                -13.514399480999941
              ],
              [
                -73.98153360899988,
                -13.513163855999949
              ],
              [
                -73.98026360799997,
                -13.504067981999981
              ],
              [
                -73.97748335799997,
                -13.499331230999928
              ],
              [
                -73.97753196499991,
                -13.495176747999892
              ],
              [
                -73.97107131099995,
                -13.496872657999972
              ],
              [
                -73.96597205499984,
                -13.500296332999937
              ],
              [
                -73.95731720499998,
                -13.501269795999917
              ],
              [
                -73.9521500809999,
                -13.500946920999922
              ],
              [
                -73.94710668699997,
                -13.498878259999913
              ],
              [
                -73.93850607799988,
                -13.497980851999841
              ],
              [
                -73.93577341199989,
                -13.496821066999871
              ],
              [
                -73.93018865599993,
                -13.499380766999934
              ],
              [
                -73.92608201399997,
                -13.499363215999892
              ],
              [
                -73.92175019299992,
                -13.497279644999821
              ],
              [
                -73.91628019299998,
                -13.493389644999922
              ],
              [
                -73.91020019299998,
                -13.488059644999964
              ],
              [
                -73.90791019299985,
                -13.486889644999906
              ],
              [
                -73.90555019299995,
                -13.483409644999824
              ],
              [
                -73.90117019299993,
                -13.482499644999848
              ],
              [
                -73.89917019299992,
                -13.483349644999919
              ],
              [
                -73.89656019299997,
                -13.486089644999879
              ],
              [
                -73.88796019299986,
                -13.483979644999977
              ],
              [
                -73.88640019299999,
                -13.480529644999933
              ],
              [
                -73.88467019299998,
                -13.479199644999937
              ],
              [
                -73.88369019299995,
                -13.476039644999958
              ],
              [
                -73.88064019299992,
                -13.473669644999973
              ],
              [
                -73.87759019299989,
                -13.473209644999883
              ],
              [
                -73.87583019399995,
                -13.470769644999905
              ],
              [
                -73.87250019299995,
                -13.467949644999976
              ],
              [
                -73.86503019299994,
                -13.465229644999908
              ],
              [
                -73.85868019399999,
                -13.46619964499996
              ],
              [
                -73.85322019299997,
                -13.468619644999933
              ],
              [
                -73.84369019299999,
                -13.469069644999934
              ],
              [
                -73.84208019299996,
                -13.468719644999908
              ],
              [
                -73.83598019299984,
                -13.470579644999816
              ],
              [
                -73.83479906399998,
                -13.47017582899997
              ]
            ]
          ]
        ],
        "type": "MultiPolygon"
      },
      "type": "Feature",
      "properties": {
        "PROVINCIA": "VILCAS HUAMAN",
        "DISTRITO": "CONCEPCION",
        "name": "CONCEPCION",
        "ID": "050905",
        "DEPARTAMEN": "AYACUCHO"
      }
    }
  ]
}
