{
  "type": "FeatureCollection",
  "features": [
    {
      "geometry": {
        "coordinates": [
          [
            [
              [
                -80.84341211499998,
                -4.18858209799987
              ],
              [
                -80.83944136499997,
                -4.1895155979999
              ],
              [
                -80.83314061499993,
                -4.188218722999977
              ],
              [
                -80.82986136499994,
                -4.185716847999856
              ],
              [
                -80.82401561499995,
                -4.185619097999847
              ],
              [
                -80.81911911499992,
                -4.182759722999947
              ],
              [
                -80.81525586499993,
                -4.181654347999881
              ],
              [
                -80.81340423999995,
                -4.179902346999882
              ],
              [
                -80.80858011499993,
                -4.177656221999939
              ],
              [
                -80.80330661499988,
                -4.175966847999973
              ],
              [
                -80.79943748999995,
                -4.17862697299995
              ],
              [
                -80.79718948999994,
                -4.178650347999962
              ],
              [
                -80.79015036499999,
                -4.180240222999942
              ],
              [
                -80.78540036399988,
                -4.178900472999942
              ],
              [
                -80.7841191149999,
                -4.180320346999906
              ],
              [
                -80.78150973999993,
                -4.179699222999943
              ],
              [
                -80.78235948999998,
                -4.177400347999878
              ],
              [
                -80.78038086499998,
                -4.17573047299993
              ],
              [
                -80.77716011499996,
                -4.176390597999955
              ],
              [
                -80.77046098999995,
                -4.174220722999962
              ],
              [
                -80.76300973999992,
                -4.174910097999827
              ],
              [
                -80.76117973999993,
                -4.175759722999942
              ],
              [
                -80.75983023999993,
                -4.178900471999953
              ],
              [
                -80.7539902399999,
                -4.179820346999918
              ],
              [
                -80.7512402399999,
                -4.177660097999876
              ],
              [
                -80.74874036399984,
                -4.177400347999878
              ],
              [
                -80.74551948999988,
                -4.181619097999885
              ],
              [
                -80.74550973999999,
                -4.184029346999921
              ],
              [
                -80.74313086399997,
                -4.183939472999953
              ],
              [
                -80.74221098999988,
                -4.181779346999917
              ],
              [
                -80.7375194899999,
                -4.180609346999915
              ],
              [
                -80.73621098899991,
                -4.178320347999886
              ],
              [
                -80.73338086399997,
                -4.178890596999906
              ],
              [
                -80.73123048999997,
                -4.181460971999968
              ],
              [
                -80.72949986499992,
                -4.181019471999946
              ],
              [
                -80.72800973999983,
                -4.182970721999936
              ],
              [
                -80.72821098999998,
                -4.186689472999944
              ],
              [
                -80.72335936499991,
                -4.190650347999849
              ],
              [
                -80.72199011499993,
                -4.189910097999871
              ],
              [
                -80.71865023999999,
                -4.194249972999955
              ],
              [
                -80.71457036499993,
                -4.193449222999959
              ],
              [
                -80.71659961499995,
                -4.197273472999939
              ],
              [
                -80.71967573999996,
                -4.200724597999908
              ],
              [
                -80.72514273999991,
                -4.200322222999944
              ],
              [
                -80.72671673999997,
                -4.202589847999889
              ],
              [
                -80.72513861499993,
                -4.20497259799987
              ],
              [
                -80.72639648999984,
                -4.207042972999943
              ],
              [
                -80.72394123999999,
                -4.212414097999897
              ],
              [
                -80.72438286499994,
                -4.215076222999869
              ],
              [
                -80.7210663649999,
                -4.219181597999921
              ],
              [
                -80.71677736499993,
                -4.220103472999824
              ],
              [
                -80.71398048999998,
                -4.223173847999931
              ],
              [
                -80.71458398999982,
                -4.224896472999831
              ],
              [
                -80.71762111499993,
                -4.226062472999956
              ],
              [
                -80.72052736499995,
                -4.229412097999955
              ],
              [
                -80.71844536499992,
                -4.235488222999891
              ],
              [
                -80.71639061499991,
                -4.23677934799997
              ],
              [
                -80.71700586499992,
                -4.241546847999928
              ],
              [
                -80.71910361499994,
                -4.244917972999872
              ],
              [
                -80.71561523999998,
                -4.248949222999897
              ],
              [
                -80.71792573999994,
                -4.252902347999964
              ],
              [
                -80.71858598999984,
                -4.255859347999944
              ],
              [
                -80.72249223999984,
                -4.259165972999881
              ],
              [
                -80.72722673999988,
                -4.260527347999812
              ],
              [
                -80.72949986499992,
                -4.262595722999947
              ],
              [
                -80.73016598999999,
                -4.270205097999963
              ],
              [
                -80.73239449,
                -4.274417972999913
              ],
              [
                -80.73578123999988,
                -4.275947222999946
              ],
              [
                -80.7403437399999,
                -4.279917847999968
              ],
              [
                -80.74086136499994,
                -4.283851597999899
              ],
              [
                -80.74308398999989,
                -4.286447222999925
              ],
              [
                -80.74528911499993,
                -4.293662097999913
              ],
              [
                -80.74684173999987,
                -4.295085972999971
              ],
              [
                -80.7494627399999,
                -4.301121097999896
              ],
              [
                -80.7515097399999,
                -4.302751972999943
              ],
              [
                -80.75622261499996,
                -4.304654347999929
              ],
              [
                -80.7590859899999,
                -4.308230472999981
              ],
              [
                -80.76024998999992,
                -4.311251972999969
              ],
              [
                -80.76380661499996,
                -4.313251972999979
              ],
              [
                -80.76438473999991,
                -4.314822222999965
              ],
              [
                -80.76928323999994,
                -4.317613222999967
              ],
              [
                -80.76975973999993,
                -4.323419972999886
              ],
              [
                -80.76866411499998,
                -4.325300722999827
              ],
              [
                -80.76445511499998,
                -4.327619097999957
              ],
              [
                -80.76172861499998,
                -4.327099597999961
              ],
              [
                -80.7590292399999,
                -4.330410097999959
              ],
              [
                -80.75661523999992,
                -4.33635759799995
              ],
              [
                -80.7503729899999,
                -4.338466847999939
              ],
              [
                -80.74772848999987,
                -4.340884722999874
              ],
              [
                -80.74559961499995,
                -4.344128847999968
              ],
              [
                -80.74274611499999,
                -4.346445347999975
              ],
              [
                -80.73853711499999,
                -4.347607472999925
              ],
              [
                -80.73456248999997,
                -4.349874972999885
              ],
              [
                -80.73055073999984,
                -4.354898472999935
              ],
              [
                -80.72526173999984,
                -4.357583972999919
              ],
              [
                -80.72125198999998,
                -4.352230472999906
              ],
              [
                -80.71038286499993,
                -4.349378847999958
              ],
              [
                -80.70818948999994,
                -4.350455097999941
              ],
              [
                -80.70558598999997,
                -4.356302722999885
              ],
              [
                -80.70542173999996,
                -4.36020697299989
              ],
              [
                -80.7082323649999,
                -4.365540972999895
              ],
              [
                -80.71126561499989,
                -4.368947222999907
              ],
              [
                -80.71592973999998,
                -4.372023472999956
              ],
              [
                -80.71860736499991,
                -4.377734347999876
              ],
              [
                -80.72097261499994,
                -4.379798847999893
              ],
              [
                -80.72299798999995,
                -4.379824222999957
              ],
              [
                -80.72420111499991,
                -4.381652347999875
              ],
              [
                -80.72260736499993,
                -4.385392597999896
              ],
              [
                -80.72311311499993,
                -4.389279347999889
              ],
              [
                -80.72542773999999,
                -4.393376972999931
              ],
              [
                -80.72602148999988,
                -4.395732472999953
              ],
              [
                -80.72473436499996,
                -4.398248097999897
              ],
              [
                -80.72547073999988,
                -4.402939472999947
              ],
              [
                -80.7219198649999,
                -4.408312472999967
              ],
              [
                -80.73154886499998,
                -4.41496097299995
              ],
              [
                -80.73342573999997,
                -4.41816197299994
              ],
              [
                -80.73288861499992,
                -4.421539097999926
              ],
              [
                -80.73336911499996,
                -4.424453097999958
              ],
              [
                -80.73290036499992,
                -4.428777347999926
              ],
              [
                -80.73033986499996,
                -4.432576222999899
              ],
              [
                -80.72628123999988,
                -4.433499972999869
              ],
              [
                -80.72373823999999,
                -4.435767597999927
              ],
              [
                -80.72477923999998,
                -4.443451222999897
              ],
              [
                -80.72307811499991,
                -4.454681597999979
              ],
              [
                -80.71952736499992,
                -4.460517597999967
              ],
              [
                -80.70890036499992,
                -4.466597597999964
              ],
              [
                -80.70663861499992,
                -4.468915972999923
              ],
              [
                -80.70470898999997,
                -4.475417972999935
              ],
              [
                -80.70301361499992,
                -4.477326222999977
              ],
              [
                -80.69931048999996,
                -4.476197222999929
              ],
              [
                -80.69612498999999,
                -4.477914097999872
              ],
              [
                -80.68682611499997,
                -4.477540972999918
              ],
              [
                -80.68213286499986,
                -4.479386597999962
              ],
              [
                -80.68133986499998,
                -4.483458972999927
              ],
              [
                -80.67751361499995,
                -4.485956972999929
              ],
              [
                -80.67222261499995,
                -4.494081972999936
              ],
              [
                -80.67052736499983,
                -4.498814347999883
              ],
              [
                -80.66703123999991,
                -4.502160097999877
              ],
              [
                -80.66430073999993,
                -4.502949222999973
              ],
              [
                -80.66314061499997,
                -4.504970722999815
              ],
              [
                -80.65816986499993,
                -4.504279347999898
              ],
              [
                -80.65559961499997,
                -4.507230472999936
              ],
              [
                -80.6566894899999,
                -4.511019472999976
              ],
              [
                -80.6566894899999,
                -4.515597722999871
              ],
              [
                -80.65925973999992,
                -4.519253847999948
              ],
              [
                -80.66439648999994,
                -4.520195347999959
              ],
              [
                -80.67238473999993,
                -4.519845847999932
              ],
              [
                -80.67588086499984,
                -4.520544972999971
              ],
              [
                -80.68443548999994,
                -4.523800722999965
              ],
              [
                -80.68473048999994,
                -4.525769472999968
              ],
              [
                -80.683330115,
                -4.528679722999868
              ],
              [
                -80.67840248999994,
                -4.528910097999926
              ],
              [
                -80.67615811499996,
                -4.529976597999962
              ],
              [
                -80.67351948999993,
                -4.533165972999882
              ],
              [
                -80.6599922399999,
                -4.537576222999917
              ],
              [
                -80.65833986499996,
                -4.541361347999953
              ],
              [
                -80.65838661499998,
                -4.544652347999943
              ],
              [
                -80.65441986499997,
                -4.547960972999931
              ],
              [
                -80.64998236499997,
                -4.548351597999954
              ],
              [
                -80.64231636499994,
                -4.547572222999918
              ],
              [
                -80.63668736499994,
                -4.545984347999934
              ],
              [
                -80.63394923999988,
                -4.54364647299991
              ],
              [
                -80.63225786499993,
                -4.544425722999904
              ],
              [
                -80.63351948999997,
                -4.548501972999929
              ],
              [
                -80.63424611499994,
                -4.555568347999952
              ],
              [
                -80.63832223999998,
                -4.564892597999972
              ],
              [
                -80.63715236499996,
                -4.570826222999926
              ],
              [
                -80.63852536499996,
                -4.576718722999942
              ],
              [
                -80.63892773999999,
                -4.581242222999947
              ],
              [
                -80.64309761499993,
                -4.589822222999942
              ],
              [
                -80.64296286499996,
                -4.591677722999975
              ],
              [
                -80.63866011499994,
                -4.594609347999892
              ],
              [
                -80.63548636499996,
                -4.605150472999981
              ],
              [
                -80.63252736499993,
                -4.609400222999966
              ],
              [
                -80.62975786499993,
                -4.616634722999947
              ],
              [
                -80.62913861499993,
                -4.621206972999971
              ],
              [
                -80.62913861499993,
                -4.626101472999835
              ],
              [
                -80.63112873999995,
                -4.630404222999971
              ],
              [
                -80.63137886499993,
                -4.634068347999971
              ],
              [
                -80.63254498999999,
                -4.637759722999874
              ],
              [
                -80.6362929899999,
                -4.63976559799994
              ],
              [
                -80.63742186499996,
                -4.641294972999901
              ],
              [
                -80.63946661499995,
                -4.647992222999903
              ],
              [
                -80.6416172399999,
                -4.650249972999916
              ],
              [
                -80.64196673999999,
                -4.653882847999967
              ],
              [
                -80.63857811499997,
                -4.66294534799988
              ],
              [
                -80.63339861499998,
                -4.667220722999957
              ],
              [
                -80.63206636499996,
                -4.672306597999977
              ],
              [
                -80.63338861499994,
                -4.681447347999892
              ],
              [
                -80.63849798999985,
                -4.690456972999925
              ],
              [
                -80.63960161499995,
                -4.694115097999884
              ],
              [
                -80.64307036499997,
                -4.699009722999961
              ],
              [
                -80.64645898999987,
                -4.706431597999938
              ],
              [
                -80.64941598999991,
                -4.710062472999823
              ],
              [
                -80.65123823999988,
                -4.713904347999971
              ],
              [
                -80.65496098999989,
                -4.714564472999882
              ],
              [
                -80.65694723999991,
                -4.717626972999881
              ],
              [
                -80.66271873999989,
                -4.720988222999836
              ],
              [
                -80.66470511499995,
                -4.725005847999967
              ],
              [
                -80.66752923999991,
                -4.729093722999892
              ],
              [
                -80.66948436499996,
                -4.729914097999938
              ],
              [
                -80.67200786499984,
                -4.733382847999962
              ],
              [
                -80.67547661499998,
                -4.740322222999907
              ],
              [
                -80.67592573999991,
                -4.742574222999906
              ],
              [
                -80.67534173999991,
                -4.746648472999937
              ],
              [
                -80.67661311499995,
                -4.752052597999977
              ],
              [
                -80.67897848999996,
                -4.758406222999952
              ],
              [
                -80.68042773999997,
                -4.760978597999895
              ],
              [
                -80.68003511499984,
                -4.765201222999963
              ],
              [
                -80.68082611499983,
                -4.772540972999934
              ],
              [
                -80.67961136499997,
                -4.777423847999898
              ],
              [
                -80.67879298999992,
                -4.786220722999929
              ],
              [
                -80.67609373999994,
                -4.789322222999942
              ],
              [
                -80.67984173999992,
                -4.789386597999908
              ],
              [
                -80.68576761499986,
                -4.7925078479999
              ],
              [
                -80.69034573999994,
                -4.793998097999918
              ],
              [
                -80.69251173999999,
                -4.797681597999883
              ],
              [
                -80.69242386499991,
                -4.801699222999957
              ],
              [
                -80.69446873999993,
                -4.80406834799993
              ],
              [
                -80.69211311499998,
                -4.806550722999816
              ],
              [
                -80.69548823999997,
                -4.811490222999964
              ],
              [
                -80.69862886499999,
                -4.814220722999892
              ],
              [
                -80.69942773999998,
                -4.818187472999966
              ],
              [
                -80.69907423999996,
                -4.824265597999954
              ],
              [
                -80.70084961499992,
                -4.831232472999886
              ],
              [
                -80.70053711499992,
                -4.844392597999956
              ],
              [
                -80.6998788649999,
                -4.846410097999978
              ],
              [
                -80.69720111499998,
                -4.849833972999932
              ],
              [
                -80.69772848999997,
                -4.854222597999978
              ],
              [
                -80.69645698999994,
                -4.861828097999876
              ],
              [
                -80.69425786499988,
                -4.865427722999925
              ],
              [
                -80.69705273999995,
                -4.878808597999864
              ],
              [
                -80.70029486499999,
                -4.881689472999938
              ],
              [
                -80.69923436499988,
                -4.884595722999961
              ],
              [
                -80.69420111499988,
                -4.893183597999894
              ],
              [
                -80.6979433649999,
                -4.896755847999941
              ],
              [
                -80.70203123999994,
                -4.898324222999975
              ],
              [
                -80.71104098999996,
                -4.895935597999937
              ],
              [
                -80.71746098999984,
                -4.891992222999932
              ],
              [
                -80.72432811499993,
                -4.885609347999889
              ],
              [
                -80.72822661499993,
                -4.885212847999867
              ],
              [
                -80.7329454899999,
                -4.888199222999958
              ],
              [
                -80.73456448999985,
                -4.890759722999974
              ],
              [
                -80.73496486499994,
                -4.897915972999954
              ],
              [
                -80.73712886499993,
                -4.899193347999926
              ],
              [
                -80.74207423999991,
                -4.899130847999913
              ],
              [
                -80.74749998999988,
                -4.896714847999931
              ],
              [
                -80.75340823999989,
                -4.892869097999892
              ],
              [
                -80.7551229899999,
                -4.890720722999959
              ],
              [
                -80.76163473999992,
                -4.889562472999955
              ],
              [
                -80.76480073999994,
                -4.890757847999907
              ],
              [
                -80.77208786499983,
                -4.890937597999937
              ],
              [
                -80.77738861499984,
                -4.888068347999877
              ],
              [
                -80.78418161499985,
                -4.88622847299996
              ],
              [
                -80.78758786499998,
                -4.887660097999913
              ],
              [
                -80.79507998999998,
                -4.894501972999933
              ],
              [
                -80.79801948999994,
                -4.895322222999937
              ],
              [
                -80.80078123999994,
                -4.894917972999963
              ],
              [
                -80.80181836499992,
                -4.893539097999906
              ],
              [
                -80.80259761499991,
                -4.888070347999928
              ],
              [
                -80.80453323999996,
                -4.886052722999978
              ],
              [
                -80.80699023999995,
                -4.885406097999976
              ],
              [
                -80.81113861499989,
                -4.886431597999888
              ],
              [
                -80.81433786499991,
                -4.88627347299996
              ],
              [
                -80.81781836499994,
                -4.885039097999879
              ],
              [
                -80.81980861499994,
                -4.885583972999939
              ],
              [
                -80.82121873999984,
                -4.887619097999902
              ],
              [
                -80.82086923999998,
                -4.894115222999972
              ],
              [
                -80.82127923999997,
                -4.898269472999971
              ],
              [
                -80.82289861499999,
                -4.901669972999969
              ],
              [
                -80.82835736499993,
                -4.904187472999979
              ],
              [
                -80.83314261499999,
                -4.901892597999904
              ],
              [
                -80.83820111499995,
                -4.901652347999914
              ],
              [
                -80.83747661499996,
                -4.89766597299996
              ],
              [
                -80.83517386499994,
                -4.889113222999981
              ],
              [
                -80.83399036499998,
                -4.88627347299996
              ],
              [
                -80.82766986499996,
                -4.880201222999972
              ],
              [
                -80.82630861499996,
                -4.874664097999869
              ],
              [
                -80.82203123999983,
                -4.865904347999901
              ],
              [
                -80.82186136499996,
                -4.855283222999958
              ],
              [
                -80.81952348999988,
                -4.84432034799994
              ],
              [
                -80.81976561499994,
                -4.842845722999925
              ],
              [
                -80.83179686499994,
                -4.837898472999882
              ],
              [
                -80.8341054899999,
                -4.834253847999946
              ],
              [
                -80.83736723999988,
                -4.832128847999968
              ],
              [
                -80.83645698999999,
                -4.825455097999964
              ],
              [
                -80.83473236499992,
                -4.822388847999946
              ],
              [
                -80.83468361499996,
                -4.818083972999887
              ],
              [
                -80.83377148999989,
                -4.811978472999954
              ],
              [
                -80.8337694899999,
                -4.808089847999952
              ],
              [
                -80.83614648999986,
                -4.801748097999905
              ],
              [
                -80.83486136499994,
                -4.794179722999957
              ],
              [
                -80.83600198999989,
                -4.790445347999935
              ],
              [
                -80.83880273999989,
                -4.784787097999867
              ],
              [
                -80.83871874,
                -4.781529347999879
              ],
              [
                -80.83370311499993,
                -4.774236347999874
              ],
              [
                -80.8340292399999,
                -4.771218722999947
              ],
              [
                -80.83764448999989,
                -4.769677722999973
              ],
              [
                -80.83788861499994,
                -4.766312472999914
              ],
              [
                -80.8410819899999,
                -4.763164097999891
              ],
              [
                -80.84294923999988,
                -4.755140597999969
              ],
              [
                -80.84526936499992,
                -4.750962847999972
              ],
              [
                -80.84821286499994,
                -4.74837109799995
              ],
              [
                -80.84923823999992,
                -4.742785097999956
              ],
              [
                -80.85215236499994,
                -4.735818347999952
              ],
              [
                -80.85247661499994,
                -4.732101597999929
              ],
              [
                -80.85521873999988,
                -4.728736347999927
              ],
              [
                -80.85736723999992,
                -4.722431597999957
              ],
              [
                -80.8583964899999,
                -4.717925847999936
              ],
              [
                -80.8622284899999,
                -4.712335972999881
              ],
              [
                -80.8616874899999,
                -4.710824222999975
              ],
              [
                -80.86499036499998,
                -4.702683597999908
              ],
              [
                -80.86644136499996,
                -4.700376972999948
              ],
              [
                -80.86673048999995,
                -4.69748247299998
              ],
              [
                -80.87164648999993,
                -4.691882847999921
              ],
              [
                -80.87247661499998,
                -4.688427722999961
              ],
              [
                -80.87657811499997,
                -4.686591847999921
              ],
              [
                -80.87952936499988,
                -4.683642597999892
              ],
              [
                -80.88181048999996,
                -4.683724597999912
              ],
              [
                -80.88578711499986,
                -4.681417972999952
              ],
              [
                -80.88846486499989,
                -4.677556597999967
              ],
              [
                -80.89394723999999,
                -4.673974597999973
              ],
              [
                -80.89627348999994,
                -4.673966847999907
              ],
              [
                -80.89810548999998,
                -4.671968722999964
              ],
              [
                -80.90255661499992,
                -4.66457034799987
              ],
              [
                -80.90700786499991,
                -4.659650347999957
              ],
              [
                -80.91114648999996,
                -4.653169972999933
              ],
              [
                -80.91629486499994,
                -4.64736722299989
              ],
              [
                -80.91890236499995,
                -4.642603472999895
              ],
              [
                -80.92169723999996,
                -4.634675722999873
              ],
              [
                -80.92304486499995,
                -4.632876972999895
              ],
              [
                -80.92944336499994,
                -4.632871097999953
              ],
              [
                -80.93013861499992,
                -4.630031097999961
              ],
              [
                -80.93274798999988,
                -4.627560597999945
              ],
              [
                -80.93307611499995,
                -4.624017472999981
              ],
              [
                -80.93471098999987,
                -4.623259722999876
              ],
              [
                -80.93600973999986,
                -4.621666097999935
              ],
              [
                -80.93638473999988,
                -4.61809572299984
              ],
              [
                -80.92833011499994,
                -4.616650347999951
              ],
              [
                -80.92517386499998,
                -4.614296847999924
              ],
              [
                -80.91768161499994,
                -4.615892722999888
              ],
              [
                -80.91419723999996,
                -4.615509722999946
              ],
              [
                -80.91237111499993,
                -4.611960972999952
              ],
              [
                -80.90679486499988,
                -4.605494097999895
              ],
              [
                -80.90623436499993,
                -4.602482472999952
              ],
              [
                -80.90440811499991,
                -4.600605472999973
              ],
              [
                -80.89874998999994,
                -4.597748097999897
              ],
              [
                -80.89095698999995,
                -4.595468722999954
              ],
              [
                -80.8884941149999,
                -4.59198822299993
              ],
              [
                -80.88784961499988,
                -4.588007847999904
              ],
              [
                -80.88860161499991,
                -4.585066347999884
              ],
              [
                -80.88586523999999,
                -4.579490222999937
              ],
              [
                -80.88891986499988,
                -4.576623097999857
              ],
              [
                -80.8932323649999,
                -4.575626972999942
              ],
              [
                -80.89471098999996,
                -4.571439472999941
              ],
              [
                -80.89442386499991,
                -4.567775347999827
              ],
              [
                -80.8965448649999,
                -4.565296847999946
              ],
              [
                -80.89636323999997,
                -4.561183597999957
              ],
              [
                -80.89878323999994,
                -4.560103472999913
              ],
              [
                -80.9013476149999,
                -4.557378847999928
              ],
              [
                -80.90207424,
                -4.552574222999908
              ],
              [
                -80.90400386499988,
                -4.550244097999951
              ],
              [
                -80.91036898999994,
                -4.550681597999926
              ],
              [
                -80.91320698999982,
                -4.552488222999898
              ],
              [
                -80.91561723999996,
                -4.547956972999884
              ],
              [
                -80.91958798999985,
                -4.544665972999894
              ],
              [
                -80.91930861499992,
                -4.540792972999895
              ],
              [
                -80.92178711499992,
                -4.535925722999878
              ],
              [
                -80.92155273999998,
                -4.532541097999967
              ],
              [
                -80.91717386499994,
                -4.528271472999847
              ],
              [
                -80.91692186499995,
                -4.525249972999973
              ],
              [
                -80.91944136499995,
                -4.520330097999931
              ],
              [
                -80.90112123999995,
                -4.50669134799989
              ],
              [
                -80.89656048999996,
                -4.502703097999927
              ],
              [
                -80.89041411499988,
                -4.498281097999893
              ],
              [
                -80.8851288649999,
                -4.49625972299998
              ],
              [
                -80.88321873999996,
                -4.493162097999914
              ],
              [
                -80.8804238649999,
                -4.49152734799992
              ],
              [
                -80.87378323999997,
                -4.490392597999914
              ],
              [
                -80.87264261499985,
                -4.487531222999962
              ],
              [
                -80.87508398999995,
                -4.485357472999965
              ],
              [
                -80.87663473999993,
                -4.482396472999937
              ],
              [
                -80.87689848999997,
                -4.476519472999939
              ],
              [
                -80.87634573999998,
                -4.475355472999922
              ],
              [
                -80.87065611499997,
                -4.471908222999957
              ],
              [
                -80.87065611499997,
                -4.469474597999977
              ],
              [
                -80.87284373999995,
                -4.466195347999872
              ],
              [
                -80.87004886499989,
                -4.462306597999941
              ],
              [
                -80.86630661499998,
                -4.460273472999916
              ],
              [
                -80.86492973999992,
                -4.460812472999919
              ],
              [
                -80.8575409899999,
                -4.459236222999891
              ],
              [
                -80.85582611499996,
                -4.456994097999939
              ],
              [
                -80.8502909899999,
                -4.456277347999958
              ],
              [
                -80.85318361499998,
                -4.453156222999894
              ],
              [
                -80.85604486499994,
                -4.448581972999875
              ],
              [
                -80.85457811499998,
                -4.445367222999892
              ],
              [
                -80.85712498999993,
                -4.440365222999901
              ],
              [
                -80.85850973999993,
                -4.435857472999885
              ],
              [
                -80.8575409899999,
                -4.434693347999939
              ],
              [
                -80.85265036499999,
                -4.43218947299988
              ],
              [
                -80.85239448999988,
                -4.430320472999881
              ],
              [
                -80.84995898999989,
                -4.426644472999953
              ],
              [
                -80.84744136499995,
                -4.425339847999965
              ],
              [
                -80.84544923999988,
                -4.422158222999883
              ],
              [
                -80.85032036499996,
                -4.412921847999939
              ],
              [
                -80.85113286499995,
                -4.409087847999899
              ],
              [
                -80.84659573999988,
                -4.405992222999942
              ],
              [
                -80.84486136499999,
                -4.402265597999929
              ],
              [
                -80.84162886499996,
                -4.400234347999913
              ],
              [
                -80.83953511499993,
                -4.397433597999907
              ],
              [
                -80.83436911499996,
                -4.396033347999946
              ],
              [
                -80.83281436499993,
                -4.396462722999956
              ],
              [
                -80.83082811499997,
                -4.393123097999876
              ],
              [
                -80.82912111499996,
                -4.385341847999882
              ],
              [
                -80.83460736499995,
                -4.386341847999915
              ],
              [
                -80.83909761499996,
                -4.383603472999937
              ],
              [
                -80.8416484899999,
                -4.384095722999973
              ],
              [
                -80.84598436499994,
                -4.382841847999885
              ],
              [
                -80.8496972399999,
                -4.384185597999874
              ],
              [
                -80.85230861499997,
                -4.383066347999886
              ],
              [
                -80.85531048999991,
                -4.37949609799989
              ],
              [
                -80.85801573999993,
                -4.377445347999981
              ],
              [
                -80.85836723999995,
                -4.373951222999949
              ],
              [
                -80.85989448999993,
                -4.372548847999838
              ],
              [
                -80.86568561499996,
                -4.370150347999868
              ],
              [
                -80.86609573999993,
                -4.368355472999951
              ],
              [
                -80.86977523999991,
                -4.367058597999971
              ],
              [
                -80.87313286499989,
                -4.367201222999938
              ],
              [
                -80.87718161499998,
                -4.364722597999958
              ],
              [
                -80.87544336499997,
                -4.361851597999873
              ],
              [
                -80.87987498999996,
                -4.353777347999937
              ],
              [
                -80.88024023999998,
                -4.350374972999873
              ],
              [
                -80.87823236499997,
                -4.347726597999952
              ],
              [
                -80.87869336499989,
                -4.344173847999969
              ],
              [
                -80.87727348999994,
                -4.341703097999925
              ],
              [
                -80.87178123999996,
                -4.336994097999934
              ],
              [
                -80.86884961499999,
                -4.335537097999975
              ],
              [
                -80.86903323999996,
                -4.330146472999843
              ],
              [
                -80.87078711499998,
                -4.327501972999869
              ],
              [
                -80.86703911499984,
                -4.322621097999956
              ],
              [
                -80.86748236499994,
                -4.316437472999951
              ],
              [
                -80.87242186499998,
                -4.315478472999814
              ],
              [
                -80.8776641149999,
                -4.316029347999915
              ],
              [
                -80.88041986499996,
                -4.317238222999947
              ],
              [
                -80.88494536499991,
                -4.31725784799994
              ],
              [
                -80.89239261499989,
                -4.318871097999931
              ],
              [
                -80.89411723999996,
                -4.318087847999948
              ],
              [
                -80.89834573999997,
                -4.311585847999879
              ],
              [
                -80.90207611499989,
                -4.30874409799992
              ],
              [
                -80.9049198649999,
                -4.307802722999952
              ],
              [
                -80.90680273999999,
                -4.309597597999925
              ],
              [
                -80.90929098999999,
                -4.314642597999921
              ],
              [
                -80.91472661499995,
                -4.317949222999971
              ],
              [
                -80.91696098999984,
                -4.31467972299987
              ],
              [
                -80.91907998999994,
                -4.31384372299982
              ],
              [
                -80.92314848999985,
                -4.307859347999909
              ],
              [
                -80.93024223999998,
                -4.302464847999886
              ],
              [
                -80.93326761499998,
                -4.300757847999932
              ],
              [
                -80.93693173999992,
                -4.29552522299997
              ],
              [
                -80.93770511499997,
                -4.291087847999904
              ],
              [
                -80.93677923999985,
                -4.287775222999926
              ],
              [
                -80.93334173999989,
                -4.280558722999956
              ],
              [
                -80.93289261499996,
                -4.27372072299994
              ],
              [
                -80.93033598999989,
                -4.269142597999974
              ],
              [
                -80.9289609899999,
                -4.264617222999902
              ],
              [
                -80.93002148999989,
                -4.259138722999921
              ],
              [
                -80.92902923999998,
                -4.253945347999945
              ],
              [
                -80.92675011499995,
                -4.250703097999974
              ],
              [
                -80.92704311499995,
                -4.24631059799998
              ],
              [
                -80.92199236499994,
                -4.24051759799994
              ],
              [
                -80.91789848999997,
                -4.236880847999942
              ],
              [
                -80.91692973999989,
                -4.23492572299989
              ],
              [
                -80.91030473999996,
                -4.228148472999976
              ],
              [
                -80.90892773999997,
                -4.224523472999977
              ],
              [
                -80.9111308649999,
                -4.221234347999939
              ],
              [
                -80.91498436499995,
                -4.21897072299987
              ],
              [
                -80.91755473999984,
                -4.214796847999935
              ],
              [
                -80.92296873999999,
                -4.210757847999901
              ],
              [
                -80.92465423999988,
                -4.207412097999907
              ],
              [
                -80.92425973999997,
                -4.204121097999916
              ],
              [
                -80.92880273999998,
                -4.200722597999913
              ],
              [
                -80.93041211499997,
                -4.197720722999975
              ],
              [
                -80.92858198999988,
                -4.193837847999873
              ],
              [
                -80.92882036499998,
                -4.19115622299995
              ],
              [
                -80.93637886499994,
                -4.189771472999951
              ],
              [
                -80.93740236499997,
                -4.188605472999939
              ],
              [
                -80.93637298999988,
                -4.185255847999883
              ],
              [
                -80.93638473999988,
                -4.178242222999927
              ],
              [
                -80.93359186499998,
                -4.178039096999896
              ],
              [
                -80.93153911499996,
                -4.176726596999913
              ],
              [
                -80.92831448999988,
                -4.16902534799982
              ],
              [
                -80.92688673999999,
                -4.168796847999943
              ],
              [
                -80.92005273999996,
                -4.170679721999932
              ],
              [
                -80.91597461499993,
                -4.174986347999834
              ],
              [
                -80.91069536499992,
                -4.175757847999876
              ],
              [
                -80.90448636499991,
                -4.177609347999976
              ],
              [
                -80.90077336399992,
                -4.179417972999943
              ],
              [
                -80.89737298999995,
                -4.184373096999934
              ],
              [
                -80.89280861499992,
                -4.185113222999917
              ],
              [
                -80.88889848999997,
                -4.186613221999949
              ],
              [
                -80.88582036499992,
                -4.191675596999858
              ],
              [
                -80.88282223999994,
                -4.192800722999948
              ],
              [
                -80.87344923999996,
                -4.19156059799991
              ],
              [
                -80.86988473999992,
                -4.191874972999926
              ],
              [
                -80.86570311499997,
                -4.188878846999899
              ],
              [
                -80.86328323999993,
                -4.190363221999974
              ],
              [
                -80.85989261499998,
                -4.190732472999969
              ],
              [
                -80.85726361499997,
                -4.189365221999935
              ],
              [
                -80.8505312399999,
                -4.190990222999972
              ],
              [
                -80.84676548899989,
                -4.18862309799988
              ],
              [
                -80.84341211499998,
                -4.18858209799987
              ]
            ]
          ]
        ],
        "type": "MultiPolygon"
      },
      "type": "Feature",
      "properties": {
        "PROVINCIA": "SULLANA",
        "DISTRITO": "MARCAVELICA",
        "name": "MARCAVELICA",
        "ID": "190604",
        "DEPARTAMEN": "PIURA"
      }
    }
  ]
}
