{
  "type": "FeatureCollection",
  "features": [
    {
      "geometry": {
        "coordinates": [
          [
            [
              [
                -75.31092535899995,
                -11.857601978999924
              ],
              [
                -75.3064002349999,
                -11.858888479999962
              ],
              [
                -75.30055198399998,
                -11.859796604999872
              ],
              [
                -75.29728273399985,
                -11.861031604999937
              ],
              [
                -75.28994523499989,
                -11.866225978999921
              ],
              [
                -75.28425148399998,
                -11.867193228999952
              ],
              [
                -75.28218998499995,
                -11.865879979999875
              ],
              [
                -75.28239998499998,
                -11.863319979999915
              ],
              [
                -75.27973998499988,
                -11.86243997899993
              ],
              [
                -75.27461998399991,
                -11.863479979999909
              ],
              [
                -75.2676904839999,
                -11.870091104999972
              ],
              [
                -75.26660348399992,
                -11.873054729999978
              ],
              [
                -75.27175585899994,
                -11.875572229999875
              ],
              [
                -75.27776560899997,
                -11.876566354999909
              ],
              [
                -75.28315223399989,
                -11.882499853999946
              ],
              [
                -75.28807810999996,
                -11.884046854999951
              ],
              [
                -75.29221998399998,
                -11.886219979999908
              ],
              [
                -75.29570998499992,
                -11.881779979999976
              ],
              [
                -75.2969658589999,
                -11.88053047999989
              ],
              [
                -75.30358998499997,
                -11.87962997999989
              ],
              [
                -75.30715998499988,
                -11.879859978999946
              ],
              [
                -75.31267998399989,
                -11.87843997999994
              ],
              [
                -75.31556998499991,
                -11.876539979999961
              ],
              [
                -75.31833598499998,
                -11.877293979999877
              ],
              [
                -75.32114998499992,
                -11.879479979999928
              ],
              [
                -75.3229799849999,
                -11.879709979999973
              ],
              [
                -75.32764635999985,
                -11.882575229999873
              ],
              [
                -75.33158198499996,
                -11.882943354999952
              ],
              [
                -75.33355935999998,
                -11.879916979999962
              ],
              [
                -75.33507035999992,
                -11.873013729999968
              ],
              [
                -75.33940423499996,
                -11.870246103999932
              ],
              [
                -75.34062848399998,
                -11.867657103999932
              ],
              [
                -75.33934998399991,
                -11.863829978999831
              ],
              [
                -75.33711998499996,
                -11.860259979999967
              ],
              [
                -75.33655223499989,
                -11.856848228999922
              ],
              [
                -75.33378298499997,
                -11.858712854999908
              ],
              [
                -75.32982098499991,
                -11.858626478999952
              ],
              [
                -75.32691985899993,
                -11.857496104999882
              ],
              [
                -75.32374998499995,
                -11.855115229999967
              ],
              [
                -75.31986360999991,
                -11.853615229999946
              ],
              [
                -75.31626260999997,
                -11.855447854999966
              ],
              [
                -75.3132081089999,
                -11.85814860399995
              ],
              [
                -75.31092535899995,
                -11.857601978999924
              ]
            ]
          ]
        ],
        "type": "MultiPolygon"
      },
      "type": "Feature",
      "properties": {
        "PROVINCIA": "CONCEPCION",
        "DISTRITO": "SANTA ROSA DE OCOPA",
        "name": "SANTA ROSA DE OCOPA",
        "ID": "110214",
        "DEPARTAMEN": "JUNIN"
      }
    }
  ]
}
