{
  "type": "FeatureCollection",
  "features": [
    {
      "geometry": {
        "coordinates": [
          [
            [
              [
                -77.91854298699997,
                -8.746861351999883
              ],
              [
                -77.91663286199991,
                -8.746490226999924
              ],
              [
                -77.91414648699998,
                -8.747847601999979
              ],
              [
                -77.90621673699997,
                -8.74747460199984
              ],
              [
                -77.90299023699998,
                -8.748275351999837
              ],
              [
                -77.8959453619999,
                -8.752070351999976
              ],
              [
                -77.89358786199989,
                -8.758347601999901
              ],
              [
                -77.88798898699991,
                -8.758805476999953
              ],
              [
                -77.87906448699994,
                -8.762396476999982
              ],
              [
                -77.86984173699989,
                -8.762951226999974
              ],
              [
                -77.86028711199998,
                -8.776285101999918
              ],
              [
                -77.85280573699993,
                -8.779325351999944
              ],
              [
                -77.85191336199995,
                -8.781853601999956
              ],
              [
                -77.85259148699998,
                -8.786972351999907
              ],
              [
                -77.8500217369999,
                -8.78868560199993
              ],
              [
                -77.84688086199998,
                -8.794324976999974
              ],
              [
                -77.84397848699984,
                -8.796634726999969
              ],
              [
                -77.84882611199993,
                -8.798738226999888
              ],
              [
                -77.85115623699988,
                -8.80166597699997
              ],
              [
                -77.85386136199998,
                -8.803759726999886
              ],
              [
                -77.85476561199994,
                -8.805857476999904
              ],
              [
                -77.85331448699992,
                -8.81179497699992
              ],
              [
                -77.85106836199998,
                -8.810421851999934
              ],
              [
                -77.8442402369999,
                -8.810544976999893
              ],
              [
                -77.83957811199997,
                -8.812630851999927
              ],
              [
                -77.83670111199996,
                -8.816412101999958
              ],
              [
                -77.82970898699995,
                -8.821451226999898
              ],
              [
                -77.82959373699998,
                -8.83030660199995
              ],
              [
                -77.82863286199995,
                -8.833900351999944
              ],
              [
                -77.82591786199993,
                -8.837377101999891
              ],
              [
                -77.82258986199992,
                -8.843142601999887
              ],
              [
                -77.82219536199995,
                -8.85112310199986
              ],
              [
                -77.82257036199991,
                -8.852628851999896
              ],
              [
                -77.82594923699997,
                -8.856046851999906
              ],
              [
                -77.82707611199993,
                -8.859759726999926
              ],
              [
                -77.82996098699988,
                -8.863902351999911
              ],
              [
                -77.83071486199992,
                -8.866290976999949
              ],
              [
                -77.83037298699998,
                -8.871248101999925
              ],
              [
                -77.82957036199991,
                -8.873499976999938
              ],
              [
                -77.82680861199992,
                -8.875816351999902
              ],
              [
                -77.82825586199993,
                -8.8797343519999
              ],
              [
                -77.83108011199994,
                -8.880744101999937
              ],
              [
                -77.83349798699999,
                -8.884556600999929
              ],
              [
                -77.83341598699997,
                -8.887972601999934
              ],
              [
                -77.83850198699997,
                -8.893814476999978
              ],
              [
                -77.84499023699988,
                -8.898824226999977
              ],
              [
                -77.84809173699989,
                -8.897951226999908
              ],
              [
                -77.85175836199988,
                -8.893526726999937
              ],
              [
                -77.85516673699988,
                -8.891846726999972
              ],
              [
                -77.86122873699992,
                -8.88757922699989
              ],
              [
                -77.86318361199994,
                -8.884623226999906
              ],
              [
                -77.86749898699992,
                -8.880886976999875
              ],
              [
                -77.86949161199988,
                -8.877748726999926
              ],
              [
                -77.86863486199996,
                -8.875562976999902
              ],
              [
                -77.86435161199995,
                -8.87261847699989
              ],
              [
                -77.86259698699996,
                -8.867324101999884
              ],
              [
                -77.86003611199999,
                -8.863222976999964
              ],
              [
                -77.86292411199997,
                -8.855932476999953
              ],
              [
                -77.86541011199995,
                -8.854499226999963
              ],
              [
                -77.87235936199994,
                -8.852792976999979
              ],
              [
                -77.87584673699996,
                -8.85042735199994
              ],
              [
                -77.88011273699982,
                -8.848786601999961
              ],
              [
                -77.88467161199998,
                -8.846201476999966
              ],
              [
                -77.88951061199998,
                -8.844873226999937
              ],
              [
                -77.89278648699997,
                -8.845528351999974
              ],
              [
                -77.89866148699997,
                -8.843057850999912
              ],
              [
                -77.90247148799989,
                -8.843591351999976
              ],
              [
                -77.90705773699995,
                -8.841568976999895
              ],
              [
                -77.91067536199995,
                -8.841227101999948
              ],
              [
                -77.91322723699994,
                -8.838564976999976
              ],
              [
                -77.92044586199995,
                -8.835900351999953
              ],
              [
                -77.92692573699998,
                -8.830814476999933
              ],
              [
                -77.92634236199996,
                -8.825047351999899
              ],
              [
                -77.92761911199995,
                -8.822687476999931
              ],
              [
                -77.93198248699997,
                -8.818438726999943
              ],
              [
                -77.93369161199996,
                -8.81590347699995
              ],
              [
                -77.93973848699989,
                -8.812080726999966
              ],
              [
                -77.94422073799996,
                -8.803433601999927
              ],
              [
                -77.95033873699998,
                -8.795766601999958
              ],
              [
                -77.95421886199995,
                -8.792612851999877
              ],
              [
                -77.95469973699994,
                -8.79042197699988
              ],
              [
                -77.95824411199999,
                -8.785851600999933
              ],
              [
                -77.96188548699996,
                -8.784520976999943
              ],
              [
                -77.96563511199992,
                -8.784794476999934
              ],
              [
                -77.96704911199998,
                -8.78606747699996
              ],
              [
                -77.97213673699991,
                -8.788298851999912
              ],
              [
                -77.97647173699994,
                -8.791183476999947
              ],
              [
                -77.9783753619999,
                -8.791706976999876
              ],
              [
                -77.98633598699996,
                -8.792214851999915
              ],
              [
                -77.98951123699999,
                -8.79449085199991
              ],
              [
                -77.99145273799996,
                -8.79939247699997
              ],
              [
                -77.99581248699997,
                -8.79813872699998
              ],
              [
                -78.00222186199994,
                -8.787622351999971
              ],
              [
                -78.00217386199989,
                -8.783896476999871
              ],
              [
                -78.00379536199995,
                -8.779304976999981
              ],
              [
                -78.00834886199993,
                -8.773787101999915
              ],
              [
                -78.01019948699997,
                -8.770458976999976
              ],
              [
                -78.01459411199994,
                -8.766355976999876
              ],
              [
                -78.01528986199986,
                -8.761675975999879
              ],
              [
                -78.01465736299991,
                -8.759509976999936
              ],
              [
                -78.01528986199986,
                -8.755683726999962
              ],
              [
                -78.01344761199994,
                -8.751760851999904
              ],
              [
                -78.01377198699993,
                -8.749501601999953
              ],
              [
                -78.00979311199995,
                -8.746053976999974
              ],
              [
                -78.00645873699995,
                -8.73996672699991
              ],
              [
                -78.00675198699997,
                -8.736947976999886
              ],
              [
                -78.00439623699992,
                -8.732236351999973
              ],
              [
                -78.0047847379999,
                -8.728645226999845
              ],
              [
                -78.0011402369999,
                -8.726500351999903
              ],
              [
                -78.00007373699987,
                -8.72453197699997
              ],
              [
                -77.99993011199996,
                -8.720831601999919
              ],
              [
                -77.99880848699996,
                -8.717890976999968
              ],
              [
                -77.99812723699995,
                -8.71233510199994
              ],
              [
                -77.99550623799996,
                -8.707153476999906
              ],
              [
                -77.98689473699994,
                -8.700179351999907
              ],
              [
                -77.98645111199988,
                -8.694988226999953
              ],
              [
                -77.98298911199998,
                -8.693170350999878
              ],
              [
                -77.97922123699988,
                -8.692385726999873
              ],
              [
                -77.97202736199995,
                -8.692001976999961
              ],
              [
                -77.96584173699989,
                -8.69737110099993
              ],
              [
                -77.96107223699988,
                -8.699314475999927
              ],
              [
                -77.95612486199997,
                -8.699363226999878
              ],
              [
                -77.9558632369999,
                -8.701949226999886
              ],
              [
                -77.9527812369999,
                -8.705837851999945
              ],
              [
                -77.9494804869999,
                -8.7075722269999
              ],
              [
                -77.94756636199998,
                -8.710214851999979
              ],
              [
                -77.94395511199997,
                -8.718490226999904
              ],
              [
                -77.9419707369999,
                -8.721371101999978
              ],
              [
                -77.94199998799996,
                -8.725029351999979
              ],
              [
                -77.94073636199994,
                -8.728515601999959
              ],
              [
                -77.93614448699998,
                -8.731081976999917
              ],
              [
                -77.93479873699982,
                -8.733115226999928
              ],
              [
                -77.93059961199992,
                -8.736201226999924
              ],
              [
                -77.92441798699997,
                -8.7398906009999
              ],
              [
                -77.92372261199989,
                -8.743699101999937
              ],
              [
                -77.92099998699996,
                -8.747496101999843
              ],
              [
                -77.91854298699997,
                -8.746861351999883
              ]
            ]
          ]
        ],
        "type": "MultiPolygon"
      },
      "type": "Feature",
      "properties": {
        "PROVINCIA": "HUAYLAS",
        "DISTRITO": "HUALLANCA",
        "name": "HUALLANCA",
        "ID": "020702",
        "DEPARTAMEN": "ANCASH"
      }
    }
  ]
}
