{
  "type": "FeatureCollection",
  "features": [
    {
      "geometry": {
        "coordinates": [
          [
            [
              [
                -71.48773160599995,
                -13.721726481999951
              ],
              [
                -71.4860919809999,
                -13.72603073199997
              ],
              [
                -71.48230010599997,
                -13.72833660599997
              ],
              [
                -71.47871323099992,
                -13.733870606999972
              ],
              [
                -71.47907198099995,
                -13.736176480999973
              ],
              [
                -71.47230810599996,
                -13.737969856999882
              ],
              [
                -71.46523685599988,
                -13.741044355999975
              ],
              [
                -71.46431460599996,
                -13.742735231999973
              ],
              [
                -71.46539060599991,
                -13.745860980999964
              ],
              [
                -71.46113773099995,
                -13.750165230999869
              ],
              [
                -71.45780698099986,
                -13.751804855999978
              ],
              [
                -71.45486723099998,
                -13.755506981999872
              ],
              [
                -71.45022535599998,
                -13.757427856999925
              ],
              [
                -71.44822448099995,
                -13.76190960699995
              ],
              [
                -71.44454298099998,
                -13.76471073099998
              ],
              [
                -71.44094160599991,
                -13.76607135599994
              ],
              [
                -71.43881960599992,
                -13.76889123199993
              ],
              [
                -71.4390663559999,
                -13.773048855999946
              ],
              [
                -71.43326735599999,
                -13.773678981999922
              ],
              [
                -71.43037048099995,
                -13.774966481999968
              ],
              [
                -71.42063410599991,
                -13.773960731999978
              ],
              [
                -71.41817985599988,
                -13.775328605999903
              ],
              [
                -71.41628885599994,
                -13.778788731999953
              ],
              [
                -71.41186323099993,
                -13.784541981999894
              ],
              [
                -71.4013729809999,
                -13.791520231999982
              ],
              [
                -71.40093598099998,
                -13.796783731999938
              ],
              [
                -71.39652660599995,
                -13.799882106999974
              ],
              [
                -71.3884626059999,
                -13.804132606999929
              ],
              [
                -71.38244448099988,
                -13.80458948099988
              ],
              [
                -71.37197723099996,
                -13.807191355999976
              ],
              [
                -71.37033573099995,
                -13.811190605999911
              ],
              [
                -71.37802285599997,
                -13.810024606999889
              ],
              [
                -71.38614185599994,
                -13.815228605999891
              ],
              [
                -71.3880419809999,
                -13.81861873199989
              ],
              [
                -71.38836598099982,
                -13.823714606999943
              ],
              [
                -71.39380735599991,
                -13.82481573199982
              ],
              [
                -71.39488710599989,
                -13.826370605999955
              ],
              [
                -71.39475748099994,
                -13.830106230999945
              ],
              [
                -71.39670085599994,
                -13.831315355999891
              ],
              [
                -71.40054448099994,
                -13.830602856999917
              ],
              [
                -71.40982573099996,
                -13.832402606999949
              ],
              [
                -71.41446760599996,
                -13.83292273099994
              ],
              [
                -71.42343123099988,
                -13.832362605999947
              ],
              [
                -71.42555210599994,
                -13.836164105999899
              ],
              [
                -71.42887348099998,
                -13.837644730999898
              ],
              [
                -71.43331523099994,
                -13.844127356999934
              ],
              [
                -71.43847260599989,
                -13.848062855999956
              ],
              [
                -71.44269260599992,
                -13.849422730999947
              ],
              [
                -71.44921060599995,
                -13.855260606999877
              ],
              [
                -71.45558773099998,
                -13.856034356999942
              ],
              [
                -71.45840110699999,
                -13.858566356999916
              ],
              [
                -71.46515335599992,
                -13.858167855999909
              ],
              [
                -71.46890460599997,
                -13.859574605999967
              ],
              [
                -71.47114810599999,
                -13.856529981999927
              ],
              [
                -71.47152348099996,
                -13.853839106999942
              ],
              [
                -71.47963723099997,
                -13.845537855999908
              ],
              [
                -71.48357935599995,
                -13.844891230999963
              ],
              [
                -71.4860822309999,
                -13.846121855999911
              ],
              [
                -71.49281935599998,
                -13.84681023099995
              ],
              [
                -71.4995981059999,
                -13.845433605999915
              ],
              [
                -71.50153785599997,
                -13.84672673199998
              ],
              [
                -71.50422848099993,
                -13.850272605999976
              ],
              [
                -71.5093387309999,
                -13.853755855999964
              ],
              [
                -71.50960985599994,
                -13.85742685699995
              ],
              [
                -71.51255073099992,
                -13.860597356999904
              ],
              [
                -71.51384398099998,
                -13.863725856999963
              ],
              [
                -71.51487885599994,
                -13.869560605999936
              ],
              [
                -71.5192519819999,
                -13.863560606999954
              ],
              [
                -71.52538823099985,
                -13.866344855999955
              ],
              [
                -71.5286502319999,
                -13.868655481999895
              ],
              [
                -71.53407110599983,
                -13.868993480999961
              ],
              [
                -71.53727723099996,
                -13.87280223199997
              ],
              [
                -71.54287735599996,
                -13.87375460699991
              ],
              [
                -71.54840598099992,
                -13.878815605999876
              ],
              [
                -71.55272848099997,
                -13.88352748099993
              ],
              [
                -71.55531235599989,
                -13.884801730999925
              ],
              [
                -71.55576173099996,
                -13.889996105999955
              ],
              [
                -71.55835623199994,
                -13.896163355999875
              ],
              [
                -71.56430260699989,
                -13.901649606999968
              ],
              [
                -71.56538235599999,
                -13.903277856999921
              ],
              [
                -71.57038323099994,
                -13.90533460699993
              ],
              [
                -71.57389035699998,
                -13.90607060699989
              ],
              [
                -71.5763748569999,
                -13.905642856999862
              ],
              [
                -71.58086148099989,
                -13.902345981999929
              ],
              [
                -71.58976685599998,
                -13.902039981999906
              ],
              [
                -71.59393373199987,
                -13.904769105999947
              ],
              [
                -71.60085135599996,
                -13.90627285699992
              ],
              [
                -71.60634173099993,
                -13.903208356999869
              ],
              [
                -71.60853885599994,
                -13.903452480999817
              ],
              [
                -71.61069535599995,
                -13.900604230999875
              ],
              [
                -71.61594410599997,
                -13.897267855999928
              ],
              [
                -71.6201757319999,
                -13.897267856999974
              ],
              [
                -71.62390798099989,
                -13.892158106999943
              ],
              [
                -71.62903573099999,
                -13.884186856999975
              ],
              [
                -71.63215898099992,
                -13.875935856999945
              ],
              [
                -71.63239210599994,
                -13.870621606999975
              ],
              [
                -71.63613573099997,
                -13.865190105999886
              ],
              [
                -71.63807523099996,
                -13.86111610599994
              ],
              [
                -71.63874460599999,
                -13.857139731999837
              ],
              [
                -71.6389096069999,
                -13.849849106999955
              ],
              [
                -71.63452160599991,
                -13.845605981999881
              ],
              [
                -71.63586698099994,
                -13.839334355999938
              ],
              [
                -71.63777573099998,
                -13.835233731999836
              ],
              [
                -71.63266448099989,
                -13.833802731999981
              ],
              [
                -71.63452623099994,
                -13.8315539809999
              ],
              [
                -71.63745598199995,
                -13.821420230999877
              ],
              [
                -71.63560535699997,
                -13.81852448099994
              ],
              [
                -71.63288298099997,
                -13.816427480999948
              ],
              [
                -71.63273585599995,
                -13.814514481999879
              ],
              [
                -71.63692985599994,
                -13.807818856999916
              ],
              [
                -71.64174923099995,
                -13.799320606999856
              ],
              [
                -71.64160348099995,
                -13.79014660699994
              ],
              [
                -71.63931923099994,
                -13.787695856999903
              ],
              [
                -71.64034510599993,
                -13.783287230999917
              ],
              [
                -71.63984610599994,
                -13.781595856999957
              ],
              [
                -71.63485473099996,
                -13.776291355999888
              ],
              [
                -71.63578848099985,
                -13.773787355999957
              ],
              [
                -71.64270610599988,
                -13.763347231999944
              ],
              [
                -71.6445108559999,
                -13.75910423099998
              ],
              [
                -71.64022035599999,
                -13.756287355999973
              ],
              [
                -71.63516635599996,
                -13.753687355999944
              ],
              [
                -71.63310085699987,
                -13.75018835599991
              ],
              [
                -71.62935898199999,
                -13.749216355999977
              ],
              [
                -71.62605435599994,
                -13.747393981999892
              ],
              [
                -71.62350298099994,
                -13.744235230999948
              ],
              [
                -71.61895910599998,
                -13.745547355999975
              ],
              [
                -71.61611623199991,
                -13.751233231999947
              ],
              [
                -71.61276298099995,
                -13.752472480999813
              ],
              [
                -71.60787898099994,
                -13.755801355999893
              ],
              [
                -71.60593510699988,
                -13.755120980999948
              ],
              [
                -71.59473335599995,
                -13.758790106999925
              ],
              [
                -71.59310535599997,
                -13.75718635599992
              ],
              [
                -71.59065123099998,
                -13.752691105999872
              ],
              [
                -71.58506635599997,
                -13.748540980999962
              ],
              [
                -71.58159185599999,
                -13.743410105999942
              ],
              [
                -71.57651935599989,
                -13.741078105999918
              ],
              [
                -71.57420110599992,
                -13.740833356999929
              ],
              [
                -71.56926848099982,
                -13.743870730999959
              ],
              [
                -71.56605860599996,
                -13.744412105999913
              ],
              [
                -71.56300323099987,
                -13.738202731999877
              ],
              [
                -71.55901673199998,
                -13.732686230999946
              ],
              [
                -71.55275848099996,
                -13.725639980999972
              ],
              [
                -71.54719585599997,
                -13.72244135699998
              ],
              [
                -71.54305160599989,
                -13.716390980999961
              ],
              [
                -71.53739848099997,
                -13.71708035599994
              ],
              [
                -71.53640685699997,
                -13.71194073199996
              ],
              [
                -71.5331436059999,
                -13.71100535699992
              ],
              [
                -71.5301123559999,
                -13.707142980999834
              ],
              [
                -71.52527210599999,
                -13.704649480999933
              ],
              [
                -71.52546773099994,
                -13.701716106999982
              ],
              [
                -71.52363860599996,
                -13.699682480999911
              ],
              [
                -71.51820785599995,
                -13.699288980999938
              ],
              [
                -71.51492848099991,
                -13.700154730999827
              ],
              [
                -71.50820235599997,
                -13.704867230999923
              ],
              [
                -71.50456223099997,
                -13.708048230999964
              ],
              [
                -71.49872485599997,
                -13.71152448099997
              ],
              [
                -71.49639648099992,
                -13.715098981999972
              ],
              [
                -71.49216598099986,
                -13.719362230999934
              ],
              [
                -71.48987048099997,
                -13.719591855999909
              ],
              [
                -71.48773160599995,
                -13.721726481999951
              ]
            ]
          ]
        ],
        "type": "MultiPolygon"
      },
      "type": "Feature",
      "properties": {
        "PROVINCIA": "QUISPICANCHI",
        "DISTRITO": "QUIQUIJANA",
        "name": "QUIQUIJANA",
        "ID": "071212",
        "DEPARTAMEN": "CUSCO"
      }
    }
  ]
}
