{
  "type": "FeatureCollection",
  "features": [
    {
      "geometry": {
        "coordinates": [
          [
            [
              [
                -78.01299298799995,
                -6.934580099999948
              ],
              [
                -78.01108023699999,
                -6.937079224999934
              ],
              [
                -78.00443111199996,
                -6.937133099999869
              ],
              [
                -78.00205198699996,
                -6.93828472499996
              ],
              [
                -78.00088486199991,
                -6.942132099999867
              ],
              [
                -78.00561711199998,
                -6.942921974999933
              ],
              [
                -78.01146286199992,
                -6.944863224999949
              ],
              [
                -78.02348823699998,
                -6.946160099999872
              ],
              [
                -78.02856836299992,
                -6.94765434999988
              ],
              [
                -78.03316598699996,
                -6.949851599999874
              ],
              [
                -78.03360161199993,
                -6.952484349999963
              ],
              [
                -78.03631248699998,
                -6.955454974999952
              ],
              [
                -78.03600786299995,
                -6.957792974999961
              ],
              [
                -78.03888673699998,
                -6.96032222499997
              ],
              [
                -78.03924798699984,
                -6.963107474999958
              ],
              [
                -78.04217186199998,
                -6.964128849999895
              ],
              [
                -78.04538473699989,
                -6.967716849999874
              ],
              [
                -78.04886523699992,
                -6.968027349999886
              ],
              [
                -78.05810736199999,
                -6.97334372499995
              ],
              [
                -78.06698436199997,
                -6.974533224999959
              ],
              [
                -78.06998636199995,
                -6.970851599999889
              ],
              [
                -78.07375836199992,
                -6.969512349999945
              ],
              [
                -78.07997198799995,
                -6.969568349999918
              ],
              [
                -78.08299998699994,
                -6.968906224999955
              ],
              [
                -78.0863894869999,
                -6.966813474999981
              ],
              [
                -78.08906911199995,
                -6.963661224999953
              ],
              [
                -78.09080486199991,
                -6.959689474999948
              ],
              [
                -78.09211523699997,
                -6.952410974999907
              ],
              [
                -78.09775061199997,
                -6.951674349999962
              ],
              [
                -78.10074886199999,
                -6.950189224999917
              ],
              [
                -78.10750648699991,
                -6.944298099999912
              ],
              [
                -78.11060348699993,
                -6.941115224999919
              ],
              [
                -78.12341211199993,
                -6.936992224999926
              ],
              [
                -78.12740623699983,
                -6.935949224999945
              ],
              [
                -78.13092973699997,
                -6.933847599999979
              ],
              [
                -78.12551036299999,
                -6.930083974999889
              ],
              [
                -78.11758098799999,
                -6.927155974999835
              ],
              [
                -78.11240561199998,
                -6.923163599999896
              ],
              [
                -78.11096273799996,
                -6.920690224999873
              ],
              [
                -78.10615623699994,
                -6.914980474999879
              ],
              [
                -78.10464923699993,
                -6.912313099999892
              ],
              [
                -78.10218336199983,
                -6.909436224999979
              ],
              [
                -78.09963673699997,
                -6.908306599999946
              ],
              [
                -78.0920273619999,
                -6.908007849999933
              ],
              [
                -78.08298636299997,
                -6.910843724999893
              ],
              [
                -78.07839448699991,
                -6.91540434999996
              ],
              [
                -78.07152923699994,
                -6.91583197499989
              ],
              [
                -78.0659337379999,
                -6.912681599999928
              ],
              [
                -78.06307598699988,
                -6.915761724999868
              ],
              [
                -78.05852148799988,
                -6.9142069749999
              ],
              [
                -78.05312111199999,
                -6.91621484999996
              ],
              [
                -78.05063086199993,
                -6.918097599999953
              ],
              [
                -78.04529298699998,
                -6.920242224999924
              ],
              [
                -78.04293548799996,
                -6.922748099999978
              ],
              [
                -78.03892186199994,
                -6.922722599999929
              ],
              [
                -78.03471286199994,
                -6.928107474999933
              ],
              [
                -78.02564448699997,
                -6.933904349999978
              ],
              [
                -78.02140236199995,
                -6.937066349999952
              ],
              [
                -78.01708986299991,
                -6.937066349999952
              ],
              [
                -78.01299298799995,
                -6.934580099999948
              ]
            ]
          ]
        ],
        "type": "MultiPolygon"
      },
      "type": "Feature",
      "properties": {
        "PROVINCIA": "CELENDIN",
        "DISTRITO": "JORGE CHAVEZ",
        "name": "JORGE CHAVEZ",
        "ID": "060305",
        "DEPARTAMEN": "CAJAMARCA"
      }
    }
  ]
}
