{
  "type": "FeatureCollection",
  "features": [
    {
      "geometry": {
        "coordinates": [
          [
            [
              [
                -78.00088486199991,
                -6.942132099999867
              ],
              [
                -78.00080636199982,
                -6.947597099999939
              ],
              [
                -77.99829011199989,
                -6.950113224999939
              ],
              [
                -77.99773961199992,
                -6.952039724999906
              ],
              [
                -77.99939086199993,
                -6.957426099999907
              ],
              [
                -77.99927298699987,
                -6.961436350999975
              ],
              [
                -78.0018284869999,
                -6.964778224999975
              ],
              [
                -78.00210373699997,
                -6.967844849999892
              ],
              [
                -77.9995064869999,
                -6.970531599999958
              ],
              [
                -77.99392636299996,
                -6.969469099999969
              ],
              [
                -77.98849111199996,
                -6.97532435099987
              ],
              [
                -77.98933123699999,
                -6.97717009999991
              ],
              [
                -77.99362098799992,
                -6.977895599999897
              ],
              [
                -77.99433361199993,
                -6.981497849999869
              ],
              [
                -77.99698298699991,
                -6.984590724999975
              ],
              [
                -78.00033086199988,
                -6.983061849999956
              ],
              [
                -78.00118048699994,
                -6.986547849999909
              ],
              [
                -78.00017111199992,
                -6.98958609999994
              ],
              [
                -77.99289911199998,
                -6.993241724999962
              ],
              [
                -77.99105661199997,
                -6.995397849999961
              ],
              [
                -77.99037261299992,
                -6.998556849999943
              ],
              [
                -77.9854604869999,
                -7.000572474999899
              ],
              [
                -77.98495086199995,
                -7.003248099999951
              ],
              [
                -77.98828086199995,
                -7.006215849999933
              ],
              [
                -77.98779286199988,
                -7.011215974999914
              ],
              [
                -77.98512723699997,
                -7.014214849999973
              ],
              [
                -77.98002098699999,
                -7.014459974999909
              ],
              [
                -77.97889411199992,
                -7.015979099999925
              ],
              [
                -77.97984661199996,
                -7.021424600999921
              ],
              [
                -77.97888423699999,
                -7.023937099999898
              ],
              [
                -77.97288636199994,
                -7.024025224999889
              ],
              [
                -77.97082823799991,
                -7.026494974999878
              ],
              [
                -77.97080861199998,
                -7.02902359999996
              ],
              [
                -77.9690019869999,
                -7.032571349999955
              ],
              [
                -77.96655511199992,
                -7.034521724999934
              ],
              [
                -77.96526148699985,
                -7.038294849999943
              ],
              [
                -77.96621711299997,
                -7.045284974999902
              ],
              [
                -77.965921112,
                -7.05077397499997
              ],
              [
                -77.96317661299992,
                -7.053437849999909
              ],
              [
                -77.95793061199998,
                -7.054328475999966
              ],
              [
                -77.95224623699994,
                -7.063443099999972
              ],
              [
                -77.95114973699992,
                -7.064613474999817
              ],
              [
                -77.95148048699991,
                -7.065720724999949
              ],
              [
                -77.95780473699989,
                -7.070523474999959
              ],
              [
                -77.96083011199994,
                -7.071390599999916
              ],
              [
                -77.96519536199997,
                -7.07364847499997
              ],
              [
                -77.97167573699994,
                -7.076064474999953
              ],
              [
                -77.97679061199995,
                -7.079735600999925
              ],
              [
                -77.97842773699995,
                -7.079751974999965
              ],
              [
                -77.98683598699995,
                -7.082208974999958
              ],
              [
                -77.99062886199988,
                -7.084261724999976
              ],
              [
                -77.99660348699996,
                -7.086392599999954
              ],
              [
                -78.00000198699996,
                -7.086937599999942
              ],
              [
                -78.00415423699997,
                -7.089429725999935
              ],
              [
                -78.00595898699999,
                -7.092847599999914
              ],
              [
                -78.01594536199991,
                -7.096804725999959
              ],
              [
                -78.02159573699998,
                -7.103996099999961
              ],
              [
                -78.02274411199994,
                -7.108267599999976
              ],
              [
                -78.02401761199991,
                -7.109910099999979
              ],
              [
                -78.02863286299993,
                -7.112406349999958
              ],
              [
                -78.03011911199991,
                -7.111937474999877
              ],
              [
                -78.03473048699988,
                -7.120503974999906
              ],
              [
                -78.03741411299995,
                -7.120910099999946
              ],
              [
                -78.04034173699989,
                -7.122763725999903
              ],
              [
                -78.05032611199994,
                -7.131300849999946
              ],
              [
                -78.0527187369999,
                -7.13185747599988
              ],
              [
                -78.0565272369999,
                -7.13479097499993
              ],
              [
                -78.05909961199995,
                -7.132548850999967
              ],
              [
                -78.06420698699992,
                -7.131794975999924
              ],
              [
                -78.07019923699994,
                -7.128220724999892
              ],
              [
                -78.07264848699992,
                -7.128443349999941
              ],
              [
                -78.07676173699991,
                -7.131712849999928
              ],
              [
                -78.07946286199996,
                -7.132236349999971
              ],
              [
                -78.08408598799991,
                -7.13201759999987
              ],
              [
                -78.0878828619999,
                -7.130806599999971
              ],
              [
                -78.09693536199995,
                -7.129562599999872
              ],
              [
                -78.10259948699996,
                -7.127765600999965
              ],
              [
                -78.10659373699997,
                -7.129894474999901
              ],
              [
                -78.11195511199992,
                -7.138464724999892
              ],
              [
                -78.11251223699992,
                -7.144180224999843
              ],
              [
                -78.11445323699996,
                -7.146253599999966
              ],
              [
                -78.11842348699997,
                -7.144268474999933
              ],
              [
                -78.12411423699996,
                -7.146871225999917
              ],
              [
                -78.12989311199988,
                -7.148106349999978
              ],
              [
                -78.13576023799993,
                -7.14695947599995
              ],
              [
                -78.14943111199989,
                -7.151880974999926
              ],
              [
                -78.16136111299994,
                -7.152848849999884
              ],
              [
                -78.16275786299997,
                -7.152517599999896
              ],
              [
                -78.17363173699994,
                -7.146290849999957
              ],
              [
                -78.17599211199996,
                -7.146694724999975
              ],
              [
                -78.18075636299994,
                -7.149341474999915
              ],
              [
                -78.18369448799996,
                -7.14914747499995
              ],
              [
                -78.18674486199995,
                -7.147014475999981
              ],
              [
                -78.18748711199999,
                -7.143816474999937
              ],
              [
                -78.1872017369999,
                -7.139190974999963
              ],
              [
                -78.18737298699995,
                -7.126455974999885
              ],
              [
                -78.18962461199999,
                -7.120713850999948
              ],
              [
                -78.19451123799996,
                -7.114822724999954
              ],
              [
                -78.19795311199988,
                -7.112828100999934
              ],
              [
                -78.19381486199995,
                -7.109031099999925
              ],
              [
                -78.18750836199996,
                -7.107437099999913
              ],
              [
                -78.17946948699989,
                -7.108476724999889
              ],
              [
                -78.1741333629999,
                -7.112911974999975
              ],
              [
                -78.16990586199995,
                -7.114575224999896
              ],
              [
                -78.16547048699988,
                -7.114852349999921
              ],
              [
                -78.16207473699995,
                -7.113882224999941
              ],
              [
                -78.15902736199996,
                -7.111097474999951
              ],
              [
                -78.15569223699998,
                -7.105643475999955
              ],
              [
                -78.1521632379999,
                -7.096887099999947
              ],
              [
                -78.14792573799997,
                -7.094039099999918
              ],
              [
                -78.14430111199988,
                -7.094617349999965
              ],
              [
                -78.14199811199995,
                -7.093472600999917
              ],
              [
                -78.13716598699989,
                -7.08764847499998
              ],
              [
                -78.13545698699988,
                -7.083193349999931
              ],
              [
                -78.13046286199994,
                -7.077570350999906
              ],
              [
                -78.12804486199991,
                -7.073876974999962
              ],
              [
                -78.12755273699997,
                -7.06842572499994
              ],
              [
                -78.12641598699997,
                -7.065212849999909
              ],
              [
                -78.12680073699983,
                -7.058818350999957
              ],
              [
                -78.12274986199992,
                -7.056787099999895
              ],
              [
                -78.12003511199993,
                -7.05278522499998
              ],
              [
                -78.11635348799996,
                -7.052925725999899
              ],
              [
                -78.10637111199992,
                -7.049792974999946
              ],
              [
                -78.10377348699996,
                -7.047029349999889
              ],
              [
                -78.10048048799996,
                -7.046005849999972
              ],
              [
                -78.09691598699999,
                -7.043183599999963
              ],
              [
                -78.094951112,
                -7.040640599999961
              ],
              [
                -78.0934334879999,
                -7.034697224999888
              ],
              [
                -78.09340823699995,
                -7.028490224999928
              ],
              [
                -78.09185723699994,
                -7.026285099999939
              ],
              [
                -78.0918124879999,
                -7.021902349999948
              ],
              [
                -78.0937167379999,
                -7.015355475999968
              ],
              [
                -78.09265236199991,
                -7.011871099999951
              ],
              [
                -78.09421673799994,
                -7.007580099999927
              ],
              [
                -78.09783786199989,
                -7.002470724999966
              ],
              [
                -78.09762298699997,
                -6.996417974999872
              ],
              [
                -78.09525198699998,
                -6.99383784999992
              ],
              [
                -78.09034761199985,
                -6.990048849999937
              ],
              [
                -78.08629886199998,
                -6.991107474999978
              ],
              [
                -78.08243361199999,
                -6.988771474999965
              ],
              [
                -78.07923236199997,
                -6.988742224999953
              ],
              [
                -78.07616598699991,
                -6.987621099999899
              ],
              [
                -78.07205861299997,
                -6.984976599999925
              ],
              [
                -78.07072261199994,
                -6.980503849999877
              ],
              [
                -78.0679882369999,
                -6.975203099999874
              ],
              [
                -78.06698436199997,
                -6.974533224999959
              ],
              [
                -78.05810736199999,
                -6.97334372499995
              ],
              [
                -78.04886523699992,
                -6.968027349999886
              ],
              [
                -78.04538473699989,
                -6.967716849999874
              ],
              [
                -78.04217186199998,
                -6.964128849999895
              ],
              [
                -78.03924798699984,
                -6.963107474999958
              ],
              [
                -78.03888673699998,
                -6.96032222499997
              ],
              [
                -78.03600786299995,
                -6.957792974999961
              ],
              [
                -78.03631248699998,
                -6.955454974999952
              ],
              [
                -78.03360161199993,
                -6.952484349999963
              ],
              [
                -78.03316598699996,
                -6.949851599999874
              ],
              [
                -78.02856836299992,
                -6.94765434999988
              ],
              [
                -78.02348823699998,
                -6.946160099999872
              ],
              [
                -78.01146286199992,
                -6.944863224999949
              ],
              [
                -78.00561711199998,
                -6.942921974999933
              ],
              [
                -78.00088486199991,
                -6.942132099999867
              ]
            ]
          ]
        ],
        "type": "MultiPolygon"
      },
      "type": "Feature",
      "properties": {
        "PROVINCIA": "CELENDIN",
        "DISTRITO": "OXAMARCA",
        "name": "OXAMARCA",
        "ID": "060308",
        "DEPARTAMEN": "CAJAMARCA"
      }
    }
  ]
}
