{
  "type": "FeatureCollection",
  "features": [
    {
      "geometry": {
        "coordinates": [
          [
            [
              [
                -78.13092973699997,
                -6.933847599999979
              ],
              [
                -78.12740623699983,
                -6.935949224999945
              ],
              [
                -78.12341211199993,
                -6.936992224999926
              ],
              [
                -78.11060348699993,
                -6.941115224999919
              ],
              [
                -78.10750648699991,
                -6.944298099999912
              ],
              [
                -78.10074886199999,
                -6.950189224999917
              ],
              [
                -78.09775061199997,
                -6.951674349999962
              ],
              [
                -78.09211523699997,
                -6.952410974999907
              ],
              [
                -78.09080486199991,
                -6.959689474999948
              ],
              [
                -78.08906911199995,
                -6.963661224999953
              ],
              [
                -78.0863894869999,
                -6.966813474999981
              ],
              [
                -78.08299998699994,
                -6.968906224999955
              ],
              [
                -78.07997198799995,
                -6.969568349999918
              ],
              [
                -78.07375836199992,
                -6.969512349999945
              ],
              [
                -78.06998636199995,
                -6.970851599999889
              ],
              [
                -78.06698436199997,
                -6.974533224999959
              ],
              [
                -78.0679882369999,
                -6.975203099999874
              ],
              [
                -78.07072261199994,
                -6.980503849999877
              ],
              [
                -78.07205861299997,
                -6.984976599999925
              ],
              [
                -78.07616598699991,
                -6.987621099999899
              ],
              [
                -78.07923236199997,
                -6.988742224999953
              ],
              [
                -78.08243361199999,
                -6.988771474999965
              ],
              [
                -78.08629886199998,
                -6.991107474999978
              ],
              [
                -78.09034761199985,
                -6.990048849999937
              ],
              [
                -78.09525198699998,
                -6.99383784999992
              ],
              [
                -78.09762298699997,
                -6.996417974999872
              ],
              [
                -78.09783786199989,
                -7.002470724999966
              ],
              [
                -78.09421673799994,
                -7.007580099999927
              ],
              [
                -78.09265236199991,
                -7.011871099999951
              ],
              [
                -78.0937167379999,
                -7.015355475999968
              ],
              [
                -78.0918124879999,
                -7.021902349999948
              ],
              [
                -78.09185723699994,
                -7.026285099999939
              ],
              [
                -78.09340823699995,
                -7.028490224999928
              ],
              [
                -78.0934334879999,
                -7.034697224999888
              ],
              [
                -78.094951112,
                -7.040640599999961
              ],
              [
                -78.09691598699999,
                -7.043183599999963
              ],
              [
                -78.10048048799996,
                -7.046005849999972
              ],
              [
                -78.10377348699996,
                -7.047029349999889
              ],
              [
                -78.10637111199992,
                -7.049792974999946
              ],
              [
                -78.11635348799996,
                -7.052925725999899
              ],
              [
                -78.12003511199993,
                -7.05278522499998
              ],
              [
                -78.12274986199992,
                -7.056787099999895
              ],
              [
                -78.12680073699983,
                -7.058818350999957
              ],
              [
                -78.12641598699997,
                -7.065212849999909
              ],
              [
                -78.12755273699997,
                -7.06842572499994
              ],
              [
                -78.12804486199991,
                -7.073876974999962
              ],
              [
                -78.13046286199994,
                -7.077570350999906
              ],
              [
                -78.13545698699988,
                -7.083193349999931
              ],
              [
                -78.13716598699989,
                -7.08764847499998
              ],
              [
                -78.14199811199995,
                -7.093472600999917
              ],
              [
                -78.14430111199988,
                -7.094617349999965
              ],
              [
                -78.14792573799997,
                -7.094039099999918
              ],
              [
                -78.1521632379999,
                -7.096887099999947
              ],
              [
                -78.15569223699998,
                -7.105643475999955
              ],
              [
                -78.15902736199996,
                -7.111097474999951
              ],
              [
                -78.16207473699995,
                -7.113882224999941
              ],
              [
                -78.16547048699988,
                -7.114852349999921
              ],
              [
                -78.16990586199995,
                -7.114575224999896
              ],
              [
                -78.1741333629999,
                -7.112911974999975
              ],
              [
                -78.17946948699989,
                -7.108476724999889
              ],
              [
                -78.18750836199996,
                -7.107437099999913
              ],
              [
                -78.19381486199995,
                -7.109031099999925
              ],
              [
                -78.19795311199988,
                -7.112828100999934
              ],
              [
                -78.20086398699993,
                -7.110416474999965
              ],
              [
                -78.20377636199993,
                -7.100422599999888
              ],
              [
                -78.20805948699996,
                -7.095968350999954
              ],
              [
                -78.21468361199993,
                -7.093798849999928
              ],
              [
                -78.21833873799994,
                -7.089914975999932
              ],
              [
                -78.21950836199989,
                -7.08777159999994
              ],
              [
                -78.22050873699999,
                -7.076266349999969
              ],
              [
                -78.21945786299989,
                -7.071584850999955
              ],
              [
                -78.22525586199993,
                -7.066748099999927
              ],
              [
                -78.23163673799996,
                -7.062734349999857
              ],
              [
                -78.23705273699989,
                -7.055384725999943
              ],
              [
                -78.23742136299995,
                -7.050993849999941
              ],
              [
                -78.23941298699998,
                -7.049162850999949
              ],
              [
                -78.24487386199996,
                -7.049548349999952
              ],
              [
                -78.24680123699994,
                -7.048713099999873
              ],
              [
                -78.24876073799999,
                -7.04591847599994
              ],
              [
                -78.25515311299995,
                -7.040843099999904
              ],
              [
                -78.26308748799994,
                -7.036474349999935
              ],
              [
                -78.26459723699998,
                -7.033743974999879
              ],
              [
                -78.26723123799997,
                -7.031880849999936
              ],
              [
                -78.26910348799987,
                -7.032019474999913
              ],
              [
                -78.27596861199999,
                -7.034225724999942
              ],
              [
                -78.28605523699991,
                -7.032298474999834
              ],
              [
                -78.28984561199997,
                -7.030756474999976
              ],
              [
                -78.29427861199991,
                -7.030306725999878
              ],
              [
                -78.29424648799994,
                -7.02802609999992
              ],
              [
                -78.29145161299994,
                -7.023271974999943
              ],
              [
                -78.28718361199998,
                -7.020923849999974
              ],
              [
                -78.28725136299994,
                -7.015273474999901
              ],
              [
                -78.28364948799992,
                -7.008510599999909
              ],
              [
                -78.28460398799996,
                -7.005003599999895
              ],
              [
                -78.28349323699996,
                -6.997861349999937
              ],
              [
                -78.28214448699993,
                -6.995234349999919
              ],
              [
                -78.27446486199989,
                -6.997177724999972
              ],
              [
                -78.27204298699996,
                -6.998240349999946
              ],
              [
                -78.26348436199999,
                -6.998722474999965
              ],
              [
                -78.25571098799986,
                -6.99999997599997
              ],
              [
                -78.25211136199994,
                -6.999904350999941
              ],
              [
                -78.25042573699989,
                -6.997273474999872
              ],
              [
                -78.24769536199994,
                -6.995603475999928
              ],
              [
                -78.24191598699986,
                -6.989542975999939
              ],
              [
                -78.23942773699986,
                -6.991380849999928
              ],
              [
                -78.23347461199995,
                -6.991634724999869
              ],
              [
                -78.22783786199994,
                -6.993689474999883
              ],
              [
                -78.22532036199993,
                -6.992878849999897
              ],
              [
                -78.2232579869999,
                -6.994394475999968
              ],
              [
                -78.22196598699998,
                -6.991980849999948
              ],
              [
                -78.21648361299992,
                -6.986384474999966
              ],
              [
                -78.21471336199994,
                -6.983700474999978
              ],
              [
                -78.21562698699995,
                -6.980845099999954
              ],
              [
                -78.21557286299998,
                -6.975956224999948
              ],
              [
                -78.21465623799998,
                -6.972564599999941
              ],
              [
                -78.2080888619999,
                -6.966168600999936
              ],
              [
                -78.20104298699994,
                -6.961689474999957
              ],
              [
                -78.19178798799993,
                -6.965946974999895
              ],
              [
                -78.18872723699991,
                -6.966364974999919
              ],
              [
                -78.18469336199985,
                -6.964753849999852
              ],
              [
                -78.17988286199989,
                -6.962072224999929
              ],
              [
                -78.17480473799992,
                -6.954076224999937
              ],
              [
                -78.17346511299996,
                -6.947530974999893
              ],
              [
                -78.17136111199994,
                -6.942457599999955
              ],
              [
                -78.16524998799991,
                -6.938210974999947
              ],
              [
                -78.16018748699992,
                -6.932126974999903
              ],
              [
                -78.15739648699991,
                -6.931523474999892
              ],
              [
                -78.15246098799997,
                -6.928232474999902
              ],
              [
                -78.14830273799998,
                -6.92821485099995
              ],
              [
                -78.14356448699988,
                -6.929749974999879
              ],
              [
                -78.1408104869999,
                -6.932046849999949
              ],
              [
                -78.13642573699997,
                -6.933456974999899
              ],
              [
                -78.13329686299994,
                -6.935164099999952
              ],
              [
                -78.13092973699997,
                -6.933847599999979
              ]
            ]
          ]
        ],
        "type": "MultiPolygon"
      },
      "type": "Feature",
      "properties": {
        "PROVINCIA": "CELENDIN",
        "DISTRITO": "SUCRE",
        "name": "SUCRE",
        "ID": "060310",
        "DEPARTAMEN": "CAJAMARCA"
      }
    }
  ]
}
