{
  "type": "FeatureCollection",
  "features": [
    {
      "geometry": {
        "coordinates": [
          [
            [
              [
                -78.028190237,
                -6.843159974999878
              ],
              [
                -78.03121973699996,
                -6.84704822499998
              ],
              [
                -78.03040861299996,
                -6.849051974999952
              ],
              [
                -78.02716448699994,
                -6.851127349999899
              ],
              [
                -78.02298998699996,
                -6.851532849999955
              ],
              [
                -78.01993661199992,
                -6.852820974999872
              ],
              [
                -78.01282811199991,
                -6.853584224999963
              ],
              [
                -78.00989411199998,
                -6.854920099999902
              ],
              [
                -78.00717473699996,
                -6.858903724999834
              ],
              [
                -78.00330273699996,
                -6.862425724999923
              ],
              [
                -78.00144973699992,
                -6.86578272499986
              ],
              [
                -78.00119923699998,
                -6.868251599999951
              ],
              [
                -78.00220111199991,
                -6.871275099999821
              ],
              [
                -78.00554661199999,
                -6.874620599999957
              ],
              [
                -78.00646286199992,
                -6.878339849999918
              ],
              [
                -78.00165148699995,
                -6.880930349999971
              ],
              [
                -78.00234023699988,
                -6.884751974999972
              ],
              [
                -78.00546023799996,
                -6.888128474999917
              ],
              [
                -78.00598448699998,
                -6.892356474999872
              ],
              [
                -78.00455173699999,
                -6.895116974999951
              ],
              [
                -78.00088286299984,
                -6.896759224999926
              ],
              [
                -78.00097811199998,
                -6.91050247499993
              ],
              [
                -78.00091848699992,
                -6.912908724999966
              ],
              [
                -78.00330148699993,
                -6.913485099999946
              ],
              [
                -78.00495098699997,
                -6.915692849999857
              ],
              [
                -78.00591523699995,
                -6.921630724999886
              ],
              [
                -78.01349611199993,
                -6.929748099999813
              ],
              [
                -78.01414336199986,
                -6.931602725999937
              ],
              [
                -78.01299298799995,
                -6.934580099999948
              ],
              [
                -78.01708986299991,
                -6.937066349999952
              ],
              [
                -78.02140236199995,
                -6.937066349999952
              ],
              [
                -78.02564448699997,
                -6.933904349999978
              ],
              [
                -78.03471286199994,
                -6.928107474999933
              ],
              [
                -78.03892186199994,
                -6.922722599999929
              ],
              [
                -78.04293548799996,
                -6.922748099999978
              ],
              [
                -78.04529298699998,
                -6.920242224999924
              ],
              [
                -78.05063086199993,
                -6.918097599999953
              ],
              [
                -78.05312111199999,
                -6.91621484999996
              ],
              [
                -78.05852148799988,
                -6.9142069749999
              ],
              [
                -78.06307598699988,
                -6.915761724999868
              ],
              [
                -78.0659337379999,
                -6.912681599999928
              ],
              [
                -78.07152923699994,
                -6.91583197499989
              ],
              [
                -78.07839448699991,
                -6.91540434999996
              ],
              [
                -78.08298636299997,
                -6.910843724999893
              ],
              [
                -78.0920273619999,
                -6.908007849999933
              ],
              [
                -78.09963673699997,
                -6.908306599999946
              ],
              [
                -78.10218336199983,
                -6.909436224999979
              ],
              [
                -78.10464923699993,
                -6.912313099999892
              ],
              [
                -78.10678773699993,
                -6.906901724999955
              ],
              [
                -78.10705836199998,
                -6.900534849999872
              ],
              [
                -78.10683011299989,
                -6.89439072499988
              ],
              [
                -78.1102803629999,
                -6.889584224999908
              ],
              [
                -78.11325473699998,
                -6.884087724999972
              ],
              [
                -78.11368298699989,
                -6.881494099999884
              ],
              [
                -78.11365923799997,
                -6.871214849999888
              ],
              [
                -78.11754298699998,
                -6.863189474999956
              ],
              [
                -78.11898923699994,
                -6.858246724999901
              ],
              [
                -78.11925086199989,
                -6.851703224999937
              ],
              [
                -78.11898923699994,
                -6.843565474999934
              ],
              [
                -78.11798986199989,
                -6.837783349999881
              ],
              [
                -78.11990498799992,
                -6.832377349999888
              ],
              [
                -78.12087836199998,
                -6.823977599999978
              ],
              [
                -78.11487273699993,
                -6.82184097499993
              ],
              [
                -78.11348636299988,
                -6.823076224999909
              ],
              [
                -78.11114261199992,
                -6.827931599999943
              ],
              [
                -78.10883198699997,
                -6.830464849999942
              ],
              [
                -78.1037011119999,
                -6.831373099999951
              ],
              [
                -78.09966598799991,
                -6.830527349999954
              ],
              [
                -78.09767773699997,
                -6.832115224999882
              ],
              [
                -78.09540423699997,
                -6.83862309999995
              ],
              [
                -78.09238673699997,
                -6.842988224999942
              ],
              [
                -78.09148823699996,
                -6.846640599999944
              ],
              [
                -78.08828911299997,
                -6.84939447499994
              ],
              [
                -78.08505273799994,
                -6.850892599999838
              ],
              [
                -78.08427348699996,
                -6.852767599999879
              ],
              [
                -78.08079886199988,
                -6.856179724999947
              ],
              [
                -78.07741411299997,
                -6.856783224999958
              ],
              [
                -78.07404686199999,
                -6.85475584999989
              ],
              [
                -78.06738286199999,
                -6.853468724999914
              ],
              [
                -78.06573823699989,
                -6.852040974999909
              ],
              [
                -78.06102536199995,
                -6.850999974999922
              ],
              [
                -78.05527536199997,
                -6.846873099999868
              ],
              [
                -78.05345323799986,
                -6.844673849999879
              ],
              [
                -78.04792198799998,
                -6.844550849999962
              ],
              [
                -78.04402736299994,
                -6.84295509999987
              ],
              [
                -78.04079886199997,
                -6.843080224999937
              ],
              [
                -78.03806248699988,
                -6.841382849999945
              ],
              [
                -78.03406248799996,
                -6.840552724999895
              ],
              [
                -78.028190237,
                -6.843159974999878
              ]
            ]
          ]
        ],
        "type": "MultiPolygon"
      },
      "type": "Feature",
      "properties": {
        "PROVINCIA": "CELENDIN",
        "DISTRITO": "UTCO",
        "name": "UTCO",
        "ID": "060311",
        "DEPARTAMEN": "CAJAMARCA"
      }
    }
  ]
}
