{
  "type": "FeatureCollection",
  "features": [
    {
      "geometry": {
        "coordinates": [
          [
            [
              [
                -73.96603774999994,
                -12.337810283999886
              ],
              [
                -73.97358003799997,
                -12.33790001899996
              ],
              [
                -73.97728003799995,
                -12.335130018999962
              ],
              [
                -73.98161003799999,
                -12.33341001899987
              ],
              [
                -73.98880003799991,
                -12.333310018999953
              ],
              [
                -73.9928800379999,
                -12.335080018999918
              ],
              [
                -73.9998295069999,
                -12.334079180999879
              ],
              [
                -74.00395233899997,
                -12.331247374999975
              ],
              [
                -74.00494451899988,
                -12.332686402999968
              ],
              [
                -74.01125638299999,
                -12.331604009999921
              ],
              [
                -74.01155003799994,
                -12.335160018999886
              ],
              [
                -74.00896003799988,
                -12.341700018999916
              ],
              [
                -74.00834003799991,
                -12.345130018999953
              ],
              [
                -74.01005003799992,
                -12.348790018999921
              ],
              [
                -74.01024003799989,
                -12.353980018999891
              ],
              [
                -74.00937003799999,
                -12.35838001899998
              ],
              [
                -74.01147003799997,
                -12.3626900189999
              ],
              [
                -74.0147400379999,
                -12.366910018999931
              ],
              [
                -74.02007003799997,
                -12.369710018999967
              ],
              [
                -74.02976003799995,
                -12.378080018999981
              ],
              [
                -74.03540003799986,
                -12.38025001899996
              ],
              [
                -74.03941003799991,
                -12.383280018999926
              ],
              [
                -74.04330003799998,
                -12.382230018999905
              ],
              [
                -74.04387003799997,
                -12.379620018999958
              ],
              [
                -74.04999003799992,
                -12.37923001899992
              ],
              [
                -74.05836003699994,
                -12.380243137999912
              ],
              [
                -74.05989195799987,
                -12.378702009999927
              ],
              [
                -74.06322774499989,
                -12.377963275999946
              ],
              [
                -74.07020321699991,
                -12.374220655999977
              ],
              [
                -74.07634060499998,
                -12.374011900999903
              ],
              [
                -74.07912914299993,
                -12.376073068999915
              ],
              [
                -74.0834234859999,
                -12.384049446999882
              ],
              [
                -74.08878408899994,
                -12.387818742999912
              ],
              [
                -74.09334085099988,
                -12.387604318999934
              ],
              [
                -74.09840934999994,
                -12.385783825999965
              ],
              [
                -74.09950020999997,
                -12.384264985999948
              ],
              [
                -74.10319731999988,
                -12.382623584999976
              ],
              [
                -74.10581003499988,
                -12.379233068999895
              ],
              [
                -74.10832611299998,
                -12.37879076799993
              ],
              [
                -74.10927003799998,
                -12.380680018999897
              ],
              [
                -74.11490003799997,
                -12.38587001899998
              ],
              [
                -74.11846003799991,
                -12.391470018999883
              ],
              [
                -74.12366003799991,
                -12.396150018999947
              ],
              [
                -74.12958003799992,
                -12.395050018999882
              ],
              [
                -74.13460003799997,
                -12.39786001899995
              ],
              [
                -74.13802003799998,
                -12.396450018999928
              ],
              [
                -74.14023003799986,
                -12.397850018999918
              ],
              [
                -74.14318003799997,
                -12.39724001899998
              ],
              [
                -74.14948003799992,
                -12.398590018999869
              ],
              [
                -74.15306003799986,
                -12.401210018999848
              ],
              [
                -74.15766003799996,
                -12.401190018999955
              ],
              [
                -74.16253003799994,
                -12.399780018999934
              ],
              [
                -74.16539003799988,
                -12.39987001899982
              ],
              [
                -74.16848157899989,
                -12.403116950999959
              ],
              [
                -74.17114781599997,
                -12.404208939999819
              ],
              [
                -74.1796692129999,
                -12.404035784999962
              ],
              [
                -74.18207170099998,
                -12.407886253999948
              ],
              [
                -74.18494940199997,
                -12.409227027999975
              ],
              [
                -74.18990024699997,
                -12.410160557999916
              ],
              [
                -74.1990442049999,
                -12.410647065999967
              ],
              [
                -74.20182195299998,
                -12.409926056999893
              ],
              [
                -74.20485265399992,
                -12.406208452999977
              ],
              [
                -74.20791061399996,
                -12.404640291999897
              ],
              [
                -74.21313447599994,
                -12.408039383999949
              ],
              [
                -74.22061615599989,
                -12.409685592999892
              ],
              [
                -74.22235003799995,
                -12.40926001899993
              ],
              [
                -74.22513003799997,
                -12.406390018999957
              ],
              [
                -74.22759003799996,
                -12.405170018999911
              ],
              [
                -74.2301600379999,
                -12.4057600189999
              ],
              [
                -74.23293003799995,
                -12.410180018999938
              ],
              [
                -74.23656003799988,
                -12.4104200189999
              ],
              [
                -74.2392300379999,
                -12.408260018999897
              ],
              [
                -74.2379000379999,
                -12.401900018999982
              ],
              [
                -74.24149685899988,
                -12.39629567299994
              ],
              [
                -74.23990623299994,
                -12.391318354999953
              ],
              [
                -74.2408496079999,
                -12.38981060499998
              ],
              [
                -74.23849023299982,
                -12.382044979999876
              ],
              [
                -74.23819335799993,
                -12.379449229999864
              ],
              [
                -74.23804098399995,
                -12.377947229999847
              ],
              [
                -74.23454098299999,
                -12.37043360499996
              ],
              [
                -74.23431248299994,
                -12.366570354999965
              ],
              [
                -74.23464648399994,
                -12.3653241049999
              ],
              [
                -74.23532223299998,
                -12.363933729999872
              ],
              [
                -74.234609359,
                -12.362710980999964
              ],
              [
                -74.23390035799991,
                -12.359679729999982
              ],
              [
                -74.22918948299997,
                -12.357333854999922
              ],
              [
                -74.22685160899988,
                -12.35435160599991
              ],
              [
                -74.22698248299997,
                -12.350943354999913
              ],
              [
                -74.22189448299997,
                -12.345160104999877
              ],
              [
                -74.21919535799992,
                -12.343117229999962
              ],
              [
                -74.21708198299996,
                -12.339683604999891
              ],
              [
                -74.21577735899996,
                -12.335837854999909
              ],
              [
                -74.21655660899995,
                -12.333624979999968
              ],
              [
                -74.21151948399995,
                -12.326601604999894
              ],
              [
                -74.20807623399992,
                -12.32485547999994
              ],
              [
                -74.20565035799984,
                -12.32107810499997
              ],
              [
                -74.20629685799997,
                -12.317164104999847
              ],
              [
                -74.20592185899994,
                -12.316177854999978
              ],
              [
                -74.2054277339999,
                -12.315371104999883
              ],
              [
                -74.20129685899997,
                -12.31305472999992
              ],
              [
                -74.19859960899998,
                -12.311074104999932
              ],
              [
                -74.19408985899997,
                -12.306124979999936
              ],
              [
                -74.19125385899997,
                -12.304687354999942
              ],
              [
                -74.18734910799992,
                -12.306635229999813
              ],
              [
                -74.18761823299991,
                -12.314375979999909
              ],
              [
                -74.1820268589999,
                -12.317271854999944
              ],
              [
                -74.17967560899996,
                -12.317415229999938
              ],
              [
                -74.17666485899991,
                -12.31414647999992
              ],
              [
                -74.16760410799992,
                -12.312368604999904
              ],
              [
                -74.1652528589999,
                -12.31317147999988
              ],
              [
                -74.16155385899998,
                -12.319164354999884
              ],
              [
                -74.15931735799995,
                -12.321142729999963
              ],
              [
                -74.15209160799992,
                -12.323092604999943
              ],
              [
                -74.1473318589999,
                -12.324382729999911
              ],
              [
                -74.14460785899996,
                -12.323952854999959
              ],
              [
                -74.14466510799997,
                -12.32008197999994
              ],
              [
                -74.14033548299994,
                -12.316153604999897
              ],
              [
                -74.1352028579999,
                -12.315752104999888
              ],
              [
                -74.13115998299997,
                -12.314605104999941
              ],
              [
                -74.12969748299997,
                -12.317988854999953
              ],
              [
                -74.13090185799996,
                -12.320655354999872
              ],
              [
                -74.13130323399986,
                -12.32303522999996
              ],
              [
                -74.13078710899998,
                -12.328841605999969
              ],
              [
                -74.12918148399996,
                -12.332081729999913
              ],
              [
                -74.1251671089999,
                -12.333859479999944
              ],
              [
                -74.12143948299996,
                -12.33360147999997
              ],
              [
                -74.11805598399997,
                -12.330389979999836
              ],
              [
                -74.1162208589999,
                -12.325687604999871
              ],
              [
                -74.11229260899995,
                -12.31926460499983
              ],
              [
                -74.10598448299999,
                -12.315336354999943
              ],
              [
                -74.10357585899993,
                -12.311952854999959
              ],
              [
                -74.10371923299988,
                -12.30963035499991
              ],
              [
                -74.10371923399998,
                -12.30811060499991
              ],
              [
                -74.10136798399986,
                -12.304010479999874
              ],
              [
                -74.10128198399985,
                -12.301859729999933
              ],
              [
                -74.09855798399997,
                -12.288239854999915
              ],
              [
                -74.09835723299989,
                -12.284913604999872
              ],
              [
                -74.09735360899998,
                -12.283709354999871
              ],
              [
                -74.09342535899992,
                -12.282820479999884
              ],
              [
                -74.07989148399997,
                -12.280985354999927
              ],
              [
                -74.07673735799995,
                -12.281902979999927
              ],
              [
                -74.07504560799993,
                -12.281042729999967
              ],
              [
                -74.07100660799995,
                -12.277101229999971
              ],
              [
                -74.0688224829999,
                -12.276653229999965
              ],
              [
                -74.06462223299991,
                -12.278445354999974
              ],
              [
                -74.06253073299996,
                -12.277102604999982
              ],
              [
                -74.05928160899998,
                -12.276550854999925
              ],
              [
                -74.05744248399998,
                -12.275048980999884
              ],
              [
                -74.05643098399992,
                -12.271247979999828
              ],
              [
                -74.05505160799993,
                -12.269316979999928
              ],
              [
                -74.04956485899999,
                -12.266803479999965
              ],
              [
                -74.04481373399989,
                -12.266404979999947
              ],
              [
                -74.04220823399999,
                -12.26291072999993
              ],
              [
                -74.04021585799995,
                -12.261469979999902
              ],
              [
                -74.03776373399995,
                -12.262297604999901
              ],
              [
                -74.03368698299988,
                -12.267814979999969
              ],
              [
                -74.03098960899996,
                -12.270573729999967
              ],
              [
                -74.02554235899993,
                -12.273322729999961
              ],
              [
                -74.02187548399996,
                -12.277363854999862
              ],
              [
                -74.01895685799997,
                -12.278411479999932
              ],
              [
                -74.0096774829999,
                -12.278860479999878
              ],
              [
                -74.00803360799995,
                -12.279674354999884
              ],
              [
                -74.00423348299995,
                -12.28348547999991
              ],
              [
                -74.00198110899993,
                -12.284033355999952
              ],
              [
                -73.99771985899997,
                -12.282511479999869
              ],
              [
                -73.99418473299994,
                -12.279931854999973
              ],
              [
                -73.98879710799986,
                -12.273986979999961
              ],
              [
                -73.98638198299994,
                -12.268320729999914
              ],
              [
                -73.98712510799999,
                -12.26135397999991
              ],
              [
                -73.9848957339999,
                -12.25327260499995
              ],
              [
                -73.98322160799995,
                -12.24711847999987
              ],
              [
                -73.98045160899989,
                -12.242588354999953
              ],
              [
                -73.97981260799997,
                -12.246425354999815
              ],
              [
                -73.9811021079999,
                -12.249907729999904
              ],
              [
                -73.98006935799998,
                -12.25540210499986
              ],
              [
                -73.97812785899993,
                -12.25895472999997
              ],
              [
                -73.9770951079999,
                -12.26341610499992
              ],
              [
                -73.97569060799998,
                -12.26523372999992
              ],
              [
                -73.9710816089999,
                -12.273406979999947
              ],
              [
                -73.97044035799996,
                -12.280228479999892
              ],
              [
                -73.97131485799986,
                -12.285009229999957
              ],
              [
                -73.97226198299995,
                -12.294646104999913
              ],
              [
                -73.97399698399983,
                -12.30385810499996
              ],
              [
                -73.97399698399983,
                -12.30575835499991
              ],
              [
                -73.97139448399997,
                -12.312946229999909
              ],
              [
                -73.97019648399987,
                -12.31492910499992
              ],
              [
                -73.96945273399996,
                -12.321166854999944
              ],
              [
                -73.96763523399994,
                -12.32488473099994
              ],
              [
                -73.96585898299998,
                -12.336451354999895
              ],
              [
                -73.96603774999994,
                -12.337810283999886
              ]
            ]
          ]
        ],
        "type": "MultiPolygon"
      },
      "type": "Feature",
      "properties": {
        "PROVINCIA": "HUANTA",
        "DISTRITO": "CANAYRE",
        "name": "CANAYRE",
        "ID": "050310",
        "DEPARTAMEN": "AYACUCHO"
      }
    }
  ]
}
