{
  "type": "FeatureCollection",
  "features": [
    {
      "geometry": {
        "coordinates": [
          [
            [
              [
                -74.2361313987775,
                -12.6072494532293,
                3966.85860852312
              ],
              [
                -74.2353996636812,
                -12.6064659003862,
                3867.10302294912
              ],
              [
                -74.2346834259554,
                -12.606045486525,
                3767.34743737513
              ],
              [
                -74.2319218304886,
                -12.6031538915982,
                3667.59185180113
              ],
              [
                -74.2319417091721,
                -12.6009565108645,
                3642.65295540763
              ],
              [
                -74.2311914859046,
                -12.6000784560057,
                3630.18350721089
              ],
              [
                -74.2306944134801,
                -12.5991546027286,
                3617.71405901413
              ],
              [
                -74.2323489124233,
                -12.5970663717692,
                3605.24461081739
              ],
              [
                -74.2304087142183,
                -12.5920835517575,
                3592.77516262064
              ],
              [
                -74.229475804316,
                -12.5882809418212,
                3586.54043852226
              ],
              [
                -74.2261870634915,
                -12.5869975322231,
                3580.30571442389
              ],
              [
                -74.2227752663592,
                -12.5877224832218,
                3574.07099032551
              ],
              [
                -74.2185107719303,
                -12.5851855520023,
                3567.83626622714
              ],
              [
                -74.2152920040901,
                -12.5857341649497,
                3566.27758520255
              ],
              [
                -74.209565602478,
                -12.581308148725,
                3564.71890417795
              ],
              [
                -74.209912399794,
                -12.5746099974583,
                3563.16022315336
              ],
              [
                -74.2111693550785,
                -12.5723782913125,
                3561.60154212876
              ],
              [
                -74.2097895289989,
                -12.5695020852931,
                3558.48418007958
              ],
              [
                -74.2086761805785,
                -12.5663861410815,
                3555.36681803039
              ],
              [
                -74.2086718726859,
                -12.5638433615379,
                3552.2494559812
              ],
              [
                -74.2092435792149,
                -12.5621613197883,
                3549.13209393201
              ],
              [
                -74.2085108645042,
                -12.5602015506274,
                3546.01473188283
              ],
              [
                -74.2089065576459,
                -12.5579795199311,
                3542.89736983364
              ],
              [
                -74.2091204181519,
                -12.5568270177011,
                3541.33868880905
              ],
              [
                -74.2091412501766,
                -12.5559529611236,
                3539.78000778445
              ],
              [
                -74.2088879396882,
                -12.5549169620296,
                3538.22132675986
              ],
              [
                -74.2090639503756,
                -12.5535481084275,
                3536.66264573527
              ],
              [
                -74.2083908379856,
                -12.5525830822832,
                3533.54528368608
              ],
              [
                -74.2077201037259,
                -12.5520791352136,
                3530.42792163689
              ],
              [
                -74.2071236403068,
                -12.5521974973366,
                3528.8692406123
              ],
              [
                -74.2067159071609,
                -12.5527581384532,
                3528.0899001
              ],
              [
                -74.2060317145565,
                -12.5531260604217,
                3527.3105595877
              ],
              [
                -74.2052506596285,
                -12.5533882924441,
                3525.75187856311
              ],
              [
                -74.2043699069585,
                -12.5534247753758,
                3524.19319753852
              ],
              [
                -74.2024705567946,
                -12.5528259875176,
                3522.63451651392
              ],
              [
                -74.20053555971,
                -12.5512588391973,
                3521.07583548933
              ],
              [
                -74.198402168314,
                -12.5488889022294,
                3520.68616523318
              ],
              [
                -74.1976810250126,
                -12.5483702373259,
                3520.49133010511
              ],
              [
                -74.1967328584809,
                -12.5469830854117,
                3520.29649497703
              ],
              [
                -74.1964158620298,
                -12.5449761722892,
                3519.51715446474
              ],
              [
                -74.1957727922316,
                -12.5441591043871,
                3519.12748420859
              ],
              [
                -74.1956439948825,
                -12.5429361799127,
                3518.73781395244
              ],
              [
                -74.1947020490998,
                -12.5409686481393,
                3517.95847344014
              ],
              [
                -74.189998147817,
                -12.5438477945377,
                3493.01957704664
              ],
              [
                -74.1855720484328,
                -12.5469747898726,
                3468.08068065314
              ],
              [
                -74.1819029135565,
                -12.5487413929698,
                3418.20288786615
              ],
              [
                -74.1790143331942,
                -12.5494186779916,
                3393.26399147265
              ],
              [
                -74.1768866935301,
                -12.5503684448255,
                3387.02926737427
              ],
              [
                -74.1754765706936,
                -12.5516267601266,
                3380.7945432759
              ],
              [
                -74.1748893590025,
                -12.5532105445948,
                3368.32509507915
              ],
              [
                -74.1722203026354,
                -12.5550831452763,
                3355.8556468824
              ],
              [
                -74.1690194447304,
                -12.5579143690808,
                3343.38619868565
              ],
              [
                -74.166483280902,
                -12.5589845805781,
                3330.9167504889
              ],
              [
                -74.1647338366054,
                -12.5606379522,
                3327.79938843971
              ],
              [
                -74.1629232679356,
                -12.5616625784746,
                3324.68202639053
              ],
              [
                -74.1590845290123,
                -12.5640671881827,
                3318.44730229215
              ],
              [
                -74.1528144109292,
                -12.5638971998372,
                3293.50840589865
              ],
              [
                -74.1512819655931,
                -12.5659611805983,
                3268.56950950516
              ],
              [
                -74.150912831028,
                -12.5694521783617,
                3256.10006130841
              ],
              [
                -74.1487207189033,
                -12.5714663040121,
                3243.63061311165
              ],
              [
                -74.1478864137364,
                -12.5740301653408,
                3231.16116491491
              ],
              [
                -74.1465126323649,
                -12.5780026062355,
                3224.92644081653
              ],
              [
                -74.1452176592686,
                -12.5787366191852,
                3221.80907876734
              ],
              [
                -74.1438285558957,
                -12.5790039302949,
                3218.69171671816
              ],
              [
                -74.1442446062793,
                -12.5810182358664,
                3206.22226852141
              ],
              [
                -74.1441734571898,
                -12.5823115703113,
                3193.75282032466
              ],
              [
                -74.1450168570464,
                -12.5845520278069,
                3187.51809622628
              ],
              [
                -74.1446198118085,
                -12.5869140982057,
                3184.4007341771
              ],
              [
                -74.1438634804639,
                -12.5885931468341,
                3181.28337212791
              ],
              [
                -74.1436431689608,
                -12.5899893831353,
                3175.04864802953
              ],
              [
                -74.1439422981469,
                -12.5909742542683,
                3171.93128598035
              ],
              [
                -74.1432984899299,
                -12.5927734526464,
                3170.37260495575
              ],
              [
                -74.1426732918764,
                -12.5941021164672,
                3168.81392393116
              ],
              [
                -74.1437706355942,
                -12.5955365762511,
                3182.84630408827
              ],
              [
                -74.1444865213091,
                -12.5974434037473,
                3196.87868424539
              ],
              [
                -74.1436307083153,
                -12.600663488248,
                3224.94344455962
              ],
              [
                -74.1460829740066,
                -12.6051241298745,
                3281.07296518808
              ],
              [
                -74.1490729798579,
                -12.609389463661,
                3337.20248581653
              ],
              [
                -74.1515326404723,
                -12.6138885351097,
                3393.33200644499
              ],
              [
                -74.1530841695968,
                -12.616213777367,
                3421.39676675922
              ],
              [
                -74.1552443791796,
                -12.6183649304409,
                3449.46152707345
              ],
              [
                -74.1568424894126,
                -12.6220280208706,
                3505.59104770191
              ],
              [
                -74.159530538899,
                -12.6256336964707,
                3561.72056833037
              ],
              [
                -74.1609028622667,
                -12.6293869742532,
                3589.7853286446
              ],
              [
                -74.1604849546755,
                -12.6315608060814,
                3617.85008895882
              ],
              [
                -74.1609657727856,
                -12.6335659647389,
                3623.30334707702
              ],
              [
                -74.1633002768595,
                -12.636139529307,
                3626.02997613611
              ],
              [
                -74.1654091068489,
                -12.6387818538635,
                3628.75660519521
              ],
              [
                -74.1665780254428,
                -12.6397505077699,
                3631.4832342543
              ],
              [
                -74.1674634189647,
                -12.6410460861987,
                3634.2098633134
              ],
              [
                -74.1686911580881,
                -12.6421162959748,
                3635.57317784295
              ],
              [
                -74.1693724931999,
                -12.6443217097032,
                3636.9364923725
              ],
              [
                -74.1694067720954,
                -12.6472789537272,
                3639.66312143159
              ],
              [
                -74.1688495612125,
                -12.6488577935108,
                3642.38975049069
              ],
              [
                -74.167834756403,
                -12.6502325450579,
                3643.75306502024
              ],
              [
                -74.1668993608092,
                -12.6520704762592,
                3645.11637954979
              ],
              [
                -74.1644447446503,
                -12.65388953522,
                3650.56963766798
              ],
              [
                -74.1635502521488,
                -12.6555965459801,
                3653.29626672707
              ],
              [
                -74.1613780499786,
                -12.6571582332877,
                3656.02289578617
              ],
              [
                -74.1596717612015,
                -12.6596473269753,
                3658.74952484527
              ],
              [
                -74.1578887487089,
                -12.6604436009372,
                3661.47615390436
              ],
              [
                -74.1573514255461,
                -12.6608698520066,
                3662.83946843391
              ],
              [
                -74.1569544817063,
                -12.661413099828,
                3664.20278296346
              ],
              [
                -74.1562178409915,
                -12.6623084521651,
                3666.92941202255
              ],
              [
                -74.1549430602005,
                -12.6630840316279,
                3668.2927265521
              ],
              [
                -74.1544005972796,
                -12.6636702760054,
                3668.97438381688
              ],
              [
                -74.1541562658389,
                -12.6643172949761,
                3669.65604108165
              ],
              [
                -74.153902389294,
                -12.6654045917931,
                3672.38267014075
              ],
              [
                -74.1527618876449,
                -12.6665713744935,
                3677.83592825894
              ],
              [
                -74.1516876344663,
                -12.6676922924325,
                3679.19924278849
              ],
              [
                -74.1513722701225,
                -12.6684930459688,
                3680.56255731804
              ],
              [
                -74.1507174630684,
                -12.6694548651286,
                3681.92587184758
              ],
              [
                -74.149913338014,
                -12.6703425155369,
                3683.28918637713
              ],
              [
                -74.1497685704833,
                -12.6708380554656,
                3684.65250090668
              ],
              [
                -74.1497490741048,
                -12.6711956352136,
                3685.33415817145
              ],
              [
                -74.149679954834,
                -12.6714641139812,
                3686.01581543623
              ],
              [
                -74.1495991333542,
                -12.6718981141419,
                3687.37912996578
              ],
              [
                -74.1495808294949,
                -12.6722542669221,
                3688.06078723055
              ],
              [
                -74.1493653735334,
                -12.6725295667171,
                3688.74244449532
              ],
              [
                -74.1490532053148,
                -12.6730473204013,
                3690.10575902487
              ],
              [
                -74.1487199101233,
                -12.6735520802106,
                3691.46907355442
              ],
              [
                -74.1483940428475,
                -12.674058197697,
                3692.83238808397
              ],
              [
                -74.1482453374922,
                -12.674611042887,
                3694.19570261352
              ],
              [
                -74.1474423644252,
                -12.6754370127222,
                3695.55901714306
              ],
              [
                -74.1471571968443,
                -12.6761344396848,
                3696.24067440784
              ],
              [
                -74.1468602362817,
                -12.6764964907918,
                3696.92233167261
              ],
              [
                -74.1466717533843,
                -12.6772764077669,
                3697.60398893739
              ],
              [
                -74.1467505847357,
                -12.6781633117574,
                3698.28564620216
              ],
              [
                -74.1463388942326,
                -12.6792952843208,
                3699.64896073171
              ],
              [
                -74.1459485296184,
                -12.6799023060832,
                3705.1022188499
              ],
              [
                -74.1482704448424,
                -12.6800617770469,
                3716.00873508628
              ],
              [
                -74.1491671777463,
                -12.6779046591598,
                3718.73536414538
              ],
              [
                -74.1501130236168,
                -12.6765163522075,
                3720.09867867493
              ],
              [
                -74.1509325585921,
                -12.6752145651498,
                3721.46199320448
              ],
              [
                -74.1514634396626,
                -12.6738633049391,
                3722.82530773402
              ],
              [
                -74.1519244381044,
                -12.6731337654661,
                3723.5069649988
              ],
              [
                -74.1526059089798,
                -12.6725691599031,
                3724.18862226357
              ],
              [
                -74.1539977194332,
                -12.6721565162126,
                3725.55193679312
              ],
              [
                -74.155004798193,
                -12.670916326496,
                3726.91525132267
              ],
              [
                -74.1571500665219,
                -12.6707315268481,
                3732.36850944086
              ],
              [
                -74.1590285866915,
                -12.669796305318,
                3737.82176755905
              ],
              [
                -74.1612517043203,
                -12.6704243102855,
                3748.72828379544
              ],
              [
                -74.1631591250799,
                -12.6717317855798,
                3759.63480003182
              ],
              [
                -74.1639536690836,
                -12.6743378955856,
                3770.5413162682
              ],
              [
                -74.1675593512009,
                -12.6775186840286,
                3792.35434874097
              ],
              [
                -74.1706122542267,
                -12.6748634711487,
                3795.08097780007
              ],
              [
                -74.1710087730059,
                -12.6740092227923,
                3796.44429232962
              ],
              [
                -74.1733573151118,
                -12.67219182522,
                3797.80760685916
              ],
              [
                -74.1745771624817,
                -12.6708264354437,
                3803.26086497736
              ],
              [
                -74.1748759876106,
                -12.6693014436026,
                3804.6241795069
              ],
              [
                -74.1755113933007,
                -12.6679178977321,
                3805.98749403645
              ],
              [
                -74.1773004396392,
                -12.6673278856847,
                3808.71412309555
              ],
              [
                -74.1785191050281,
                -12.6661957111936,
                3810.0774376251
              ],
              [
                -74.1800286821715,
                -12.6654314635478,
                3811.44075215464
              ],
              [
                -74.1813092065311,
                -12.6646669382569,
                3812.80406668419
              ],
              [
                -74.1827198992835,
                -12.664298086558,
                3814.16738121374
              ],
              [
                -74.1837825232139,
                -12.6638729128671,
                3819.62063933193
              ],
              [
                -74.1848070660022,
                -12.6637588349055,
                3825.07389745013
              ],
              [
                -74.1864349435885,
                -12.6632993257044,
                3835.98041368651
              ],
              [
                -74.1904437773338,
                -12.6616289986711,
                3846.88692992289
              ],
              [
                -74.1930419982365,
                -12.6607381795186,
                3857.79344615928
              ],
              [
                -74.1947852301745,
                -12.6595167241662,
                3860.52007521838
              ],
              [
                -74.1961639499592,
                -12.6585713770628,
                3861.88338974792
              ],
              [
                -74.1973391412835,
                -12.6584171675095,
                3863.24670427747
              ],
              [
                -74.1990612826581,
                -12.6593140732649,
                3864.61001880702
              ],
              [
                -74.199902750173,
                -12.6606032801647,
                3865.97333333657
              ],
              [
                -74.2013051876141,
                -12.6620016925514,
                3868.69996239566
              ],
              [
                -74.2040351579054,
                -12.6628481474228,
                3879.60647863205
              ],
              [
                -74.2037173070684,
                -12.6598240692668,
                3890.51299486843
              ],
              [
                -74.2024162038122,
                -12.6568558444226,
                3901.41951110481
              ],
              [
                -74.2023037432633,
                -12.6549939109014,
                3902.78282563436
              ],
              [
                -74.2032005099228,
                -12.6528871633733,
                3904.14614016391
              ],
              [
                -74.2037141792228,
                -12.6515629575744,
                3905.50945469346
              ],
              [
                -74.2061143108231,
                -12.6493811678427,
                3906.87276922301
              ],
              [
                -74.2072342957078,
                -12.6484861996512,
                3908.23608375255
              ],
              [
                -74.2101958594144,
                -12.6475375766429,
                3909.5993982821
              ],
              [
                -74.2112157960014,
                -12.6462669788315,
                3910.96271281165
              ],
              [
                -74.2131830100176,
                -12.6456620124895,
                3912.3260273412
              ],
              [
                -74.2152313428476,
                -12.6447112679383,
                3912.66685597358
              ],
              [
                -74.2171301535473,
                -12.6445078838918,
                3913.00768460597
              ],
              [
                -74.2187882052204,
                -12.643179976472,
                3913.68934187075
              ],
              [
                -74.219059147886,
                -12.6421925125446,
                3914.03017050313
              ],
              [
                -74.2196891698492,
                -12.6414701158863,
                3914.37099913552
              ],
              [
                -74.2204723771818,
                -12.6402375226738,
                3914.71182776791
              ],
              [
                -74.2212652091376,
                -12.6390192862057,
                3915.05265640029
              ],
              [
                -74.2251070592607,
                -12.6381526579392,
                3915.73431366507
              ],
              [
                -74.2261238412104,
                -12.6382972219302,
                3915.90472798126
              ],
              [
                -74.2265612838187,
                -12.6386922241419,
                3916.07514229745
              ],
              [
                -74.2279173108476,
                -12.6392381814268,
                3916.41597092984
              ],
              [
                -74.2289425081125,
                -12.6387698819899,
                3916.75679956223
              ],
              [
                -74.2296315754961,
                -12.6387458040238,
                3916.92721387842
              ],
              [
                -74.2306513221685,
                -12.6394163233572,
                3917.09762819462
              ],
              [
                -74.2318909242424,
                -12.6401492431618,
                3917.77928545939
              ],
              [
                -74.2330246475983,
                -12.6398096167196,
                3919.14259998894
              ],
              [
                -74.2348248496533,
                -12.6397276147834,
                3920.50591451849
              ],
              [
                -74.2356850238351,
                -12.6389958433997,
                3921.86922904803
              ],
              [
                -74.236403798778,
                -12.638840493949,
                3922.55088631281
              ],
              [
                -74.2369781166156,
                -12.6385400220769,
                3923.23254357758
              ],
              [
                -74.2371563117173,
                -12.6362941884549,
                3928.68580169577
              ],
              [
                -74.2380824158529,
                -12.6344277566731,
                3930.04911622532
              ],
              [
                -74.2394766205795,
                -12.6334928224751,
                3931.41243075487
              ],
              [
                -74.241492973321,
                -12.6312634843561,
                3934.13905981397
              ],
              [
                -74.2437631428808,
                -12.6294705384728,
                3939.59231793216
              ],
              [
                -74.2446140226141,
                -12.6276623653661,
                3942.31894699125
              ],
              [
                -74.2452666976476,
                -12.6258458859187,
                3945.04557605035
              ],
              [
                -74.2441480849866,
                -12.6247634426076,
                3947.77220510945
              ],
              [
                -74.2427099868286,
                -12.6237650499245,
                3950.49883416854
              ],
              [
                -74.2409808779605,
                -12.6227299005562,
                3953.22546322764
              ],
              [
                -74.2399104826871,
                -12.6211995603715,
                3955.95209228674
              ],
              [
                -74.2378883129613,
                -12.6204326317587,
                3957.31540681628
              ],
              [
                -74.2368022628951,
                -12.6191093461153,
                3957.99706408106
              ],
              [
                -74.236410415239,
                -12.6177229814081,
                3958.67872134583
              ],
              [
                -74.2360833761152,
                -12.615574885088,
                3961.40535040493
              ],
              [
                -74.235595225902,
                -12.6121704183776,
                3962.76866493448
              ],
              [
                -74.2369139287598,
                -12.6099506206557,
                3964.13197946402
              ],
              [
                -74.2361313987775,
                -12.6072494532293,
                3966.85860852312
              ]
            ]
          ]
        ],
        "type": "MultiPolygon"
      },
      "type": "Feature",
      "properties": {
        "PROVINCIA": "HUANTA",
        "DISTRITO": "PUTIS",
        "name": "PUTIS",
        "ID": "050314",
        "DEPARTAMEN": "AYACUCHO"
      }
    }
  ]
}
