{
  "type": "FeatureCollection",
  "features": [
    {
      "geometry": {
        "coordinates": [
          [
            [
              [
                -70.14662497999996,
                -16.938730483999848
              ],
              [
                -70.14558760399996,
                -16.94268835899993
              ],
              [
                -70.14201710399993,
                -16.944147984999915
              ],
              [
                -70.13789260499988,
                -16.943324359999963
              ],
              [
                -70.13341972899991,
                -16.945269858999836
              ],
              [
                -70.12704110399989,
                -16.95096660899992
              ],
              [
                -70.12541635499991,
                -16.956522734999908
              ],
              [
                -70.11996060499996,
                -16.958769233999874
              ],
              [
                -70.11877710499994,
                -16.960113108999963
              ],
              [
                -70.11909810499992,
                -16.968637859999944
              ],
              [
                -70.11709222999997,
                -16.972609484999907
              ],
              [
                -70.11314072999994,
                -16.974855984999976
              ],
              [
                -70.1060089799999,
                -16.97711823399993
              ],
              [
                -70.09577022999997,
                -16.985226109999928
              ],
              [
                -70.0951511049999,
                -16.98793748399993
              ],
              [
                -70.09773347999999,
                -16.989689108999983
              ],
              [
                -70.09889660499994,
                -16.99211410999993
              ],
              [
                -70.09847897999992,
                -16.994594483999947
              ],
              [
                -70.09605072999989,
                -16.998521984999968
              ],
              [
                -70.0996379799999,
                -17.00600923399992
              ],
              [
                -70.09407910499993,
                -17.009967233999873
              ],
              [
                -70.08916210499996,
                -17.015871983999943
              ],
              [
                -70.08195485499988,
                -17.02226185899997
              ],
              [
                -70.08030860499991,
                -17.025294358999815
              ],
              [
                -70.07456122999997,
                -17.03204998399991
              ],
              [
                -70.07315247899999,
                -17.03491423399987
              ],
              [
                -70.07439685499997,
                -17.036024983999937
              ],
              [
                -70.07521685499995,
                -17.0408863589999
              ],
              [
                -70.07714972999992,
                -17.045982109999898
              ],
              [
                -70.07714972999992,
                -17.04797348399984
              ],
              [
                -70.07422122999992,
                -17.053479233999838
              ],
              [
                -70.07433835499995,
                -17.05869198499994
              ],
              [
                -70.07135122899996,
                -17.07444773499998
              ],
              [
                -70.06988697999998,
                -17.077961984999945
              ],
              [
                -70.07000410499995,
                -17.081183358999965
              ],
              [
                -70.07381135399993,
                -17.085049108999897
              ],
              [
                -70.08089835499993,
                -17.08950048399987
              ],
              [
                -70.08406110499988,
                -17.093951858999958
              ],
              [
                -70.08669685499984,
                -17.100160358999915
              ],
              [
                -70.08675547999997,
                -17.10982460999992
              ],
              [
                -70.08827822999996,
                -17.1119917339999
              ],
              [
                -70.09067972999998,
                -17.118200359999946
              ],
              [
                -70.09530685499993,
                -17.122885984999982
              ],
              [
                -70.09560347899992,
                -17.126859359999912
              ],
              [
                -70.09333785499996,
                -17.130031233999887
              ],
              [
                -70.09341410499997,
                -17.13234960899996
              ],
              [
                -70.09627535499993,
                -17.135695359999943
              ],
              [
                -70.09765622999998,
                -17.138621109999917
              ],
              [
                -70.09706397899998,
                -17.15439735999996
              ],
              [
                -70.09782535399995,
                -17.160605858999872
              ],
              [
                -70.09934822999998,
                -17.164764359999936
              ],
              [
                -70.09647822999995,
                -17.167985859999874
              ],
              [
                -70.09548247999999,
                -17.170562983999957
              ],
              [
                -70.09618535499993,
                -17.174252984999896
              ],
              [
                -70.09477972899998,
                -17.180227233999915
              ],
              [
                -70.09622072999986,
                -17.186705109999878
              ],
              [
                -70.09263672999998,
                -17.19172260999983
              ],
              [
                -70.08876760499993,
                -17.193169734999913
              ],
              [
                -70.08636522999996,
                -17.19613873399993
              ],
              [
                -70.08823435499994,
                -17.197513733999926
              ],
              [
                -70.09625972999999,
                -17.197546858999885
              ],
              [
                -70.09991410499998,
                -17.19870898499994
              ],
              [
                -70.10189847999999,
                -17.201257859999885
              ],
              [
                -70.10223435499995,
                -17.208845734999954
              ],
              [
                -70.10117385499996,
                -17.211599609999894
              ],
              [
                -70.0991659799999,
                -17.213806609999892
              ],
              [
                -70.09906060499998,
                -17.217333983999822
              ],
              [
                -70.10199810499995,
                -17.222146483999836
              ],
              [
                -70.10485935399998,
                -17.225703109999927
              ],
              [
                -70.10833010499994,
                -17.22858198499995
              ],
              [
                -70.11133597899993,
                -17.232845734999955
              ],
              [
                -70.11441797899994,
                -17.235601609999947
              ],
              [
                -70.11469335399983,
                -17.238330109999936
              ],
              [
                -70.10903122999991,
                -17.24134573499998
              ],
              [
                -70.10706247999991,
                -17.245939484999894
              ],
              [
                -70.10715435499998,
                -17.25347660999995
              ],
              [
                -70.1056054799999,
                -17.25753323499987
              ],
              [
                -70.10401172999991,
                -17.26469923399992
              ],
              [
                -70.1039804799999,
                -17.269474609999975
              ],
              [
                -70.10135747899994,
                -17.2727637349999
              ],
              [
                -70.0958339799999,
                -17.28506960999988
              ],
              [
                -70.09331535499996,
                -17.290048109999873
              ],
              [
                -70.09495547999995,
                -17.296315234999895
              ],
              [
                -70.09800110499998,
                -17.299712359999944
              ],
              [
                -70.10040247899991,
                -17.30486660999992
              ],
              [
                -70.10747460499994,
                -17.308437484999956
              ],
              [
                -70.11258785399997,
                -17.31506635999989
              ],
              [
                -70.11616597999989,
                -17.316324234999968
              ],
              [
                -70.12126172899997,
                -17.319060483999976
              ],
              [
                -70.12446685499998,
                -17.31991010999991
              ],
              [
                -70.12874610499995,
                -17.319208984999932
              ],
              [
                -70.13080097899996,
                -17.316170859999886
              ],
              [
                -70.13413947999993,
                -17.315292358999955
              ],
              [
                -70.14239797999988,
                -17.314530859999934
              ],
              [
                -70.14646097999997,
                -17.31647660899995
              ],
              [
                -70.14667372999992,
                -17.319450858999858
              ],
              [
                -70.14825510499992,
                -17.320680858999935
              ],
              [
                -70.15202847999996,
                -17.319796484999927
              ],
              [
                -70.1562531049999,
                -17.32166460899998
              ],
              [
                -70.15947372899984,
                -17.320977608999954
              ],
              [
                -70.16417772899996,
                -17.317343733999962
              ],
              [
                -70.1681288549999,
                -17.31619535999988
              ],
              [
                -70.17111135499994,
                -17.318115234999937
              ],
              [
                -70.1753926049999,
                -17.319083984999963
              ],
              [
                -70.17885547999998,
                -17.318392609999933
              ],
              [
                -70.18304497999998,
                -17.32247660999991
              ],
              [
                -70.18741597999997,
                -17.322771483999873
              ],
              [
                -70.19182622999989,
                -17.324527359999934
              ],
              [
                -70.19438072999998,
                -17.324304984999856
              ],
              [
                -70.19722997999997,
                -17.328299984999887
              ],
              [
                -70.20182997999984,
                -17.329719984999883
              ],
              [
                -70.20565997999984,
                -17.332339983999873
              ],
              [
                -70.21018685499985,
                -17.33393748499998
              ],
              [
                -70.21108985499995,
                -17.33617773499998
              ],
              [
                -70.21423935499996,
                -17.338010609999913
              ],
              [
                -70.21572072999993,
                -17.340263734999894
              ],
              [
                -70.21852935499999,
                -17.34174223499997
              ],
              [
                -70.22079122899999,
                -17.34085473499988
              ],
              [
                -70.2214512299999,
                -17.33031648499997
              ],
              [
                -70.22093947999991,
                -17.324656234999964
              ],
              [
                -70.22360160499983,
                -17.321691359999875
              ],
              [
                -70.22442385499983,
                -17.318314484999974
              ],
              [
                -70.22334572999995,
                -17.31170898499994
              ],
              [
                -70.22007035499996,
                -17.306564484999967
              ],
              [
                -70.21913085499995,
                -17.301941359999887
              ],
              [
                -70.21952735499997,
                -17.29919135999984
              ],
              [
                -70.22482222999992,
                -17.299376983999935
              ],
              [
                -70.22908797999992,
                -17.297271484999953
              ],
              [
                -70.23673247999994,
                -17.29668748499995
              ],
              [
                -70.24149410499984,
                -17.297939484999972
              ],
              [
                -70.24842972999994,
                -17.29768160999987
              ],
              [
                -70.25033597999999,
                -17.295410109999978
              ],
              [
                -70.25448635499987,
                -17.29243548499994
              ],
              [
                -70.25974997999998,
                -17.2902792349999
              ],
              [
                -70.26904297999994,
                -17.29274410999983
              ],
              [
                -70.27127147999994,
                -17.28993360899989
              ],
              [
                -70.27665622999996,
                -17.28652535999987
              ],
              [
                -70.27768747999983,
                -17.284199234999903
              ],
              [
                -70.28255660499991,
                -17.28167773399997
              ],
              [
                -70.28417972999989,
                -17.279327984999895
              ],
              [
                -70.28412697999988,
                -17.26619723499988
              ],
              [
                -70.28483597999997,
                -17.259796859999938
              ],
              [
                -70.28113110499999,
                -17.239705984999944
              ],
              [
                -70.28113110499999,
                -17.236083109999925
              ],
              [
                -70.28252785499984,
                -17.231674609999914
              ],
              [
                -70.28457935499995,
                -17.230888984999865
              ],
              [
                -70.28824572999997,
                -17.232591234999916
              ],
              [
                -70.29448822999984,
                -17.234417984999823
              ],
              [
                -70.29769922999986,
                -17.23472848499995
              ],
              [
                -70.30058985499994,
                -17.237197234999826
              ],
              [
                -70.30368160499995,
                -17.23611135999994
              ],
              [
                -70.30500997999991,
                -17.234699983999974
              ],
              [
                -70.30561997999985,
                -17.23043998499992
              ],
              [
                -70.30265997999999,
                -17.228599859999974
              ],
              [
                -70.30195997999988,
                -17.222939983999936
              ],
              [
                -70.30287997999989,
                -17.21820998499993
              ],
              [
                -70.30106997999997,
                -17.214939984999887
              ],
              [
                -70.30207997999997,
                -17.210269984999854
              ],
              [
                -70.30603997999987,
                -17.20467998399988
              ],
              [
                -70.30979997999992,
                -17.200259983999956
              ],
              [
                -70.30833997999991,
                -17.198879983999973
              ],
              [
                -70.30268997999997,
                -17.19812998499998
              ],
              [
                -70.30184997999993,
                -17.196249983999962
              ],
              [
                -70.30259997999997,
                -17.192759984999952
              ],
              [
                -70.29930997999998,
                -17.189089984999953
              ],
              [
                -70.29993997999998,
                -17.18734998399998
              ],
              [
                -70.30527997999997,
                -17.181329984999877
              ],
              [
                -70.30351997999998,
                -17.17289998399997
              ],
              [
                -70.30216997999992,
                -17.17083998499993
              ],
              [
                -70.30395997999989,
                -17.168909983999924
              ],
              [
                -70.30806997999997,
                -17.167069984999955
              ],
              [
                -70.30481997999982,
                -17.163159859999894
              ],
              [
                -70.30339997999994,
                -17.160049983999954
              ],
              [
                -70.30318997999996,
                -17.15584998399993
              ],
              [
                -70.30121685499995,
                -17.153083984999853
              ],
              [
                -70.29821097999991,
                -17.150757858999953
              ],
              [
                -70.29558597999988,
                -17.147048859999927
              ],
              [
                -70.29355660499994,
                -17.1384687339999
              ],
              [
                -70.29411847999995,
                -17.13572748499996
              ],
              [
                -70.29288997999993,
                -17.128949984999963
              ],
              [
                -70.29063997999992,
                -17.127829858999917
              ],
              [
                -70.29065997999999,
                -17.1232599839999
              ],
              [
                -70.28925997999988,
                -17.122399984999902
              ],
              [
                -70.28891997999989,
                -17.117469984999957
              ],
              [
                -70.28761997999999,
                -17.113699984999926
              ],
              [
                -70.28802997999998,
                -17.11217998399991
              ],
              [
                -70.28707997999999,
                -17.10603998399995
              ],
              [
                -70.28928997999998,
                -17.10254998399995
              ],
              [
                -70.2881299799999,
                -17.097369984999943
              ],
              [
                -70.29188997999995,
                -17.096089983999946
              ],
              [
                -70.29402997999995,
                -17.092959984999936
              ],
              [
                -70.2945899799999,
                -17.09013998499995
              ],
              [
                -70.29849997999986,
                -17.084929984999974
              ],
              [
                -70.30005997999996,
                -17.07864998499997
              ],
              [
                -70.30153997999986,
                -17.07561998499989
              ],
              [
                -70.30554997999991,
                -17.071029859999896
              ],
              [
                -70.30774997999987,
                -17.067359983999836
              ],
              [
                -70.30888997999995,
                -17.063349983999956
              ],
              [
                -70.31132997999987,
                -17.060539984999878
              ],
              [
                -70.3184999799999,
                -17.055669984999895
              ],
              [
                -70.32481997999997,
                -17.054479983999954
              ],
              [
                -70.33008997999997,
                -17.051999983999906
              ],
              [
                -70.33184010499991,
                -17.05222998399995
              ],
              [
                -70.33882997999996,
                -17.049999983999896
              ],
              [
                -70.3463906049999,
                -17.047041109999952
              ],
              [
                -70.35068560499991,
                -17.046437484999956
              ],
              [
                -70.35466010499988,
                -17.042628859999922
              ],
              [
                -70.35445785499985,
                -17.04064223399996
              ],
              [
                -70.35668010499995,
                -17.03451748499998
              ],
              [
                -70.35654460499995,
                -17.03251210999997
              ],
              [
                -70.36023022999996,
                -17.031075858999884
              ],
              [
                -70.36242522999987,
                -17.027390234999928
              ],
              [
                -70.36424097999998,
                -17.02638748399994
              ],
              [
                -70.37145310499994,
                -17.025091734999933
              ],
              [
                -70.37429510499993,
                -17.022403734999898
              ],
              [
                -70.37534372999983,
                -17.016962858999932
              ],
              [
                -70.37700598099997,
                -17.012654233999967
              ],
              [
                -70.37734960499995,
                -17.009296859999893
              ],
              [
                -70.38247935499993,
                -17.004951234999965
              ],
              [
                -70.38817047999999,
                -17.001130109999906
              ],
              [
                -70.39369885499991,
                -16.99939573499995
              ],
              [
                -70.39640885499989,
                -16.997823983999922
              ],
              [
                -70.39817035499988,
                -16.992973109999923
              ],
              [
                -70.40150372999989,
                -16.990804983999965
              ],
              [
                -70.40751997999996,
                -16.99131985899993
              ],
              [
                -70.41134110499985,
                -16.99421960999996
              ],
              [
                -70.41661910499994,
                -16.99349023499991
              ],
              [
                -70.42095122999996,
                -16.995107359999963
              ],
              [
                -70.42595697999991,
                -16.99441210899988
              ],
              [
                -70.43085322999991,
                -16.99636048399998
              ],
              [
                -70.43437623099993,
                -16.999747984999942
              ],
              [
                -70.43914585499994,
                -17.00183473499993
              ],
              [
                -70.44532472999987,
                -17.000208734999887
              ],
              [
                -70.44944385499997,
                -17.000723609999966
              ],
              [
                -70.45250622999998,
                -17.00251210999994
              ],
              [
                -70.45724885499999,
                -17.001265608999915
              ],
              [
                -70.4607851049999,
                -16.99788085999984
              ],
              [
                -70.45780272999997,
                -16.99297260999998
              ],
              [
                -70.45202735499987,
                -16.986400358999845
              ],
              [
                -70.44999010499998,
                -16.98258198499991
              ],
              [
                -70.44964647999996,
                -16.978638733999958
              ],
              [
                -70.44599997999995,
                -16.973931608999976
              ],
              [
                -70.44500785499991,
                -16.971445358999972
              ],
              [
                -70.44475585499998,
                -16.967304733999924
              ],
              [
                -70.44319922999995,
                -16.964277358999936
              ],
              [
                -70.44347460499989,
                -16.962052734999872
              ],
              [
                -70.44576172999996,
                -16.960146484999882
              ],
              [
                -70.45031060499991,
                -16.958070359999965
              ],
              [
                -70.45555860499991,
                -16.95422660899993
              ],
              [
                -70.4647226049999,
                -16.945683609999946
              ],
              [
                -70.46474260499997,
                -16.942358109999873
              ],
              [
                -70.46102147999994,
                -16.936365234999982
              ],
              [
                -70.46082222999996,
                -16.93447460999994
              ],
              [
                -70.45573248099998,
                -16.933259733999876
              ],
              [
                -70.45342272999994,
                -16.928570608999962
              ],
              [
                -70.45612535599992,
                -16.92390948399992
              ],
              [
                -70.45919135499992,
                -16.92273823499994
              ],
              [
                -70.45480272999998,
                -16.91798048499993
              ],
              [
                -70.45169135499987,
                -16.913121108999917
              ],
              [
                -70.45092772999993,
                -16.90643748499997
              ],
              [
                -70.45196485499991,
                -16.902873108999927
              ],
              [
                -70.45175197999998,
                -16.900005733999933
              ],
              [
                -70.44773047999996,
                -16.89700785899987
              ],
              [
                -70.44534372999993,
                -16.89616798499992
              ],
              [
                -70.44201760499988,
                -16.89312498399994
              ],
              [
                -70.4424356049999,
                -16.88799610899997
              ],
              [
                -70.44856247999996,
                -16.882812483999942
              ],
              [
                -70.45011910499989,
                -16.880099608999956
              ],
              [
                -70.44775385499986,
                -16.87412698399993
              ],
              [
                -70.45018747999995,
                -16.86824410899993
              ],
              [
                -70.45096685599998,
                -16.861816483999917
              ],
              [
                -70.45037110499987,
                -16.86032223399991
              ],
              [
                -70.44483210499988,
                -16.855818358999954
              ],
              [
                -70.4432676049999,
                -16.853101608999964
              ],
              [
                -70.4427266049999,
                -16.84643948399986
              ],
              [
                -70.44160547999996,
                -16.841226608999932
              ],
              [
                -70.44068935499996,
                -16.840046858999926
              ],
              [
                -70.43723247999998,
                -16.83951560999992
              ],
              [
                -70.43260160499989,
                -16.83984573499987
              ],
              [
                -70.42713085499997,
                -16.835779359999947
              ],
              [
                -70.42548423099998,
                -16.83329498399985
              ],
              [
                -70.42081447999993,
                -16.83099810899995
              ],
              [
                -70.41739647999992,
                -16.830828108999924
              ],
              [
                -70.41430660499998,
                -16.82941598399998
              ],
              [
                -70.40939447999989,
                -16.8301913599999
              ],
              [
                -70.40458598099985,
                -16.825515608999922
              ],
              [
                -70.39968947999989,
                -16.818796859999907
              ],
              [
                -70.39363672999986,
                -16.817390609999904
              ],
              [
                -70.3902207299999,
                -16.81740423499997
              ],
              [
                -70.38523047999985,
                -16.815871109999875
              ],
              [
                -70.38086722999998,
                -16.812591858999895
              ],
              [
                -70.37866997999998,
                -16.80949798399996
              ],
              [
                -70.37803710499992,
                -16.80324223399998
              ],
              [
                -70.37279497999998,
                -16.798179733999973
              ],
              [
                -70.3687676049999,
                -16.79910160999998
              ],
              [
                -70.36137310499993,
                -16.797046858999977
              ],
              [
                -70.3591913549999,
                -16.795685609999964
              ],
              [
                -70.35884760499988,
                -16.791710983999963
              ],
              [
                -70.35399622999995,
                -16.789478483999915
              ],
              [
                -70.35110547999994,
                -16.789738233999913
              ],
              [
                -70.34895897999996,
                -16.79125385899988
              ],
              [
                -70.34492572999994,
                -16.791464858999973
              ],
              [
                -70.34175785499986,
                -16.788683608999975
              ],
              [
                -70.33481635499999,
                -16.7850332349999
              ],
              [
                -70.32367572999993,
                -16.782994108999958
              ],
              [
                -70.31800785499996,
                -16.77898435999998
              ],
              [
                -70.31787110499994,
                -16.775294858999814
              ],
              [
                -70.3112949799999,
                -16.773300733999918
              ],
              [
                -70.30761135499995,
                -16.773046858999976
              ],
              [
                -70.30184185499996,
                -16.777511733999916
              ],
              [
                -70.29859185499998,
                -16.77811323399993
              ],
              [
                -70.29278960499988,
                -16.78035848499991
              ],
              [
                -70.29185685499988,
                -16.781345233999957
              ],
              [
                -70.28597260499993,
                -16.778802734999886
              ],
              [
                -70.28054885499995,
                -16.77708198499988
              ],
              [
                -70.27749610499995,
                -16.77488085899995
              ],
              [
                -70.26979722999988,
                -16.770567233999884
              ],
              [
                -70.26657497999997,
                -16.77083348399998
              ],
              [
                -70.26385522999993,
                -16.772666233999928
              ],
              [
                -70.26645672999996,
                -16.778430858999855
              ],
              [
                -70.26293885499996,
                -16.783781608999902
              ],
              [
                -70.26083997999996,
                -16.785259733999908
              ],
              [
                -70.25548922999997,
                -16.786116983999932
              ],
              [
                -70.25388285499992,
                -16.78884960899984
              ],
              [
                -70.25384572999997,
                -16.794093733999944
              ],
              [
                -70.25283597999999,
                -16.798884733999955
              ],
              [
                -70.24730047999992,
                -16.802464858999883
              ],
              [
                -70.23939447999993,
                -16.80560748399995
              ],
              [
                -70.23477147999995,
                -16.806208983999966
              ],
              [
                -70.22936322999993,
                -16.80774223399993
              ],
              [
                -70.22550197999993,
                -16.809531233999962
              ],
              [
                -70.21923047999991,
                -16.81055660899989
              ],
              [
                -70.21266210499994,
                -16.810404234999965
              ],
              [
                -70.20557422999991,
                -16.80812498399996
              ],
              [
                -70.20335335499993,
                -16.808603483999946
              ],
              [
                -70.20032422899993,
                -16.81309373399995
              ],
              [
                -70.19425972999989,
                -16.818107358999896
              ],
              [
                -70.19226185499997,
                -16.818060483999943
              ],
              [
                -70.18663872999997,
                -16.81588285899994
              ],
              [
                -70.18155447899983,
                -16.81715723399998
              ],
              [
                -70.18241185499988,
                -16.819226484999945
              ],
              [
                -70.18217535499997,
                -16.824547734999953
              ],
              [
                -70.18332822999997,
                -16.833031984999934
              ],
              [
                -70.18406722999998,
                -16.83468748399997
              ],
              [
                -70.18767385499996,
                -16.83542648399998
              ],
              [
                -70.19023247999985,
                -16.83745510899996
              ],
              [
                -70.19414797999997,
                -16.838678358999914
              ],
              [
                -70.19737022999988,
                -16.84184148399993
              ],
              [
                -70.19902572999996,
                -16.840274734999866
              ],
              [
                -70.20482622999992,
                -16.839007858999935
              ],
              [
                -70.21171485499997,
                -16.840810483999974
              ],
              [
                -70.21686522999988,
                -16.843314483999904
              ],
              [
                -70.22066410499997,
                -16.847503859999904
              ],
              [
                -70.22264060499998,
                -16.852074233999872
              ],
              [
                -70.2230839799999,
                -16.856087859999946
              ],
              [
                -70.22684360399995,
                -16.857657234999976
              ],
              [
                -70.23062747999984,
                -16.857213733999856
              ],
              [
                -70.23766322999995,
                -16.854848859999947
              ],
              [
                -70.24121072999992,
                -16.85691810899982
              ],
              [
                -70.24376760399991,
                -16.860242233999884
              ],
              [
                -70.24700610499991,
                -16.8703857349999
              ],
              [
                -70.24993472999995,
                -16.876535734999948
              ],
              [
                -70.25227747999998,
                -16.889421358999925
              ],
              [
                -70.25596747999992,
                -16.899202734999847
              ],
              [
                -70.2590663549999,
                -16.90203323499992
              ],
              [
                -70.25790035499989,
                -16.91161998399997
              ],
              [
                -70.25930610499995,
                -16.92052260899993
              ],
              [
                -70.25731460499992,
                -16.925969733999978
              ],
              [
                -70.25421035499994,
                -16.92983535899998
              ],
              [
                -70.25362460499997,
                -16.931768483999974
              ],
              [
                -70.25432747999997,
                -16.940026858999886
              ],
              [
                -70.25245322999996,
                -16.94471248399998
              ],
              [
                -70.24981760499992,
                -16.949339608999935
              ],
              [
                -70.2471818549999,
                -16.952443984999945
              ],
              [
                -70.23956760499988,
                -16.956953858999952
              ],
              [
                -70.23007910499996,
                -16.959413859999927
              ],
              [
                -70.22510560499984,
                -16.958550733999914
              ],
              [
                -70.22392910499991,
                -16.952033984999957
              ],
              [
                -70.22146910499987,
                -16.94881248399986
              ],
              [
                -70.21801335499993,
                -16.946352483999874
              ],
              [
                -70.21133635399991,
                -16.943599733999918
              ],
              [
                -70.20096922999994,
                -16.94400973399985
              ],
              [
                -70.19628347999992,
                -16.943013983999947
              ],
              [
                -70.18972347999994,
                -16.9392068599999
              ],
              [
                -70.18128922999989,
                -16.932119609999972
              ],
              [
                -70.17900497999989,
                -16.927668359999927
              ],
              [
                -70.18030860499994,
                -16.92486523399998
              ],
              [
                -70.17783360499988,
                -16.919468358999836
              ],
              [
                -70.17730647999997,
                -16.916188233999947
              ],
              [
                -70.17467072999995,
                -16.912791233999883
              ],
              [
                -70.17279647999993,
                -16.912615359999904
              ],
              [
                -70.16963285499992,
                -16.91671485899991
              ],
              [
                -70.16589447999996,
                -16.916992234999952
              ],
              [
                -70.15963672999999,
                -16.918435484999975
              ],
              [
                -70.15253085499995,
                -16.92093260899992
              ],
              [
                -70.14837222999995,
                -16.921869733999927
              ],
              [
                -70.14766947999988,
                -16.926438358999917
              ],
              [
                -70.15200372899994,
                -16.933173984999883
              ],
              [
                -70.14662497999996,
                -16.938730483999848
              ]
            ]
          ]
        ],
        "type": "MultiPolygon"
      },
      "type": "Feature",
      "properties": {
        "PROVINCIA": "CANDARAVE",
        "DISTRITO": "CANDARAVE",
        "name": "CANDARAVE",
        "ID": "220401",
        "DEPARTAMEN": "TACNA"
      }
    }
  ]
}
