{
  "type": "FeatureCollection",
  "features": [
    {
      "geometry": {
        "coordinates": [
          [
            [
              [
                -78.70970111299988,
                -6.460482473999946
              ],
              [
                -78.70058911299992,
                -6.46105872399994
              ],
              [
                -78.69762973699994,
                -6.461932099999956
              ],
              [
                -78.69284336299995,
                -6.466172349999965
              ],
              [
                -78.68603336299986,
                -6.468517223999925
              ],
              [
                -78.67418011299992,
                -6.469448849999935
              ],
              [
                -78.66839798799998,
                -6.474170849999894
              ],
              [
                -78.66048436299997,
                -6.474921849999873
              ],
              [
                -78.65236548799993,
                -6.471858348999888
              ],
              [
                -78.639919363,
                -6.479604599999902
              ],
              [
                -78.63877711299989,
                -6.480632474999936
              ],
              [
                -78.63209561199994,
                -6.483030849999977
              ],
              [
                -78.62113111199994,
                -6.490055224999935
              ],
              [
                -78.61404986299993,
                -6.493995599999948
              ],
              [
                -78.61010948799998,
                -6.497707474999913
              ],
              [
                -78.60851048799992,
                -6.502047724999954
              ],
              [
                -78.60862461299996,
                -6.506787599999882
              ],
              [
                -78.60708273799992,
                -6.508614974999944
              ],
              [
                -78.60284023799989,
                -6.510119599999882
              ],
              [
                -78.59503311299989,
                -6.513640348999957
              ],
              [
                -78.59046461299994,
                -6.517809224999951
              ],
              [
                -78.58914261199988,
                -6.523021474999894
              ],
              [
                -78.59073636299985,
                -6.526882849999936
              ],
              [
                -78.59002736199989,
                -6.530214849999936
              ],
              [
                -78.58538211299992,
                -6.532657098999948
              ],
              [
                -78.5838972379999,
                -6.534541599999898
              ],
              [
                -78.58189848799992,
                -6.539909598999941
              ],
              [
                -78.58075636299992,
                -6.545163473999878
              ],
              [
                -78.5786434879999,
                -6.54624847499997
              ],
              [
                -78.57501948699996,
                -6.554296848999854
              ],
              [
                -78.56903573799997,
                -6.556314099999952
              ],
              [
                -78.56459511199989,
                -6.561895849999928
              ],
              [
                -78.55679298799987,
                -6.564847598999904
              ],
              [
                -78.55141923799994,
                -6.569495974999938
              ],
              [
                -78.54769136199997,
                -6.570690349999893
              ],
              [
                -78.54597823799998,
                -6.57525897499994
              ],
              [
                -78.54258011199994,
                -6.579499974999976
              ],
              [
                -78.53912761299989,
                -6.587410349999914
              ],
              [
                -78.53807811299993,
                -6.594027349999919
              ],
              [
                -78.53674411199995,
                -6.597126974999981
              ],
              [
                -78.53251561199994,
                -6.601994099999899
              ],
              [
                -78.53179123799998,
                -6.604376724999952
              ],
              [
                -78.53195898799999,
                -6.608496224999897
              ],
              [
                -78.53460586299997,
                -6.607998599999974
              ],
              [
                -78.54019523799997,
                -6.605300224999951
              ],
              [
                -78.54514398799995,
                -6.601053849999971
              ],
              [
                -78.54806536299992,
                -6.596498599999961
              ],
              [
                -78.55024973799993,
                -6.595502848999956
              ],
              [
                -78.5566421129999,
                -6.596434349999981
              ],
              [
                -78.56040048799991,
                -6.597847724999951
              ],
              [
                -78.56322723699998,
                -6.600513974999899
              ],
              [
                -78.56573286299988,
                -6.605171724999934
              ],
              [
                -78.56872023799997,
                -6.608416099999943
              ],
              [
                -78.57087248699997,
                -6.609251349999965
              ],
              [
                -78.57481286299992,
                -6.616275849999965
              ],
              [
                -78.57924836199993,
                -6.616848223999966
              ],
              [
                -78.58271798699997,
                -6.621516099999894
              ],
              [
                -78.58656248799991,
                -6.628427723999948
              ],
              [
                -78.59137698799998,
                -6.632876974999931
              ],
              [
                -78.59579411199991,
                -6.634147349999978
              ],
              [
                -78.60090686199999,
                -6.634375349999857
              ],
              [
                -78.60561048699998,
                -6.635502099999826
              ],
              [
                -78.6082397379999,
                -6.638202724999871
              ],
              [
                -78.60918736199989,
                -6.640470849999872
              ],
              [
                -78.61281623799994,
                -6.64223872499997
              ],
              [
                -78.61788711299994,
                -6.643541349999907
              ],
              [
                -78.6204921129999,
                -6.64746359999998
              ],
              [
                -78.62330673799988,
                -6.653341724999905
              ],
              [
                -78.62696636299995,
                -6.654121599999939
              ],
              [
                -78.63361573799995,
                -6.653157974999885
              ],
              [
                -78.63650673799998,
                -6.65453934999988
              ],
              [
                -78.64299561299998,
                -6.66668159999989
              ],
              [
                -78.64363811299984,
                -6.669155099999955
              ],
              [
                -78.64370448699998,
                -6.675643599999887
              ],
              [
                -78.6473457379999,
                -6.679904349999902
              ],
              [
                -78.65177836299995,
                -6.68065947499997
              ],
              [
                -78.65398148799989,
                -6.680462223999882
              ],
              [
                -78.6559731129999,
                -6.677988849999963
              ],
              [
                -78.65526523799997,
                -6.670449349999899
              ],
              [
                -78.65854298799991,
                -6.663822724999875
              ],
              [
                -78.66085736299993,
                -6.662953099999982
              ],
              [
                -78.66827136299997,
                -6.662293349999914
              ],
              [
                -78.67185161299994,
                -6.661414099999888
              ],
              [
                -78.67182423799994,
                -6.657511849999878
              ],
              [
                -78.67282686299995,
                -6.647372349999898
              ],
              [
                -78.67242361299998,
                -6.64421322499993
              ],
              [
                -78.67276686299988,
                -6.639352599999938
              ],
              [
                -78.67170386299995,
                -6.632091848999835
              ],
              [
                -78.67693186299988,
                -6.62657484999994
              ],
              [
                -78.68035161299997,
                -6.621911974999875
              ],
              [
                -78.68244898799992,
                -6.612023224999973
              ],
              [
                -78.68644823699998,
                -6.605494348999969
              ],
              [
                -78.68896523799998,
                -6.603554349999854
              ],
              [
                -78.69714511299998,
                -6.598700224999959
              ],
              [
                -78.69865623799996,
                -6.593814474999817
              ],
              [
                -78.69861523799995,
                -6.589476599999898
              ],
              [
                -78.69641798799995,
                -6.582017599999915
              ],
              [
                -78.69652923799993,
                -6.579226599999913
              ],
              [
                -78.69346673799993,
                -6.569222598999886
              ],
              [
                -78.69075786299999,
                -6.564800723999952
              ],
              [
                -78.69169923799996,
                -6.56257222499994
              ],
              [
                -78.69008198699999,
                -6.560259849999852
              ],
              [
                -78.69038673799997,
                -6.549097599999811
              ],
              [
                -78.69175386299997,
                -6.546835974999908
              ],
              [
                -78.6916718629999,
                -6.542874974999904
              ],
              [
                -78.69264848799997,
                -6.540882974999931
              ],
              [
                -78.69291011199988,
                -6.536933599999941
              ],
              [
                -78.69688473799994,
                -6.537449224999932
              ],
              [
                -78.69707423799997,
                -6.539636723999934
              ],
              [
                -78.69986911299998,
                -6.539072224999927
              ],
              [
                -78.70510548699997,
                -6.54216009899983
              ],
              [
                -78.70857811199994,
                -6.541859349999925
              ],
              [
                -78.70839848799994,
                -6.535468724999873
              ],
              [
                -78.70786523799995,
                -6.533396474999904
              ],
              [
                -78.70883986299992,
                -6.529982474999883
              ],
              [
                -78.71080861199994,
                -6.526449223999919
              ],
              [
                -78.71329873799993,
                -6.525050724999971
              ],
              [
                -78.71707423799995,
                -6.521705099999963
              ],
              [
                -78.718853487,
                -6.518197223999891
              ],
              [
                -78.72210548799995,
                -6.516593723999904
              ],
              [
                -78.72429686299995,
                -6.51364647399987
              ],
              [
                -78.72539061299995,
                -6.50938672399991
              ],
              [
                -78.72792773799995,
                -6.50589059999993
              ],
              [
                -78.72653323799983,
                -6.500523474999966
              ],
              [
                -78.72696873699988,
                -6.498066348999942
              ],
              [
                -78.72916598799998,
                -6.493945349999933
              ],
              [
                -78.72851498799992,
                -6.490436848999934
              ],
              [
                -78.72629086199993,
                -6.486499224999875
              ],
              [
                -78.72672561299993,
                -6.48474084999998
              ],
              [
                -78.73015211299992,
                -6.48045784999988
              ],
              [
                -78.73483498699989,
                -6.477830974999961
              ],
              [
                -78.73877536299995,
                -6.476346099999944
              ],
              [
                -78.73948736299997,
                -6.472368223999979
              ],
              [
                -78.73823523799996,
                -6.468144848999941
              ],
              [
                -78.73222123799997,
                -6.459886724999933
              ],
              [
                -78.72695773799995,
                -6.462221224999894
              ],
              [
                -78.72428123799995,
                -6.465148349999879
              ],
              [
                -78.72008611299992,
                -6.465246098999899
              ],
              [
                -78.71715986299989,
                -6.463680223999916
              ],
              [
                -78.71321336299997,
                -6.463543848999905
              ],
              [
                -78.70970111299988,
                -6.460482473999946
              ]
            ]
          ]
        ],
        "type": "MultiPolygon"
      },
      "type": "Feature",
      "properties": {
        "PROVINCIA": "CHOTA",
        "DISTRITO": "CHOTA",
        "name": "CHOTA",
        "ID": "060601",
        "DEPARTAMEN": "CAJAMARCA"
      }
    }
  ]
}
