{
  "type": "FeatureCollection",
  "features": [
    {
      "geometry": {
        "coordinates": [
          [
            [
              [
                -75.79617945020016,
                -9.201549874601028
              ],
              [
                -75.79755473499995,
                -9.199056601999928
              ],
              [
                -75.8036718599999,
                -9.192197226999895
              ],
              [
                -75.80696098499999,
                -9.185710976999871
              ],
              [
                -75.80902148499996,
                -9.18444922699996
              ],
              [
                -75.81175973499995,
                -9.180193351999947
              ],
              [
                -75.81361323599992,
                -9.178831976999959
              ],
              [
                -75.81730660999989,
                -9.17275572699998
              ],
              [
                -75.82000785999992,
                -9.169347601999903
              ],
              [
                -75.82177735999988,
                -9.168937477999975
              ],
              [
                -75.82583598499997,
                -9.17076372799994
              ],
              [
                -75.82986523599999,
                -9.170529351999903
              ],
              [
                -75.83185548499995,
                -9.16897847699994
              ],
              [
                -75.83457223499994,
                -9.168863226999974
              ],
              [
                -75.83874623499997,
                -9.170046851999928
              ],
              [
                -75.84353710999994,
                -9.17006247699993
              ],
              [
                -75.84720698499996,
                -9.172966851999888
              ],
              [
                -75.85290623499998,
                -9.174029352999924
              ],
              [
                -75.85754485999996,
                -9.168945351999923
              ],
              [
                -75.86016798499986,
                -9.167835976999811
              ],
              [
                -75.86410548499987,
                -9.164605476999952
              ],
              [
                -75.86997260999993,
                -9.165206976999968
              ],
              [
                -75.87188673499992,
                -9.166830101999892
              ],
              [
                -75.87938673499991,
                -9.168384726999818
              ],
              [
                -75.88393360999999,
                -9.171242226999823
              ],
              [
                -75.8890154849999,
                -9.171681601999865
              ],
              [
                -75.89028910999997,
                -9.17454485199994
              ],
              [
                -75.89049610999996,
                -9.174861351999937
              ],
              [
                -75.89794923499994,
                -9.17572847699995
              ],
              [
                -75.90485348599992,
                -9.169851601999937
              ],
              [
                -75.90795110999989,
                -9.167781226999978
              ],
              [
                -75.91299410999989,
                -9.165669976999936
              ],
              [
                -75.92303498499996,
                -9.16336722699998
              ],
              [
                -75.9242558599999,
                -9.162468726999975
              ],
              [
                -75.93032810999989,
                -9.162732601999892
              ],
              [
                -75.93299023499998,
                -9.16490622699996
              ],
              [
                -75.93382223499998,
                -9.166775351999888
              ],
              [
                -75.93633198499998,
                -9.167203101999917
              ],
              [
                -75.93833198499982,
                -9.16750585199992
              ],
              [
                -75.94127736099989,
                -9.168790976999958
              ],
              [
                -75.94293160999996,
                -9.171644476999973
              ],
              [
                -75.94711335999995,
                -9.169353476999959
              ],
              [
                -75.94750198499997,
                -9.170257851999793
              ],
              [
                -75.95130073499996,
                -9.17158597699995
              ],
              [
                -75.9560312349999,
                -9.170281227999965
              ],
              [
                -75.9602284849999,
                -9.174257851999926
              ],
              [
                -75.96074610999995,
                -9.175214851999897
              ],
              [
                -75.96254298499991,
                -9.177449226999954
              ],
              [
                -75.96708785999994,
                -9.177732476999836
              ],
              [
                -75.96777923499991,
                -9.17814647699987
              ],
              [
                -75.96872260999999,
                -9.17877347699988
              ],
              [
                -75.96915623599989,
                -9.178927851999958
              ],
              [
                -75.96956635999999,
                -9.178841852999938
              ],
              [
                -75.96842973499992,
                -9.175498101999949
              ],
              [
                -75.96914261099994,
                -9.170999976999951
              ],
              [
                -75.96849998499988,
                -9.16658397699996
              ],
              [
                -75.9689199849999,
                -9.164626977999944
              ],
              [
                -75.96936323499989,
                -9.164308601999892
              ],
              [
                -75.97237698499993,
                -9.163540976999968
              ],
              [
                -75.97338285999996,
                -9.164109351999912
              ],
              [
                -75.97629098499993,
                -9.163790976999962
              ],
              [
                -75.9781172349999,
                -9.164964851999912
              ],
              [
                -75.98172260999996,
                -9.165220726999962
              ],
              [
                -75.98175585999996,
                -9.16701760199993
              ],
              [
                -75.98194923599988,
                -9.168587851999916
              ],
              [
                -75.98290035999997,
                -9.168958976999932
              ],
              [
                -75.98513860999998,
                -9.16706447699994
              ],
              [
                -75.98591410999995,
                -9.166751976999933
              ],
              [
                -75.9898007349999,
                -9.16371285199989
              ],
              [
                -75.99039060999996,
                -9.163376976999928
              ],
              [
                -75.99086723499994,
                -9.16316410199994
              ],
              [
                -75.99146873599989,
                -9.163144476999946
              ],
              [
                -75.99432811099996,
                -9.162929726999948
              ],
              [
                -75.99451948599989,
                -9.159951226999965
              ],
              [
                -75.99549223499997,
                -9.158724726999935
              ],
              [
                -76.00034960999989,
                -9.158433601999889
              ],
              [
                -75.99645110999995,
                -9.156078101999867
              ],
              [
                -75.99604886099996,
                -9.154412101999867
              ],
              [
                -75.99541985999997,
                -9.154281226999956
              ],
              [
                -75.99520311099997,
                -9.15465822699997
              ],
              [
                -75.99485735999997,
                -9.155988227999956
              ],
              [
                -75.99416410999999,
                -9.156544976999953
              ],
              [
                -75.9940214859999,
                -9.157503851999877
              ],
              [
                -75.99371485999984,
                -9.157812476999936
              ],
              [
                -75.99264648499997,
                -9.155706976999909
              ],
              [
                -75.99212885999998,
                -9.156109351999874
              ],
              [
                -75.99026948599987,
                -9.156798851999895
              ],
              [
                -75.989160111,
                -9.156472601999894
              ],
              [
                -75.98878710999998,
                -9.155962851999902
              ],
              [
                -75.9892909859999,
                -9.155431601999908
              ],
              [
                -75.98995698499994,
                -9.154373101999909
              ],
              [
                -75.98888673499994,
                -9.153009726999926
              ],
              [
                -75.98681048599991,
                -9.152845602999946
              ],
              [
                -75.98539261099995,
                -9.152744101999872
              ],
              [
                -75.98487298499992,
                -9.152972601999977
              ],
              [
                -75.98470698599988,
                -9.153154351999888
              ],
              [
                -75.98334960999995,
                -9.155214851999915
              ],
              [
                -75.98282811099995,
                -9.155640601999835
              ],
              [
                -75.98247848499994,
                -9.155673851999893
              ],
              [
                -75.98253510999996,
                -9.153949226999941
              ],
              [
                -75.98244136099999,
                -9.153531227999906
              ],
              [
                -75.97987885999999,
                -9.154984226999943
              ],
              [
                -75.97883598499993,
                -9.15623822699996
              ],
              [
                -75.97857611099994,
                -9.15626947699991
              ],
              [
                -75.97778510999996,
                -9.155546851999873
              ],
              [
                -75.97605073499989,
                -9.15437885199998
              ],
              [
                -75.97404098499993,
                -9.152496101999873
              ],
              [
                -75.97326360999995,
                -9.150859351999884
              ],
              [
                -75.97257811099996,
                -9.150357476999943
              ],
              [
                -75.9716874849999,
                -9.150378851999903
              ],
              [
                -75.97074798599988,
                -9.149996101999875
              ],
              [
                -75.97059761099996,
                -9.149822227999948
              ],
              [
                -75.96948060999995,
                -9.148898476999932
              ],
              [
                -75.96770898499989,
                -9.148554726999976
              ],
              [
                -75.96734573499992,
                -9.147998101999917
              ],
              [
                -75.9666659849999,
                -9.147134726999923
              ],
              [
                -75.96512698499993,
                -9.14493360199998
              ],
              [
                -75.96341798499992,
                -9.142468726999937
              ],
              [
                -75.96308986099996,
                -9.141005976999963
              ],
              [
                -75.96258586099992,
                -9.140345726999954
              ],
              [
                -75.96171486099996,
                -9.140005851999888
              ],
              [
                -75.95930473499999,
                -9.138998101999903
              ],
              [
                -75.95771873599995,
                -9.137835976999952
              ],
              [
                -75.95761136099992,
                -9.137546852999776
              ],
              [
                -75.95529886099996,
                -9.137136726999927
              ],
              [
                -75.95332423499985,
                -9.137558726999941
              ],
              [
                -75.94873823499984,
                -9.135009726999897
              ],
              [
                -75.94685348499996,
                -9.135142601999974
              ],
              [
                -75.94674611099992,
                -9.135205101999873
              ],
              [
                -75.94521285999991,
                -9.13537310299995
              ],
              [
                -75.94422073499999,
                -9.134335976999921
              ],
              [
                -75.94207223499996,
                -9.133544976999929
              ],
              [
                -75.93980473499988,
                -9.133234351999874
              ],
              [
                -75.93663848499995,
                -9.131289101999869
              ],
              [
                -75.93532610999989,
                -9.131300726999939
              ],
              [
                -75.9348593599999,
                -9.131636726999943
              ],
              [
                -75.93379885999991,
                -9.132706976999884
              ],
              [
                -75.93198436099988,
                -9.132738226999948
              ],
              [
                -75.93112111099987,
                -9.13252347699995
              ],
              [
                -75.92887886099999,
                -9.132982476999928
              ],
              [
                -75.9272303599999,
                -9.13313872699996
              ],
              [
                -75.92621673499997,
                -9.132781226999953
              ],
              [
                -75.92558985999989,
                -9.133072226999957
              ],
              [
                -75.92542185999991,
                -9.13311722799989
              ],
              [
                -75.92369923499996,
                -9.133048851999831
              ],
              [
                -75.92177535999991,
                -9.129998101999888
              ],
              [
                -75.92130273499998,
                -9.129546851999805
              ],
              [
                -75.91876948499998,
                -9.127699226999937
              ],
              [
                -75.91814435999999,
                -9.129001976999916
              ],
              [
                -75.91466598499994,
                -9.128533226999934
              ],
              [
                -75.91387110999983,
                -9.128697226999918
              ],
              [
                -75.91356635999989,
                -9.127685601999872
              ],
              [
                -75.91457423499998,
                -9.126966851999953
              ],
              [
                -75.91431448499998,
                -9.12539447699993
              ],
              [
                -75.9135741099999,
                -9.124185601999955
              ],
              [
                -75.91307036099988,
                -9.12298247699988
              ],
              [
                -75.91094923499998,
                -9.124427726999897
              ],
              [
                -75.91026361099983,
                -9.123859351999954
              ],
              [
                -75.91056048499996,
                -9.122447226999896
              ],
              [
                -75.91022460999989,
                -9.122085851999941
              ],
              [
                -75.90924023499997,
                -9.121935601999951
              ],
              [
                -75.90857036099999,
                -9.121818476999806
              ],
              [
                -75.90672261099996,
                -9.12365035199997
              ],
              [
                -75.90628123499994,
                -9.123623101999954
              ],
              [
                -75.90608198499996,
                -9.12205072699993
              ],
              [
                -75.90520510999988,
                -9.121664101999954
              ],
              [
                -75.90455660999999,
                -9.121828101999824
              ],
              [
                -75.90380073499995,
                -9.122273476999794
              ],
              [
                -75.90312110999997,
                -9.121931601999961
              ],
              [
                -75.90217573499996,
                -9.121437476999915
              ],
              [
                -75.90132223499995,
                -9.119439601999886
              ],
              [
                -75.90035935999998,
                -9.119705101999955
              ],
              [
                -75.90005473499997,
                -9.119859351999935
              ],
              [
                -75.89909373499995,
                -9.119734476999952
              ],
              [
                -75.89867385999997,
                -9.119228477999854
              ],
              [
                -75.89798048499995,
                -9.11778510199997
              ],
              [
                -75.89729298499992,
                -9.117234351999855
              ],
              [
                -75.89635548499996,
                -9.114341851999939
              ],
              [
                -75.89574410999995,
                -9.113294976999782
              ],
              [
                -75.89566810999986,
                -9.113070351999966
              ],
              [
                -75.89498823499991,
                -9.112138726999888
              ],
              [
                -75.89353111099996,
                -9.10834372699992
              ],
              [
                -75.89208986099999,
                -9.106800601999964
              ],
              [
                -75.89049610999996,
                -9.106136726999921
              ],
              [
                -75.88990823499995,
                -9.104960976999905
              ],
              [
                -75.88972461099996,
                -9.104373101999954
              ],
              [
                -75.88639060999998,
                -9.102646477999883
              ],
              [
                -75.88450586099998,
                -9.10003710199993
              ],
              [
                -75.88448236099998,
                -9.099910101999967
              ],
              [
                -75.88446098499992,
                -9.099132852999958
              ],
              [
                -75.88405660999996,
                -9.098609351999926
              ],
              [
                -75.88352923499991,
                -9.097941351999964
              ],
              [
                -75.88277348499992,
                -9.097173851999969
              ],
              [
                -75.88129485999997,
                -9.096626976999858
              ],
              [
                -75.8801659849999,
                -9.096447226999885
              ],
              [
                -75.87953123499989,
                -9.096675726999877
              ],
              [
                -75.87830273599991,
                -9.095494101999975
              ],
              [
                -75.8779297349999,
                -9.095349601999942
              ],
              [
                -75.87602923499992,
                -9.094494101999942
              ],
              [
                -75.87555661,
                -9.094369102999906
              ],
              [
                -75.87496098499992,
                -9.0940547269999
              ],
              [
                -75.87411523599985,
                -9.093460976999893
              ],
              [
                -75.87383198499992,
                -9.092636601999914
              ],
              [
                -75.87328323499992,
                -9.091535101999966
              ],
              [
                -75.87052923499988,
                -9.090331976999835
              ],
              [
                -75.86574610999998,
                -9.09037497699984
              ],
              [
                -75.86086523499989,
                -9.088562476999869
              ],
              [
                -75.85575785999998,
                -9.086687476999884
              ],
              [
                -75.85124223499997,
                -9.083124976999954
              ],
              [
                -75.84816798499998,
                -9.081929726999874
              ],
              [
                -75.84700973499997,
                -9.080322226999954
              ],
              [
                -75.84483785999993,
                -9.078720726999961
              ],
              [
                -75.84100973499994,
                -9.07629297699998
              ],
              [
                -75.83961923606057,
                -9.076540951702952
              ],
              [
                -75.83787356872335,
                -9.0848927066275
              ],
              [
                -75.83422542893089,
                -9.086296938364455
              ],
              [
                -75.83086276765107,
                -9.08971054929259
              ],
              [
                -75.82501722295558,
                -9.090050848482122
              ],
              [
                -75.8218549923875,
                -9.096949644664335
              ],
              [
                -75.82200352878192,
                -9.098802441187217
              ],
              [
                -75.8201298145596,
                -9.100590795011556
              ],
              [
                -75.81946309231546,
                -9.103846690313446
              ],
              [
                -75.81956855520207,
                -9.107866586537625
              ],
              [
                -75.82159886016478,
                -9.111307838909397
              ],
              [
                -75.82093257747096,
                -9.114755169332796
              ],
              [
                -75.82151786660796,
                -9.11800823904764
              ],
              [
                -75.81613869166347,
                -9.124241984129185
              ],
              [
                -75.81441421592871,
                -9.12826598642556
              ],
              [
                -75.8099931533414,
                -9.132391723481021
              ],
              [
                -75.80778527909138,
                -9.135651039415848
              ],
              [
                -75.80663639986994,
                -9.138716556807253
              ],
              [
                -75.80580711880987,
                -9.144333080973524
              ],
              [
                -75.8045880171444,
                -9.14894374594212
              ],
              [
                -75.80245156717564,
                -9.151776091821546
              ],
              [
                -75.80179563347411,
                -9.156909134525222
              ],
              [
                -75.799628438495,
                -9.161731337774654
              ],
              [
                -75.80111105110802,
                -9.164939668009026
              ],
              [
                -75.80094737595692,
                -9.170281071609168
              ],
              [
                -75.79951150812889,
                -9.172274047092401
              ],
              [
                -75.79903187581567,
                -9.177720874614636
              ],
              [
                -75.79580928491276,
                -9.181951947253651
              ],
              [
                -75.79522198217654,
                -9.185515062181821
              ],
              [
                -75.79675101700929,
                -9.190824017070838
              ],
              [
                -75.79567548812105,
                -9.194487586345645
              ],
              [
                -75.79617945020016,
                -9.201549874601028
              ]
            ]
          ]
        ],
        "type": "MultiPolygon"
      },
      "type": "Feature",
      "properties": {
        "PROVINCIA": "LEONCIO PRADO",
        "DISTRITO": "HERMILIO VALDIZAN",
        "name": "HERMILIO VALDIZAN",
        "ID": "090603",
        "DEPARTAMEN": "HUANUCO"
      }
    }
  ]
}
