{
  "type": "FeatureCollection",
  "features": [
    {
      "geometry": {
        "coordinates": [
          [
            [
              [
                -78.94275261299993,
                -7.622670475999939
              ],
              [
                -78.94296248799998,
                -7.620988350999937
              ],
              [
                -78.9414512379999,
                -7.617035975999954
              ],
              [
                -78.9386323629999,
                -7.615902474999928
              ],
              [
                -78.93231873799994,
                -7.612370100999954
              ],
              [
                -78.93049286300004,
                -7.610375850999958
              ],
              [
                -78.91820411299994,
                -7.602693475999899
              ],
              [
                -78.91425761300002,
                -7.6019351
              ],
              [
                -78.91233348799989,
                -7.600179600999923
              ],
              [
                -78.90776348799977,
                -7.598070100999905
              ],
              [
                -78.89713723800003,
                -7.596216350999953
              ],
              [
                -78.89429036299993,
                -7.594958350999946
              ],
              [
                -78.88751173799994,
                -7.594683599999939
              ],
              [
                -78.88597848799992,
                -7.593230474999871
              ],
              [
                -78.88010936299986,
                -7.59263085099991
              ],
              [
                -78.87395173799996,
                -7.592996725999967
              ],
              [
                -78.872057988,
                -7.592221350999978
              ],
              [
                -78.86305861299985,
                -7.594753850999894
              ],
              [
                -78.85781273799995,
                -7.594922475999965
              ],
              [
                -78.85634961199986,
                -7.593925350999882
              ],
              [
                -78.85247461299991,
                -7.593328099999951
              ],
              [
                -78.84760386300002,
                -7.589752975999943
              ],
              [
                -78.84457648799992,
                -7.588968725999962
              ],
              [
                -78.83945411299993,
                -7.589958850999892
              ],
              [
                -78.83334636300003,
                -7.587489975999972
              ],
              [
                -78.83155786299983,
                -7.58577372499991
              ],
              [
                -78.83088861299996,
                -7.580140599999936
              ],
              [
                -78.82754686299995,
                -7.578044974999955
              ],
              [
                -78.825810488,
                -7.575874975999966
              ],
              [
                -78.822443863,
                -7.574731100999941
              ],
              [
                -78.81551561299989,
                -7.574667975999944
              ],
              [
                -78.812396488,
                -7.575330100999906
              ],
              [
                -78.80702348699987,
                -7.573755850999987
              ],
              [
                -78.80542773799982,
                -7.577562475999969
              ],
              [
                -78.80446673799997,
                -7.577738224999962
              ],
              [
                -78.80176361199989,
                -7.583990225999969
              ],
              [
                -78.79854298799984,
                -7.586603475999937
              ],
              [
                -78.7979531119999,
                -7.592123100999913
              ],
              [
                -78.79842186300004,
                -7.594167975999824
              ],
              [
                -78.79753711299986,
                -7.597292975999949
              ],
              [
                -78.7946679879999,
                -7.602212850999933
              ],
              [
                -78.79354873799997,
                -7.608631599999967
              ],
              [
                -78.79745248799986,
                -7.615705100999946
              ],
              [
                -78.79681223799992,
                -7.618085975999918
              ],
              [
                -78.79442548799989,
                -7.620196599999986
              ],
              [
                -78.79736698799991,
                -7.624159474999942
              ],
              [
                -78.80106473799987,
                -7.62745285099993
              ],
              [
                -78.80376911299999,
                -7.634106474999953
              ],
              [
                -78.80592411299995,
                -7.636618600999896
              ],
              [
                -78.80817761299988,
                -7.63765297599997
              ],
              [
                -78.81150723799988,
                -7.637846225999965
              ],
              [
                -78.81493823799997,
                -7.639734225999916
              ],
              [
                -78.81907848799989,
                -7.639524600999891
              ],
              [
                -78.82187136199985,
                -7.637726974999964
              ],
              [
                -78.82289348799998,
                -7.635079349999899
              ],
              [
                -78.82502386199997,
                -7.633515350999915
              ],
              [
                -78.83047073800003,
                -7.633062349999932
              ],
              [
                -78.83775698799991,
                -7.637468349999949
              ],
              [
                -78.8416158629999,
                -7.63767835099992
              ],
              [
                -78.84645098800002,
                -7.635965975999909
              ],
              [
                -78.850748738,
                -7.636778725999932
              ],
              [
                -78.85406136299997,
                -7.636655600999916
              ],
              [
                -78.8556991129999,
                -7.637788475999969
              ],
              [
                -78.86137473799988,
                -7.638044975999946
              ],
              [
                -78.86553711299985,
                -7.639354975999936
              ],
              [
                -78.86991623799997,
                -7.63846347599997
              ],
              [
                -78.87500823799985,
                -7.640239099999974
              ],
              [
                -78.88036323799992,
                -7.640486350999822
              ],
              [
                -78.88391173799988,
                -7.6430713499999
              ],
              [
                -78.88932111299982,
                -7.644668725999907
              ],
              [
                -78.89497261299988,
                -7.644757850999952
              ],
              [
                -78.89597923799994,
                -7.645388974999946
              ],
              [
                -78.89749023799999,
                -7.653322225999943
              ],
              [
                -78.89532611300001,
                -7.658103475999951
              ],
              [
                -78.89511498799993,
                -7.663314975999981
              ],
              [
                -78.8956288629999,
                -7.668390599999896
              ],
              [
                -78.89760161299989,
                -7.670638725999936
              ],
              [
                -78.89820698799997,
                -7.674884725999959
              ],
              [
                -78.89951467399999,
                -7.678287868999973
              ],
              [
                -78.90323439999992,
                -7.681072219999976
              ],
              [
                -78.90607861299998,
                -7.684025850999944
              ],
              [
                -78.90886336299991,
                -7.685498350999978
              ],
              [
                -78.91228511299988,
                -7.686081975999969
              ],
              [
                -78.91225673799983,
                -7.69199197599994
              ],
              [
                -78.91047086299994,
                -7.695398350999938
              ],
              [
                -78.91060323799996,
                -7.703073849999896
              ],
              [
                -78.90795286299988,
                -7.707222350999871
              ],
              [
                -78.90786323799983,
                -7.709872850999943
              ],
              [
                -78.911262738,
                -7.713594725999883
              ],
              [
                -78.91437311299995,
                -7.717869100999962
              ],
              [
                -78.91396673799983,
                -7.719510850999939
              ],
              [
                -78.90779486299988,
                -7.722581975999901
              ],
              [
                -78.9031621129999,
                -7.723654350999936
              ],
              [
                -78.89986911300002,
                -7.727445350999972
              ],
              [
                -78.89893361299988,
                -7.73395684999997
              ],
              [
                -78.89730736299998,
                -7.736245975999907
              ],
              [
                -78.89657711300003,
                -7.739201100999935
              ],
              [
                -78.89307048799981,
                -7.748966850999977
              ],
              [
                -78.88786323799997,
                -7.752318350999872
              ],
              [
                -78.88729498799978,
                -7.755105600999912
              ],
              [
                -78.88554686299989,
                -7.758923849999917
              ],
              [
                -78.88658198799993,
                -7.760550725999963
              ],
              [
                -78.8919809869999,
                -7.763790600999926
              ],
              [
                -78.88939848799998,
                -7.768047099999933
              ],
              [
                -78.88985436299987,
                -7.771799225999871
              ],
              [
                -78.88341536199994,
                -7.770454600999926
              ],
              [
                -78.87977011299995,
                -7.770813224999927
              ],
              [
                -78.87315186299992,
                -7.770081100999903
              ],
              [
                -78.86947161299997,
                -7.771132600999977
              ],
              [
                -78.86224411299997,
                -7.774931600999878
              ],
              [
                -78.86111061299988,
                -7.780284850999976
              ],
              [
                -78.86153511299983,
                -7.782933600999911
              ],
              [
                -78.85963161299998,
                -7.788695850999829
              ],
              [
                -78.85640473799998,
                -7.787709850999931
              ],
              [
                -78.85224748799999,
                -7.784657975999949
              ],
              [
                -78.84464923799999,
                -7.783805475999941
              ],
              [
                -78.83867148799999,
                -7.784213975999876
              ],
              [
                -78.8327179879999,
                -7.783746600999962
              ],
              [
                -78.82964798799992,
                -7.785155100999987
              ],
              [
                -78.82705661299991,
                -7.785449600999925
              ],
              [
                -78.82092573799986,
                -7.787300725999955
              ],
              [
                -78.81699423700002,
                -7.793801350999843
              ],
              [
                -78.81677312199992,
                -7.796724077999897
              ],
              [
                -78.82143336299998,
                -7.800138725999886
              ],
              [
                -78.82488086299992,
                -7.803996100999939
              ],
              [
                -78.83059761299995,
                -7.80412309999997
              ],
              [
                -78.8373281119998,
                -7.803613225999868
              ],
              [
                -78.83899486299993,
                -7.804715100999942
              ],
              [
                -78.84391336300001,
                -7.812484350999966
              ],
              [
                -78.84747311299998,
                -7.813360850999914
              ],
              [
                -78.85164798799997,
                -7.817212849999976
              ],
              [
                -78.85430761299983,
                -7.821219100999883
              ],
              [
                -78.85583536299998,
                -7.825281975999872
              ],
              [
                -78.85781586300004,
                -7.826323100999957
              ],
              [
                -78.86141186299994,
                -7.826825350999968
              ],
              [
                -78.86313773799992,
                -7.829230350999978
              ],
              [
                -78.86759473799992,
                -7.831095350999931
              ],
              [
                -78.87242023799985,
                -7.832191600999977
              ],
              [
                -78.874701738,
                -7.832045475999962
              ],
              [
                -78.8809171129999,
                -7.836652225999899
              ],
              [
                -78.88190686299998,
                -7.83966397599994
              ],
              [
                -78.88475398799994,
                -7.841976476000013
              ],
              [
                -78.8857238629999,
                -7.846638975999952
              ],
              [
                -78.88686136300004,
                -7.856039100999908
              ],
              [
                -78.88875386300003,
                -7.85963697599982
              ],
              [
                -78.88943761300004,
                -7.863090100999955
              ],
              [
                -78.88844611299999,
                -7.867124475999901
              ],
              [
                -78.89046336299998,
                -7.86943235099983
              ],
              [
                -78.89306173799986,
                -7.874577975999955
              ],
              [
                -78.89522261300004,
                -7.876667975999965
              ],
              [
                -78.8960192379999,
                -7.879467100999932
              ],
              [
                -78.90017136299997,
                -7.882857225999942
              ],
              [
                -78.90336686299986,
                -7.887382975999969
              ],
              [
                -78.90730811299983,
                -7.886574850999978
              ],
              [
                -78.90949636299996,
                -7.88699747599992
              ],
              [
                -78.91330098799989,
                -7.886189350999928
              ],
              [
                -78.9179692379999,
                -7.887775350999902
              ],
              [
                -78.92167886299995,
                -7.888356600999941
              ],
              [
                -78.92660211299989,
                -7.892664350999951
              ],
              [
                -78.9306642379999,
                -7.893316225999968
              ],
              [
                -78.93504636300003,
                -7.89194972599995
              ],
              [
                -78.94032961300002,
                -7.892493600999956
              ],
              [
                -78.94309898799992,
                -7.892014850999942
              ],
              [
                -78.94470586299991,
                -7.892852600999959
              ],
              [
                -78.94602223800001,
                -7.89630572599998
              ],
              [
                -78.94930836299994,
                -7.898527600999955
              ],
              [
                -78.95362373799986,
                -7.900027600999977
              ],
              [
                -78.95521411300001,
                -7.902845725999896
              ],
              [
                -78.9606004879999,
                -7.901182100999961
              ],
              [
                -78.96319361300004,
                -7.901683975999902
              ],
              [
                -78.96597111299991,
                -7.900964600999885
              ],
              [
                -78.96838011299991,
                -7.898354600999937
              ],
              [
                -78.97423586299993,
                -7.895158975999948
              ],
              [
                -78.975858738,
                -7.893703475999928
              ],
              [
                -78.98151773799998,
                -7.892261850999944
              ],
              [
                -78.98509136299998,
                -7.893494600999873
              ],
              [
                -78.99057111299999,
                -7.900325100999908
              ],
              [
                -78.99189798799989,
                -7.90471785099993
              ],
              [
                -78.99307548799987,
                -7.906382350999877
              ],
              [
                -78.9943568629999,
                -7.910731225999825
              ],
              [
                -78.99680311299994,
                -7.916283725999961
              ],
              [
                -79.00010348799998,
                -7.919564725999919
              ],
              [
                -79.00148198799991,
                -7.926184975999945
              ],
              [
                -79.00152711299984,
                -7.931120225999962
              ],
              [
                -79.00433398799998,
                -7.935780225999906
              ],
              [
                -79.00520123799981,
                -7.940116725999872
              ],
              [
                -79.00690686299987,
                -7.945159725999872
              ],
              [
                -79.00993186299996,
                -7.948554475999913
              ],
              [
                -79.01069423799999,
                -7.951632725999957
              ],
              [
                -79.01004373799998,
                -7.953222850999907
              ],
              [
                -79.01228436299994,
                -7.959703600999944
              ],
              [
                -79.02023361299996,
                -7.961513600999979
              ],
              [
                -79.02558311299998,
                -7.96536522599996
              ],
              [
                -79.02929336299985,
                -7.966280725999866
              ],
              [
                -79.03185486299986,
                -7.968192600999942
              ],
              [
                -79.03680723799982,
                -7.970513725999979
              ],
              [
                -79.0387856129999,
                -7.97576097599989
              ],
              [
                -79.03618361299993,
                -7.98199272599993
              ],
              [
                -79.0399394779999,
                -7.988335263999886
              ],
              [
                -79.07753875499986,
                -7.98478707299995
              ],
              [
                -79.10588798799989,
                -7.98197747599994
              ],
              [
                -79.10499311299992,
                -7.978452475999916
              ],
              [
                -79.10558511299996,
                -7.974689350999881
              ],
              [
                -79.10656148799984,
                -7.973508725999977
              ],
              [
                -79.11009761299994,
                -7.97299560099998
              ],
              [
                -79.11241861299987,
                -7.971026975999905
              ],
              [
                -79.113869238,
                -7.967087475999904
              ],
              [
                -79.11333061300002,
                -7.958391725999945
              ],
              [
                -79.11513861299994,
                -7.955480975999876
              ],
              [
                -79.11544198799993,
                -7.951654850999944
              ],
              [
                -79.11686598799997,
                -7.945990725999877
              ],
              [
                -79.1202034879999,
                -7.943649850999918
              ],
              [
                -79.1225459879999,
                -7.939376350999908
              ],
              [
                -79.12482748799994,
                -7.937414725999872
              ],
              [
                -79.12684048799997,
                -7.937519975999976
              ],
              [
                -79.13015736299997,
                -7.942391600999883
              ],
              [
                -79.13291048799994,
                -7.943379725999932
              ],
              [
                -79.1393697379998,
                -7.941156100999933
              ],
              [
                -79.14427848799994,
                -7.942031600999883
              ],
              [
                -79.149969377,
                -7.943818077999879
              ],
              [
                -79.16755331199988,
                -7.963805124999908
              ],
              [
                -79.17185004299995,
                -7.966180014999964
              ],
              [
                -79.17406004299994,
                -7.968310013999883
              ],
              [
                -79.17848004299992,
                -7.977710014999957
              ],
              [
                -79.18503004299987,
                -7.9816500149999
              ],
              [
                -79.19687004299993,
                -7.986210014999926
              ],
              [
                -79.20183004299992,
                -7.989430014999868
              ],
              [
                -79.20673004299988,
                -7.994960013999957
              ],
              [
                -79.20905046199994,
                -7.9964530069999
              ],
              [
                -79.21079722399998,
                -7.998824273999901
              ],
              [
                -79.21258198799984,
                -7.997597600999939
              ],
              [
                -79.22128711299996,
                -7.989716850999912
              ],
              [
                -79.22783198799988,
                -7.984662101000026
              ],
              [
                -79.23506248800004,
                -7.97981060099994
              ],
              [
                -79.24268748799989,
                -7.974076225999966
              ],
              [
                -79.24605273799989,
                -7.972208975999934
              ],
              [
                -79.25652536399997,
                -7.963988225999969
              ],
              [
                -79.26747648799994,
                -7.956755850999855
              ],
              [
                -79.27373636300001,
                -7.951828100999876
              ],
              [
                -79.27655473799996,
                -7.950238225999954
              ],
              [
                -79.28580661299998,
                -7.943341850999843
              ],
              [
                -79.2871757389999,
                -7.941558600999883
              ],
              [
                -79.29542573799995,
                -7.93558785099998
              ],
              [
                -79.29828323899994,
                -7.932886725999936
              ],
              [
                -79.30729098899997,
                -7.925970725999889
              ],
              [
                -79.308466738,
                -7.924392600999965
              ],
              [
                -79.30901361400004,
                -7.917072225999902
              ],
              [
                -79.30986723799987,
                -7.914054725999904
              ],
              [
                -79.31472661299995,
                -7.908412100999954
              ],
              [
                -79.32994136299993,
                -7.895203100999936
              ],
              [
                -79.34167186399992,
                -7.882634725999935
              ],
              [
                -79.34570311299984,
                -7.879404350999948
              ],
              [
                -79.34847261399989,
                -7.875925725999934
              ],
              [
                -79.35269536399983,
                -7.872208975999968
              ],
              [
                -79.35343548799989,
                -7.870611350999923
              ],
              [
                -79.356851613,
                -7.867451225999957
              ],
              [
                -79.35871873799994,
                -7.864753850999875
              ],
              [
                -79.3643729879999,
                -7.858501975999957
              ],
              [
                -79.36764061399992,
                -7.853179725999951
              ],
              [
                -79.37187698799994,
                -7.848277350999979
              ],
              [
                -79.37574611399998,
                -7.842097600999978
              ],
              [
                -79.37609173799996,
                -7.839447225999947
              ],
              [
                -79.37873436399985,
                -7.833554725999932
              ],
              [
                -79.3789121129999,
                -7.829605475999927
              ],
              [
                -79.38152148899991,
                -7.825472600999944
              ],
              [
                -79.3816697389999,
                -7.817808600999967
              ],
              [
                -79.38293948799998,
                -7.815152350999938
              ],
              [
                -79.38674223799984,
                -7.809789100999978
              ],
              [
                -79.38704486300003,
                -7.806099600999971
              ],
              [
                -79.384703114,
                -7.802410100999964
              ],
              [
                -79.3845038629999,
                -7.799921850999908
              ],
              [
                -79.38712498899991,
                -7.794752100999972
              ],
              [
                -79.39242573799999,
                -7.787808600999938
              ],
              [
                -79.39675973899989,
                -7.783865225999932
              ],
              [
                -79.40772473799984,
                -7.773019475999945
              ],
              [
                -79.41113086399992,
                -7.769126975999939
              ],
              [
                -79.415404238,
                -7.765537100999893
              ],
              [
                -79.42674798899998,
                -7.755322225999919
              ],
              [
                -79.42934761399994,
                -7.753496100999882
              ],
              [
                -79.43356048800001,
                -7.749261725999929
              ],
              [
                -79.43728911299985,
                -7.746400349999874
              ],
              [
                -79.44772461399998,
                -7.736283225999898
              ],
              [
                -79.45241211399997,
                -7.730874974999949
              ],
              [
                -79.46074611299986,
                -7.722703100999979
              ],
              [
                -79.46230661399983,
                -7.72008784999997
              ],
              [
                -79.46545511299996,
                -7.716572225999982
              ],
              [
                -79.4657069889999,
                -7.711933599999952
              ],
              [
                -79.46221873799993,
                -7.70940822599988
              ],
              [
                -79.460556613,
                -7.710179724999932
              ],
              [
                -79.458914113,
                -7.708021475999885
              ],
              [
                -79.45375786399995,
                -7.707650350999927
              ],
              [
                -79.45084373899988,
                -7.705949100999931
              ],
              [
                -79.44661523900004,
                -7.704712850999954
              ],
              [
                -79.44382036299999,
                -7.703119100999913
              ],
              [
                -79.43747661299983,
                -7.697933600999932
              ],
              [
                -79.43528911299995,
                -7.693359350999913
              ],
              [
                -79.43483398800004,
                -7.689296850999938
              ],
              [
                -79.4353144879999,
                -7.679831974999956
              ],
              [
                -79.43682223899987,
                -7.673597600999869
              ],
              [
                -79.443971864,
                -7.657221600999833
              ],
              [
                -79.44909336299992,
                -7.647075225999913
              ],
              [
                -79.45576312199978,
                -7.636639353999954
              ],
              [
                -79.38558667399991,
                -7.597652927999945
              ],
              [
                -79.38186761299994,
                -7.593245475999879
              ],
              [
                -79.37886823799982,
                -7.591004600999895
              ],
              [
                -79.37717886400003,
                -7.586470975999873
              ],
              [
                -79.37409336299999,
                -7.583178600999986
              ],
              [
                -79.37304186299986,
                -7.580213725999954
              ],
              [
                -79.37011136399985,
                -7.575904225999977
              ],
              [
                -79.36985286299989,
                -7.56938835099993
              ],
              [
                -79.36831873899996,
                -7.566233850999936
              ],
              [
                -79.36555548800004,
                -7.564301600999954
              ],
              [
                -79.3610047379999,
                -7.562122725999927
              ],
              [
                -79.3575157389999,
                -7.558840600999929
              ],
              [
                -79.355392864,
                -7.559276224999962
              ],
              [
                -79.352144613,
                -7.562434475999964
              ],
              [
                -79.34950198900003,
                -7.562578100999872
              ],
              [
                -79.34602536399996,
                -7.56827147599995
              ],
              [
                -79.34359761299999,
                -7.570033225999964
              ],
              [
                -79.34202736399993,
                -7.573328100999902
              ],
              [
                -79.34101561299997,
                -7.577320350999912
              ],
              [
                -79.33602148900002,
                -7.582275350999907
              ],
              [
                -79.3323788639999,
                -7.582179725999936
              ],
              [
                -79.33090531599993,
                -7.578714353999885
              ],
              [
                -79.33103440499985,
                -7.576322480999977
              ],
              [
                -79.32920010699996,
                -7.574590494999939
              ],
              [
                -79.32642633199987,
                -7.574450710999884
              ],
              [
                -79.31970033699997,
                -7.577774107999971
              ],
              [
                -79.31836777599995,
                -7.581357492999928
              ],
              [
                -79.3169726029999,
                -7.582536311999945
              ],
              [
                -79.31511298799978,
                -7.581232600999954
              ],
              [
                -79.309925738,
                -7.577567975999898
              ],
              [
                -79.30929548899991,
                -7.575427350999973
              ],
              [
                -79.308444238,
                -7.567111975999921
              ],
              [
                -79.30749061399996,
                -7.563978600999917
              ],
              [
                -79.30679211299991,
                -7.562658349999936
              ],
              [
                -79.3030747379999,
                -7.559057100999951
              ],
              [
                -79.30221223800004,
                -7.557213475999902
              ],
              [
                -79.30192761299992,
                -7.556661100999975
              ],
              [
                -79.30198561399993,
                -7.554439474999981
              ],
              [
                -79.30053361299997,
                -7.550591350999923
              ],
              [
                -79.30037386299989,
                -7.549763600999938
              ],
              [
                -79.29858773799998,
                -7.547861350999881
              ],
              [
                -79.29421311299996,
                -7.548031850999962
              ],
              [
                -79.29213773799984,
                -7.546815975999834
              ],
              [
                -79.29161373900001,
                -7.543923100999905
              ],
              [
                -79.29245223799984,
                -7.539248225999927
              ],
              [
                -79.29226361399986,
                -7.533483349999869
              ],
              [
                -79.29096386299989,
                -7.530611475999933
              ],
              [
                -79.29146698899984,
                -7.528703724999843
              ],
              [
                -79.29366811299991,
                -7.525580099999956
              ],
              [
                -79.29360873799988,
                -7.521406099999979
              ],
              [
                -79.29459686299992,
                -7.51545109999995
              ],
              [
                -79.29606448799984,
                -7.512947349999934
              ],
              [
                -79.29220211400002,
                -7.509881474999816
              ],
              [
                -79.29037686299989,
                -7.509899600999972
              ],
              [
                -79.28746836399989,
                -7.511086100999933
              ],
              [
                -79.2855377379999,
                -7.513118225999904
              ],
              [
                -79.28398811300002,
                -7.514007475999961
              ],
              [
                -79.2810666129999,
                -7.512940474999937
              ],
              [
                -79.2783992389999,
                -7.510755724999854
              ],
              [
                -79.2764177389999,
                -7.510400100999902
              ],
              [
                -79.269050613,
                -7.505827475999922
              ],
              [
                -79.26269961299994,
                -7.504938350999907
              ],
              [
                -79.26165811299984,
                -7.503896726
              ],
              [
                -79.26211536300002,
                -7.502016849999961
              ],
              [
                -79.2637157389999,
                -7.498536475999913
              ],
              [
                -79.26777736399993,
                -7.493403224999952
              ],
              [
                -79.267404,
                -7.488279026999976
              ],
              [
                -79.26365506099995,
                -7.482180912999979
              ],
              [
                -79.25632088499992,
                -7.472070459999941
              ],
              [
                -79.25580396499987,
                -7.470850002999953
              ],
              [
                -79.25513037399992,
                -7.46761525099987
              ],
              [
                -79.25376939300003,
                -7.462672192999889
              ],
              [
                -79.24940333500001,
                -7.461219545999882
              ],
              [
                -79.24514183299993,
                -7.462408351999841
              ],
              [
                -79.24319246699991,
                -7.460792997999931
              ],
              [
                -79.24118788699997,
                -7.458603273999927
              ],
              [
                -79.23906024899998,
                -7.458422559999917
              ],
              [
                -79.23809132600002,
                -7.456179536999969
              ],
              [
                -79.24005555899998,
                -7.454063023999879
              ],
              [
                -79.2408111339999,
                -7.452113934999943
              ],
              [
                -79.24110996499991,
                -7.449301811999931
              ],
              [
                -79.23631661399997,
                -7.447363849999931
              ],
              [
                -79.234872989,
                -7.444593600999951
              ],
              [
                -79.2325939879999,
                -7.442502100999889
              ],
              [
                -79.23019261299999,
                -7.440304225999967
              ],
              [
                -79.22918548799987,
                -7.438039849999939
              ],
              [
                -79.22811673799998,
                -7.43242860099997
              ],
              [
                -79.22674073799993,
                -7.430811849999884
              ],
              [
                -79.22644286299987,
                -7.430704599999956
              ],
              [
                -79.22546598899987,
                -7.428286100999969
              ],
              [
                -79.22387461300002,
                -7.427591224999958
              ],
              [
                -79.219752363,
                -7.428272475999904
              ],
              [
                -79.21437098799993,
                -7.423447475999922
              ],
              [
                -79.2115156139999,
                -7.421472600999948
              ],
              [
                -79.21182498899992,
                -7.418069850999871
              ],
              [
                -79.20818436300004,
                -7.413858225999945
              ],
              [
                -79.20590011299987,
                -7.408147600999939
              ],
              [
                -79.20724036299993,
                -7.401734849999855
              ],
              [
                -79.20287523899987,
                -7.397744975999956
              ],
              [
                -79.19914236299996,
                -7.393418600999837
              ],
              [
                -79.19371723900002,
                -7.390468099999964
              ],
              [
                -79.18734183200002,
                -7.388720331999934
              ],
              [
                -79.18817523800004,
                -7.395412975999932
              ],
              [
                -79.18710823799995,
                -7.397637350999844
              ],
              [
                -79.18162798799995,
                -7.399777849999907
              ],
              [
                -79.17970123799978,
                -7.404714974999933
              ],
              [
                -79.17379461399992,
                -7.409363600999939
              ],
              [
                -79.169588864,
                -7.410664349999877
              ],
              [
                -79.16826011299992,
                -7.413372974999902
              ],
              [
                -79.1650148629999,
                -7.415263849999974
              ],
              [
                -79.16212736299991,
                -7.417972349999957
              ],
              [
                -79.15967436299991,
                -7.423466350999888
              ],
              [
                -79.15903548799997,
                -7.426200475999963
              ],
              [
                -79.15699036299986,
                -7.427835724999909
              ],
              [
                -79.1545614879999,
                -7.43480197599996
              ],
              [
                -79.15476823799986,
                -7.438670225999942
              ],
              [
                -79.15272398799982,
                -7.439820100999953
              ],
              [
                -79.122761739,
                -7.441644475999908
              ],
              [
                -79.11849998799983,
                -7.443470724999941
              ],
              [
                -79.09440623799998,
                -7.457261724999967
              ],
              [
                -79.07147261299986,
                -7.469617224999979
              ],
              [
                -79.0653616579998,
                -7.472703073999867
              ],
              [
                -79.06910773799996,
                -7.479622849999885
              ],
              [
                -79.06877023899983,
                -7.482724350999888
              ],
              [
                -79.07010448799991,
                -7.486798100999977
              ],
              [
                -79.07121361299983,
                -7.496279975999926
              ],
              [
                -79.07155186299997,
                -7.505345725999973
              ],
              [
                -79.06793161299987,
                -7.510376724999958
              ],
              [
                -79.06566373800001,
                -7.512212225999917
              ],
              [
                -79.06535211299996,
                -7.514199224999913
              ],
              [
                -79.06582788599991,
                -7.520982751999952
              ],
              [
                -79.06174398799999,
                -7.523613725999951
              ],
              [
                -79.05961323799988,
                -7.526329974999896
              ],
              [
                -79.05717061299993,
                -7.527330850999931
              ],
              [
                -79.05679623799995,
                -7.529905475999954
              ],
              [
                -79.05933586299983,
                -7.532714725999881
              ],
              [
                -79.06146236299992,
                -7.5387991
              ],
              [
                -79.06111348799993,
                -7.542916850999973
              ],
              [
                -79.05984723799986,
                -7.546675475999905
              ],
              [
                -79.04878011299996,
                -7.553914225999961
              ],
              [
                -79.04515086299989,
                -7.558410725999977
              ],
              [
                -79.03910086299987,
                -7.561201350999909
              ],
              [
                -79.0383336129999,
                -7.568128850999869
              ],
              [
                -79.03871998799991,
                -7.572508850999895
              ],
              [
                -79.04024548799993,
                -7.581611850999934
              ],
              [
                -79.04247886299987,
                -7.584393475999946
              ],
              [
                -79.04371511300002,
                -7.588042725999969
              ],
              [
                -79.04146186299982,
                -7.591891224999927
              ],
              [
                -79.04075398799989,
                -7.595669974999907
              ],
              [
                -79.04123248799988,
                -7.599887475999935
              ],
              [
                -79.03814186299985,
                -7.602768850999951
              ],
              [
                -79.03433311299983,
                -7.603915475999941
              ],
              [
                -79.03325623799992,
                -7.611702475999948
              ],
              [
                -79.0321494879999,
                -7.613536850999935
              ],
              [
                -79.02902386300002,
                -7.615633725999885
              ],
              [
                -79.02955723799994,
                -7.620047475999968
              ],
              [
                -79.02641673799997,
                -7.625451349999878
              ],
              [
                -79.02215923800003,
                -7.628193350999936
              ],
              [
                -79.01859861299994,
                -7.629061975999946
              ],
              [
                -79.0171809879999,
                -7.632127724999918
              ],
              [
                -79.01497623799997,
                -7.633363350999957
              ],
              [
                -79.01423823799985,
                -7.635475725999925
              ],
              [
                -79.00848798799996,
                -7.639625100999979
              ],
              [
                -79.00647911300001,
                -7.645239724999897
              ],
              [
                -79.00438873799999,
                -7.647114600999885
              ],
              [
                -79.0026432379999,
                -7.650131475999899
              ],
              [
                -78.99917311299993,
                -7.653097225999886
              ],
              [
                -78.99540273799988,
                -7.658858975999863
              ],
              [
                -78.99214873799986,
                -7.660949350999886
              ],
              [
                -78.98728398799994,
                -7.659516599999904
              ],
              [
                -78.98003936299989,
                -7.660643099999959
              ],
              [
                -78.97255473799993,
                -7.660281224999949
              ],
              [
                -78.96478473799988,
                -7.65850360099995
              ],
              [
                -78.95992289599997,
                -7.658744894999927
              ],
              [
                -78.95937698799992,
                -7.655587850999837
              ],
              [
                -78.95724223799994,
                -7.652558600999839
              ],
              [
                -78.95419923799989,
                -7.650609350999957
              ],
              [
                -78.9517089879999,
                -7.646537100999979
              ],
              [
                -78.95204686299996,
                -7.643855475999942
              ],
              [
                -78.95069336299991,
                -7.640683600999978
              ],
              [
                -78.94609761299978,
                -7.635636850999958
              ],
              [
                -78.94218748799989,
                -7.627201225999897
              ],
              [
                -78.94275261299993,
                -7.622670475999939
              ]
            ]
          ]
        ],
        "type": "MultiPolygon"
      },
      "type": "Feature",
      "properties": {
        "PROVINCIA": "ASCOPE",
        "name": "ASCOPE",
        "ID": "120800",
        "DEPARTAMEN": "LA LIBERTAD"
      }
    }
  ]
}
