{
  "type": "FeatureCollection",
  "features": [
    {
      "geometry": {
        "coordinates": [
          [
            [
              [
                -78.80376911299999,
                -7.634106474999953
              ],
              [
                -78.80592411299995,
                -7.636618600999896
              ],
              [
                -78.81150723799988,
                -7.637846225999965
              ],
              [
                -78.81493823799997,
                -7.639734225999916
              ],
              [
                -78.81907848799989,
                -7.639524600999891
              ],
              [
                -78.82187136199997,
                -7.637726974999964
              ],
              [
                -78.82289348799998,
                -7.635079349999899
              ],
              [
                -78.82502386199997,
                -7.633515350999971
              ],
              [
                -78.83047073799997,
                -7.633062349999932
              ],
              [
                -78.83775698799991,
                -7.637468349999949
              ],
              [
                -78.8416158629999,
                -7.63767835099992
              ],
              [
                -78.84645098799996,
                -7.635965975999966
              ],
              [
                -78.85074873799982,
                -7.636778725999932
              ],
              [
                -78.85406136299997,
                -7.636655600999916
              ],
              [
                -78.85569911299996,
                -7.637788475999969
              ],
              [
                -78.86137473799988,
                -7.638044975999946
              ],
              [
                -78.86553711299996,
                -7.639354975999936
              ],
              [
                -78.86991623799997,
                -7.63846347599997
              ],
              [
                -78.87500823799996,
                -7.640239099999974
              ],
              [
                -78.88036323799992,
                -7.640486350999822
              ],
              [
                -78.88391173799988,
                -7.6430713499999
              ],
              [
                -78.88932111299982,
                -7.644668725999907
              ],
              [
                -78.89497261299988,
                -7.644757850999952
              ],
              [
                -78.89597923799994,
                -7.645388974999946
              ],
              [
                -78.89749023799999,
                -7.653322225999943
              ],
              [
                -78.8953261129999,
                -7.658103475999951
              ],
              [
                -78.89511498799993,
                -7.663314975999981
              ],
              [
                -78.8956288629999,
                -7.668390599999896
              ],
              [
                -78.89760161299989,
                -7.670638725999936
              ],
              [
                -78.89820698799997,
                -7.674884725999959
              ],
              [
                -78.89951467399999,
                -7.678287868999973
              ],
              [
                -78.90323439999992,
                -7.681072219999976
              ],
              [
                -78.90607861299998,
                -7.684025850999944
              ],
              [
                -78.90886336299991,
                -7.685498350999978
              ],
              [
                -78.91228511299988,
                -7.686081975999969
              ],
              [
                -78.91225673799994,
                -7.69199197599994
              ],
              [
                -78.91047086299994,
                -7.695398350999938
              ],
              [
                -78.91060323799996,
                -7.703073849999896
              ],
              [
                -78.90795286299988,
                -7.707222350999928
              ],
              [
                -78.90786323799995,
                -7.709872850999943
              ],
              [
                -78.91437311299995,
                -7.717869100999962
              ],
              [
                -78.91396673799994,
                -7.719510850999939
              ],
              [
                -78.90779486299988,
                -7.722581975999901
              ],
              [
                -78.9031621129999,
                -7.723654350999936
              ],
              [
                -78.89986911299991,
                -7.727445350999972
              ],
              [
                -78.89893361299988,
                -7.73395684999997
              ],
              [
                -78.89730736299998,
                -7.736245975999907
              ],
              [
                -78.89657711299998,
                -7.739201100999935
              ],
              [
                -78.89307048799998,
                -7.748966850999977
              ],
              [
                -78.88786323799997,
                -7.752318350999872
              ],
              [
                -78.88554686299989,
                -7.758923849999917
              ],
              [
                -78.88658198799993,
                -7.760550725999963
              ],
              [
                -78.8919809869999,
                -7.763790600999926
              ],
              [
                -78.88939848799998,
                -7.768047099999933
              ],
              [
                -78.88985436299998,
                -7.771799225999871
              ],
              [
                -78.88341536199994,
                -7.770454600999926
              ],
              [
                -78.87977011299995,
                -7.770813224999927
              ],
              [
                -78.87315186299992,
                -7.770081100999903
              ],
              [
                -78.86947161299997,
                -7.771132600999977
              ],
              [
                -78.86224411299997,
                -7.774931600999878
              ],
              [
                -78.86111061299988,
                -7.780284850999976
              ],
              [
                -78.86153511299995,
                -7.782933600999911
              ],
              [
                -78.86039436299995,
                -7.787433850999946
              ],
              [
                -78.85912886299997,
                -7.788857850999932
              ],
              [
                -78.85640473799998,
                -7.787709850999931
              ],
              [
                -78.85224748799999,
                -7.784657975999949
              ],
              [
                -78.84464923799999,
                -7.783805475999941
              ],
              [
                -78.83867148799999,
                -7.784213975999876
              ],
              [
                -78.8327179879999,
                -7.783746600999962
              ],
              [
                -78.82092573799997,
                -7.787300725999955
              ],
              [
                -78.8169942369999,
                -7.793801350999843
              ],
              [
                -78.81677312199992,
                -7.796724077999897
              ],
              [
                -78.82143336299998,
                -7.800138725999886
              ],
              [
                -78.82488086299992,
                -7.803996100999939
              ],
              [
                -78.83059761299995,
                -7.80412309999997
              ],
              [
                -78.83732811199997,
                -7.803613225999868
              ],
              [
                -78.83899486299993,
                -7.804715100999942
              ],
              [
                -78.84391336299996,
                -7.812484350999966
              ],
              [
                -78.84747311299998,
                -7.813360850999914
              ],
              [
                -78.85164798799997,
                -7.817212849999976
              ],
              [
                -78.85430761299995,
                -7.821219100999883
              ],
              [
                -78.85583536299998,
                -7.825281975999872
              ],
              [
                -78.86141186299994,
                -7.826825350999968
              ],
              [
                -78.86313773799992,
                -7.829230350999978
              ],
              [
                -78.86759473799992,
                -7.831095350999931
              ],
              [
                -78.87242023799996,
                -7.832191600999977
              ],
              [
                -78.87470173799989,
                -7.832045475999962
              ],
              [
                -78.8809171129999,
                -7.836652225999899
              ],
              [
                -78.88190686299998,
                -7.83966397599994
              ],
              [
                -78.88475398799994,
                -7.8419764759999
              ],
              [
                -78.8857238629999,
                -7.846638975999952
              ],
              [
                -78.88686136299998,
                -7.856039100999908
              ],
              [
                -78.88875386299998,
                -7.85963697599982
              ],
              [
                -78.88943761299987,
                -7.863090100999955
              ],
              [
                -78.88844611299999,
                -7.867124475999901
              ],
              [
                -78.89046336299998,
                -7.86943235099983
              ],
              [
                -78.89306173799997,
                -7.874577975999955
              ],
              [
                -78.89522261299999,
                -7.876667975999965
              ],
              [
                -78.8960192379999,
                -7.879467100999932
              ],
              [
                -78.90017136299997,
                -7.882857225999942
              ],
              [
                -78.90336686299997,
                -7.887382975999969
              ],
              [
                -78.90730811299994,
                -7.886574850999978
              ],
              [
                -78.90949636299996,
                -7.88699747599992
              ],
              [
                -78.91330098799989,
                -7.886189350999928
              ],
              [
                -78.9179692379999,
                -7.887775350999902
              ],
              [
                -78.92167886299995,
                -7.888356600999941
              ],
              [
                -78.92660211299989,
                -7.892664350999951
              ],
              [
                -78.9306642379999,
                -7.893316225999968
              ],
              [
                -78.93504636299997,
                -7.89194972599995
              ],
              [
                -78.94470586299991,
                -7.892852600999959
              ],
              [
                -78.94602223799995,
                -7.89630572599998
              ],
              [
                -78.94930836299994,
                -7.898527600999955
              ],
              [
                -78.95362373799998,
                -7.900027600999977
              ],
              [
                -78.95521411299984,
                -7.902845725999896
              ],
              [
                -78.9606004879999,
                -7.901182100999961
              ],
              [
                -78.96319361299999,
                -7.901683975999958
              ],
              [
                -78.96597111299991,
                -7.900964600999885
              ],
              [
                -78.96838011299991,
                -7.898354600999937
              ],
              [
                -78.97423586299993,
                -7.895158975999948
              ],
              [
                -78.97585873799994,
                -7.893703475999928
              ],
              [
                -78.98151773799998,
                -7.892261850999944
              ],
              [
                -78.98509136299998,
                -7.893494600999873
              ],
              [
                -78.99057111299999,
                -7.900325100999908
              ],
              [
                -78.99307548799999,
                -7.906382350999877
              ],
              [
                -78.99435686299995,
                -7.910731225999825
              ],
              [
                -78.99680311299994,
                -7.916283725999961
              ],
              [
                -79.00010348799998,
                -7.919564725999919
              ],
              [
                -79.00148198799991,
                -7.926184975999945
              ],
              [
                -79.00152711299984,
                -7.931120225999962
              ],
              [
                -79.00433398799998,
                -7.935780225999906
              ],
              [
                -79.00520123799998,
                -7.940116725999872
              ],
              [
                -79.00690686299998,
                -7.945159725999872
              ],
              [
                -79.00993186299996,
                -7.948554475999913
              ],
              [
                -79.01004373799998,
                -7.953222850999907
              ],
              [
                -79.01228436299994,
                -7.959703600999944
              ],
              [
                -79.02023361299996,
                -7.961513600999979
              ],
              [
                -79.02558311299998,
                -7.96536522599996
              ],
              [
                -79.02929336299997,
                -7.966280725999866
              ],
              [
                -79.03185486299998,
                -7.968192600999942
              ],
              [
                -79.03680723799994,
                -7.970513725999979
              ],
              [
                -79.0387856129999,
                -7.97576097599989
              ],
              [
                -79.03618361299993,
                -7.98199272599993
              ],
              [
                -79.0399394779999,
                -7.988335263999886
              ],
              [
                -79.07753875499998,
                -7.98478707299995
              ],
              [
                -79.10588798799989,
                -7.98197747599994
              ],
              [
                -79.10499311299992,
                -7.978452475999916
              ],
              [
                -79.10656148799995,
                -7.973508725999977
              ],
              [
                -79.11009761299994,
                -7.97299560099998
              ],
              [
                -79.11241861299999,
                -7.971026975999905
              ],
              [
                -79.11386923799984,
                -7.967087475999904
              ],
              [
                -79.11333061299996,
                -7.958391725999945
              ],
              [
                -79.11513861299994,
                -7.955480975999876
              ],
              [
                -79.11544198799993,
                -7.951654850999944
              ],
              [
                -79.11686598799997,
                -7.945990725999877
              ],
              [
                -79.1202034879999,
                -7.943649850999918
              ],
              [
                -79.1225459879999,
                -7.939376350999908
              ],
              [
                -79.12482748799994,
                -7.937414725999872
              ],
              [
                -79.12684048799997,
                -7.937519975999976
              ],
              [
                -79.13015736299997,
                -7.942391600999883
              ],
              [
                -79.13291048799994,
                -7.943379725999932
              ],
              [
                -79.13936973799997,
                -7.941156100999933
              ],
              [
                -79.14427848799994,
                -7.94203160099994
              ],
              [
                -79.14949465399997,
                -7.943685005999896
              ],
              [
                -79.15232361299991,
                -7.939250100999971
              ],
              [
                -79.15398248799994,
                -7.932084850999956
              ],
              [
                -79.15786511299996,
                -7.928661100999932
              ],
              [
                -79.16053398799988,
                -7.922936350999976
              ],
              [
                -79.16308366899989,
                -7.91908558699987
              ],
              [
                -79.16810348699994,
                -7.92246872599992
              ],
              [
                -79.17511827399994,
                -7.925015175999874
              ],
              [
                -79.17491127399995,
                -7.914125949999971
              ],
              [
                -79.17519188999995,
                -7.908289374999924
              ],
              [
                -79.1860554569999,
                -7.904123512999945
              ],
              [
                -79.18925195299988,
                -7.90895898399998
              ],
              [
                -79.19844335899984,
                -7.902378906999843
              ],
              [
                -79.20155664099997,
                -7.900939452999921
              ],
              [
                -79.20003004299991,
                -7.893960014999948
              ],
              [
                -79.20057004299991,
                -7.890150014999904
              ],
              [
                -79.20003004299991,
                -7.88643001399987
              ],
              [
                -79.20049223799998,
                -7.88386722599995
              ],
              [
                -79.19951866799988,
                -7.881723231999899
              ],
              [
                -79.19708004299991,
                -7.87261001499985
              ],
              [
                -79.19545004299988,
                -7.870590013999959
              ],
              [
                -79.19483004299991,
                -7.86702001499998
              ],
              [
                -79.19219004299998,
                -7.859730013999979
              ],
              [
                -79.18706004299997,
                -7.847460014999911
              ],
              [
                -79.18420004299998,
                -7.84407001399984
              ],
              [
                -79.19164004299995,
                -7.840320013999872
              ],
              [
                -79.19444004299999,
                -7.84071001399991
              ],
              [
                -79.19861120699994,
                -7.844062392999831
              ],
              [
                -79.20364494799998,
                -7.841552340999954
              ],
              [
                -79.20695581299992,
                -7.839080089999868
              ],
              [
                -79.19815823799996,
                -7.838798849999876
              ],
              [
                -79.19025773899995,
                -7.836103475999892
              ],
              [
                -79.1787786129999,
                -7.825414475999935
              ],
              [
                -79.17427073799996,
                -7.82039522599996
              ],
              [
                -79.16855436299994,
                -7.811890600999959
              ],
              [
                -79.16336911399998,
                -7.80085159999993
              ],
              [
                -79.1591034889999,
                -7.793400349999956
              ],
              [
                -79.15600586299996,
                -7.789164100999926
              ],
              [
                -79.15155624799996,
                -7.784226446999867
              ],
              [
                -79.14075848799996,
                -7.77248497599993
              ],
              [
                -79.13559348799998,
                -7.761524100999964
              ],
              [
                -79.13227236299991,
                -7.759614100999954
              ],
              [
                -79.12886611299996,
                -7.756560600999876
              ],
              [
                -79.12625686299992,
                -7.75299985099997
              ],
              [
                -79.12132832999998,
                -7.750557754999875
              ],
              [
                -79.11644086299998,
                -7.749358100999928
              ],
              [
                -79.11132798799997,
                -7.745369475999951
              ],
              [
                -79.10680398799985,
                -7.743495725999878
              ],
              [
                -79.10151398899995,
                -7.742191600999888
              ],
              [
                -79.09863948799995,
                -7.742157224999971
              ],
              [
                -79.08965848799983,
                -7.737780475999955
              ],
              [
                -79.08633598799997,
                -7.734042975999898
              ],
              [
                -79.08126648799993,
                -7.733055850999961
              ],
              [
                -79.07521523799994,
                -7.729513100999895
              ],
              [
                -79.07077136299995,
                -7.728362599999912
              ],
              [
                -79.06741361299993,
                -7.728197225999907
              ],
              [
                -79.06184261299995,
                -7.726946725999937
              ],
              [
                -79.05776336299994,
                -7.726591100999883
              ],
              [
                -79.05573698799998,
                -7.724072350999961
              ],
              [
                -79.05140086299991,
                -7.721196599999871
              ],
              [
                -79.04548973799996,
                -7.719162725999979
              ],
              [
                -79.0407651129999,
                -7.718480100999898
              ],
              [
                -79.03751261299993,
                -7.719015475999981
              ],
              [
                -79.03186436299995,
                -7.718961974999957
              ],
              [
                -79.02783773799996,
                -7.721514474999879
              ],
              [
                -79.02443598799994,
                -7.721960100999979
              ],
              [
                -79.01910986299998,
                -7.720484725999938
              ],
              [
                -79.01699498799996,
                -7.72072772599995
              ],
              [
                -79.01241673799996,
                -7.722776475999922
              ],
              [
                -79.00702273799999,
                -7.722162475999937
              ],
              [
                -79.00322161299988,
                -7.722581725999873
              ],
              [
                -79.00066986299998,
                -7.72171497599993
              ],
              [
                -78.99645286299994,
                -7.716956350999965
              ],
              [
                -78.99281761299994,
                -7.715407725999967
              ],
              [
                -78.9937821129999,
                -7.711083600999871
              ],
              [
                -78.9938573629999,
                -7.707433599999945
              ],
              [
                -78.99175586299998,
                -7.701085975999888
              ],
              [
                -78.98970898799996,
                -7.699277350999921
              ],
              [
                -78.98860548799996,
                -7.694958975999953
              ],
              [
                -78.9852148629999,
                -7.691300724999962
              ],
              [
                -78.98197073799997,
                -7.689107475999947
              ],
              [
                -78.97611136299997,
                -7.686646475999964
              ],
              [
                -78.97343748799995,
                -7.686589850999894
              ],
              [
                -78.97167973799992,
                -7.684853475999944
              ],
              [
                -78.96966798799991,
                -7.679050725999957
              ],
              [
                -78.96866598799994,
                -7.678095725999981
              ],
              [
                -78.96633011299997,
                -7.671865225999966
              ],
              [
                -78.96463086299997,
                -7.669081975999973
              ],
              [
                -78.96411911299998,
                -7.666015600999856
              ],
              [
                -78.96231836299995,
                -7.663710975999948
              ],
              [
                -78.95992289599997,
                -7.658744894999927
              ],
              [
                -78.95937698799992,
                -7.655587850999837
              ],
              [
                -78.95724223799994,
                -7.652558600999839
              ],
              [
                -78.95419923799989,
                -7.650609350999957
              ],
              [
                -78.9517089879999,
                -7.646537100999979
              ],
              [
                -78.95204686299996,
                -7.643855475999942
              ],
              [
                -78.95069336299997,
                -7.640683600999978
              ],
              [
                -78.94609761299995,
                -7.635636850999958
              ],
              [
                -78.94218748799989,
                -7.627201225999897
              ],
              [
                -78.94275261299993,
                -7.622670475999939
              ],
              [
                -78.94296248799998,
                -7.620988350999937
              ],
              [
                -78.9414512379999,
                -7.617035975999954
              ],
              [
                -78.93447648799997,
                -7.613780850999888
              ],
              [
                -78.93049286299987,
                -7.610375850999958
              ],
              [
                -78.91820411299994,
                -7.602693475999899
              ],
              [
                -78.9142576129999,
                -7.601935099999878
              ],
              [
                -78.91233348799989,
                -7.600179600999923
              ],
              [
                -78.90776348799994,
                -7.598070100999905
              ],
              [
                -78.89713723799991,
                -7.596216350999953
              ],
              [
                -78.89429036299993,
                -7.594958350999946
              ],
              [
                -78.88751173799994,
                -7.594683599999939
              ],
              [
                -78.88597848799992,
                -7.593230474999871
              ],
              [
                -78.88010936299997,
                -7.59263085099991
              ],
              [
                -78.87395173799996,
                -7.592996725999967
              ],
              [
                -78.87205798799994,
                -7.592221350999978
              ],
              [
                -78.86305861299996,
                -7.594753850999894
              ],
              [
                -78.85781273799995,
                -7.594922475999965
              ],
              [
                -78.85247461299997,
                -7.593328099999951
              ],
              [
                -78.84760386299996,
                -7.589752975999943
              ],
              [
                -78.84457648799992,
                -7.588968725999962
              ],
              [
                -78.83945411299993,
                -7.589958850999892
              ],
              [
                -78.83334636299992,
                -7.587489975999972
              ],
              [
                -78.83155786299994,
                -7.58577372499991
              ],
              [
                -78.83088861299996,
                -7.580140599999936
              ],
              [
                -78.82754686299995,
                -7.578044974999955
              ],
              [
                -78.82581048799995,
                -7.575874975999966
              ],
              [
                -78.822443863,
                -7.574731100999941
              ],
              [
                -78.81551561299989,
                -7.574667975999944
              ],
              [
                -78.81239648799993,
                -7.575330100999906
              ],
              [
                -78.80762886299988,
                -7.57344922499982
              ],
              [
                -78.80446673799997,
                -7.577738224999962
              ],
              [
                -78.80176361199989,
                -7.583990225999969
              ],
              [
                -78.79854298799995,
                -7.586603475999937
              ],
              [
                -78.7979531119999,
                -7.592123100999913
              ],
              [
                -78.79842186299999,
                -7.594167975999824
              ],
              [
                -78.79753711299986,
                -7.597292975999949
              ],
              [
                -78.79466798799996,
                -7.602212850999933
              ],
              [
                -78.79354873799997,
                -7.608631599999967
              ],
              [
                -78.79745248799998,
                -7.615705100999946
              ],
              [
                -78.79681223799992,
                -7.618085975999918
              ],
              [
                -78.79442548799989,
                -7.620196599999872
              ],
              [
                -78.79736698799991,
                -7.624159474999942
              ],
              [
                -78.80106473799998,
                -7.62745285099993
              ],
              [
                -78.80376911299999,
                -7.634106474999953
              ]
            ]
          ]
        ],
        "type": "MultiPolygon"
      },
      "type": "Feature",
      "properties": {
        "PROVINCIA": "ASCOPE",
        "DISTRITO": "CHICAMA",
        "name": "CHICAMA",
        "ID": "120802",
        "DEPARTAMEN": "LA LIBERTAD"
      }
    }
  ]
}
