{
  "type": "FeatureCollection",
  "features": [
    {
      "geometry": {
        "coordinates": [
          [
            [
              [
                -70.66917997999991,
                -16.01377998299995
              ],
              [
                -70.66857998099994,
                -16.01788010899992
              ],
              [
                -70.66603997999994,
                -16.019929983999873
              ],
              [
                -70.6671099809999,
                -16.021549982999886
              ],
              [
                -70.66702997999994,
                -16.025619983999945
              ],
              [
                -70.66538997999987,
                -16.03221998399988
              ],
              [
                -70.66415985599997,
                -16.03430998399989
              ],
              [
                -70.66095997999997,
                -16.03452998399996
              ],
              [
                -70.65763997999989,
                -16.035839982999903
              ],
              [
                -70.65598997999996,
                -16.039089982999883
              ],
              [
                -70.65656997999992,
                -16.041949983999928
              ],
              [
                -70.65608997999988,
                -16.047990108999898
              ],
              [
                -70.65763997999989,
                -16.051099983999904
              ],
              [
                -70.65980998099985,
                -16.051999983999963
              ],
              [
                -70.6598698549999,
                -16.057999983999878
              ],
              [
                -70.65865997999998,
                -16.06102998299997
              ],
              [
                -70.66018998099992,
                -16.066199982999876
              ],
              [
                -70.66201997999991,
                -16.06735998399995
              ],
              [
                -70.66523998099996,
                -16.072469982999962
              ],
              [
                -70.6658499799999,
                -16.07547998299998
              ],
              [
                -70.66776997999995,
                -16.078279983999835
              ],
              [
                -70.6680999809999,
                -16.081189983999934
              ],
              [
                -70.66990997999994,
                -16.08245010899998
              ],
              [
                -70.67147997999996,
                -16.090169983999942
              ],
              [
                -70.67486997999998,
                -16.097669982999946
              ],
              [
                -70.67641997999988,
                -16.10309010899988
              ],
              [
                -70.67391997999988,
                -16.107599983999876
              ],
              [
                -70.67364985599994,
                -16.11246998299987
              ],
              [
                -70.67083997999998,
                -16.11384998399984
              ],
              [
                -70.66938010599995,
                -16.11707998399993
              ],
              [
                -70.67000997999986,
                -16.12450998399987
              ],
              [
                -70.6694201059999,
                -16.12714985899993
              ],
              [
                -70.67032998099995,
                -16.12952998299994
              ],
              [
                -70.6703099799999,
                -16.133779983999943
              ],
              [
                -70.66354997999997,
                -16.14090998399996
              ],
              [
                -70.66456997999995,
                -16.14456998299994
              ],
              [
                -70.66223997999998,
                -16.146339983999894
              ],
              [
                -70.65940997999996,
                -16.15142998399989
              ],
              [
                -70.66120997999997,
                -16.156749983999873
              ],
              [
                -70.66380997999988,
                -16.159829983999884
              ],
              [
                -70.66205997999992,
                -16.167079983999884
              ],
              [
                -70.66332985599996,
                -16.16996998399992
              ],
              [
                -70.66678985499988,
                -16.17230998399998
              ],
              [
                -70.67126997999992,
                -16.178479983999978
              ],
              [
                -70.68141985499994,
                -16.185709858999928
              ],
              [
                -70.68327997999995,
                -16.19136998399989
              ],
              [
                -70.68664010599997,
                -16.195679982999877
              ],
              [
                -70.68760998099992,
                -16.19976998399983
              ],
              [
                -70.69123997999998,
                -16.20177998399987
              ],
              [
                -70.69156997999994,
                -16.2037998589999
              ],
              [
                -70.69616997999992,
                -16.207139982999877
              ],
              [
                -70.69755997999994,
                -16.208899982999924
              ],
              [
                -70.70206998099997,
                -16.210499983999966
              ],
              [
                -70.70656997999998,
                -16.21458998399993
              ],
              [
                -70.70943997999996,
                -16.215519983999855
              ],
              [
                -70.71064998099996,
                -16.21749998399997
              ],
              [
                -70.71648998099988,
                -16.218769982999902
              ],
              [
                -70.72027997999999,
                -16.218530107999868
              ],
              [
                -70.72427997999989,
                -16.223009982999884
              ],
              [
                -70.72505997999997,
                -16.226629983999942
              ],
              [
                -70.72725997999999,
                -16.228819983999927
              ],
              [
                -70.72830998099994,
                -16.233749982999882
              ],
              [
                -70.73026997999989,
                -16.236049983999976
              ],
              [
                -70.73049997999993,
                -16.23820998399998
              ],
              [
                -70.72909998099993,
                -16.2402499829999
              ],
              [
                -70.73173997999993,
                -16.245689982999977
              ],
              [
                -70.73092997999998,
                -16.25426998399996
              ],
              [
                -70.73379998099995,
                -16.254949982999847
              ],
              [
                -70.74020997999997,
                -16.25983010799996
              ],
              [
                -70.7455299799999,
                -16.260829983999884
              ],
              [
                -70.74905997999991,
                -16.26496985899996
              ],
              [
                -70.74750997999996,
                -16.267119982999873
              ],
              [
                -70.7522799809999,
                -16.27454998399992
              ],
              [
                -70.75204998099997,
                -16.28016998399994
              ],
              [
                -70.74976960499993,
                -16.283035733999952
              ],
              [
                -70.74800335499998,
                -16.29013035899993
              ],
              [
                -70.74648222999997,
                -16.292540983999913
              ],
              [
                -70.74540910599995,
                -16.298632482999892
              ],
              [
                -70.74587073099991,
                -16.30138348299994
              ],
              [
                -70.74436722999997,
                -16.30431410899996
              ],
              [
                -70.7442142299999,
                -16.30806010899994
              ],
              [
                -70.74197173099992,
                -16.310200608999935
              ],
              [
                -70.74245597999993,
                -16.316265608999913
              ],
              [
                -70.7403153549999,
                -16.3195018589999
              ],
              [
                -70.74136022999994,
                -16.324292733999926
              ],
              [
                -70.74107985499995,
                -16.32684098399983
              ],
              [
                -70.73949998099994,
                -16.328726733999872
              ],
              [
                -70.73914322999991,
                -16.333542983999962
              ],
              [
                -70.73802198099997,
                -16.335530733999917
              ],
              [
                -70.73611073099994,
                -16.345927733999872
              ],
              [
                -70.73799647999988,
                -16.349291482999945
              ],
              [
                -70.73850998099994,
                -16.352559983999924
              ],
              [
                -70.74048997999995,
                -16.35627998399997
              ],
              [
                -70.73915998099989,
                -16.35712998399987
              ],
              [
                -70.73787997999995,
                -16.358739983999953
              ],
              [
                -70.73767998099999,
                -16.362769983999954
              ],
              [
                -70.73966998099996,
                -16.36526998399995
              ],
              [
                -70.74071997999982,
                -16.36890998399997
              ],
              [
                -70.7399899799999,
                -16.371599983999943
              ],
              [
                -70.74181998099988,
                -16.37567998399993
              ],
              [
                -70.7466499809999,
                -16.37874998399991
              ],
              [
                -70.74878997999997,
                -16.381809983999972
              ],
              [
                -70.75354998099994,
                -16.38675998399998
              ],
              [
                -70.75494335499991,
                -16.38446098399993
              ],
              [
                -70.75868947999999,
                -16.380781233999926
              ],
              [
                -70.76242935499988,
                -16.37868285899998
              ],
              [
                -70.77268398099989,
                -16.37571310899989
              ],
              [
                -70.77416885499991,
                -16.37599148399994
              ],
              [
                -70.77880885499997,
                -16.379285983999864
              ],
              [
                -70.7879498559999,
                -16.379378733999886
              ],
              [
                -70.79175473099997,
                -16.380445982999902
              ],
              [
                -70.79546072999989,
                -16.379235983999877
              ],
              [
                -70.79738673099985,
                -16.37485935899997
              ],
              [
                -70.80006097999996,
                -16.37300498399992
              ],
              [
                -70.80565935599998,
                -16.371787983999866
              ],
              [
                -70.80994323099998,
                -16.37251823399987
              ],
              [
                -70.81089248099988,
                -16.373564858999885
              ],
              [
                -70.81150085499996,
                -16.37833560899992
              ],
              [
                -70.80991885499998,
                -16.38444498399997
              ],
              [
                -70.81164710499996,
                -16.393499608999946
              ],
              [
                -70.81191485599993,
                -16.400631483999916
              ],
              [
                -70.80957810499996,
                -16.407300733999932
              ],
              [
                -70.80729685599994,
                -16.411955108999905
              ],
              [
                -70.80765522999991,
                -16.413264108999954
              ],
              [
                -70.8141784799999,
                -16.413726608999923
              ],
              [
                -70.82547848099989,
                -16.420880858999908
              ],
              [
                -70.82507997999994,
                -16.423999983999977
              ],
              [
                -70.82878272999989,
                -16.42453373399991
              ],
              [
                -70.83077860599991,
                -16.427649233999944
              ],
              [
                -70.8314601049999,
                -16.430424108999944
              ],
              [
                -70.83849460499994,
                -16.437215108999965
              ],
              [
                -70.8418048559999,
                -16.44322710899985
              ],
              [
                -70.84628347999984,
                -16.44707298399993
              ],
              [
                -70.85161410599983,
                -16.44729198399989
              ],
              [
                -70.85957335599988,
                -16.444468608999898
              ],
              [
                -70.86381448099996,
                -16.442034983999974
              ],
              [
                -70.86909572999997,
                -16.437247983999953
              ],
              [
                -70.87298498099995,
                -16.436144108999883
              ],
              [
                -70.87622260599989,
                -16.434206983999957
              ],
              [
                -70.87886135499997,
                -16.434525233999977
              ],
              [
                -70.88496048099995,
                -16.438505108999948
              ],
              [
                -70.89019360499998,
                -16.44040360899993
              ],
              [
                -70.89350397999993,
                -16.440987858999847
              ],
              [
                -70.89545110499995,
                -16.440233233999948
              ],
              [
                -70.89905360499995,
                -16.436046733999945
              ],
              [
                -70.90068435499995,
                -16.431422108999982
              ],
              [
                -70.90114685499987,
                -16.42523960899996
              ],
              [
                -70.9025342299999,
                -16.42226998399991
              ],
              [
                -70.90280198099993,
                -16.41881373399997
              ],
              [
                -70.8999054809999,
                -16.410537983999973
              ],
              [
                -70.90053835599997,
                -16.40615673399998
              ],
              [
                -70.90362960599992,
                -16.400241983999933
              ],
              [
                -70.90491960499992,
                -16.394838358999948
              ],
              [
                -70.90543072999992,
                -16.388534233999962
              ],
              [
                -70.90878973099996,
                -16.386100108999926
              ],
              [
                -70.91246510599984,
                -16.38685473399994
              ],
              [
                -70.9139986059999,
                -16.389361733999976
              ],
              [
                -70.91605473099992,
                -16.390177733999906
              ],
              [
                -70.91879360599995,
                -16.395252108999898
              ],
              [
                -70.91940197999986,
                -16.399438733999943
              ],
              [
                -70.92161723099991,
                -16.401191233999896
              ],
              [
                -70.92577935599996,
                -16.397856608999916
              ],
              [
                -70.92634572999998,
                -16.391017483999917
              ],
              [
                -70.93028235599985,
                -16.38831510899996
              ],
              [
                -70.93315448099997,
                -16.38833948399997
              ],
              [
                -70.93729235599994,
                -16.390797858999974
              ],
              [
                -70.94281760599989,
                -16.391065608999895
              ],
              [
                -70.94666348099997,
                -16.38975123399996
              ],
              [
                -70.94907310499991,
                -16.392428733999964
              ],
              [
                -70.9564356059999,
                -16.398425733999943
              ],
              [
                -70.96017185599987,
                -16.39839273399997
              ],
              [
                -70.96382910599988,
                -16.39974023399992
              ],
              [
                -70.96482085599996,
                -16.397590608999963
              ],
              [
                -70.97384648099995,
                -16.39419748399996
              ],
              [
                -70.97539523099994,
                -16.388910233999923
              ],
              [
                -70.97303773099992,
                -16.37730785899987
              ],
              [
                -70.97183985499993,
                -16.374532733999956
              ],
              [
                -70.96960447999999,
                -16.37226485899987
              ],
              [
                -70.96939860499998,
                -16.36960798399997
              ],
              [
                -70.97075647999998,
                -16.36660760899997
              ],
              [
                -70.97557073099989,
                -16.36223798399982
              ],
              [
                -70.97570797999998,
                -16.3594932339999
              ],
              [
                -70.97264097999994,
                -16.354968983999925
              ],
              [
                -70.97276310599995,
                -16.35374835899995
              ],
              [
                -70.97781373099991,
                -16.34880448399997
              ],
              [
                -70.97947698099989,
                -16.343357108999896
              ],
              [
                -70.98001098099991,
                -16.33179860899986
              ],
              [
                -70.98226922999999,
                -16.32827760899994
              ],
              [
                -70.98513035599996,
                -16.325393858999973
              ],
              [
                -70.98635860499996,
                -16.320190483999966
              ],
              [
                -70.98506923099995,
                -16.317537358999914
              ],
              [
                -70.98503873099997,
                -16.31360048399995
              ],
              [
                -70.98628998099997,
                -16.309946107999906
              ],
              [
                -70.98284148099998,
                -16.309417732999975
              ],
              [
                -70.97897335599998,
                -16.309827858999938
              ],
              [
                -70.97508235599997,
                -16.30849073399986
              ],
              [
                -70.96622472999985,
                -16.308919858999843
              ],
              [
                -70.96125797999986,
                -16.30824648399988
              ],
              [
                -70.95701598099998,
                -16.308402983999883
              ],
              [
                -70.95111848099998,
                -16.309747732999938
              ],
              [
                -70.9462508549999,
                -16.31383510899991
              ],
              [
                -70.94242085599984,
                -16.31388860899989
              ],
              [
                -70.9403532309999,
                -16.31031798399988
              ],
              [
                -70.94040685599998,
                -16.306384983999976
              ],
              [
                -70.93926997999989,
                -16.303228358999945
              ],
              [
                -70.93910985599996,
                -16.298932983999975
              ],
              [
                -70.9209976059999,
                -16.28769498399987
              ],
              [
                -70.91938785599996,
                -16.284589733999894
              ],
              [
                -70.91578673099997,
                -16.282400108999923
              ],
              [
                -70.90853123099987,
                -16.2801189839999
              ],
              [
                -70.90342697999995,
                -16.27761073399995
              ],
              [
                -70.90146635499991,
                -16.277702358999875
              ],
              [
                -70.89371485499998,
                -16.280574858999955
              ],
              [
                -70.88613885599995,
                -16.28527260899989
              ],
              [
                -70.88080598099992,
                -16.284543983999924
              ],
              [
                -70.87648010499987,
                -16.281553233999944
              ],
              [
                -70.87448122999996,
                -16.27502248399992
              ],
              [
                -70.87368772999992,
                -16.27049260899986
              ],
              [
                -70.87200160599997,
                -16.26569748399993
              ],
              [
                -70.86757660499995,
                -16.258640232999824
              ],
              [
                -70.86347197999987,
                -16.25452998399993
              ],
              [
                -70.85846710499999,
                -16.24784085899995
              ],
              [
                -70.85609435599997,
                -16.24367910899997
              ],
              [
                -70.85388185599999,
                -16.241466483999943
              ],
              [
                -70.84640510599996,
                -16.23814773399988
              ],
              [
                -70.84447473099993,
                -16.235877983999956
              ],
              [
                -70.84513860599998,
                -16.232406608999952
              ],
              [
                -70.84766385599994,
                -16.22929948399991
              ],
              [
                -70.85050960599983,
                -16.227981607999936
              ],
              [
                -70.85962672999995,
                -16.225765233999937
              ],
              [
                -70.86219023099994,
                -16.226650233999976
              ],
              [
                -70.8657761049999,
                -16.226270733999968
              ],
              [
                -70.86695860499998,
                -16.224584608999976
              ],
              [
                -70.86653135599994,
                -16.218389482999953
              ],
              [
                -70.85844423099996,
                -16.211223608999887
              ],
              [
                -70.85762773099992,
                -16.208679233999874
              ],
              [
                -70.85524747999989,
                -16.206657357999916
              ],
              [
                -70.85388948099995,
                -16.20248048399992
              ],
              [
                -70.85413360599983,
                -16.192798608999965
              ],
              [
                -70.85735322999994,
                -16.181407983999975
              ],
              [
                -70.85865023099996,
                -16.17822460799988
              ],
              [
                -70.86106873099999,
                -16.17474735899998
              ],
              [
                -70.86609647999995,
                -16.172281108999925
              ],
              [
                -70.87430572999989,
                -16.17103573399993
              ],
              [
                -70.87692260499989,
                -16.169185608999953
              ],
              [
                -70.87859347999995,
                -16.166616483999917
              ],
              [
                -70.87775422999994,
                -16.163766858999963
              ],
              [
                -70.87294010599999,
                -16.160140982999962
              ],
              [
                -70.86782835599996,
                -16.153865858999893
              ],
              [
                -70.86708072999994,
                -16.14845660899988
              ],
              [
                -70.86746973099997,
                -16.146694108999895
              ],
              [
                -70.87193297999994,
                -16.142879482999945
              ],
              [
                -70.87123873099989,
                -16.134807608999893
              ],
              [
                -70.86795047999988,
                -16.130626733999975
              ],
              [
                -70.86820998099995,
                -16.126918858999886
              ],
              [
                -70.87573248099983,
                -16.12467198299987
              ],
              [
                -70.88613122999993,
                -16.118141233999893
              ],
              [
                -70.88834397999995,
                -16.115346858999885
              ],
              [
                -70.88919072999994,
                -16.111957607999955
              ],
              [
                -70.89086148099989,
                -16.109786983999925
              ],
              [
                -70.89537047999994,
                -16.107004107999956
              ],
              [
                -70.89376073099999,
                -16.102830858999937
              ],
              [
                -70.89036560599999,
                -16.100437108999927
              ],
              [
                -70.88729860599989,
                -16.09930223399988
              ],
              [
                -70.88548273099991,
                -16.10091785899982
              ],
              [
                -70.88272860599994,
                -16.099786732999917
              ],
              [
                -70.87987523099986,
                -16.097225232999904
              ],
              [
                -70.87506098099993,
                -16.09457773399987
              ],
              [
                -70.87473298099991,
                -16.091812107999942
              ],
              [
                -70.87742610599997,
                -16.085920358999886
              ],
              [
                -70.87810510499992,
                -16.081443733999947
              ],
              [
                -70.87075047999991,
                -16.081375107999975
              ],
              [
                -70.86680597999992,
                -16.0800819829999
              ],
              [
                -70.86585235599989,
                -16.078586607999966
              ],
              [
                -70.86531073099997,
                -16.07395935799991
              ],
              [
                -70.86605835599988,
                -16.070898107999938
              ],
              [
                -70.86449435599991,
                -16.06715585799992
              ],
              [
                -70.86032110499991,
                -16.061744732999955
              ],
              [
                -70.85905460599986,
                -16.058921857999962
              ],
              [
                -70.85673522999997,
                -16.056337357999894
              ],
              [
                -70.84952548099994,
                -16.055112857999916
              ],
              [
                -70.84714510499998,
                -16.05552098299995
              ],
              [
                -70.8389816049999,
                -16.05511285899985
              ],
              [
                -70.83435060499988,
                -16.05572510899998
              ],
              [
                -70.83271798099997,
                -16.055112857999916
              ],
              [
                -70.82372297999996,
                -16.056035982999845
              ],
              [
                -70.81983185499996,
                -16.054868733999967
              ],
              [
                -70.81256860499991,
                -16.053960857999982
              ],
              [
                -70.80654910599998,
                -16.055589732999977
              ],
              [
                -70.80451197999997,
                -16.055133982999905
              ],
              [
                -70.80503085599992,
                -16.050491358999977
              ],
              [
                -70.80664823099983,
                -16.042297358999974
              ],
              [
                -70.80985260499983,
                -16.03849985799991
              ],
              [
                -70.81546785499984,
                -16.035587357999873
              ],
              [
                -70.82012172999998,
                -16.031614357999956
              ],
              [
                -70.82097622999999,
                -16.028676983999958
              ],
              [
                -70.81899260599988,
                -16.02341273299993
              ],
              [
                -70.81600185599996,
                -16.020557483999937
              ],
              [
                -70.81437685599997,
                -16.016780857999947
              ],
              [
                -70.8140258549999,
                -16.00976748399995
              ],
              [
                -70.81655885499987,
                -16.002756108999904
              ],
              [
                -70.81900785499988,
                -16.001371358999904
              ],
              [
                -70.82619472999983,
                -16.000566482999943
              ],
              [
                -70.8286056049999,
                -15.999205607999954
              ],
              [
                -70.82910160499989,
                -15.995490107999956
              ],
              [
                -70.82752985499997,
                -15.989150107999933
              ],
              [
                -70.8253938549999,
                -15.986337732999914
              ],
              [
                -70.82340235499998,
                -15.98215198299988
              ],
              [
                -70.82019810599996,
                -15.978467983999906
              ],
              [
                -70.81711873099994,
                -15.9805527339999
              ],
              [
                -70.8111741049999,
                -15.986676108999859
              ],
              [
                -70.8075091049999,
                -15.988016982999966
              ],
              [
                -70.8042909809999,
                -15.984664732999875
              ],
              [
                -70.8036307299999,
                -15.978424733999873
              ],
              [
                -70.80179135599997,
                -15.976103732999945
              ],
              [
                -70.79996960499994,
                -15.975963608999905
              ],
              [
                -70.79661785499991,
                -15.978530483999918
              ],
              [
                -70.79369798099998,
                -15.983279233999895
              ],
              [
                -70.7932062299999,
                -15.986094983999976
              ],
              [
                -70.79570922999994,
                -15.989581358999885
              ],
              [
                -70.79535172999994,
                -15.992397233999895
              ],
              [
                -70.7897199809999,
                -15.99650923299987
              ],
              [
                -70.78654685499998,
                -16.00163673299994
              ],
              [
                -70.78159760599993,
                -16.004915983999922
              ],
              [
                -70.77960997999998,
                -16.006959983999934
              ],
              [
                -70.77809998099991,
                -16.01124998399996
              ],
              [
                -70.77446010599994,
                -16.013829983999926
              ],
              [
                -70.77070997999988,
                -16.013079983999944
              ],
              [
                -70.7690599799999,
                -16.014339857999914
              ],
              [
                -70.76863997999993,
                -16.01679998399993
              ],
              [
                -70.76514997999993,
                -16.017729983999857
              ],
              [
                -70.76086997999994,
                -16.016569983999887
              ],
              [
                -70.75639648099997,
                -16.01351948399997
              ],
              [
                -70.75105998099997,
                -16.01595998299996
              ],
              [
                -70.74155997999998,
                -16.01605985799995
              ],
              [
                -70.7400566049999,
                -16.017781232999937
              ],
              [
                -70.73596998099998,
                -16.020159983999918
              ],
              [
                -70.73300997999996,
                -16.024219357999982
              ],
              [
                -70.72858998099991,
                -16.031409983999936
              ],
              [
                -70.72435997999986,
                -16.03366998399997
              ],
              [
                -70.71843997999997,
                -16.034049983999978
              ],
              [
                -70.7144999809999,
                -16.031711108999957
              ],
              [
                -70.7127499799999,
                -16.03344998299997
              ],
              [
                -70.70857035599994,
                -16.031986358999916
              ],
              [
                -70.70540235499993,
                -16.031757857999935
              ],
              [
                -70.70129997999993,
                -16.028449983999963
              ],
              [
                -70.69888285499997,
                -16.028718858999923
              ],
              [
                -70.69600385599995,
                -16.027447233999965
              ],
              [
                -70.69211910499996,
                -16.0229531089999
              ],
              [
                -70.68638285599991,
                -16.02059185899992
              ],
              [
                -70.68293560599994,
                -16.0212871089999
              ],
              [
                -70.68112685599988,
                -16.02015823399995
              ],
              [
                -70.67922847999984,
                -16.016816357999915
              ],
              [
                -70.67491210599991,
                -16.015271482999935
              ],
              [
                -70.67311910599989,
                -16.012021483999945
              ],
              [
                -70.66917997999991,
                -16.01377998299995
              ]
            ]
          ]
        ],
        "type": "MultiPolygon"
      },
      "type": "Feature",
      "properties": {
        "PROVINCIA": "GENERAL SANCHEZ CERRO",
        "DISTRITO": "UBINAS",
        "name": "UBINAS",
        "ID": "170210",
        "DEPARTAMEN": "MOQUEGUA"
      }
    }
  ]
}
