{
  "type": "FeatureCollection",
  "features": [
    {
      "geometry": {
        "coordinates": [
          [
            [
              [
                -79.58603711399996,
                -5.195415972999967
              ],
              [
                -79.58240423899991,
                -5.194414097999925
              ],
              [
                -79.580544864,
                -5.193021472999817
              ],
              [
                -79.573914114,
                -5.193806597999924
              ],
              [
                -79.57157811399998,
                -5.193763722999961
              ],
              [
                -79.56687111399987,
                -5.190775347999931
              ],
              [
                -79.56214648899993,
                -5.191951222999876
              ],
              [
                -79.55982423899991,
                -5.193251972999974
              ],
              [
                -79.55949798899991,
                -5.196087847999877
              ],
              [
                -79.55736136399997,
                -5.200037097999939
              ],
              [
                -79.5561933639998,
                -5.205523472999971
              ],
              [
                -79.55562498899991,
                -5.208882847999973
              ],
              [
                -79.55629486399994,
                -5.212255847999927
              ],
              [
                -79.55591986399997,
                -5.220435597999938
              ],
              [
                -79.55769723899988,
                -5.22499997299991
              ],
              [
                -79.55790236399997,
                -5.230128848999925
              ],
              [
                -79.55722073899989,
                -5.232048848999966
              ],
              [
                -79.56069536399997,
                -5.235011723999889
              ],
              [
                -79.56142386399995,
                -5.239140598999938
              ],
              [
                -79.56091986399997,
                -5.242027348999841
              ],
              [
                -79.56063861399997,
                -5.242914098999961
              ],
              [
                -79.5614492389999,
                -5.249380848999976
              ],
              [
                -79.5614374889999,
                -5.253099598999938
              ],
              [
                -79.56237298899993,
                -5.256749973999888
              ],
              [
                -79.56464061399998,
                -5.26026947399987
              ],
              [
                -79.56735161399996,
                -5.262150348999967
              ],
              [
                -79.56666598899989,
                -5.26501559899998
              ],
              [
                -79.56897836399997,
                -5.268570348999958
              ],
              [
                -79.56934573899991,
                -5.271496098999876
              ],
              [
                -79.56944136399994,
                -5.273169973999927
              ],
              [
                -79.57111323899994,
                -5.27628322399994
              ],
              [
                -79.57153123899991,
                -5.279671848999897
              ],
              [
                -79.5712069889999,
                -5.281115223999905
              ],
              [
                -79.56976561399995,
                -5.282091848999869
              ],
              [
                -79.56897836399997,
                -5.28576172399994
              ],
              [
                -79.5681152389999,
                -5.286943348999898
              ],
              [
                -79.56747661399999,
                -5.291193348999911
              ],
              [
                -79.56586523899989,
                -5.2947890989999
              ],
              [
                -79.56391986399996,
                -5.298210973999858
              ],
              [
                -79.56390048899993,
                -5.298408223999957
              ],
              [
                -79.56348048899991,
                -5.301664098999879
              ],
              [
                -79.56268161399998,
                -5.30647659899995
              ],
              [
                -79.56050973899988,
                -5.307187473999818
              ],
              [
                -79.55856248899988,
                -5.30737497399997
              ],
              [
                -79.5566894889999,
                -5.307326223999951
              ],
              [
                -79.55416411399995,
                -5.30768159899992
              ],
              [
                -79.55170111399997,
                -5.308468723999965
              ],
              [
                -79.54954486399998,
                -5.308568348999927
              ],
              [
                -79.54885936399995,
                -5.308986348999952
              ],
              [
                -79.54575386399995,
                -5.314039098999956
              ],
              [
                -79.54290423899988,
                -5.320882848999929
              ],
              [
                -79.54149411399993,
                -5.333101598999974
              ],
              [
                -79.53821098899988,
                -5.33800572399997
              ],
              [
                -79.53846873899988,
                -5.342255848999969
              ],
              [
                -79.54008786399993,
                -5.345896473999915
              ],
              [
                -79.53869536399998,
                -5.354849598999976
              ],
              [
                -79.54175973899999,
                -5.36037497399991
              ],
              [
                -79.5463534889999,
                -5.363220723999916
              ],
              [
                -79.54751936399992,
                -5.364816348999966
              ],
              [
                -79.5480194889999,
                -5.369281223999963
              ],
              [
                -79.55070311399999,
                -5.370634723999956
              ],
              [
                -79.55731836399997,
                -5.370021348999956
              ],
              [
                -79.56228511399996,
                -5.37105859899998
              ],
              [
                -79.56527348899994,
                -5.372478473999934
              ],
              [
                -79.57166011399994,
                -5.377156348999904
              ],
              [
                -79.57799611399997,
                -5.383615223999925
              ],
              [
                -79.58375786399989,
                -5.387634723999952
              ],
              [
                -79.58933598899995,
                -5.389074348999941
              ],
              [
                -79.59502348899997,
                -5.387779348999914
              ],
              [
                -79.59797073899995,
                -5.391095723999968
              ],
              [
                -79.6024198639999,
                -5.39199809899992
              ],
              [
                -79.60939261399989,
                -5.391908098999977
              ],
              [
                -79.61231636399992,
                -5.395281223999973
              ],
              [
                -79.61524023899995,
                -5.396314473999951
              ],
              [
                -79.61708398899998,
                -5.394874848999905
              ],
              [
                -79.62296086399994,
                -5.394878848999895
              ],
              [
                -79.62566023899984,
                -5.402259723999975
              ],
              [
                -79.63253711399994,
                -5.403880723999976
              ],
              [
                -79.63658011399997,
                -5.405650348999927
              ],
              [
                -79.63997073899998,
                -5.408199223999873
              ],
              [
                -79.6426797389999,
                -5.412480473999949
              ],
              [
                -79.64780073899988,
                -5.414740223999956
              ],
              [
                -79.65407036399995,
                -5.41149997399998
              ],
              [
                -79.65827923899991,
                -5.411019473999943
              ],
              [
                -79.66376936399996,
                -5.411789098999918
              ],
              [
                -79.66486136399999,
                -5.411478473999978
              ],
              [
                -79.66678911399998,
                -5.410230473999945
              ],
              [
                -79.67283986399997,
                -5.41256059899996
              ],
              [
                -79.67824998899994,
                -5.410839848999956
              ],
              [
                -79.68118948899996,
                -5.411880848999942
              ],
              [
                -79.68215036399988,
                -5.411060598999939
              ],
              [
                -79.68469923899994,
                -5.412439473999882
              ],
              [
                -79.68666986399984,
                -5.411710973999959
              ],
              [
                -79.69110936399989,
                -5.417279348999955
              ],
              [
                -79.69428123899996,
                -5.417599598999914
              ],
              [
                -79.69751948899994,
                -5.419210973999895
              ],
              [
                -79.70310936399989,
                -5.420630848999963
              ],
              [
                -79.70893948899999,
                -5.419689473999881
              ],
              [
                -79.71347073899994,
                -5.418259723999881
              ],
              [
                -79.71583011399991,
                -5.418330098999945
              ],
              [
                -79.71703911399993,
                -5.418949223999959
              ],
              [
                -79.71966986399991,
                -5.420570348999945
              ],
              [
                -79.72747073899984,
                -5.422689473999981
              ],
              [
                -79.72989061399994,
                -5.422339848999968
              ],
              [
                -79.73525973899984,
                -5.419869098999925
              ],
              [
                -79.74141986399997,
                -5.419869098999925
              ],
              [
                -79.74692186399994,
                -5.422310598999957
              ],
              [
                -79.74824998899999,
                -5.42271097399987
              ],
              [
                -79.75184961399998,
                -5.421660098999951
              ],
              [
                -79.76021098899992,
                -5.425749973999871
              ],
              [
                -79.76238073899992,
                -5.42528909899994
              ],
              [
                -79.76416011399994,
                -5.424519473999965
              ],
              [
                -79.76858986399998,
                -5.425029348999942
              ],
              [
                -79.76730273899994,
                -5.420761723999874
              ],
              [
                -79.76774611399998,
                -5.416328098999941
              ],
              [
                -79.76572261399997,
                -5.411740223999971
              ],
              [
                -79.76500386399994,
                -5.410841848999951
              ],
              [
                -79.76414848899992,
                -5.40949209899992
              ],
              [
                -79.76482423899995,
                -5.403783223999937
              ],
              [
                -79.7640312389999,
                -5.402507848999903
              ],
              [
                -79.75884173899988,
                -5.400097598999878
              ],
              [
                -79.74981636399997,
                -5.393589848999909
              ],
              [
                -79.74605073899988,
                -5.391257848999885
              ],
              [
                -79.74410348899988,
                -5.386460973999931
              ],
              [
                -79.74035736399998,
                -5.380933598999889
              ],
              [
                -79.73713086399994,
                -5.379423848999977
              ],
              [
                -79.73302536399996,
                -5.378980473999945
              ],
              [
                -79.73198636399997,
                -5.377044973999944
              ],
              [
                -79.72830273899996,
                -5.378019473999927
              ],
              [
                -79.72263861399995,
                -5.375851598999873
              ],
              [
                -79.7154413639999,
                -5.375941348999959
              ],
              [
                -79.71084573899998,
                -5.377078098999846
              ],
              [
                -79.70790423899996,
                -5.37959372399996
              ],
              [
                -79.70419923899993,
                -5.384261723999941
              ],
              [
                -79.69803711399999,
                -5.385656223999945
              ],
              [
                -79.68920111399984,
                -5.384021473999951
              ],
              [
                -79.68745311399988,
                -5.382605473999945
              ],
              [
                -79.67632611399995,
                -5.381042973999968
              ],
              [
                -79.67476561399997,
                -5.378074223999931
              ],
              [
                -79.66920698899992,
                -5.373275348999869
              ],
              [
                -79.66740823899994,
                -5.372646473999964
              ],
              [
                -79.66282423899986,
                -5.368953098999953
              ],
              [
                -79.66236136399993,
                -5.367642473999922
              ],
              [
                -79.66096111399997,
                -5.364956973999938
              ],
              [
                -79.66001561399997,
                -5.359769473999904
              ],
              [
                -79.6605214889999,
                -5.353986223999925
              ],
              [
                -79.65988086399994,
                -5.348740223999926
              ],
              [
                -79.65682811399995,
                -5.347960973999932
              ],
              [
                -79.65338086399998,
                -5.343890598999963
              ],
              [
                -79.65151561399995,
                -5.342869223999912
              ],
              [
                -79.64780073899988,
                -5.335464848999948
              ],
              [
                -79.65018548899991,
                -5.335554723999905
              ],
              [
                -79.6551972389999,
                -5.333298848999959
              ],
              [
                -79.66054686399997,
                -5.329234348999933
              ],
              [
                -79.66209573899994,
                -5.324851598999942
              ],
              [
                -79.66808398899991,
                -5.319814473999884
              ],
              [
                -79.66983786399999,
                -5.317431598999917
              ],
              [
                -79.67063861399998,
                -5.312238223999941
              ],
              [
                -79.67064061399998,
                -5.306124973999943
              ],
              [
                -79.67127748899998,
                -5.30272459899993
              ],
              [
                -79.66900198899992,
                -5.299261723999962
              ],
              [
                -79.6686034889999,
                -5.296652348999885
              ],
              [
                -79.67140236399996,
                -5.292017598999905
              ],
              [
                -79.6733007389999,
                -5.287568348999912
              ],
              [
                -79.67743948899994,
                -5.2830253489999
              ],
              [
                -79.68058786399996,
                -5.280462848999889
              ],
              [
                -79.68130661399988,
                -5.278529348999882
              ],
              [
                -79.68250786399989,
                -5.275761723999949
              ],
              [
                -79.68666011399989,
                -5.272187473999963
              ],
              [
                -79.68719723899994,
                -5.265705098999831
              ],
              [
                -79.68910173899997,
                -5.263314473999912
              ],
              [
                -79.69158986399998,
                -5.261710973999925
              ],
              [
                -79.69449611399989,
                -5.258050723999929
              ],
              [
                -79.68905273899998,
                -5.257628848999957
              ],
              [
                -79.68212298899994,
                -5.258048848999977
              ],
              [
                -79.67719923899995,
                -5.256689473999927
              ],
              [
                -79.67438086399983,
                -5.254859348999958
              ],
              [
                -79.6682792389999,
                -5.248359348999941
              ],
              [
                -79.66659961399995,
                -5.245310598999936
              ],
              [
                -79.66314061399999,
                -5.24325972399987
              ],
              [
                -79.65943936399998,
                -5.243859348999933
              ],
              [
                -79.65893948899992,
                -5.24189059899993
              ],
              [
                -79.65668948899992,
                -5.239859348999971
              ],
              [
                -79.65507036399998,
                -5.23539059899997
              ],
              [
                -79.65174023899988,
                -5.232140598999933
              ],
              [
                -79.64994923899991,
                -5.228560598999934
              ],
              [
                -79.64674998899989,
                -5.224759722999863
              ],
              [
                -79.64447073899998,
                -5.223660097999925
              ],
              [
                -79.64359961399998,
                -5.22013084799994
              ],
              [
                -79.64384961399998,
                -5.213490222999894
              ],
              [
                -79.63949023899988,
                -5.21106059799996
              ],
              [
                -79.63949998899989,
                -5.209789097999931
              ],
              [
                -79.63572073899985,
                -5.205269472999873
              ],
              [
                -79.63516986399992,
                -5.202900347999957
              ],
              [
                -79.63075973899998,
                -5.197849597999948
              ],
              [
                -79.62630861399992,
                -5.197001972999828
              ],
              [
                -79.62469923899988,
                -5.195240222999871
              ],
              [
                -79.62358198899994,
                -5.191640597999935
              ],
              [
                -79.62322073899998,
                -5.187339847999908
              ],
              [
                -79.62061911399991,
                -5.181779347999907
              ],
              [
                -79.6158496139999,
                -5.179480472999956
              ],
              [
                -79.61183986399993,
                -5.178589847999888
              ],
              [
                -79.60800973899995,
                -5.174958972999946
              ],
              [
                -79.60572848899994,
                -5.177640597999869
              ],
              [
                -79.60405661399989,
                -5.178664097999899
              ],
              [
                -79.5977363639999,
                -5.182984347999877
              ],
              [
                -79.59749998899997,
                -5.185865097999908
              ],
              [
                -79.59483398899994,
                -5.190417972999967
              ],
              [
                -79.59350198899995,
                -5.191992222999943
              ],
              [
                -79.59178911399988,
                -5.194300722999856
              ],
              [
                -79.58603711399996,
                -5.195415972999967
              ]
            ]
          ]
        ],
        "type": "MultiPolygon"
      },
      "type": "Feature",
      "properties": {
        "PROVINCIA": "HUANCABAMBA",
        "DISTRITO": "CANCHAQUE",
        "name": "CANCHAQUE",
        "ID": "190302",
        "DEPARTAMEN": "PIURA"
      }
    }
  ]
}
