{
  "type": "FeatureCollection",
  "features": [
    {
      "geometry": {
        "coordinates": [
          [
            [
              [
                -79.66051561399996,
                -5.150902347999875
              ],
              [
                -79.6593984889999,
                -5.148613222999927
              ],
              [
                -79.6577519889999,
                -5.146183597999823
              ],
              [
                -79.65230861399994,
                -5.140488097999935
              ],
              [
                -79.64750586399998,
                -5.139119097999981
              ],
              [
                -79.64694723899999,
                -5.136412097999937
              ],
              [
                -79.6471484889999,
                -5.135310597999933
              ],
              [
                -79.64726361399994,
                -5.13237309799996
              ],
              [
                -79.64966011399997,
                -5.129683597999929
              ],
              [
                -79.6549257389999,
                -5.121427722999897
              ],
              [
                -79.65260548899988,
                -5.120896472999902
              ],
              [
                -79.64981636399995,
                -5.11740822299987
              ],
              [
                -79.64524798899998,
                -5.116831972999876
              ],
              [
                -79.64351761399996,
                -5.115728472999876
              ],
              [
                -79.6428729889999,
                -5.108728472999871
              ],
              [
                -79.64220898899998,
                -5.10721684799995
              ],
              [
                -79.63800198899997,
                -5.106921972999885
              ],
              [
                -79.63080661399994,
                -5.103527472999872
              ],
              [
                -79.62323048899998,
                -5.101208972999871
              ],
              [
                -79.61872848899998,
                -5.099220722999974
              ],
              [
                -79.61766998899998,
                -5.102929722999875
              ],
              [
                -79.6172988639999,
                -5.109572222999873
              ],
              [
                -79.61534573899996,
                -5.111712847999968
              ],
              [
                -79.61350973899994,
                -5.114462847999903
              ],
              [
                -79.61325586399994,
                -5.117052722999972
              ],
              [
                -79.61161136399994,
                -5.121257847999971
              ],
              [
                -79.61046286399989,
                -5.123683597999957
              ],
              [
                -79.6080391139999,
                -5.125279347999935
              ],
              [
                -79.60540036399988,
                -5.129869097999915
              ],
              [
                -79.60527923899997,
                -5.131550722999918
              ],
              [
                -79.60272073899995,
                -5.132320347999951
              ],
              [
                -79.59783786399998,
                -5.136341847999972
              ],
              [
                -79.59761911399988,
                -5.138859347999812
              ],
              [
                -79.59849998899995,
                -5.140310597999871
              ],
              [
                -79.59927923899994,
                -5.141580097999963
              ],
              [
                -79.59952923899993,
                -5.146730472999934
              ],
              [
                -79.60111911399991,
                -5.149980472999914
              ],
              [
                -79.60158023899999,
                -5.153658222999923
              ],
              [
                -79.60165036399991,
                -5.154539097999873
              ],
              [
                -79.60381048899995,
                -5.160419972999932
              ],
              [
                -79.60458986399988,
                -5.161330097999894
              ],
              [
                -79.60485936399988,
                -5.162439472999949
              ],
              [
                -79.60496098899995,
                -5.163439472999926
              ],
              [
                -79.60521098899994,
                -5.163609347999966
              ],
              [
                -79.60546098899994,
                -5.165160097999888
              ],
              [
                -79.60468948899995,
                -5.167240222999965
              ],
              [
                -79.60524023899995,
                -5.169960972999945
              ],
              [
                -79.60748048899995,
                -5.17408984799988
              ],
              [
                -79.60800973899995,
                -5.174958972999946
              ],
              [
                -79.61183986399993,
                -5.178589847999888
              ],
              [
                -79.6158496139999,
                -5.179480472999956
              ],
              [
                -79.62061911399991,
                -5.181779347999907
              ],
              [
                -79.62322073899998,
                -5.187339847999908
              ],
              [
                -79.62358198899994,
                -5.191640597999935
              ],
              [
                -79.62469923899988,
                -5.195240222999871
              ],
              [
                -79.62630861399992,
                -5.197001972999828
              ],
              [
                -79.63075973899998,
                -5.197849597999948
              ],
              [
                -79.63516986399992,
                -5.202900347999957
              ],
              [
                -79.63572073899985,
                -5.205269472999873
              ],
              [
                -79.63949998899989,
                -5.209789097999931
              ],
              [
                -79.63949023899988,
                -5.21106059799996
              ],
              [
                -79.64384961399998,
                -5.213490222999894
              ],
              [
                -79.64359961399998,
                -5.22013084799994
              ],
              [
                -79.64447073899998,
                -5.223660097999925
              ],
              [
                -79.64674998899989,
                -5.224759722999863
              ],
              [
                -79.64994923899991,
                -5.228560598999934
              ],
              [
                -79.65174023899988,
                -5.232140598999933
              ],
              [
                -79.65507036399998,
                -5.23539059899997
              ],
              [
                -79.65668948899992,
                -5.239859348999971
              ],
              [
                -79.65893948899992,
                -5.24189059899993
              ],
              [
                -79.65943936399998,
                -5.243859348999933
              ],
              [
                -79.66314061399999,
                -5.24325972399987
              ],
              [
                -79.66659961399995,
                -5.245310598999936
              ],
              [
                -79.6682792389999,
                -5.248359348999941
              ],
              [
                -79.67438086399983,
                -5.254859348999958
              ],
              [
                -79.67719923899995,
                -5.256689473999927
              ],
              [
                -79.68212298899994,
                -5.258048848999977
              ],
              [
                -79.68905273899998,
                -5.257628848999957
              ],
              [
                -79.69449611399989,
                -5.258050723999929
              ],
              [
                -79.69653323899996,
                -5.251396473999932
              ],
              [
                -79.69778711399988,
                -5.248978473999898
              ],
              [
                -79.6981503639999,
                -5.245126973999902
              ],
              [
                -79.70053323899998,
                -5.239037098999972
              ],
              [
                -79.70777348899998,
                -5.226177722999921
              ],
              [
                -79.70951761399994,
                -5.224812472999872
              ],
              [
                -79.71068548899996,
                -5.224132972999939
              ],
              [
                -79.71118748899994,
                -5.221339847999957
              ],
              [
                -79.72003711399992,
                -5.215253847999975
              ],
              [
                -79.71345698899995,
                -5.213724597999942
              ],
              [
                -79.71009761399989,
                -5.210009722999871
              ],
              [
                -79.70310936399989,
                -5.209810597999933
              ],
              [
                -79.70164061399987,
                -5.204880847999959
              ],
              [
                -79.69999023899999,
                -5.203369222999868
              ],
              [
                -79.70164061399987,
                -5.196679722999875
              ],
              [
                -79.7073691139999,
                -5.189917972999979
              ],
              [
                -79.71424023899993,
                -5.187820347999946
              ],
              [
                -79.71885936399991,
                -5.184509722999962
              ],
              [
                -79.72033198899999,
                -5.182089847999919
              ],
              [
                -79.72033198899999,
                -5.177230472999952
              ],
              [
                -79.71758998899998,
                -5.168720722999979
              ],
              [
                -79.71571098899994,
                -5.16639059799985
              ],
              [
                -79.71363086399992,
                -5.161380847999965
              ],
              [
                -79.71257611399989,
                -5.154265597999881
              ],
              [
                -79.71526361399992,
                -5.148529347999954
              ],
              [
                -79.71481636399989,
                -5.145345722999934
              ],
              [
                -79.71298236399991,
                -5.14250784799998
              ],
              [
                -79.71347473899988,
                -5.138812472999916
              ],
              [
                -79.71370111399989,
                -5.137583972999892
              ],
              [
                -79.7132128639999,
                -5.133494097999971
              ],
              [
                -79.71491598899996,
                -5.126632847999929
              ],
              [
                -79.7107128639999,
                -5.123816347999934
              ],
              [
                -79.70730861399988,
                -5.118134722999969
              ],
              [
                -79.70541598899996,
                -5.117007847999957
              ],
              [
                -79.70518548899997,
                -5.114386722999882
              ],
              [
                -79.70325973899998,
                -5.113128847999917
              ],
              [
                -79.70222661399993,
                -5.112904347999972
              ],
              [
                -79.69579298899998,
                -5.108886722999841
              ],
              [
                -79.69049611399998,
                -5.103171847999931
              ],
              [
                -79.68840623899996,
                -5.098164097999927
              ],
              [
                -79.68745698899994,
                -5.097884722999936
              ],
              [
                -79.68315823899997,
                -5.099615222999944
              ],
              [
                -79.68039448899992,
                -5.103636722999966
              ],
              [
                -79.67600973899994,
                -5.107236347999958
              ],
              [
                -79.67362298899991,
                -5.118181597999978
              ],
              [
                -79.67081636399996,
                -5.123820347999981
              ],
              [
                -79.6658242389999,
                -5.124498097999947
              ],
              [
                -79.66319723899989,
                -5.12622259799997
              ],
              [
                -79.66258198899993,
                -5.128316347999942
              ],
              [
                -79.6621542389999,
                -5.138968722999891
              ],
              [
                -79.66249798899992,
                -5.143371097999818
              ],
              [
                -79.6663652389999,
                -5.148798722999913
              ],
              [
                -79.66624023899993,
                -5.150706972999899
              ],
              [
                -79.66433986399994,
                -5.152744097999971
              ],
              [
                -79.66051561399996,
                -5.150902347999875
              ]
            ]
          ]
        ],
        "type": "MultiPolygon"
      },
      "type": "Feature",
      "properties": {
        "PROVINCIA": "HUANCABAMBA",
        "DISTRITO": "LALAQUIZ",
        "name": "LALAQUIZ",
        "ID": "190308",
        "DEPARTAMEN": "PIURA"
      }
    }
  ]
}
