{
  "type": "FeatureCollection",
  "features": [
    {
      "type": "Feature",
      "geometry": {
        "type": "Polygon",
        "coordinates": [
          [
            [
              -77.0279,
              -12.1501
            ],
            [
              -77.1757,
              -12.0709
            ],
            [
              -77.1411,
              -12
            ],
            [
              -77.1856,
              -11.7059
            ],
            [
              -77.0821,
              -11.7135
            ],
            [
              -77.0768,
              -11.8939
            ],
            [
              -76.9774,
              -12.0795
            ],
            [
              -77.0279,
              -12.1501
            ]
          ]
        ]
      },
      "properties": {
        "name": "El Callao",
        "id": "PE-CAL",
        "CNTRY": "Peru",
        "TYPE": "Region"
      },
      "id": "240000"
    }
  ]
}
