{
  "type": "FeatureCollection",
  "features": [
    {
      "geometry": {
        "coordinates": [
          [
            [
              [
                -75.08008998499992,
                -14.569009982999887
              ],
              [
                -75.08512298499988,
                -14.574398481999879
              ],
              [
                -75.08900123399997,
                -14.576660856999922
              ],
              [
                -75.09038473399994,
                -14.581464856999958
              ],
              [
                -75.08977535999998,
                -14.583753856999977
              ],
              [
                -75.0897109849999,
                -14.58915435699987
              ],
              [
                -75.0850103599999,
                -14.593742482999971
              ],
              [
                -75.07994910999997,
                -14.602311356999962
              ],
              [
                -75.08258398499999,
                -14.606523481999943
              ],
              [
                -75.08330648499998,
                -14.608976106999933
              ],
              [
                -75.08989610999993,
                -14.615390231999925
              ],
              [
                -75.09200785899998,
                -14.620613231999982
              ],
              [
                -75.09515773499999,
                -14.623959106999905
              ],
              [
                -75.10174723499995,
                -14.624184606999904
              ],
              [
                -75.10623435899998,
                -14.626287106999882
              ],
              [
                -75.11075198499992,
                -14.62744335699989
              ],
              [
                -75.11605273399994,
                -14.627605481999979
              ],
              [
                -75.11882223499993,
                -14.630564481999954
              ],
              [
                -75.1190118589999,
                -14.633146481999972
              ],
              [
                -75.12172848399996,
                -14.634787106999909
              ],
              [
                -75.12763860899992,
                -14.640164106999919
              ],
              [
                -75.1289511089999,
                -14.642652356999918
              ],
              [
                -75.1326503599999,
                -14.64443360699994
              ],
              [
                -75.13326948499997,
                -14.649972606999938
              ],
              [
                -75.13247660899992,
                -14.653060607999919
              ],
              [
                -75.13351735999998,
                -14.658535481999934
              ],
              [
                -75.13627348499995,
                -14.663425731999894
              ],
              [
                -75.13914260899992,
                -14.666503857999942
              ],
              [
                -75.14200585999993,
                -14.676138731999913
              ],
              [
                -75.14221098399997,
                -14.678841856999952
              ],
              [
                -75.14477360899997,
                -14.678013731999897
              ],
              [
                -75.1522502339999,
                -14.677824731999976
              ],
              [
                -75.15484948499994,
                -14.677018107999857
              ],
              [
                -75.15700048399998,
                -14.672895231999973
              ],
              [
                -75.16766610999997,
                -14.66393248299994
              ],
              [
                -75.16929173499994,
                -14.658784731999958
              ],
              [
                -75.17565035899997,
                -14.653548981999904
              ],
              [
                -75.17707810999997,
                -14.64891010699995
              ],
              [
                -75.18035935899997,
                -14.646052731999873
              ],
              [
                -75.18558398399995,
                -14.636894481999946
              ],
              [
                -75.18777610899997,
                -14.636984731999917
              ],
              [
                -75.19400935999994,
                -14.639622856999893
              ],
              [
                -75.1973749849999,
                -14.639507856999955
              ],
              [
                -75.20119335999982,
                -14.641226606999908
              ],
              [
                -75.20521673499991,
                -14.641466856999955
              ],
              [
                -75.20831248499991,
                -14.642636731999971
              ],
              [
                -75.21109760999997,
                -14.641638731999876
              ],
              [
                -75.2151913589999,
                -14.643703107999897
              ],
              [
                -75.21876760899988,
                -14.646386856999982
              ],
              [
                -75.22640423499996,
                -14.644701231999875
              ],
              [
                -75.22507260999993,
                -14.637372732999893
              ],
              [
                -75.22602735999999,
                -14.63626173199998
              ],
              [
                -75.22667185899991,
                -14.631822231999934
              ],
              [
                -75.22595185999995,
                -14.627932106999936
              ],
              [
                -75.22556048399997,
                -14.621349607999889
              ],
              [
                -75.22630610999994,
                -14.615973857999904
              ],
              [
                -75.22911873499993,
                -14.606443106999961
              ],
              [
                -75.23638285999994,
                -14.594537106999951
              ],
              [
                -75.23919535999994,
                -14.591021481999917
              ],
              [
                -75.24387498399989,
                -14.59051373199992
              ],
              [
                -75.24890423399984,
                -14.588062481999941
              ],
              [
                -75.24863673499982,
                -14.585103481999909
              ],
              [
                -75.25047848399998,
                -14.583427732999894
              ],
              [
                -75.25169335999993,
                -14.580242231999932
              ],
              [
                -75.25026760899993,
                -14.57798635699993
              ],
              [
                -75.25055860999993,
                -14.573105481999903
              ],
              [
                -75.2517617339999,
                -14.566148481999903
              ],
              [
                -75.24789260999995,
                -14.561349606999954
              ],
              [
                -75.24658598499997,
                -14.558021481999845
              ],
              [
                -75.24440223499994,
                -14.55610548199985
              ],
              [
                -75.24260548399997,
                -14.556556606999948
              ],
              [
                -75.23942573399995,
                -14.559488231999978
              ],
              [
                -75.23635348499994,
                -14.559189481999852
              ],
              [
                -75.23183785999998,
                -14.562689481999882
              ],
              [
                -75.22275973499995,
                -14.560210981999887
              ],
              [
                -75.21873435899988,
                -14.555970731999878
              ],
              [
                -75.21705273499992,
                -14.55190235699996
              ],
              [
                -75.21024798399998,
                -14.54445898299997
              ],
              [
                -75.20752535999998,
                -14.544302731999949
              ],
              [
                -75.20492985899989,
                -14.546552731999952
              ],
              [
                -75.20022460999996,
                -14.545341981999854
              ],
              [
                -75.19634760899999,
                -14.54595510699994
              ],
              [
                -75.19232223399996,
                -14.551158232999967
              ],
              [
                -75.18581248499987,
                -14.552429731999894
              ],
              [
                -75.18193748499988,
                -14.551337856999908
              ],
              [
                -75.17935935999998,
                -14.549470731999975
              ],
              [
                -75.17280660899996,
                -14.55015435699994
              ],
              [
                -75.16791598499998,
                -14.545609356999933
              ],
              [
                -75.16537498499997,
                -14.544228481999824
              ],
              [
                -75.15688073499996,
                -14.544390607999901
              ],
              [
                -75.15305273399997,
                -14.543331981999813
              ],
              [
                -75.15059173399999,
                -14.54410160699996
              ],
              [
                -75.14975973399999,
                -14.546628856999916
              ],
              [
                -75.14640235899992,
                -14.548982481999872
              ],
              [
                -75.14443948499996,
                -14.552732481999897
              ],
              [
                -75.1382128599999,
                -14.553339856999969
              ],
              [
                -75.13602735899991,
                -14.550531231999969
              ],
              [
                -75.1318301089999,
                -14.549156231999973
              ],
              [
                -75.12593748499995,
                -14.548515606999956
              ],
              [
                -75.12160348399993,
                -14.546046856999908
              ],
              [
                -75.11505860999989,
                -14.53898435699989
              ],
              [
                -75.11062698499995,
                -14.534929731999966
              ],
              [
                -75.10504685899997,
                -14.534619106999912
              ],
              [
                -75.10195698399997,
                -14.537564481999823
              ],
              [
                -75.09901360899988,
                -14.538820357999896
              ],
              [
                -75.09541585899996,
                -14.537560606999932
              ],
              [
                -75.08951760899998,
                -14.532267606999937
              ],
              [
                -75.08795698499989,
                -14.527863231999959
              ],
              [
                -75.08586310999993,
                -14.531075106999879
              ],
              [
                -75.08207773499998,
                -14.532307606999893
              ],
              [
                -75.07873610999991,
                -14.531647981999924
              ],
              [
                -75.07432873399995,
                -14.5290518569999
              ],
              [
                -75.06909735899995,
                -14.526934356999845
              ],
              [
                -75.06701210999995,
                -14.529600356999879
              ],
              [
                -75.06678710899996,
                -14.5353778569999
              ],
              [
                -75.06764260999995,
                -14.538439481999944
              ],
              [
                -75.0713346099999,
                -14.541050981999888
              ],
              [
                -75.07534185899993,
                -14.548164981999946
              ],
              [
                -75.08067385999993,
                -14.551181606999933
              ],
              [
                -75.07841523399992,
                -14.555919856999935
              ],
              [
                -75.08008998499992,
                -14.569009982999887
              ]
            ]
          ]
        ],
        "type": "MultiPolygon"
      },
      "type": "Feature",
      "properties": {
        "PROVINCIA": "PALPA",
        "DISTRITO": "LLIPATA",
        "name": "LLIPATA",
        "ID": "100502",
        "DEPARTAMEN": "ICA"
      }
    }
  ]
}
